{"type":"FeatureCollection","name":"京都府","features":[{"type":"Feature","properties":{"name":"京都府"},"geometry":{"type":"MultiLineString","coordinates":[[[134.89357611,35.64857695],[134.89357611,35.64857695]],[[134.88487973,35.65066751],[134.88487973,35.65066751]],[[134.88421895,35.65097331],[134.88421895,35.65097331]],[[134.88410859,35.65114292],[134.88410859,35.65114292]],[[134.88399555,35.65129887],[134.88399555,35.65129887]],[[134.88398625,35.65134764],[134.88398625,35.65134764]],[[134.88389472,35.65146559],[134.88389472,35.65146559]],[[134.88382183,35.65164047],[134.88382183,35.65164047]],[[134.88460694,35.65211303],[134.88460694,35.65211303]],[[134.8845,35.65216403],[134.8845,35.65216403]],[[134.88446061,35.65226541],[134.88446061,35.65226541]],[[134.88454053,35.65226697],[134.88454053,35.65226697]],[[134.88452717,35.65229903],[134.88452717,35.65229903]],[[134.88460119,35.65228736],[134.88460119,35.65228736]],[[134.88466258,35.65268633],[134.88466258,35.65268633]],[[134.88471905,35.65277769],[134.88471905,35.65277769]],[[134.88480278,35.65327095],[134.88480278,35.65327095]],[[134.88478486,35.65335075],[134.88478486,35.65335075]],[[134.88478151,35.65350556],[134.88478151,35.65350556]],[[134.88473336,35.65353739],[134.88473336,35.65353739]],[[134.88462309,35.65366867],[134.88462309,35.65366867]],[[134.88457314,35.65376556],[134.88457314,35.65376556]],[[134.88440975,35.65378684],[134.88440975,35.65378684]],[[134.88432538,35.65394333],[134.88432538,35.65394333]],[[134.88432462,35.65411061],[134.88432462,35.65411061]],[[134.88426958,35.65411253],[134.88426958,35.65411253]],[[134.88435058,35.65413339],[134.88435058,35.65413339]],[[134.88428694,35.65420014],[134.88428694,35.65420014]],[[134.88449558,35.65429264],[134.88449558,35.65429264]],[[134.88469589,35.65442989],[134.88469589,35.65442989]],[[134.88466747,35.6544955],[134.88466747,35.6544955]],[[134.88463445,35.65451917],[134.88463445,35.65451917]],[[134.88464956,35.65454536],[134.88464956,35.65454536]],[[134.88470219,35.65487284],[134.88470219,35.65487284]],[[134.88483616,35.65492644],[134.88483616,35.65492644]],[[134.88476367,35.65515364],[134.88476367,35.65515364]],[[134.88483978,35.65509584],[134.88483978,35.65509584]],[[134.88515294,35.65532192],[134.88515294,35.65532192]],[[134.88497244,35.65527597],[134.88497244,35.65527597]],[[134.88240455,35.65581244],[134.88240455,35.65581244]],[[134.88259219,35.65581905],[134.88259219,35.65581905]],[[134.88217783,35.65601736],[134.88217783,35.65601736]],[[134.88246258,35.65598351],[134.88246258,35.65598351]],[[134.88238128,35.65604684],[134.88238128,35.65604684]],[[134.88231764,35.6560102],[134.88231764,35.6560102]],[[134.88157608,35.65608036],[134.88157608,35.65608036]],[[134.88256258,35.65598651],[134.88256258,35.65598651]],[[134.88179392,35.65610692],[134.88179392,35.65610692]],[[134.88245022,35.65610011],[134.88245022,35.65610011]],[[134.88222131,35.65614659],[134.88222131,35.65614659]],[[134.8868525,35.65695028],[134.8868525,35.65695028]],[[134.88376306,35.65706722],[134.88376306,35.65706722]],[[134.88372222,35.65715805],[134.88372222,35.65715805]],[[134.88688528,35.65724584],[134.88688528,35.65724584]],[[134.88673494,35.65731692],[134.88673494,35.65731692]],[[134.88231647,35.65740208],[134.88231647,35.65740208]],[[134.88215601,35.65752823],[134.88215601,35.65752823]],[[134.88692053,35.65797336],[134.88692053,35.65797336]],[[134.86839275,35.65814911],[134.86839275,35.65814911]],[[134.86837616,35.65839295],[134.86837616,35.65839295]],[[134.8682972,35.65839223],[134.8682972,35.65839223]],[[134.86830859,35.65849417],[134.86830859,35.65849417]],[[134.86775275,35.65858611],[134.86775275,35.65858611]],[[134.86838589,35.65857917],[134.86838589,35.65857917]],[[134.88246073,35.65860408],[134.88246073,35.65860408]],[[134.88710083,35.65873611],[134.88710083,35.65873611]],[[134.88751056,35.65891444],[134.88751056,35.65891444]],[[134.88801861,35.65901639],[134.88801861,35.65901639]],[[134.86945375,35.65906356],[134.86945375,35.65906356]],[[134.8817808,35.65908314],[134.8817808,35.65908314]],[[134.88764195,35.65905917],[134.88764195,35.65905917]],[[134.88873805,35.65916833],[134.88873805,35.65916833]],[[134.88092614,35.65918505],[134.88092614,35.65918505]],[[134.86977453,35.65918439],[134.86977453,35.65918439]],[[134.88097333,35.65929861],[134.88097333,35.65929861]],[[134.88129805,35.65952584],[134.88129805,35.65952584]],[[134.87070545,35.65968541],[134.87070545,35.65968541]],[[134.87389361,35.65968417],[134.87389361,35.65968417]],[[134.871533,35.65969228],[134.871533,35.65969228]],[[134.87067348,35.6597292],[134.87067348,35.6597292]],[[134.87214025,35.65978411],[134.87214025,35.65978411]],[[134.8740575,35.65981917],[134.8740575,35.65981917]],[[134.8738325,35.65982944],[134.8738325,35.65982944]],[[134.86964934,35.65994184],[134.86964934,35.65994184]],[[134.86975922,35.65988753],[134.86975922,35.65988753]],[[134.87393416,35.66004972],[134.87393416,35.66004972]],[[134.87146844,35.66032403],[134.87146844,35.66032403]],[[134.87205458,35.66012536],[134.87205458,35.66012536]],[[134.87410805,35.66014805],[134.87410805,35.66014805]],[[134.87414222,35.66025028],[134.87414222,35.66025028]],[[134.8781735,35.66037884],[134.8781735,35.66037884]],[[134.87952056,35.66186305],[134.87952056,35.66186305]],[[134.8792793,35.66210561],[134.8792793,35.66210561]],[[134.87895628,35.66207917],[134.87895628,35.66207917]],[[134.87883883,35.66220939],[134.87883883,35.66220939]],[[134.87890861,35.66240805],[134.87890861,35.66240805]],[[134.87888861,35.66263417],[134.87888861,35.66263417]],[[134.87808278,35.66254111],[134.87808278,35.66254111]],[[134.87893166,35.66297195],[134.87893166,35.66297195]],[[134.87898472,35.66309944],[134.87898472,35.66309944]],[[134.8952827,35.64586811],[134.8952827,35.64586811]],[[134.89547545,35.6460232],[134.89547545,35.6460232]],[[134.89571516,35.64600808],[134.89571516,35.64600808]],[[134.89593639,35.646105],[134.89593639,35.646105]],[[134.90318027,35.64735861],[134.90318027,35.64735861]],[[134.89786278,35.647445],[134.89786278,35.647445]],[[134.89736361,35.64754861],[134.89736361,35.64754861]],[[134.89766778,35.64775472],[134.89766778,35.64775472]],[[134.89794389,35.64768333],[134.89794389,35.64768333]],[[134.89708333,35.64810695],[134.89708333,35.64810695]],[[134.89903722,35.64811111],[134.89903722,35.64811111]],[[134.89890416,35.64875695],[134.89890416,35.64875695]],[[134.89823639,35.64900722],[134.89823639,35.64900722]],[[134.90287,35.6493425],[134.90287,35.6493425]],[[134.90280944,35.64949],[134.90280944,35.64949]],[[134.89454861,35.64991195],[134.89454861,35.64991195]],[[134.89984111,35.64956775],[134.89984111,35.64956775]],[[134.90386056,35.65023722],[134.90386056,35.65023722]],[[134.90141694,35.65080833],[134.90141694,35.65080833]],[[134.90286416,35.65234278],[134.90286416,35.65234278]],[[134.94061027,35.65241195],[134.94061027,35.65241195]],[[134.90291528,35.65252084],[134.90291528,35.65252084]],[[134.90281,35.65267667],[134.90281,35.65267667]],[[134.94367236,35.65394622],[134.94367236,35.65394622]],[[134.90775833,35.65517972],[134.90775833,35.65517972]],[[134.91397917,35.65563611],[134.91397917,35.65563611]],[[134.90141361,35.65791361],[134.90141361,35.65791361]],[[134.96549639,35.67329917],[134.96549639,35.67329917]],[[134.96494297,35.67341995],[134.96494297,35.67341995]],[[134.96227095,35.67287275],[134.96227095,35.67287275]],[[134.96768978,35.67535292],[134.96768978,35.67535292]],[[134.96613497,35.67533839],[134.96613497,35.67533839]],[[134.96656728,35.67558941],[134.96656728,35.67558941]],[[134.96702458,35.67580625],[134.96702458,35.67580625]],[[134.96695572,35.67597286],[134.96695572,35.67597286]],[[134.96687139,35.67601792],[134.96687139,35.67601792]],[[134.97098516,35.67896297],[134.97098516,35.67896297]],[[134.98173462,35.68539369],[134.98173462,35.68539369]],[[134.98172623,35.68594053],[134.98172623,35.68594053]],[[134.98155492,35.68596136],[134.98155492,35.68596136]],[[134.9818915,35.68754808],[134.9818915,35.68754808]],[[134.98221336,35.68755377],[134.98221336,35.68755377]],[[134.9821483,35.68769303],[134.9821483,35.68769303]],[[134.982197,35.68771272],[134.982197,35.68771272]],[[134.98206263,35.6877472],[134.98206263,35.6877472]],[[134.98267433,35.68809],[134.98267433,35.68809]],[[134.98309364,35.68907376],[134.98309364,35.68907376]],[[134.983882,35.68909683],[134.983882,35.68909683]],[[134.98422616,35.69118125],[134.98422616,35.69118125]],[[134.98421654,35.69134866],[134.98421654,35.69134866]],[[134.99982525,35.69153757],[134.99982525,35.69153757]],[[134.98995106,35.69203831],[134.98995106,35.69203831]],[[134.98762691,35.69231891],[134.98762691,35.69231891]],[[135.02883056,35.69273361],[135.02883056,35.69273361]],[[135.01541733,35.69274933],[135.01541733,35.69274933]],[[134.9895831,35.69340994],[134.9895831,35.69340994]],[[135.02980519,35.69358775],[135.02980519,35.69358775]],[[134.9850809,35.69359042],[134.9850809,35.69359042]],[[135.00805027,35.69375444],[135.00805027,35.69375444]],[[135.00231888,35.69399472],[135.00231888,35.69399472]],[[135.01407427,35.69418441],[135.01407427,35.69418441]],[[135.02950278,35.69402611],[135.02950278,35.69402611]],[[135.01338866,35.69441484],[135.01338866,35.69441484]],[[135.00813416,35.69442361],[135.00813416,35.69442361]],[[134.99085357,35.6944874],[134.99085357,35.6944874]],[[134.9956696,35.69485743],[134.9956696,35.69485743]],[[135.01583822,35.69497217],[135.01583822,35.69497217]],[[134.9898478,35.69511787],[134.9898478,35.69511787]],[[135.01224533,35.69511581],[135.01224533,35.69511581]],[[134.99159857,35.69531503],[134.99159857,35.69531503]],[[135.03043805,35.69559695],[135.03043805,35.69559695]],[[135.02967139,35.696905],[135.02967139,35.696905]],[[135.02979722,35.69694777],[135.02979722,35.69694777]],[[135.02935542,35.69694164],[135.02935542,35.69694164]],[[135.02962416,35.69719777],[135.02962416,35.69719777]],[[135.02960361,35.69743861],[135.02960361,35.69743861]],[[135.02969944,35.69783389],[135.02969944,35.69783389]],[[135.03014834,35.69801305],[135.03014834,35.69801305]],[[135.02983834,35.69816556],[135.02983834,35.69816556]],[[135.03066058,35.69827405],[135.03066058,35.69827405]],[[135.03031472,35.69829528],[135.03031472,35.69829528]],[[135.0311153,35.69813341],[135.0311153,35.69813341]],[[135.03062803,35.69836122],[135.03062803,35.69836122]],[[135.03076061,35.69861772],[135.03076061,35.69861772]],[[135.03107364,35.69861025],[135.03107364,35.69861025]],[[135.03112769,35.69865339],[135.03112769,35.69865339]],[[135.03096555,35.69862867],[135.03096555,35.69862867]],[[135.03055044,35.69864569],[135.03055044,35.69864569]],[[135.0311785,35.69872844],[135.0311785,35.69872844]],[[135.03094827,35.69896256],[135.03094827,35.69896256]],[[135.03053584,35.69893861],[135.03053584,35.69893861]],[[135.03203611,35.69895256],[135.03203611,35.69895256]],[[135.03206927,35.69901672],[135.03206927,35.69901672]],[[135.03099167,35.69904],[135.03099167,35.69904]],[[135.03260917,35.69914472],[135.03260917,35.69914472]],[[135.03164125,35.69947944],[135.03164125,35.69947944]],[[135.03263445,35.6995525],[135.03263445,35.6995525]],[[135.03286092,35.69957192],[135.03286092,35.69957192]],[[135.03270645,35.69990039],[135.03270645,35.69990039]],[[135.03351589,35.70171928],[135.03351589,35.70171928]],[[134.87196805,35.57640167],[134.85372667,35.58907972],[134.86535694,35.59901277],[134.87387722,35.62092861],[134.86410112,35.65165833],[134.87009336,35.65980486],[134.88562289,35.65674169],[134.88445005,35.64617069],[134.94218717,35.65203625],[134.96454674,35.66344769],[134.96539997,35.67478875],[134.98574518,35.69278417],[135.02667683,35.68981133],[135.03255674,35.70093975],[135.05333558,35.70420077],[135.08164995,35.72229289],[135.08782983,35.73112911],[135.08462525,35.73935517],[135.12435375,35.74568672],[135.13492319,35.7567905],[135.14625722,35.74978351],[135.18631197,35.7663132],[135.20688511,35.76387517],[135.22201041,35.77186692],[135.22339944,35.77925825],[135.24668861,35.75723639],[135.25515389,35.75899472],[135.25086333,35.75135972],[135.25671083,35.74467972],[135.27460056,35.74274084],[135.27345112,35.73095305],[135.28883389,35.72447389],[135.28597944,35.70531917],[135.30837361,35.69597028],[135.29844861,35.67946167],[135.30338139,35.66293251],[135.28772222,35.6646075],[135.29501111,35.67111833],[135.28739861,35.67582833],[135.26513261,35.66483333],[135.25113438,35.64553517],[135.24462769,35.620446],[135.21401489,35.59795839],[135.18976964,35.566744],[135.19246783,35.54019941],[135.20671158,35.5403968],[135.21091117,35.54969623],[135.20423486,35.55963017],[135.22671139,35.56925111],[135.22827564,35.58576505],[135.23775917,35.58156567],[135.25615236,35.59849789],[135.25629425,35.58824092],[135.24746633,35.58691647],[135.25068934,35.57082605],[135.27484425,35.5601802],[135.25381827,35.55245564],[135.25115886,35.56072603],[135.24246584,35.56021067],[135.23652914,35.55012959],[135.24181659,35.5380668],[135.26910689,35.53349184],[135.27240564,35.52440586],[135.28965783,35.51590969],[135.31065814,35.51230317],[135.32337311,35.52584053],[135.33181842,35.5160178],[135.33208674,35.49517205],[135.32432095,35.49016033],[135.32482302,35.48083977],[135.31677876,35.47959984],[135.32195936,35.47580105],[135.31091415,35.45807079],[135.31671283,35.45115492],[135.33100625,35.46866805],[135.3475053,35.47526486],[135.3489709,35.48167014],[135.34078703,35.47984539],[135.34955283,35.4863942],[135.34744406,35.49445917],[135.36060095,35.48752353],[135.3795038,35.49045761],[135.38268431,35.48472967],[135.37184519,35.47687072],[135.39822073,35.47888544],[135.40086411,35.50048131],[135.39392131,35.49963233],[135.39054283,35.5076898],[135.39509623,35.51687139],[135.38003516,35.50239392],[135.34350047,35.50409769],[135.34974567,35.51918895],[135.33734652,35.52614095],[135.34069467,35.55028472],[135.34820005,35.54293761],[135.37937131,35.56203586],[135.39013297,35.55654717],[135.39855722,35.56666341],[135.40224289,35.56123239],[135.41314834,35.57023195],[135.42678664,35.56651323],[135.42621528,35.58035695],[135.43557222,35.58203667],[135.4341025,35.59080751],[135.46273222,35.60372305],[135.46312,35.59258972],[135.45176083,35.59076667],[135.45610584,35.58477944],[135.44786628,35.57852859],[135.45118219,35.56871572],[135.4650847,35.57120489],[135.47331263,35.5570365],[135.48659964,35.55793633],[135.46048458,35.54845689],[135.44944205,35.52604747],[135.47622455,35.50549275],[135.47620678,35.48944747],[135.45838144,35.46817941],[135.48612064,35.44857303],[135.48821092,35.43913831],[135.49794345,35.43742359],[135.4952762,35.42614969],[135.50204898,35.42003136],[135.52579348,35.42041911],[135.53169594,35.39296664],[135.52758786,35.38011331],[135.57905017,35.37508692],[135.58810239,35.36825747],[135.59573019,35.37292164],[135.64205635,35.36690636],[135.7008837,35.34367778],[135.71838516,35.35541667],[135.73147908,35.35055223],[135.74023523,35.35840944],[135.7687853,35.35601447],[135.76407275,35.34455753],[135.78081852,35.34056197],[135.79113639,35.32352751],[135.80929,35.31643278],[135.82962333,35.27673528],[135.83796445,35.27461639],[135.85843056,35.28922889],[135.85849167,35.27837278],[135.83452611,35.24111917],[135.83805639,35.226105],[135.82930805,35.22034639],[135.84539056,35.16535777],[135.85686056,35.15697195],[135.84876778,35.14218472],[135.84986611,35.12058917],[135.83504611,35.09132695],[135.83985027,35.08586],[135.83189195,35.07145556],[135.8348525,35.05555389],[135.8147575,35.04519972],[135.82737445,35.02213278],[135.83451778,35.02208056],[135.83546416,35.01232861],[135.82023917,35.01519444],[135.83655888,35.00122639],[135.82690472,34.99120389],[135.84926722,34.99173389],[135.85669528,34.98245749],[135.85243778,34.97078889],[135.87874778,34.94704528],[135.87117834,34.90994861],[135.86293361,34.90338723],[135.86663722,34.89214028],[135.89789139,34.87126749],[135.94100694,34.89368333],[135.94635056,34.85163083],[135.96139917,34.85465972],[135.97205445,34.84604889],[135.96986667,34.83777861],[136.00443167,34.84402249],[136.0055,34.82640777],[136.01627333,34.82891139],[136.02834501,34.82008805],[136.01015917,34.79965472],[136.02228888,34.79155528],[136.02260584,34.78231056],[136.0335775,34.77943944],[136.0286,34.75745695],[136.03813917,34.75645139],[136.05547639,34.73855556],[136.04300389,34.73611],[136.02759778,34.70605805],[136.01334472,34.70798805],[136.0093225,34.71661416],[135.98625501,34.715195],[135.98371167,34.73440667],[135.9729275,34.74204416],[135.95855,34.74029916],[135.95492445,34.74828528],[135.94289584,34.73749195],[135.92556917,34.74033944],[135.92511584,34.75773916],[135.89738639,34.73087195],[135.89006639,34.70827889],[135.8761375,34.71387749],[135.84901555,34.70597222],[135.81028445,34.71448972],[135.79915528,34.72311028],[135.75551361,34.72753195],[135.75695639,34.73611583],[135.73320167,34.75487916],[135.72863472,34.77799805],[135.74602472,34.80364249],[135.70772139,34.8492725],[135.69491445,34.84828222],[135.67577,34.89930139],[135.64850222,34.90954749],[135.65351416,34.91728972],[135.64947,34.92513333],[135.63280639,34.93470556],[135.59932167,34.92829167],[135.61870555,34.95813639],[135.61326361,34.97119528],[135.59236472,34.96604028],[135.58255195,34.97675611],[135.57273056,34.97123777],[135.57857778,34.955885],[135.56313139,34.95366389],[135.55732722,34.93468583],[135.5647125,34.94236444],[135.5628,34.93341805],[135.58105333,34.93703583],[135.58125805,34.92245167],[135.54160306,34.91516667],[135.53814584,34.92539972],[135.51727139,34.93347972],[135.51459361,34.94411972],[135.49435501,34.94085472],[135.4811375,34.94973944],[135.48732889,34.9571675],[135.48193639,34.96522972],[135.49091639,34.96802195],[135.48316278,34.98186833],[135.49277722,34.98923805],[135.44018416,35.00769333],[135.42101333,35.00215639],[135.40976722,35.01152556],[135.40324722,35.00669195],[135.38158111,35.01031139],[135.38009611,35.03900361],[135.36872888,35.05488972],[135.37828361,35.06725944],[135.39968639,35.07616333],[135.40434667,35.08885],[135.38802611,35.09712528],[135.39334389,35.11079444],[135.38596555,35.11998584],[135.38981,35.12876528],[135.34247,35.13587389],[135.34045834,35.15009277],[135.28777083,35.14264305],[135.27837611,35.15102305],[135.29196639,35.16049444],[135.28978416,35.17175361],[135.27398501,35.17726278],[135.23218944,35.17750417],[135.22801027,35.16533361],[135.20596195,35.16082084],[135.18686667,35.17316611],[135.18671306,35.19022389],[135.19910389,35.19358195],[135.19705778,35.2030175],[135.15477778,35.22650167],[135.16685834,35.24034472],[135.15725361,35.26123],[135.10877027,35.26628028],[135.06787472,35.23735111],[135.05678917,35.26460278],[135.03747,35.26068861],[135.01085139,35.26958195],[135.01172694,35.28111972],[134.99911667,35.29093833],[134.9247,35.31166],[134.92805027,35.33043917],[134.91714861,35.34029195],[134.92346639,35.35423805],[134.9189275,35.36451472],[134.92717499,35.37955472],[134.92340805,35.3942825],[134.9335675,35.40707028],[134.94614861,35.41330972],[134.95955333,35.40896695],[134.98547833,35.39621361],[134.99108056,35.38563528],[135.01924056,35.39412277],[135.03003445,35.41010028],[135.04916694,35.40774278],[135.05183472,35.44253889],[135.03509888,35.47663084],[135.04270389,35.49226861],[135.03216361,35.49715777],[135.04511333,35.50854333],[135.04355694,35.51810556],[135.03694667,35.53856861],[135.03003167,35.54026777],[134.9931325,35.53420417],[134.96054778,35.51292805],[134.92689861,35.51252751],[134.91512917,35.52770805],[134.91929195,35.53812111],[134.91456861,35.54530861],[134.88105166,35.56403361],[134.87196805,35.57640167]],[[135.03351791,35.70156803],[135.03351791,35.70156803]],[[135.03476917,35.70156917],[135.03476917,35.70156917]],[[135.03924361,35.70159333],[135.03924361,35.70159333]],[[135.03498805,35.70172167],[135.03498805,35.70172167]],[[135.03878112,35.70170944],[135.03878112,35.70170944]],[[135.03858778,35.70178389],[135.03858778,35.70178389]],[[135.03904416,35.70187277],[135.03904416,35.70187277]],[[135.03872584,35.70191251],[135.03872584,35.70191251]],[[135.03384361,35.70187028],[135.03384361,35.70187028]],[[135.03636438,35.70191895],[135.03636438,35.70191895]],[[135.03354073,35.70201323],[135.03354073,35.70201323]],[[135.04490239,35.70200161],[135.04490239,35.70200161]],[[135.04481981,35.70200472],[135.04481981,35.70200472]],[[135.04478462,35.702046],[135.04478462,35.702046]],[[135.04492244,35.70206144],[135.04492244,35.70206144]],[[135.04475397,35.70208469],[135.04475397,35.70208469]],[[135.04485766,35.70211941],[135.04485766,35.70211941]],[[135.0358455,35.70212805],[135.0358455,35.70212805]],[[135.04467161,35.70213561],[135.04467161,35.70213561]],[[135.04435289,35.7021565],[135.04435289,35.7021565]],[[135.04449667,35.70212864],[135.04449667,35.70212864]],[[135.03511995,35.70233117],[135.03511995,35.70233117]],[[135.03617528,35.70223639],[135.03617528,35.70223639]],[[135.03476864,35.70213033],[135.03476864,35.70213033]],[[135.044921,35.70221978],[135.044921,35.70221978]],[[135.04499058,35.70226936],[135.04499058,35.70226936]],[[135.03485834,35.70232277],[135.03485834,35.70232277]],[[135.04496564,35.7023402],[135.04496564,35.7023402]],[[135.0448565,35.7023752],[135.0448565,35.7023752]],[[135.03695472,35.7025692],[135.03695472,35.7025692]],[[135.03723922,35.70253605],[135.03723922,35.70253605]],[[135.03704083,35.70262444],[135.03704083,35.70262444]],[[135.05154125,35.70443253],[135.05154125,35.70443253]],[[135.053617,35.70512117],[135.053617,35.70512117]],[[135.05424825,35.70512623],[135.05424825,35.70512623]],[[135.06057586,35.70907817],[135.06057586,35.70907817]],[[135.06097508,35.70928031],[135.06097508,35.70928031]],[[135.06238667,35.712255],[135.06238667,35.712255]],[[135.06228973,35.71283444],[135.06228973,35.71283444]],[[135.06382917,35.71275277],[135.06382917,35.71275277]],[[135.06351027,35.71276805],[135.06351027,35.71276805]],[[135.06563195,35.71289195],[135.06563195,35.71289195]],[[135.06227472,35.71296417],[135.06227472,35.71296417]],[[135.06243416,35.71316833],[135.06243416,35.71316833]],[[135.06553584,35.71362917],[135.06553584,35.71362917]],[[135.06559694,35.71378833],[135.06559694,35.71378833]],[[135.06582973,35.71415723],[135.06582973,35.71415723]],[[135.06561195,35.71409917],[135.06561195,35.71409917]],[[135.06563167,35.71436472],[135.06563167,35.71436472]],[[135.06612306,35.71469333],[135.06612306,35.71469333]],[[135.06537416,35.71474777],[135.06537416,35.71474777]],[[135.07433419,35.71855797],[135.07433419,35.71855797]],[[135.07307591,35.71870739],[135.07307591,35.71870739]],[[135.07447438,35.71870641],[135.07447438,35.71870641]],[[135.07305244,35.71881492],[135.07305244,35.71881492]],[[135.07289425,35.71885505],[135.07289425,35.71885505]],[[135.07284416,35.71886567],[135.07284416,35.71886567]],[[135.07334603,35.718984],[135.07334603,35.718984]],[[135.06874908,35.71886839],[135.06874908,35.71886839]],[[135.07687333,35.71992417],[135.07687333,35.71992417]],[[135.07568472,35.72163723],[135.07568472,35.72163723]],[[135.07837647,35.7217678],[135.07837647,35.7217678]],[[135.07815375,35.72174817],[135.07815375,35.72174817]],[[135.07803667,35.72185714],[135.07803667,35.72185714]],[[135.07798633,35.72191841],[135.07798633,35.72191841]],[[135.07998397,35.72204772],[135.07998397,35.72204772]],[[135.07823684,35.72200144],[135.07823684,35.72200144]],[[135.08016255,35.72205069],[135.08016255,35.72205069]],[[135.08026558,35.72204978],[135.08026558,35.72204978]],[[135.08007814,35.72208764],[135.08007814,35.72208764]],[[135.07790528,35.72209436],[135.07790528,35.72209436]],[[135.08013803,35.72211675],[135.08013803,35.72211675]],[[135.08029988,35.72217108],[135.08029988,35.72217108]],[[135.08008584,35.72221861],[135.08008584,35.72221861]],[[135.07958572,35.72229947],[135.07958572,35.72229947]],[[135.07970564,35.72218367],[135.07970564,35.72218367]],[[135.08009717,35.72223047],[135.08009717,35.72223047]],[[135.08026953,35.72230344],[135.08026953,35.72230344]],[[135.07798995,35.72234197],[135.07798995,35.72234197]],[[135.0779927,35.72238292],[135.0779927,35.72238292]],[[135.07809798,35.7224725],[135.07809798,35.7224725]],[[135.08137611,35.72301889],[135.08137611,35.72301889]],[[135.08012639,35.72314833],[135.08012639,35.72314833]],[[135.08122027,35.72359833],[135.08122027,35.72359833]],[[135.08184,35.72370139],[135.08184,35.72370139]],[[135.08435333,35.72601639],[135.08435333,35.72601639]],[[135.08432139,35.72649223],[135.08432139,35.72649223]],[[135.08438445,35.72712639],[135.08438445,35.72712639]],[[135.08434,35.7279725],[135.08434,35.7279725]],[[135.08444056,35.72829],[135.08444056,35.72829]],[[135.08200481,35.73709125],[135.08200481,35.73709125]],[[135.08293664,35.7384625],[135.08293664,35.7384625]],[[135.08220846,35.73852356],[135.08220846,35.73852356]],[[135.08364289,35.73850495],[135.08364289,35.73850495]],[[135.08433569,35.738546],[135.08433569,35.738546]],[[135.08350908,35.7387115],[135.08350908,35.7387115]],[[135.08248889,35.73880805],[135.08248889,35.73880805]],[[135.08477864,35.7388002],[135.08477864,35.7388002]],[[135.08452839,35.73923231],[135.08452839,35.73923231]],[[135.08615584,35.72948251],[135.08615584,35.72948251]],[[135.08623112,35.72965695],[135.08623112,35.72965695]],[[135.08628639,35.72978251],[135.08628639,35.72978251]],[[135.08634112,35.73004667],[135.08634112,35.73004667]],[[135.08645083,35.73077889],[135.08645083,35.73077889]],[[135.08526236,35.73951133],[135.08526236,35.73951133]],[[135.09060167,35.73963861],[135.09060167,35.73963861]],[[135.08728842,35.73968059],[135.08728842,35.73968059]],[[135.08696737,35.73973828],[135.08696737,35.73973828]],[[135.09074805,35.73986389],[135.09074805,35.73986389]],[[135.08617287,35.73983084],[135.08617287,35.73983084]],[[135.08626248,35.73987477],[135.08626248,35.73987477]],[[135.08590297,35.73989287],[135.08590297,35.73989287]],[[135.08470957,35.7401105],[135.08470957,35.7401105]],[[135.09002178,35.74015303],[135.09002178,35.74015303]],[[135.08576139,35.74028],[135.08576139,35.74028]],[[135.08920694,35.74037556],[135.08920694,35.74037556]],[[135.08895558,35.74043656],[135.08895558,35.74043656]],[[135.08943211,35.74049205],[135.08943211,35.74049205]],[[135.09678306,35.74316639],[135.09678306,35.74316639]],[[135.09706639,35.74306417],[135.09706639,35.74306417]],[[135.09931056,35.74320889],[135.09931056,35.74320889]],[[135.09694083,35.74330084],[135.09694083,35.74330084]],[[135.09684501,35.74337361],[135.09684501,35.74337361]],[[135.10471008,35.74418869],[135.10471008,35.74418869]],[[135.10565891,35.74427778],[135.10565891,35.74427778]],[[135.10832708,35.74470364],[135.10832708,35.74470364]],[[135.11510416,35.74487389],[135.11510416,35.74487389]],[[135.10790195,35.74494667],[135.10790195,35.74494667]],[[135.10812014,35.7450482],[135.10812014,35.7450482]],[[135.11824027,35.74527361],[135.11824027,35.74527361]],[[135.10812694,35.74523472],[135.10812694,35.74523472]],[[135.10845878,35.74528623],[135.10845878,35.74528623]],[[135.1239535,35.74576897],[135.1239535,35.74576897]],[[135.12380469,35.74583659],[135.12380469,35.74583659]],[[135.12168558,35.74606511],[135.12168558,35.74606511]],[[135.11851611,35.74608805],[135.11851611,35.74608805]],[[135.12269314,35.74615692],[135.12269314,35.74615692]],[[135.10953112,35.74642444],[135.10953112,35.74642444]],[[135.12110944,35.74651139],[135.12110944,35.74651139]],[[135.12076778,35.74660972],[135.12076778,35.74660972]],[[135.12353611,35.74685778],[135.12353611,35.74685778]],[[135.11127239,35.74712367],[135.11127239,35.74712367]],[[135.11864694,35.74729667],[135.11864694,35.74729667]],[[135.14738642,35.7505535],[135.14738642,35.7505535]],[[135.13234027,35.750645],[135.13234027,35.750645]],[[135.1474383,35.75077875],[135.1474383,35.75077875]],[[135.14753616,35.75080884],[135.14753616,35.75080884]],[[135.14748472,35.75081217],[135.14748472,35.75081217]],[[135.14751161,35.75087311],[135.14751161,35.75087311]],[[135.14765614,35.75090205],[135.14765614,35.75090205]],[[135.14769122,35.75103392],[135.14769122,35.75103392]],[[135.13285694,35.75128056],[135.13285694,35.75128056]],[[135.14776508,35.75141741],[135.14776508,35.75141741]],[[135.13329584,35.75146222],[135.13329584,35.75146222]],[[135.14282611,35.75155111],[135.14282611,35.75155111]],[[135.13358611,35.75155584],[135.13358611,35.75155584]],[[135.13330611,35.75154],[135.13330611,35.75154]],[[135.14799895,35.75161503],[135.14799895,35.75161503]],[[135.14349195,35.75159611],[135.14349195,35.75159611]],[[135.14758973,35.75169222],[135.14758973,35.75169222]],[[135.14849761,35.75167705],[135.14849761,35.75167705]],[[135.14746472,35.75176917],[135.14746472,35.75176917]],[[135.15030224,35.75179951],[135.15030224,35.75179951]],[[135.15003472,35.751775],[135.15003472,35.751775]],[[135.14827584,35.75195972],[135.14827584,35.75195972]],[[135.15314044,35.75193192],[135.15314044,35.75193192]],[[135.14849584,35.75205861],[135.14849584,35.75205861]],[[135.14876531,35.75207084],[135.14876531,35.75207084]],[[135.14912672,35.75214892],[135.14912672,35.75214892]],[[135.14961083,35.75212084],[135.14961083,35.75212084]],[[135.1472375,35.75216167],[135.1472375,35.75216167]],[[135.14993745,35.75212717],[135.14993745,35.75212717]],[[135.14793445,35.75222722],[135.14793445,35.75222722]],[[135.14832056,35.75225251],[135.14832056,35.75225251]],[[135.14946445,35.75219167],[135.14946445,35.75219167]],[[135.15038789,35.75232584],[135.15038789,35.75232584]],[[135.14866167,35.75223777],[135.14866167,35.75223777]],[[135.14838112,35.7523525],[135.14838112,35.7523525]],[[135.14758333,35.75231056],[135.14758333,35.75231056]],[[135.14811195,35.75243444],[135.14811195,35.75243444]],[[135.14862611,35.75254611],[135.14862611,35.75254611]],[[135.14973083,35.7526],[135.14973083,35.7526]],[[135.1511737,35.75251669],[135.1511737,35.75251669]],[[135.15072167,35.75259995],[135.15072167,35.75259995]],[[135.15073674,35.75258644],[135.15073674,35.75258644]],[[135.15071333,35.75262514],[135.15071333,35.75262514]],[[135.15135645,35.75261336],[135.15135645,35.75261336]],[[135.15081844,35.75269031],[135.15081844,35.75269031]],[[135.15158973,35.75276222],[135.15158973,35.75276222]],[[135.15078703,35.75274344],[135.15078703,35.75274344]],[[135.14081361,35.75266195],[135.14081361,35.75266195]],[[135.14839639,35.75283805],[135.14839639,35.75283805]],[[135.15207445,35.75300223],[135.15207445,35.75300223]],[[135.15135,35.75303695],[135.15135,35.75303695]],[[135.14858778,35.752975],[135.14858778,35.752975]],[[135.15100694,35.75309472],[135.15100694,35.75309472]],[[135.13486616,35.75745228],[135.13486616,35.75745228]],[[135.19933533,35.53840084],[135.19933533,35.53840084]],[[135.19852433,35.53924507],[135.19852433,35.53924507]],[[135.18787283,35.55097995],[135.18787283,35.55097995]],[[135.22752939,35.58280011],[135.22752939,35.58280011]],[[135.22758803,35.58345233],[135.22758803,35.58345233]],[[135.2277728,35.58351339],[135.2277728,35.58351339]],[[135.22773234,35.58355559],[135.22773234,35.58355559]],[[135.23063633,35.58614528],[135.23063633,35.58614528]],[[135.15314019,35.75178905],[135.15314019,35.75178905]],[[135.15315494,35.75184664],[135.15315494,35.75184664]],[[135.15376759,35.75196353],[135.15376759,35.75196353]],[[135.1539835,35.75210322],[135.1539835,35.75210322]],[[135.15446275,35.75215275],[135.15446275,35.75215275]],[[135.15450236,35.75217041],[135.15450236,35.75217041]],[[135.15394234,35.75216792],[135.15394234,35.75216792]],[[135.15460706,35.75224669],[135.15460706,35.75224669]],[[135.15492,35.75261869],[135.15492,35.75261869]],[[135.15520761,35.75299551],[135.15520761,35.75299551]],[[135.1552315,35.75337197],[135.1552315,35.75337197]],[[135.15492175,35.75486925],[135.15492175,35.75486925]],[[135.16537333,35.75764778],[135.16537333,35.75764778]],[[135.16541528,35.75782139],[135.16541528,35.75782139]],[[135.17109083,35.75965972],[135.17109083,35.75965972]],[[135.16642898,35.75978103],[135.16642898,35.75978103]],[[135.16504389,35.76029],[135.16504389,35.76029]],[[135.16536389,35.76063944],[135.16536389,35.76063944]],[[135.1734125,35.76061778],[135.1734125,35.76061778]],[[135.18304805,35.76063361],[135.18304805,35.76063361]],[[135.16492472,35.76082639],[135.16492472,35.76082639]],[[135.17386056,35.76085917],[135.17386056,35.76085917]],[[135.16561667,35.76082167],[135.16561667,35.76082167]],[[135.16497805,35.7609775],[135.16497805,35.7609775]],[[135.17343139,35.76102389],[135.17343139,35.76102389]],[[135.17378973,35.76101917],[135.17378973,35.76101917]],[[135.17347333,35.76110889],[135.17347333,35.76110889]],[[135.16475639,35.76140861],[135.16475639,35.76140861]],[[135.17456027,35.76146195],[135.17456027,35.76146195]],[[135.17507861,35.76154333],[135.17507861,35.76154333]],[[135.17458,35.76160333],[135.17458,35.76160333]],[[135.1788738,35.76214961],[135.1788738,35.76214961]],[[135.17459416,35.7621125],[135.17459416,35.7621125]],[[135.18400358,35.76242817],[135.18400358,35.76242817]],[[135.183937,35.76249351],[135.183937,35.76249351]],[[135.18391878,35.76256792],[135.18391878,35.76256792]],[[135.17907061,35.7631425],[135.17907061,35.7631425]],[[135.18444584,35.76388689],[135.18444584,35.76388689]],[[135.19017861,35.76394917],[135.19017861,35.76394917]],[[135.19036778,35.76421556],[135.19036778,35.76421556]],[[135.19033078,35.76436859],[135.19033078,35.76436859]],[[135.20873508,35.76476244],[135.20873508,35.76476244]],[[135.20896722,35.76472775],[135.20896722,35.76472775]],[[135.2031272,35.76480656],[135.2031272,35.76480656]],[[135.18809125,35.76518478],[135.18809125,35.76518478]],[[135.18821834,35.76533084],[135.18821834,35.76533084]],[[135.19958861,35.76548528],[135.19958861,35.76548528]],[[135.18806642,35.76532213],[135.18806642,35.76532213]],[[135.19063908,35.76581189],[135.19063908,35.76581189]],[[135.19169942,35.76606308],[135.19169942,35.76606308]],[[135.20608416,35.76576778],[135.20608416,35.76576778]],[[135.18995803,35.765662],[135.18995803,35.765662]],[[135.20025973,35.7660525],[135.20025973,35.7660525]],[[135.19777942,35.76612669],[135.19777942,35.76612669]],[[135.18804306,35.76614223],[135.18804306,35.76614223]],[[135.18534908,35.76614689],[135.18534908,35.76614689]],[[135.20088778,35.76601361],[135.20088778,35.76601361]],[[135.19209275,35.76635225],[135.19209275,35.76635225]],[[135.19007601,35.76631969],[135.19007601,35.76631969]],[[135.211497,35.76645951],[135.211497,35.76645951]],[[135.21144875,35.76650713],[135.21144875,35.76650713]],[[135.21170501,35.76667251],[135.21170501,35.76667251]],[[135.19174236,35.76693641],[135.19174236,35.76693641]],[[135.19662311,35.7668285],[135.19662311,35.7668285]],[[135.1925525,35.76730333],[135.1925525,35.76730333]],[[135.20128584,35.7673575],[135.20128584,35.7673575]],[[135.19269805,35.76763972],[135.19269805,35.76763972]],[[135.19428633,35.76773475],[135.19428633,35.76773475]],[[135.21455416,35.76820836],[135.21455416,35.76820836]],[[135.21701183,35.76914159],[135.21701183,35.76914159]],[[135.21880047,35.77012628],[135.21880047,35.77012628]],[[135.23083683,35.77259889],[135.23083683,35.77259889]],[[135.23139767,35.77252314],[135.23139767,35.77252314]],[[135.23151014,35.7726685],[135.23151014,35.7726685]],[[135.23020691,35.77343192],[135.23020691,35.77343192]],[[135.22954222,35.77423305],[135.22954222,35.77423305]],[[135.22811891,35.7743992],[135.22811891,35.7743992]],[[135.22814158,35.774753],[135.22814158,35.774753]],[[135.22660436,35.77470247],[135.22660436,35.77470247]],[[135.22801195,35.7748368],[135.22801195,35.7748368]],[[135.2272418,35.77485964],[135.2272418,35.77485964]],[[135.22868258,35.77490053],[135.22868258,35.77490053]],[[135.22801034,35.77520887],[135.22801034,35.77520887]],[[135.22829917,35.77520944],[135.22829917,35.77520944]],[[135.22589584,35.77592389],[135.22589584,35.77592389]],[[135.22557322,35.77680992],[135.22557322,35.77680992]],[[135.21942789,35.777416],[135.21942789,35.777416]],[[135.22006064,35.77744172],[135.22006064,35.77744172]],[[135.21970278,35.77770139],[135.21970278,35.77770139]],[[135.22046986,35.77772669],[135.22046986,35.77772669]],[[135.21851139,35.778205],[135.21851139,35.778205]],[[135.27403689,35.52459628],[135.27403689,35.52459628]],[[135.27063111,35.53267417],[135.27063111,35.53267417]],[[135.2703263,35.5330488],[135.2703263,35.5330488]],[[135.26963486,35.53309023],[135.26963486,35.53309023]],[[135.26952472,35.53361278],[135.26952472,35.53361278]],[[135.26936389,35.53370723],[135.26936389,35.53370723]],[[135.26594445,35.53387472],[135.26594445,35.53387472]],[[135.25428667,35.53492861],[135.25428667,35.53492861]],[[135.25539361,35.53559223],[135.25539361,35.53559223]],[[135.26166861,35.55383556],[135.26166861,35.55383556]],[[135.2724925,35.55885917],[135.2724925,35.55885917]],[[135.27375584,35.56176361],[135.27375584,35.56176361]],[[135.27362,35.56187417],[135.27362,35.56187417]],[[135.27335603,35.56241041],[135.27335603,35.56241041]],[[135.27210278,35.56334444],[135.27210278,35.56334444]],[[135.26531555,35.56708584],[135.26531555,35.56708584]],[[135.26433639,35.56731639],[135.26433639,35.56731639]],[[135.26458083,35.56735695],[135.26458083,35.56735695]],[[135.26846361,35.56734167],[135.26846361,35.56734167]],[[135.2648825,35.56745195],[135.2648825,35.56745195]],[[135.26752944,35.56747889],[135.26752944,35.56747889]],[[135.26322722,35.56776139],[135.26322722,35.56776139]],[[135.25701027,35.56780277],[135.25701027,35.56780277]],[[135.25553555,35.56781056],[135.25553555,35.56781056]],[[135.25706195,35.56792722],[135.25706195,35.56792722]],[[135.25587834,35.56805167],[135.25587834,35.56805167]],[[135.26171056,35.56812778],[135.26171056,35.56812778]],[[135.2539902,35.57614484],[135.2539902,35.57614484]],[[135.25409764,35.57710951],[135.25409764,35.57710951]],[[135.25047139,35.57819972],[135.25047139,35.57819972]],[[135.24989555,35.57900667],[135.24989555,35.57900667]],[[135.25032158,35.57979331],[135.25032158,35.57979331]],[[135.2491075,35.58510222],[135.2491075,35.58510222]],[[135.24879639,35.58516278],[135.24879639,35.58516278]],[[135.24932095,35.58827278],[135.24932095,35.58827278]],[[135.25665536,35.59450336],[135.25665536,35.59450336]],[[135.25604294,35.59534192],[135.25604294,35.59534192]],[[135.25638027,35.59617167],[135.25638027,35.59617167]],[[135.25374161,35.64844836],[135.25374161,35.64844836]],[[135.27408389,35.73716222],[135.27408389,35.73716222]],[[135.27390805,35.73756361],[135.27390805,35.73756361]],[[135.27383528,35.73972944],[135.27383528,35.73972944]],[[135.27391861,35.74003695],[135.27391861,35.74003695]],[[135.27278555,35.74165056],[135.27278555,35.74165056]],[[135.27248333,35.74165972],[135.27248333,35.74165972]],[[135.27192333,35.7417875],[135.27192333,35.7417875]],[[135.27021306,35.7419],[135.27021306,35.7419]],[[135.26973501,35.74220556],[135.26973501,35.74220556]],[[135.26855027,35.74234111],[135.26855027,35.74234111]],[[135.26962139,35.74237972],[135.26962139,35.74237972]],[[135.26772555,35.74270056],[135.26772555,35.74270056]],[[135.26744555,35.74266167],[135.26744555,35.74266167]],[[135.26794611,35.74266],[135.26794611,35.74266]],[[135.26297111,35.744635],[135.26297111,35.744635]],[[135.26125861,35.74468944],[135.26125861,35.74468944]],[[135.26083278,35.74475972],[135.26083278,35.74475972]],[[135.26206944,35.74521223],[135.26206944,35.74521223]],[[135.26085861,35.74560333],[135.26085861,35.74560333]],[[135.25544333,35.74721278],[135.25544333,35.74721278]],[[135.25464,35.74850611],[135.25464,35.74850611]],[[135.25458472,35.74878944],[135.25458472,35.74878944]],[[135.25372558,35.75403753],[135.25372558,35.75403753]],[[135.24863111,35.75775361],[135.24863111,35.75775361]],[[135.24674389,35.75941889],[135.24674389,35.75941889]],[[135.24694917,35.75945361],[135.24694917,35.75945361]],[[135.24642611,35.759505],[135.24642611,35.759505]],[[135.24619834,35.75981944],[135.24619834,35.75981944]],[[135.24578834,35.76011223],[135.24578834,35.76011223]],[[135.24496222,35.76023805],[135.24496222,35.76023805]],[[135.24449944,35.76025305],[135.24449944,35.76025305]],[[135.24578917,35.76039751],[135.24578917,35.76039751]],[[135.24483778,35.7605],[135.24483778,35.7605]],[[135.24536472,35.76054861],[135.24536472,35.76054861]],[[135.24545445,35.76069611],[135.24545445,35.76069611]],[[135.24213222,35.76284305],[135.24213222,35.76284305]],[[135.24030834,35.76313],[135.24030834,35.76313]],[[135.24068027,35.76319472],[135.24068027,35.76319472]],[[135.24085083,35.76335556],[135.24085083,35.76335556]],[[135.24133278,35.76335667],[135.24133278,35.76335667]],[[135.24093027,35.76342944],[135.24093027,35.76342944]],[[135.24114167,35.76348972],[135.24114167,35.76348972]],[[135.24169722,35.76400444],[135.24169722,35.76400444]],[[135.24119195,35.76417389],[135.24119195,35.76417389]],[[135.23921861,35.76716861],[135.23921861,35.76716861]],[[135.23886056,35.76718805],[135.23886056,35.76718805]],[[135.23873805,35.76734639],[135.23873805,35.76734639]],[[135.23882333,35.76750389],[135.23882333,35.76750389]],[[135.23752944,35.76761667],[135.23752944,35.76761667]],[[135.23455153,35.76857795],[135.23455153,35.76857795]],[[135.23377678,35.76892651],[135.23377678,35.76892651]],[[135.23324306,35.76925922],[135.23324306,35.76925922]],[[135.23316742,35.76935014],[135.23316742,35.76935014]],[[135.23229419,35.77106069],[135.23229419,35.77106069]],[[135.23259881,35.77104633],[135.23259881,35.77104633]],[[135.23279195,35.77131528],[135.23279195,35.77131528]],[[135.23254066,35.77143461],[135.23254066,35.77143461]],[[135.23293258,35.77165739],[135.23293258,35.77165739]],[[135.23311389,35.77162167],[135.23311389,35.77162167]],[[135.31254564,35.45530561],[135.31254564,35.45530561]],[[135.31951377,35.47268114],[135.31951377,35.47268114]],[[135.32218997,35.47841411],[135.32218997,35.47841411]],[[135.31271481,35.515192],[135.31271481,35.515192]],[[135.31355584,35.51549139],[135.31355584,35.51549139]],[[135.31394889,35.51605944],[135.31394889,35.51605944]],[[135.31505389,35.51765944],[135.31505389,35.51765944]],[[135.31523411,35.51773136],[135.31523411,35.51773136]],[[135.31569725,35.51820144],[135.31569725,35.51820144]],[[135.31587484,35.51858111],[135.31587484,35.51858111]],[[135.3160528,35.51874625],[135.3160528,35.51874625]],[[135.31613992,35.51877172],[135.31613992,35.51877172]],[[135.31697733,35.52003984],[135.31697733,35.52003984]],[[135.31674333,35.52100084],[135.31674333,35.52100084]],[[135.32673272,35.52163441],[135.32673272,35.52163441]],[[135.32664195,35.52185695],[135.32664195,35.52185695]],[[135.31782275,35.52323286],[135.31782275,35.52323286]],[[135.31693647,35.52358923],[135.31693647,35.52358923]],[[135.31712842,35.52360372],[135.31712842,35.52360372]],[[135.32025442,35.52517923],[135.32025442,35.52517923]],[[135.32378528,35.52567277],[135.32378528,35.52567277]],[[135.32397778,35.52572584],[135.32397778,35.52572584]],[[135.32374156,35.52575353],[135.32374156,35.52575353]],[[135.32348302,35.52599861],[135.32348302,35.52599861]],[[135.27463361,35.55993778],[135.27463361,35.55993778]],[[135.27482501,35.56039223],[135.27482501,35.56039223]],[[135.27477472,35.56068084],[135.27477472,35.56068084]],[[135.27443195,35.56143056],[135.27443195,35.56143056]],[[135.27500153,35.56159169],[135.27500153,35.56159169]],[[135.3029375,35.66188723],[135.3029375,35.66188723]],[[135.30153167,35.66236889],[135.30153167,35.66236889]],[[135.28111584,35.66462889],[135.28111584,35.66462889]],[[135.28565472,35.66568528],[135.28565472,35.66568528]],[[135.30336083,35.68406528],[135.30336083,35.68406528]],[[135.30415722,35.68599751],[135.30415722,35.68599751]],[[135.30436639,35.68631611],[135.30436639,35.68631611]],[[135.30563114,35.69205517],[135.30563114,35.69205517]],[[135.30896639,35.69363139],[135.30896639,35.69363139]],[[135.30736195,35.69665167],[135.30736195,35.69665167]],[[135.30707694,35.69853944],[135.30707694,35.69853944]],[[135.30690834,35.69960723],[135.30690834,35.69960723]],[[135.30260361,35.70063944],[135.30260361,35.70063944]],[[135.30146778,35.70070195],[135.30146778,35.70070195]],[[135.29846694,35.70178028],[135.29846694,35.70178028]],[[135.2967475,35.70365833],[135.2967475,35.70365833]],[[135.29560861,35.70428084],[135.29560861,35.70428084]],[[135.29770027,35.7048575],[135.29770027,35.7048575]],[[135.29824361,35.70487611],[135.29824361,35.70487611]],[[135.28791667,35.70528278],[135.28791667,35.70528278]],[[135.29477888,35.70519333],[135.29477888,35.70519333]],[[135.28767416,35.70531723],[135.28767416,35.70531723]],[[135.28740222,35.70534195],[135.28740222,35.70534195]],[[135.29419445,35.70572028],[135.29419445,35.70572028]],[[135.2890355,35.70625941],[135.2890355,35.70625941]],[[135.28948278,35.70629751],[135.28948278,35.70629751]],[[135.29189639,35.70649751],[135.29189639,35.70649751]],[[135.29003361,35.70661139],[135.29003361,35.70661139]],[[135.29151222,35.70671333],[135.29151222,35.70671333]],[[135.29025805,35.70670139],[135.29025805,35.70670139]],[[135.28792111,35.70812861],[135.28792111,35.70812861]],[[135.29064861,35.70814],[135.29064861,35.70814]],[[135.28805083,35.70856305],[135.28805083,35.70856305]],[[135.28840834,35.70903195],[135.28840834,35.70903195]],[[135.28767973,35.70915167],[135.28767973,35.70915167]],[[135.28791501,35.70927777],[135.28791501,35.70927777]],[[135.28875667,35.70938305],[135.28875667,35.70938305]],[[135.28804167,35.70954111],[135.28804167,35.70954111]],[[135.28795973,35.71002944],[135.28795973,35.71002944]],[[135.28721888,35.71034556],[135.28721888,35.71034556]],[[135.28668694,35.71050556],[135.28668694,35.71050556]],[[135.28744083,35.71141195],[135.28744083,35.71141195]],[[135.28880639,35.71548777],[135.28880639,35.71548777]],[[135.28847778,35.71744723],[135.28847778,35.71744723]],[[135.28822611,35.72223751],[135.28822611,35.72223751]],[[135.28856472,35.72253833],[135.28856472,35.72253833]],[[135.28878555,35.72276778],[135.28878555,35.72276778]],[[135.28903222,35.72305667],[135.28903222,35.72305667]],[[135.28996333,35.72314917],[135.28996333,35.72314917]],[[135.28546944,35.72781611],[135.28546944,35.72781611]],[[135.28577416,35.72823028],[135.28577416,35.72823028]],[[135.28237111,35.72881417],[135.28237111,35.72881417]],[[135.28571195,35.72882556],[135.28571195,35.72882556]],[[135.2832125,35.72894639],[135.2832125,35.72894639]],[[135.28192056,35.72918028],[135.28192056,35.72918028]],[[135.28137472,35.72923722],[135.28137472,35.72923722]],[[135.28416944,35.72963333],[135.28416944,35.72963333]],[[135.28194306,35.73050389],[135.28194306,35.73050389]],[[135.27594611,35.73073778],[135.27594611,35.73073778]],[[135.27925861,35.73072195],[135.27925861,35.73072195]],[[135.27677112,35.73121556],[135.27677112,35.73121556]],[[135.27811722,35.73180611],[135.27811722,35.73180611]],[[135.28610694,35.73393695],[135.28610694,35.73393695]],[[135.27438861,35.73715556],[135.27438861,35.73715556]],[[135.27418,35.73772222],[135.27418,35.73772222]],[[135.27447472,35.73836084],[135.27447472,35.73836084]],[[135.27484667,35.7388575],[135.27484667,35.7388575]],[[135.27498667,35.73901167],[135.27498667,35.73901167]],[[135.27422861,35.73990611],[135.27422861,35.73990611]],[[135.27458805,35.74304695],[135.27458805,35.74304695]],[[135.33392606,35.47060797],[135.33392606,35.47060797]],[[135.33616031,35.47231459],[135.33616031,35.47231459]],[[135.34452956,35.48808908],[135.34452956,35.48808908]],[[135.35380431,35.49143556],[135.35380431,35.49143556]],[[135.35419708,35.49166667],[135.35419708,35.49166667]],[[135.34067939,35.49426484],[135.33957866,35.49861392],[135.34784776,35.49697325],[135.34067939,35.49426484]],[[135.36740228,35.49665369],[135.36740228,35.49665369]],[[135.37309497,35.49839144],[135.37309497,35.49839144]],[[135.39018051,35.50415797],[135.39018051,35.50415797]],[[135.34724442,35.51708422],[135.34724442,35.51708422]],[[135.34619822,35.52048272],[135.34619822,35.52048272]],[[135.33777778,35.54237944],[135.33777778,35.54237944]],[[135.34463944,35.54656223],[135.34463944,35.54656223]],[[135.33849195,35.54704111],[135.33849195,35.54704111]],[[135.34456555,35.54914305],[135.34456555,35.54914305]],[[135.36794,35.55284056],[135.36794,35.55284056]],[[135.36865389,35.55287223],[135.36865389,35.55287223]],[[135.36895139,35.553385],[135.36895139,35.553385]],[[135.37590805,35.55848195],[135.37590805,35.55848195]],[[135.37589416,35.55886389],[135.37589416,35.55886389]],[[135.38672861,35.55898611],[135.38672861,35.55898611]],[[135.38594278,35.55915695],[135.38594278,35.55915695]],[[135.38536,35.55992917],[135.38536,35.55992917]],[[135.37749805,35.55998584],[135.37749805,35.55998584]],[[135.37760528,35.56020751],[135.37760528,35.56020751]],[[135.37765888,35.56062972],[135.37765888,35.56062972]],[[135.38012611,35.56202389],[135.38012611,35.56202389]],[[135.40118889,35.56241056],[135.40118889,35.56241056]],[[135.40117222,35.56259223],[135.40117222,35.56259223]],[[135.40032167,35.56412556],[135.40032167,35.56412556]],[[135.39987528,35.56416444],[135.39987528,35.56416444]],[[135.40077139,35.56410556],[135.40077139,35.56410556]],[[135.40130694,35.56426556],[135.40130694,35.56426556]],[[135.39962584,35.56430861],[135.39962584,35.56430861]],[[135.39980528,35.56444805],[135.39980528,35.56444805]],[[135.39747167,35.56455139],[135.39747167,35.56455139]],[[135.39737667,35.56491139],[135.39737667,35.56491139]],[[135.40611445,35.56492056],[135.40611445,35.56492056]],[[135.39713778,35.56504861],[135.39713778,35.56504861]],[[135.39736167,35.56506944],[135.39736167,35.56506944]],[[135.39671667,35.56557139],[135.39671667,35.56557139]],[[135.40745852,35.56563341],[135.40745852,35.56563341]],[[135.39700111,35.56577333],[135.39700111,35.56577333]],[[135.39713083,35.56582778],[135.39713083,35.56582778]],[[135.40732083,35.56584389],[135.40732083,35.56584389]],[[135.39735333,35.56590305],[135.39735333,35.56590305]],[[135.39951333,35.56583972],[135.39951333,35.56583972]],[[135.40796428,35.56589486],[135.40796428,35.56589486]],[[135.40732888,35.56600111],[135.40732888,35.56600111]],[[135.40801056,35.56606825],[135.40801056,35.56606825]],[[135.39972306,35.56625167],[135.39972306,35.56625167]],[[135.39729888,35.56633611],[135.39729888,35.56633611]],[[135.39752333,35.56647917],[135.39752333,35.56647917]],[[135.40008694,35.56639528],[135.40008694,35.56639528]],[[135.40780889,35.56651222],[135.40780889,35.56651222]],[[135.39772888,35.56649361],[135.39772888,35.56649361]],[[135.39787722,35.56663695],[135.39787722,35.56663695]],[[135.39746,35.56669139],[135.39746,35.56669139]],[[135.40818864,35.56684259],[135.40818864,35.56684259]],[[135.4080025,35.566885],[135.4080025,35.566885]],[[135.39826667,35.56697639],[135.39826667,35.56697639]],[[135.40886742,35.567357],[135.40886742,35.567357]],[[135.40879501,35.56754584],[135.40879501,35.56754584]],[[135.41015839,35.56797139],[135.41015839,35.56797139]],[[135.41037825,35.56835033],[135.41037825,35.56835033]],[[135.41031481,35.56835092],[135.41031481,35.56835092]],[[135.41015722,35.56844333],[135.41015722,35.56844333]],[[135.41034278,35.56851472],[135.41034278,35.56851472]],[[135.41115664,35.56919736],[135.41115664,35.56919736]],[[135.41128389,35.56949028],[135.41128389,35.56949028]],[[135.41204477,35.56967259],[135.41204477,35.56967259]],[[135.41202733,35.56973784],[135.41202733,35.56973784]],[[135.41175528,35.56977417],[135.41175528,35.56977417]],[[135.41334306,35.57042056],[135.41334306,35.57042056]],[[135.39345889,35.57315667],[135.39345889,35.57315667]],[[135.39524861,35.57558667],[135.39524861,35.57558667]],[[135.39313969,35.575],[135.39313969,35.575]],[[135.39575611,35.57622528],[135.39575611,35.57622528]],[[135.39539639,35.57640556],[135.39539639,35.57640556]],[[135.39555584,35.57670667],[135.39555584,35.57670667]],[[135.39503278,35.57670611],[135.39503278,35.57670611]],[[135.39578694,35.57672972],[135.39578694,35.57672972]],[[135.39601611,35.57681305],[135.39601611,35.57681305]],[[135.39486167,35.57705305],[135.39486167,35.57705305]],[[135.39568222,35.57706417],[135.39568222,35.57706417]],[[135.39363139,35.57798222],[135.39363139,35.57798222]],[[135.39197584,35.57838556],[135.39197584,35.57838556]],[[135.38890445,35.57980944],[135.38890445,35.57980944]],[[135.39019416,35.58000223],[135.39019416,35.58000223]],[[135.39036027,35.58016833],[135.39036027,35.58016833]],[[135.38997611,35.58054305],[135.38997611,35.58054305]],[[135.38907834,35.58075056],[135.38907834,35.58075056]],[[135.38940445,35.58080056],[135.38940445,35.58080056]],[[135.38957083,35.58107139],[135.38957083,35.58107139]],[[135.38925528,35.58113333],[135.38925528,35.58113333]],[[135.38927389,35.5813075],[135.38927389,35.5813075]],[[135.38974667,35.58146139],[135.38974667,35.58146139]],[[135.38940528,35.58174472],[135.38940528,35.58174472]],[[135.42453528,35.56711556],[135.42453528,35.56711556]],[[135.42425297,35.56717241],[135.42425297,35.56717241]],[[135.42425608,35.5672008],[135.42425608,35.5672008]],[[135.41526674,35.56918761],[135.41526674,35.56918761]],[[135.41479263,35.56969478],[135.41479263,35.56969478]],[[135.42535589,35.57243213],[135.42535589,35.57243213]],[[135.4253255,35.57299356],[135.4253255,35.57299356]],[[135.42496364,35.57413711],[135.42496364,35.57413711]],[[135.42465584,35.57427305],[135.42465584,35.57427305]],[[135.42641947,35.57508967],[135.42641947,35.57508967]],[[135.42693467,35.57523336],[135.42693467,35.57523336]],[[135.42696953,35.57537603],[135.42696953,35.57537603]],[[135.427026,35.57545392],[135.427026,35.57545392]],[[135.42690864,35.57563661],[135.42690864,35.57563661]],[[135.42763083,35.57607778],[135.42763083,35.57607778]],[[135.42737167,35.57854611],[135.42737167,35.57854611]],[[135.42706917,35.57866139],[135.42706917,35.57866139]],[[135.42729805,35.57873028],[135.42729805,35.57873028]],[[135.42620973,35.57920277],[135.42620973,35.57920277]],[[135.44949856,35.57922397],[135.44949856,35.57922397]],[[135.43044861,35.57917889],[135.43044861,35.57917889]],[[135.43027056,35.57922195],[135.43027056,35.57922195]],[[135.43062501,35.5793575],[135.43062501,35.5793575]],[[135.43082027,35.57948278],[135.43082027,35.57948278]],[[135.43075,35.57963833],[135.43075,35.57963833]],[[135.44948859,35.58003978],[135.44948859,35.58003978]],[[135.44941942,35.58005217],[135.44941942,35.58005217]],[[135.44937594,35.58010192],[135.44937594,35.58010192]],[[135.4260025,35.580015],[135.4260025,35.580015]],[[135.44964078,35.58014413],[135.44964078,35.58014413]],[[135.42869,35.58017722],[135.42869,35.58017722]],[[135.42743472,35.58023528],[135.42743472,35.58023528]],[[135.42700333,35.58041695],[135.42700333,35.58041695]],[[135.43186195,35.58042472],[135.43186195,35.58042472]],[[135.42629167,35.58076],[135.42629167,35.58076]],[[135.43426611,35.58150223],[135.43426611,35.58150223]],[[135.4250225,35.58289667],[135.4250225,35.58289667]],[[135.42510584,35.58313111],[135.42510584,35.58313111]],[[135.42501445,35.58336277],[135.42501445,35.58336277]],[[135.42483139,35.58340723],[135.42483139,35.58340723]],[[135.42451222,35.58339],[135.42451222,35.58339]],[[135.42302861,35.58359222],[135.42302861,35.58359222]],[[135.42461472,35.58354777],[135.42461472,35.58354777]],[[135.42331445,35.58368917],[135.42331445,35.58368917]],[[135.42468333,35.58376944],[135.42468333,35.58376944]],[[135.4224675,35.58434723],[135.4224675,35.58434723]],[[135.42120861,35.58462584],[135.42120861,35.58462584]],[[135.42143888,35.58460917],[135.42143888,35.58460917]],[[135.43460861,35.58593944],[135.43460861,35.58593944]],[[135.43473112,35.58700167],[135.43473112,35.58700167]],[[135.43454611,35.58700723],[135.43454611,35.58700723]],[[135.43411333,35.58723723],[135.43411333,35.58723723]],[[135.43455139,35.58754805],[135.43455139,35.58754805]],[[135.43491528,35.58794222],[135.43491528,35.58794222]],[[135.43692222,35.59019111],[135.43692222,35.59019111]],[[135.43702555,35.59057195],[135.43702555,35.59057195]],[[135.43645861,35.59060833],[135.43645861,35.59060833]],[[135.43782888,35.59074472],[135.43782888,35.59074472]],[[135.43868889,35.59077389],[135.43868889,35.59077389]],[[135.43692056,35.59096084],[135.43692056,35.59096084]],[[135.43935139,35.59101556],[135.43935139,35.59101556]],[[135.44352333,35.59113917],[135.44352333,35.59113917]],[[135.443,35.59194751],[135.443,35.59194751]],[[135.44427778,35.591755],[135.44427778,35.591755]],[[135.44538667,35.59237833],[135.44538667,35.59237833]],[[135.4447775,35.59269333],[135.4447775,35.59269333]],[[135.44250973,35.59418722],[135.44250973,35.59418722]],[[135.44205445,35.59451417],[135.44205445,35.59451417]],[[135.44957027,35.59738333],[135.44957027,35.59738333]],[[135.44945,35.59763667],[135.44945,35.59763667]],[[135.42135501,35.67938389],[135.42135501,35.67938389]],[[135.42158278,35.67975584],[135.42158278,35.67975584]],[[135.42146528,35.67977833],[135.42146528,35.67977833]],[[135.42099584,35.68017833],[135.42099584,35.68017833]],[[135.42124445,35.68046],[135.42124445,35.68046]],[[135.42888278,35.68169917],[135.42888278,35.68169917]],[[135.42225973,35.67918111],[135.42516,35.68849167],[135.42768778,35.681395],[135.42225973,35.67918111]],[[135.4285991,35.68333333],[135.4285991,35.68333333]],[[135.42742528,35.68456056],[135.42742528,35.68456056]],[[135.42764639,35.68457722],[135.42764639,35.68457722]],[[135.42503584,35.68561917],[135.42503584,35.68561917]],[[135.42507722,35.68576],[135.42507722,35.68576]],[[135.42497361,35.68591195],[135.42497361,35.68591195]],[[135.42511167,35.68588389],[135.42511167,35.68588389]],[[135.42452944,35.6880825],[135.42452944,35.6880825]],[[135.42414944,35.68799223],[135.42414944,35.68799223]],[[135.42426,35.68828528],[135.42426,35.68828528]],[[135.42763944,35.68851417],[135.42763944,35.68851417]],[[135.43255639,35.69743056],[135.43255639,35.69743056]],[[135.43225944,35.69738528],[135.43225944,35.69738528]],[[135.43788112,35.70897695],[135.43788112,35.70897695]],[[135.4365625,35.71106611],[135.4365625,35.71106611]],[[135.43653917,35.71120777],[135.43653917,35.71120777]],[[135.43841973,35.71132584],[135.43841973,35.71132584]],[[135.43844027,35.71141028],[135.43844027,35.71141028]],[[135.43670694,35.71179333],[135.43670694,35.71179333]],[[135.43866834,35.71250861],[135.43866834,35.71250861]],[[135.43648584,35.71284639],[135.43648584,35.71284639]],[[135.43834361,35.71334195],[135.43834361,35.71334195]],[[135.43825389,35.713635],[135.43825389,35.713635]],[[135.47426433,35.55741967],[135.47426433,35.55741967]],[[135.48661713,35.55811495],[135.48661713,35.55811495]],[[135.47752956,35.55847633],[135.47752956,35.55847633]],[[135.472299,35.56012064],[135.472299,35.56012064]],[[135.47169822,35.56120103],[135.47169822,35.56120103]],[[135.47179603,35.56129403],[135.47179603,35.56129403]],[[135.4732838,35.56182384],[135.4732838,35.56182384]],[[135.4665062,35.56193703],[135.4665062,35.56193703]],[[135.47271158,35.56365908],[135.47271158,35.56365908]],[[135.47136508,35.5641642],[135.47136508,35.5641642]],[[135.46542136,35.56441614],[135.46542136,35.56441614]],[[135.47909158,35.56591189],[135.47909158,35.56591189]],[[135.47891713,35.56603856],[135.47891713,35.56603856]],[[135.48062742,35.56642911],[135.47613659,35.56750856],[135.48062742,35.56642911]],[[135.47596769,35.56712077],[135.47596769,35.56712077]],[[135.46739545,35.56758772],[135.46739545,35.56758772]],[[135.48156908,35.56772522],[135.48156908,35.56772522]],[[135.46655703,35.56830178],[135.46655703,35.56830178]],[[135.46682611,35.56998113],[135.46682611,35.56998113]],[[135.46628025,35.57031125],[135.46628025,35.57031125]],[[135.45778674,35.57068636],[135.45778674,35.57068636]],[[135.45124228,35.570988],[135.45124228,35.570988]],[[135.46264711,35.57101384],[135.46264711,35.57101384]],[[135.46368211,35.57126077],[135.46368211,35.57126077]],[[135.46795825,35.5710555],[135.46795825,35.5710555]],[[135.45015377,35.57129833],[135.45015377,35.57129833]],[[135.46287128,35.57131169],[135.46287128,35.57131169]],[[135.4501808,35.57144439],[135.4501808,35.57144439]],[[135.44966134,35.57218089],[135.44966134,35.57218089]],[[135.44980051,35.57254405],[135.44980051,35.57254405]],[[135.44987837,35.57264653],[135.44987837,35.57264653]],[[135.45010355,35.57341717],[135.45010355,35.57341717]],[[135.45004241,35.57353505],[135.45004241,35.57353505]],[[135.4503407,35.57798861],[135.4503407,35.57798861]],[[135.45029681,35.58081025],[135.45029681,35.58081025]],[[135.45751639,35.58653639],[135.45751639,35.58653639]],[[135.46451416,35.59111528],[135.46451416,35.59111528]],[[135.46432,35.59120111],[135.46432,35.59120111]],[[135.45348416,35.59149722],[135.45348416,35.59149722]],[[135.46387584,35.59180361],[135.46387584,35.59180361]],[[135.46294889,35.59192611],[135.46294889,35.59192611]],[[135.46316944,35.59207917],[135.46316944,35.59207917]],[[135.46283027,35.59212667],[135.46283027,35.59212667]],[[135.48160639,35.59440139],[135.48160639,35.59440139]],[[135.44958917,35.59590972],[135.44958917,35.59590972]],[[135.44987528,35.59624889],[135.44987528,35.59624889]],[[135.44962861,35.59642778],[135.44962861,35.59642778]],[[135.47663917,35.59767056],[135.47663917,35.59767056]],[[135.44981694,35.59836],[135.44981694,35.59836]],[[135.44964639,35.59840028],[135.44964639,35.59840028]],[[135.47496805,35.59540361],[135.4782625,35.60593028],[135.4814425,35.59448139],[135.47496805,35.59540361]],[[135.46412472,35.59976805],[135.46412472,35.59976805]],[[135.45170222,35.59973833],[135.45170222,35.59973833]],[[135.45109222,35.60028972],[135.45109222,35.60028972]],[[135.45105195,35.600785],[135.45105195,35.600785]],[[135.45165389,35.60173472],[135.45165389,35.60173472]],[[135.45114,35.60175556],[135.45114,35.60175556]],[[135.48115361,35.60400556],[135.48115361,35.60400556]],[[135.47634584,35.60713139],[135.47634584,35.60713139]],[[135.47648889,35.60735278],[135.47648889,35.60735278]],[[135.47632611,35.60738889],[135.47632611,35.60738889]],[[135.47628611,35.60776611],[135.47628611,35.60776611]]]}}]}