{
  "type": "FeatureCollection",
  "features": [
    {
      "type": "Feature",
      "geometry": {
        "type": "Polygon",
        "coordinates": [
          [
            [
              130.142811,
              33.338878
            ],
            [
              130.20862,
              33.340739
            ],
            [
              130.227484,
              33.331302
            ],
            [
              130.223835,
              33.320436
            ],
            [
              130.232454,
              33.308875
            ],
            [
              130.242969,
              33.278124
            ],
            [
              130.244428,
              33.25297
            ],
            [
              130.234766,
              33.256843
            ],
            [
              130.221657,
              33.254472
            ],
            [
              130.218506,
              33.246738
            ],
            [
              130.223392,
              33.240212
            ],
            [
              130.221406,
              33.229266
            ],
            [
              130.229828,
              33.215016
            ],
            [
              130.229816,
              33.192878
            ],
            [
              130.251333,
              33.190185
            ],
            [
              130.25999,
              33.179994
            ],
            [
              130.278584,
              33.168889
            ],
            [
              130.285734,
              33.161686
            ],
            [
              130.287815,
              33.146919
            ],
            [
              130.355784,
              33.140357
            ],
            [
              130.35312,
              33.180462
            ],
            [
              130.340555,
              33.188446
            ],
            [
              130.339586,
              33.204471
            ],
            [
              130.355956,
              33.209545
            ],
            [
              130.362329,
              33.215349
            ],
            [
              130.378386,
              33.221306
            ],
            [
              130.379048,
              33.229179
            ],
            [
              130.369811,
              33.238418
            ],
            [
              130.374282,
              33.246148
            ],
            [
              130.373693,
              33.257252
            ],
            [
              130.350114,
              33.256018
            ],
            [
              130.343627,
              33.249898
            ],
            [
              130.335656,
              33.297623
            ],
            [
              130.343582,
              33.299362
            ],
            [
              130.33114,
              33.356489
            ],
            [
              130.326785,
              33.360668
            ],
            [
              130.314881,
              33.360819
            ],
            [
              130.304501,
              33.352173
            ],
            [
              130.288716,
              33.368453
            ],
            [
              130.291821,
              33.382065
            ],
            [
              130.276776,
              33.380509
            ],
            [
              130.273726,
              33.387168
            ],
            [
              130.278658,
              33.402741
            ],
            [
              130.292911,
              33.402495
            ],
            [
              130.299257,
              33.409953
            ],
            [
              130.313122,
              33.411865
            ],
            [
              130.320197,
              33.420581
            ],
            [
              130.327333,
              33.422368
            ],
            [
              130.332987,
              33.439861
            ],
            [
              130.339021,
              33.440503
            ],
            [
              130.334846,
              33.450495
            ],
            [
              130.321227,
              33.458256
            ],
            [
              130.306051,
              33.463349
            ],
            [
              130.296833,
              33.462901
            ],
            [
              130.274969,
              33.479682
            ],
            [
              130.262634,
              33.478005
            ],
            [
              130.249918,
              33.470497
            ],
            [
              130.226802,
              33.476695
            ],
            [
              130.198666,
              33.4812
            ],
            [
              130.188789,
              33.474892
            ],
            [
              130.183154,
              33.466768
            ],
            [
              130.169737,
              33.464301
            ],
            [
              130.164493,
              33.455265
            ],
            [
              130.17006,
              33.449058
            ],
            [
              130.16769,
              33.430672
            ],
            [
              130.156247,
              33.409149
            ],
            [
              130.15777,
              33.400796
            ],
            [
              130.15393,
              33.391692
            ],
            [
              130.140349,
              33.378132
            ],
            [
              130.139432,
              33.372197
            ],
            [
              130.14619,
              33.355433
            ],
            [
              130.140919,
              33.346683
            ],
            [
              130.142778,
              33.339018
            ],
            [
              130.142811,
              33.338878
            ]
          ]
        ]
      },
      "properties": {
        "N03_001": "佐賀県",
        "N03_002": null,
        "N03_003": null,
        "N03_004": "佐賀市",
        "N03_005": null,
        "N03_007": "41201"
      }
    },
    {
      "type": "Feature",
      "geometry": {
        "type": "MultiPolygon",
        "coordinates": [
          [
            [
              [
                130.169737,
                33.464301
              ],
              [
                130.156767,
                33.476722
              ],
              [
                130.148583,
                33.477397
              ],
              [
                130.138966,
                33.470398
              ],
              [
                130.129559,
                33.475626
              ],
              [
                130.106926,
                33.477829
              ],
              [
                130.100924,
                33.470867
              ],
              [
                130.090561,
                33.468561
              ],
              [
                130.073555,
                33.469154
              ],
              [
                130.068069,
                33.472504
              ],
              [
                130.044925,
                33.467437
              ],
              [
                130.039026,
                33.470014
              ],
              [
                130.034984,
                33.451103
              ],
              [
                130.02036,
                33.446389
              ],
              [
                129.99413,
                33.447884
              ],
              [
                129.970725,
                33.454776
              ],
              [
                129.95997,
                33.468715
              ],
              [
                129.970967,
                33.474858
              ],
              [
                129.960022,
                33.483533
              ],
              [
                129.947712,
                33.472441
              ],
              [
                129.937342,
                33.48008
              ],
              [
                129.945536,
                33.484396
              ],
              [
                129.944041,
                33.493315
              ],
              [
                129.953356,
                33.503512
              ],
              [
                129.961301,
                33.503837
              ],
              [
                129.9693,
                33.511408
              ],
              [
                129.956562,
                33.518227
              ],
              [
                129.957612,
                33.529408
              ],
              [
                129.945941,
                33.528373
              ],
              [
                129.929511,
                33.536837
              ],
              [
                129.928304,
                33.545832
              ],
              [
                129.917861,
                33.541765
              ],
              [
                129.896533,
                33.549527
              ],
              [
                129.881702,
                33.534315
              ],
              [
                129.868941,
                33.537307
              ],
              [
                129.851378,
                33.553793
              ],
              [
                129.8466,
                33.542456
              ],
              [
                129.856426,
                33.533299
              ],
              [
                129.848571,
                33.522145
              ],
              [
                129.850329,
                33.514433
              ],
              [
                129.858904,
                33.510998
              ],
              [
                129.868534,
                33.509066
              ],
              [
                129.888868,
                33.492173
              ],
              [
                129.899007,
                33.487056
              ],
              [
                129.905047,
                33.471027
              ],
              [
                129.889006,
                33.454536
              ],
              [
                129.886983,
                33.443196
              ],
              [
                129.880707,
                33.441059
              ],
              [
                129.874629,
                33.430727
              ],
              [
                129.855316,
                33.447746
              ],
              [
                129.844613,
                33.444139
              ],
              [
                129.835094,
                33.452767
              ],
              [
                129.839266,
                33.462214
              ],
              [
                129.826032,
                33.468417
              ],
              [
                129.826462,
                33.479448
              ],
              [
                129.820167,
                33.483832
              ],
              [
                129.793722,
                33.472044
              ],
              [
                129.798784,
                33.45723
              ],
              [
                129.790045,
                33.459
              ],
              [
                129.782972,
                33.451268
              ],
              [
                129.789361,
                33.442012
              ],
              [
                129.797353,
                33.443554
              ],
              [
                129.802755,
                33.436117
              ],
              [
                129.823578,
                33.420887
              ],
              [
                129.823681,
                33.411935
              ],
              [
                129.833152,
                33.413977
              ],
              [
                129.837826,
                33.407759
              ],
              [
                129.853807,
                33.403154
              ],
              [
                129.866574,
                33.404151
              ],
              [
                129.865128,
                33.393191
              ],
              [
                129.876277,
                33.387194
              ],
              [
                129.883637,
                33.390183
              ],
              [
                129.879631,
                33.400076
              ],
              [
                129.881886,
                33.407379
              ],
              [
                129.905562,
                33.406908
              ],
              [
                129.919789,
                33.394854
              ],
              [
                129.914738,
                33.377261
              ],
              [
                129.9193,
                33.364408
              ],
              [
                129.930062,
                33.357319
              ],
              [
                129.937962,
                33.345875
              ],
              [
                129.945122,
                33.34529
              ],
              [
                129.954609,
                33.322795
              ],
              [
                129.959797,
                33.327787
              ],
              [
                129.955241,
                33.341578
              ],
              [
                129.967803,
                33.336165
              ],
              [
                129.982086,
                33.326414
              ],
              [
                129.99096,
                33.328264
              ],
              [
                130.007844,
                33.316827
              ],
              [
                130.008883,
                33.304853
              ],
              [
                130.014388,
                33.294471
              ],
              [
                130.025417,
                33.283031
              ],
              [
                130.027627,
                33.280826
              ],
              [
                130.036504,
                33.277958
              ],
              [
                130.050737,
                33.28618
              ],
              [
                130.063318,
                33.297215
              ],
              [
                130.077718,
                33.302191
              ],
              [
                130.086114,
                33.312228
              ],
              [
                130.09778,
                33.31444
              ],
              [
                130.116773,
                33.326901
              ],
              [
                130.127467,
                33.339758
              ],
              [
                130.142778,
                33.339018
              ],
              [
                130.140919,
                33.346683
              ],
              [
                130.14619,
                33.355433
              ],
              [
                130.139432,
                33.372197
              ],
              [
                130.140349,
                33.378132
              ],
              [
                130.15393,
                33.391692
              ],
              [
                130.15777,
                33.400796
              ],
              [
                130.156247,
                33.409149
              ],
              [
                130.16769,
                33.430672
              ],
              [
                130.17006,
                33.449058
              ],
              [
                130.164493,
                33.455265
              ],
              [
                130.169737,
                33.464301
              ]
            ]
          ],
          [
            [
              [
                129.97802,
                33.538552
              ],
              [
                129.971775,
                33.539211
              ],
              [
                129.965218,
                33.528579
              ],
              [
                129.973232,
                33.527572
              ],
              [
                129.97802,
                33.538552
              ]
            ]
          ],
          [
            [
              [
                129.880669,
                33.547073
              ],
              [
                129.893687,
                33.554461
              ],
              [
                129.882035,
                33.567734
              ],
              [
                129.873897,
                33.559547
              ],
              [
                129.880669,
                33.547073
              ]
            ]
          ],
          [
            [
              [
                129.863298,
                33.608626
              ],
              [
                129.853916,
                33.609314
              ],
              [
                129.851953,
                33.59939
              ],
              [
                129.864274,
                33.586352
              ],
              [
                129.868384,
                33.596343
              ],
              [
                129.859526,
                33.603073
              ],
              [
                129.863298,
                33.608626
              ]
            ]
          ],
          [
            [
              [
                129.761037,
                33.567335
              ],
              [
                129.77343,
                33.572777
              ],
              [
                129.768854,
                33.58209
              ],
              [
                129.753964,
                33.577811
              ],
              [
                129.746353,
                33.582169
              ],
              [
                129.739712,
                33.573402
              ],
              [
                129.755666,
                33.563712
              ],
              [
                129.761037,
                33.567335
              ]
            ]
          ]
        ]
      },
      "properties": {
        "N03_001": "佐賀県",
        "N03_002": null,
        "N03_003": null,
        "N03_004": "唐津市",
        "N03_005": null,
        "N03_007": "41202"
      }
    },
    {
      "type": "Feature",
      "geometry": {
        "type": "Polygon",
        "coordinates": [
          [
            [
              130.441701,
              33.397484
            ],
            [
              130.44198,
              33.385545
            ],
            [
              130.456074,
              33.366415
            ],
            [
              130.457414,
              33.347316
            ],
            [
              130.467051,
              33.350069
            ],
            [
              130.472672,
              33.338176
            ],
            [
              130.479558,
              33.335941
            ],
            [
              130.499456,
              33.325576
            ],
            [
              130.505864,
              33.332387
            ],
            [
              130.508836,
              33.343293
            ],
            [
              130.52609,
              33.340108
            ],
            [
              130.535978,
              33.342962
            ],
            [
              130.542004,
              33.366828
            ],
            [
              130.540687,
              33.403542
            ],
            [
              130.527201,
              33.403275
            ],
            [
              130.526888,
              33.411195
            ],
            [
              130.518055,
              33.412252
            ],
            [
              130.499615,
              33.406453
            ],
            [
              130.477895,
              33.423907
            ],
            [
              130.462433,
              33.427969
            ],
            [
              130.458081,
              33.419781
            ],
            [
              130.442214,
              33.415634
            ],
            [
              130.437036,
              33.404852
            ],
            [
              130.441701,
              33.397484
            ]
          ]
        ]
      },
      "properties": {
        "N03_001": "佐賀県",
        "N03_002": null,
        "N03_003": null,
        "N03_004": "鳥栖市",
        "N03_005": null,
        "N03_007": "41203"
      }
    },
    {
      "type": "Feature",
      "geometry": {
        "type": "Polygon",
        "coordinates": [
          [
            [
              130.142778,
              33.339018
            ],
            [
              130.127467,
              33.339758
            ],
            [
              130.116773,
              33.326901
            ],
            [
              130.09778,
              33.31444
            ],
            [
              130.086114,
              33.312228
            ],
            [
              130.077718,
              33.302191
            ],
            [
              130.063318,
              33.297215
            ],
            [
              130.050737,
              33.28618
            ],
            [
              130.036504,
              33.277958
            ],
            [
              130.027627,
              33.280826
            ],
            [
              130.02221,
              33.261905
            ],
            [
              130.027452,
              33.249833
            ],
            [
              130.043908,
              33.250694
            ],
            [
              130.055493,
              33.238669
            ],
            [
              130.064137,
              33.243946
            ],
            [
              130.079074,
              33.237097
            ],
            [
              130.095726,
              33.238757
            ],
            [
              130.103493,
              33.23508
            ],
            [
              130.111718,
              33.239284
            ],
            [
              130.125558,
              33.234258
            ],
            [
              130.127025,
              33.238907
            ],
            [
              130.158808,
              33.254112
            ],
            [
              130.165706,
              33.243716
            ],
            [
              130.181281,
              33.246499
            ],
            [
              130.182798,
              33.250452
            ],
            [
              130.169897,
              33.266889
            ],
            [
              130.163154,
              33.2791
            ],
            [
              130.168864,
              33.287803
            ],
            [
              130.157251,
              33.292979
            ],
            [
              130.158193,
              33.302039
            ],
            [
              130.15008,
              33.308407
            ],
            [
              130.137291,
              33.311524
            ],
            [
              130.138512,
              33.334753
            ],
            [
              130.142811,
              33.338878
            ],
            [
              130.142778,
              33.339018
            ]
          ]
        ]
      },
      "properties": {
        "N03_001": "佐賀県",
        "N03_002": null,
        "N03_003": null,
        "N03_004": "多久市",
        "N03_005": null,
        "N03_007": "41204"
      }
    },
    {
      "type": "Feature",
      "geometry": {
        "type": "Polygon",
        "coordinates": [
          [
            [
              129.865128,
              33.393191
            ],
            [
              129.870968,
              33.388228
            ],
            [
              129.858417,
              33.367854
            ],
            [
              129.845236,
              33.354176
            ],
            [
              129.847755,
              33.343722
            ],
            [
              129.827569,
              33.337164
            ],
            [
              129.836057,
              33.322907
            ],
            [
              129.83588,
              33.311555
            ],
            [
              129.831137,
              33.304171
            ],
            [
              129.846547,
              33.301605
            ],
            [
              129.844063,
              33.293177
            ],
            [
              129.835609,
              33.291542
            ],
            [
              129.821389,
              33.31051
            ],
            [
              129.81235,
              33.314401
            ],
            [
              129.808619,
              33.326647
            ],
            [
              129.789359,
              33.340478
            ],
            [
              129.776617,
              33.332994
            ],
            [
              129.758968,
              33.290851
            ],
            [
              129.76825,
              33.285789
            ],
            [
              129.778471,
              33.269206
            ],
            [
              129.809695,
              33.242814
            ],
            [
              129.814086,
              33.236373
            ],
            [
              129.836589,
              33.235123
            ],
            [
              129.869465,
              33.241084
            ],
            [
              129.879257,
              33.225556
            ],
            [
              129.897896,
              33.223979
            ],
            [
              129.903996,
              33.227757
            ],
            [
              129.920952,
              33.225926
            ],
            [
              129.931201,
              33.229924
            ],
            [
              129.95065,
              33.25702
            ],
            [
              129.961136,
              33.254793
            ],
            [
              129.971062,
              33.261662
            ],
            [
              129.972445,
              33.26858
            ],
            [
              129.980349,
              33.274166
            ],
            [
              130.002143,
              33.280839
            ],
            [
              130.025417,
              33.283031
            ],
            [
              130.014388,
              33.294471
            ],
            [
              130.008883,
              33.304853
            ],
            [
              130.007844,
              33.316827
            ],
            [
              129.99096,
              33.328264
            ],
            [
              129.982086,
              33.326414
            ],
            [
              129.967803,
              33.336165
            ],
            [
              129.955241,
              33.341578
            ],
            [
              129.959797,
              33.327787
            ],
            [
              129.954609,
              33.322795
            ],
            [
              129.945122,
              33.34529
            ],
            [
              129.937962,
              33.345875
            ],
            [
              129.930062,
              33.357319
            ],
            [
              129.9193,
              33.364408
            ],
            [
              129.914738,
              33.377261
            ],
            [
              129.919789,
              33.394854
            ],
            [
              129.905562,
              33.406908
            ],
            [
              129.881886,
              33.407379
            ],
            [
              129.879631,
              33.400076
            ],
            [
              129.883637,
              33.390183
            ],
            [
              129.876277,
              33.387194
            ],
            [
              129.865128,
              33.393191
            ]
          ]
        ]
      },
      "properties": {
        "N03_001": "佐賀県",
        "N03_002": null,
        "N03_003": null,
        "N03_004": "伊万里市",
        "N03_005": null,
        "N03_007": "41205"
      }
    },
    {
      "type": "Feature",
      "geometry": {
        "type": "Polygon",
        "coordinates": [
          [
            [
              130.025417,
              33.283031
            ],
            [
              130.002143,
              33.280839
            ],
            [
              129.980349,
              33.274166
            ],
            [
              129.972445,
              33.26858
            ],
            [
              129.971062,
              33.261662
            ],
            [
              129.961136,
              33.254793
            ],
            [
              129.95065,
              33.25702
            ],
            [
              129.931201,
              33.229924
            ],
            [
              129.920952,
              33.225926
            ],
            [
              129.903996,
              33.227757
            ],
            [
              129.897896,
              33.223979
            ],
            [
              129.912637,
              33.197076
            ],
            [
              129.912002,
              33.186268
            ],
            [
              129.918106,
              33.181211
            ],
            [
              129.917251,
              33.171239
            ],
            [
              129.928353,
              33.173729
            ],
            [
              129.937746,
              33.165961
            ],
            [
              129.948913,
              33.133876
            ],
            [
              129.956285,
              33.128628
            ],
            [
              129.956532,
              33.109248
            ],
            [
              129.964412,
              33.11535
            ],
            [
              129.976025,
              33.110331
            ],
            [
              129.995315,
              33.125339
            ],
            [
              129.988246,
              33.134211
            ],
            [
              130.004487,
              33.138777
            ],
            [
              130.0058,
              33.146539
            ],
            [
              130.019557,
              33.151538
            ],
            [
              130.028534,
              33.148416
            ],
            [
              130.033397,
              33.157774
            ],
            [
              130.056024,
              33.161491
            ],
            [
              130.059999,
              33.167452
            ],
            [
              130.072219,
              33.166993
            ],
            [
              130.077038,
              33.173117
            ],
            [
              130.070282,
              33.181631
            ],
            [
              130.08403,
              33.18411
            ],
            [
              130.090337,
              33.200443
            ],
            [
              130.099296,
              33.204609
            ],
            [
              130.093338,
              33.214652
            ],
            [
              130.099928,
              33.223592
            ],
            [
              130.103493,
              33.23508
            ],
            [
              130.095726,
              33.238757
            ],
            [
              130.079074,
              33.237097
            ],
            [
              130.064137,
              33.243946
            ],
            [
              130.055493,
              33.238669
            ],
            [
              130.043908,
              33.250694
            ],
            [
              130.027452,
              33.249833
            ],
            [
              130.02221,
              33.261905
            ],
            [
              130.027627,
              33.280826
            ],
            [
              130.025417,
              33.283031
            ]
          ]
        ]
      },
      "properties": {
        "N03_001": "佐賀県",
        "N03_002": null,
        "N03_003": null,
        "N03_004": "武雄市",
        "N03_005": null,
        "N03_007": "41206"
      }
    },
    {
      "type": "Feature",
      "geometry": {
        "type": "Polygon",
        "coordinates": [
          [
            [
              130.082369,
              33.130768
            ],
            [
              130.083998,
              33.122901
            ],
            [
              130.078501,
              33.117275
            ],
            [
              130.084616,
              33.111018
            ],
            [
              130.075377,
              33.098044
            ],
            [
              130.062897,
              33.093901
            ],
            [
              130.039397,
              33.079226
            ],
            [
              130.041507,
              33.069409
            ],
            [
              130.048038,
              33.06249
            ],
            [
              130.044979,
              33.043225
            ],
            [
              130.037948,
              33.029943
            ],
            [
              130.044595,
              33.024678
            ],
            [
              130.04414,
              33.005259
            ],
            [
              130.046805,
              32.998444
            ],
            [
              130.061227,
              32.985851
            ],
            [
              130.076132,
              32.987651
            ],
            [
              130.092906,
              32.999032
            ],
            [
              130.096893,
              33.014241
            ],
            [
              130.113296,
              33.023411
            ],
            [
              130.121403,
              33.024294
            ],
            [
              130.153591,
              33.040131
            ],
            [
              130.169725,
              33.05102
            ],
            [
              130.144718,
              33.072992
            ],
            [
              130.145823,
              33.086649
            ],
            [
              130.140659,
              33.094376
            ],
            [
              130.126321,
              33.106932
            ],
            [
              130.128474,
              33.121921
            ],
            [
              130.120772,
              33.128538
            ],
            [
              130.110476,
              33.1316
            ],
            [
              130.082369,
              33.130768
            ]
          ]
        ]
      },
      "properties": {
        "N03_001": "佐賀県",
        "N03_002": null,
        "N03_003": null,
        "N03_004": "鹿島市",
        "N03_005": null,
        "N03_007": "41207"
      }
    },
    {
      "type": "Feature",
      "geometry": {
        "type": "Polygon",
        "coordinates": [
          [
            [
              130.142811,
              33.338878
            ],
            [
              130.138512,
              33.334753
            ],
            [
              130.137291,
              33.311524
            ],
            [
              130.15008,
              33.308407
            ],
            [
              130.158193,
              33.302039
            ],
            [
              130.157251,
              33.292979
            ],
            [
              130.168864,
              33.287803
            ],
            [
              130.163154,
              33.2791
            ],
            [
              130.169897,
              33.266889
            ],
            [
              130.182798,
              33.250452
            ],
            [
              130.181281,
              33.246499
            ],
            [
              130.165706,
              33.243716
            ],
            [
              130.159811,
              33.237439
            ],
            [
              130.162905,
              33.228491
            ],
            [
              130.178958,
              33.227778
            ],
            [
              130.192871,
              33.214738
            ],
            [
              130.189587,
              33.205487
            ],
            [
              130.202444,
              33.194111
            ],
            [
              130.223852,
              33.195858
            ],
            [
              130.229584,
              33.192962
            ],
            [
              130.229816,
              33.192878
            ],
            [
              130.229828,
              33.215016
            ],
            [
              130.221406,
              33.229266
            ],
            [
              130.223392,
              33.240212
            ],
            [
              130.218506,
              33.246738
            ],
            [
              130.221657,
              33.254472
            ],
            [
              130.234766,
              33.256843
            ],
            [
              130.244428,
              33.25297
            ],
            [
              130.242969,
              33.278124
            ],
            [
              130.232454,
              33.308875
            ],
            [
              130.223835,
              33.320436
            ],
            [
              130.227484,
              33.331302
            ],
            [
              130.20862,
              33.340739
            ],
            [
              130.142811,
              33.338878
            ]
          ]
        ]
      },
      "properties": {
        "N03_001": "佐賀県",
        "N03_002": null,
        "N03_003": null,
        "N03_004": "小城市",
        "N03_005": null,
        "N03_007": "41208"
      }
    },
    {
      "type": "Feature",
      "geometry": {
        "type": "Polygon",
        "coordinates": [
          [
            [
              129.956532,
              33.109248
            ],
            [
              129.938732,
              33.112721
            ],
            [
              129.925273,
              33.1059
            ],
            [
              129.922357,
              33.090493
            ],
            [
              129.933335,
              33.088105
            ],
            [
              129.939506,
              33.072941
            ],
            [
              129.982873,
              33.057116
            ],
            [
              129.994494,
              33.047717
            ],
            [
              129.993591,
              33.038783
            ],
            [
              130.000834,
              33.025872
            ],
            [
              130.014952,
              33.017479
            ],
            [
              130.027969,
              33.020023
            ],
            [
              130.028014,
              33.012446
            ],
            [
              130.04414,
              33.005259
            ],
            [
              130.044595,
              33.024678
            ],
            [
              130.037948,
              33.029943
            ],
            [
              130.044979,
              33.043225
            ],
            [
              130.048038,
              33.06249
            ],
            [
              130.041507,
              33.069409
            ],
            [
              130.039397,
              33.079226
            ],
            [
              130.062897,
              33.093901
            ],
            [
              130.075377,
              33.098044
            ],
            [
              130.084616,
              33.111018
            ],
            [
              130.078501,
              33.117275
            ],
            [
              130.083998,
              33.122901
            ],
            [
              130.082369,
              33.130768
            ],
            [
              130.070408,
              33.134673
            ],
            [
              130.083839,
              33.141598
            ],
            [
              130.088215,
              33.152027
            ],
            [
              130.080463,
              33.161269
            ],
            [
              130.077038,
              33.173117
            ],
            [
              130.072219,
              33.166993
            ],
            [
              130.059999,
              33.167452
            ],
            [
              130.056024,
              33.161491
            ],
            [
              130.033397,
              33.157774
            ],
            [
              130.028534,
              33.148416
            ],
            [
              130.019557,
              33.151538
            ],
            [
              130.0058,
              33.146539
            ],
            [
              130.004487,
              33.138777
            ],
            [
              129.988246,
              33.134211
            ],
            [
              129.995315,
              33.125339
            ],
            [
              129.976025,
              33.110331
            ],
            [
              129.964412,
              33.11535
            ],
            [
              129.956532,
              33.109248
            ]
          ]
        ]
      },
      "properties": {
        "N03_001": "佐賀県",
        "N03_002": null,
        "N03_003": null,
        "N03_004": "嬉野市",
        "N03_005": null,
        "N03_007": "41209"
      }
    },
    {
      "type": "Feature",
      "geometry": {
        "type": "Polygon",
        "coordinates": [
          [
            [
              130.374282,
              33.246148
            ],
            [
              130.385279,
              33.24048
            ],
            [
              130.390308,
              33.245304
            ],
            [
              130.388857,
              33.256236
            ],
            [
              130.400018,
              33.2591
            ],
            [
              130.402096,
              33.248651
            ],
            [
              130.413388,
              33.251331
            ],
            [
              130.419509,
              33.261603
            ],
            [
              130.415139,
              33.269017
            ],
            [
              130.408037,
              33.271726
            ],
            [
              130.406174,
              33.285026
            ],
            [
              130.401431,
              33.285865
            ],
            [
              130.396946,
              33.282842
            ],
            [
              130.387254,
              33.317783
            ],
            [
              130.383099,
              33.319333
            ],
            [
              130.385589,
              33.335513
            ],
            [
              130.375366,
              33.370707
            ],
            [
              130.36505,
              33.3897
            ],
            [
              130.377508,
              33.395149
            ],
            [
              130.383711,
              33.404639
            ],
            [
              130.378002,
              33.413526
            ],
            [
              130.377947,
              33.427026
            ],
            [
              130.368811,
              33.436281
            ],
            [
              130.355267,
              33.433466
            ],
            [
              130.345428,
              33.445021
            ],
            [
              130.339021,
              33.440503
            ],
            [
              130.332987,
              33.439861
            ],
            [
              130.327333,
              33.422368
            ],
            [
              130.320197,
              33.420581
            ],
            [
              130.313122,
              33.411865
            ],
            [
              130.299257,
              33.409953
            ],
            [
              130.292911,
              33.402495
            ],
            [
              130.278658,
              33.402741
            ],
            [
              130.273726,
              33.387168
            ],
            [
              130.276776,
              33.380509
            ],
            [
              130.291821,
              33.382065
            ],
            [
              130.288716,
              33.368453
            ],
            [
              130.304501,
              33.352173
            ],
            [
              130.314881,
              33.360819
            ],
            [
              130.326785,
              33.360668
            ],
            [
              130.33114,
              33.356489
            ],
            [
              130.343582,
              33.299362
            ],
            [
              130.335656,
              33.297623
            ],
            [
              130.343627,
              33.249898
            ],
            [
              130.350114,
              33.256018
            ],
            [
              130.373693,
              33.257252
            ],
            [
              130.374282,
              33.246148
            ]
          ]
        ]
      },
      "properties": {
        "N03_001": "佐賀県",
        "N03_002": null,
        "N03_003": null,
        "N03_004": "神埼市",
        "N03_005": null,
        "N03_007": "41210"
      }
    },
    {
      "type": "Feature",
      "geometry": {
        "type": "Polygon",
        "coordinates": [
          [
            [
              130.401431,
              33.285865
            ],
            [
              130.405404,
              33.290313
            ],
            [
              130.405794,
              33.302905
            ],
            [
              130.413356,
              33.314883
            ],
            [
              130.415484,
              33.335572
            ],
            [
              130.418816,
              33.335874
            ],
            [
              130.410895,
              33.359495
            ],
            [
              130.417796,
              33.367456
            ],
            [
              130.420146,
              33.379103
            ],
            [
              130.413955,
              33.390395
            ],
            [
              130.407556,
              33.399002
            ],
            [
              130.416809,
              33.410449
            ],
            [
              130.404766,
              33.416241
            ],
            [
              130.396484,
              33.427551
            ],
            [
              130.378219,
              33.424959
            ],
            [
              130.378002,
              33.413526
            ],
            [
              130.383711,
              33.404639
            ],
            [
              130.377508,
              33.395149
            ],
            [
              130.36505,
              33.3897
            ],
            [
              130.375366,
              33.370707
            ],
            [
              130.385589,
              33.335513
            ],
            [
              130.383099,
              33.319333
            ],
            [
              130.387254,
              33.317783
            ],
            [
              130.396946,
              33.282842
            ],
            [
              130.401431,
              33.285865
            ]
          ]
        ]
      },
      "properties": {
        "N03_001": "佐賀県",
        "N03_002": null,
        "N03_003": "神埼郡",
        "N03_004": "吉野ヶ里町",
        "N03_005": null,
        "N03_007": "41327"
      }
    },
    {
      "type": "Feature",
      "geometry": {
        "type": "Polygon",
        "coordinates": [
          [
            [
              130.540687,
              33.403542
            ],
            [
              130.541064,
              33.421223
            ],
            [
              130.534976,
              33.440506
            ],
            [
              130.512293,
              33.449421
            ],
            [
              130.48025,
              33.436117
            ],
            [
              130.476593,
              33.438464
            ],
            [
              130.462433,
              33.427969
            ],
            [
              130.477895,
              33.423907
            ],
            [
              130.499615,
              33.406453
            ],
            [
              130.518055,
              33.412252
            ],
            [
              130.526888,
              33.411195
            ],
            [
              130.527201,
              33.403275
            ],
            [
              130.540687,
              33.403542
            ]
          ]
        ]
      },
      "properties": {
        "N03_001": "佐賀県",
        "N03_002": null,
        "N03_003": "三養基郡",
        "N03_004": "基山町",
        "N03_005": null,
        "N03_007": "41341"
      }
    },
    {
      "type": "Feature",
      "geometry": {
        "type": "Polygon",
        "coordinates": [
          [
            [
              130.405794,
              33.302905
            ],
            [
              130.406149,
              33.296627
            ],
            [
              130.431687,
              33.298905
            ],
            [
              130.433746,
              33.30717
            ],
            [
              130.442582,
              33.311385
            ],
            [
              130.43072,
              33.321216
            ],
            [
              130.425665,
              33.337055
            ],
            [
              130.433683,
              33.340019
            ],
            [
              130.427158,
              33.348419
            ],
            [
              130.429676,
              33.354844
            ],
            [
              130.422591,
              33.398461
            ],
            [
              130.413955,
              33.390395
            ],
            [
              130.420146,
              33.379103
            ],
            [
              130.417796,
              33.367456
            ],
            [
              130.410895,
              33.359495
            ],
            [
              130.418816,
              33.335874
            ],
            [
              130.415484,
              33.335572
            ],
            [
              130.413356,
              33.314883
            ],
            [
              130.405794,
              33.302905
            ]
          ]
        ]
      },
      "properties": {
        "N03_001": "佐賀県",
        "N03_002": null,
        "N03_003": "三養基郡",
        "N03_004": "上峰町",
        "N03_005": null,
        "N03_007": "41345"
      }
    },
    {
      "type": "Feature",
      "geometry": {
        "type": "Polygon",
        "coordinates": [
          [
            [
              130.441701,
              33.397484
            ],
            [
              130.422591,
              33.398461
            ],
            [
              130.429676,
              33.354844
            ],
            [
              130.427158,
              33.348419
            ],
            [
              130.433683,
              33.340019
            ],
            [
              130.425665,
              33.337055
            ],
            [
              130.43072,
              33.321216
            ],
            [
              130.442582,
              33.311385
            ],
            [
              130.433746,
              33.30717
            ],
            [
              130.431687,
              33.298905
            ],
            [
              130.406149,
              33.296627
            ],
            [
              130.405794,
              33.302905
            ],
            [
              130.405404,
              33.290313
            ],
            [
              130.401431,
              33.285865
            ],
            [
              130.406174,
              33.285026
            ],
            [
              130.408037,
              33.271726
            ],
            [
              130.415139,
              33.269017
            ],
            [
              130.428102,
              33.271601
            ],
            [
              130.430946,
              33.280532
            ],
            [
              130.426746,
              33.289846
            ],
            [
              130.438495,
              33.289377
            ],
            [
              130.43623,
              33.269794
            ],
            [
              130.449746,
              33.265098
            ],
            [
              130.448725,
              33.278408
            ],
            [
              130.453381,
              33.28321
            ],
            [
              130.467976,
              33.287283
            ],
            [
              130.455366,
              33.294697
            ],
            [
              130.461667,
              33.304421
            ],
            [
              130.484091,
              33.305351
            ],
            [
              130.489491,
              33.3163
            ],
            [
              130.476992,
              33.326004
            ],
            [
              130.479558,
              33.335941
            ],
            [
              130.472672,
              33.338176
            ],
            [
              130.467051,
              33.350069
            ],
            [
              130.457414,
              33.347316
            ],
            [
              130.456074,
              33.366415
            ],
            [
              130.44198,
              33.385545
            ],
            [
              130.441701,
              33.397484
            ]
          ]
        ]
      },
      "properties": {
        "N03_001": "佐賀県",
        "N03_002": null,
        "N03_003": "三養基郡",
        "N03_004": "みやき町",
        "N03_005": null,
        "N03_007": "41346"
      }
    },
    {
      "type": "Feature",
      "geometry": {
        "type": "Polygon",
        "coordinates": [
          [
            [
              129.858904,
              33.510998
            ],
            [
              129.857388,
              33.505654
            ],
            [
              129.845423,
              33.517245
            ],
            [
              129.836459,
              33.513673
            ],
            [
              129.829637,
              33.505209
            ],
            [
              129.841624,
              33.491272
            ],
            [
              129.845499,
              33.479618
            ],
            [
              129.857218,
              33.464794
            ],
            [
              129.848705,
              33.449632
            ],
            [
              129.855316,
              33.447746
            ],
            [
              129.874629,
              33.430727
            ],
            [
              129.880707,
              33.441059
            ],
            [
              129.886983,
              33.443196
            ],
            [
              129.889006,
              33.454536
            ],
            [
              129.905047,
              33.471027
            ],
            [
              129.899007,
              33.487056
            ],
            [
              129.888868,
              33.492173
            ],
            [
              129.868534,
              33.509066
            ],
            [
              129.858904,
              33.510998
            ]
          ]
        ]
      },
      "properties": {
        "N03_001": "佐賀県",
        "N03_002": null,
        "N03_003": "東松浦郡",
        "N03_004": "玄海町",
        "N03_005": null,
        "N03_007": "41387"
      }
    },
    {
      "type": "Feature",
      "geometry": {
        "type": "Polygon",
        "coordinates": [
          [
            [
              129.814086,
              33.236373
            ],
            [
              129.809914,
              33.230364
            ],
            [
              129.81308,
              33.220943
            ],
            [
              129.806897,
              33.211169
            ],
            [
              129.810058,
              33.201796
            ],
            [
              129.816741,
              33.197736
            ],
            [
              129.817148,
              33.184536
            ],
            [
              129.837938,
              33.173255
            ],
            [
              129.851565,
              33.177296
            ],
            [
              129.858022,
              33.170791
            ],
            [
              129.885393,
              33.161935
            ],
            [
              129.905277,
              33.15794
            ],
            [
              129.934594,
              33.163276
            ],
            [
              129.928353,
              33.173729
            ],
            [
              129.917251,
              33.171239
            ],
            [
              129.918106,
              33.181211
            ],
            [
              129.912002,
              33.186268
            ],
            [
              129.912637,
              33.197076
            ],
            [
              129.897896,
              33.223979
            ],
            [
              129.879257,
              33.225556
            ],
            [
              129.869465,
              33.241084
            ],
            [
              129.836589,
              33.235123
            ],
            [
              129.814086,
              33.236373
            ]
          ]
        ]
      },
      "properties": {
        "N03_001": "佐賀県",
        "N03_002": null,
        "N03_003": "西松浦郡",
        "N03_004": "有田町",
        "N03_005": null,
        "N03_007": "41401"
      }
    },
    {
      "type": "Feature",
      "geometry": {
        "type": "Polygon",
        "coordinates": [
          [
            [
              130.103493,
              33.23508
            ],
            [
              130.099928,
              33.223592
            ],
            [
              130.093338,
              33.214652
            ],
            [
              130.099296,
              33.204609
            ],
            [
              130.11037,
              33.203262
            ],
            [
              130.12642,
              33.196292
            ],
            [
              130.126039,
              33.204122
            ],
            [
              130.134945,
              33.208653
            ],
            [
              130.137751,
              33.215823
            ],
            [
              130.124888,
              33.226586
            ],
            [
              130.125558,
              33.234258
            ],
            [
              130.111718,
              33.239284
            ],
            [
              130.103493,
              33.23508
            ]
          ]
        ]
      },
      "properties": {
        "N03_001": "佐賀県",
        "N03_002": null,
        "N03_003": "杵島郡",
        "N03_004": "大町町",
        "N03_005": null,
        "N03_007": "41423"
      }
    },
    {
      "type": "Feature",
      "geometry": {
        "type": "Polygon",
        "coordinates": [
          [
            [
              130.125558,
              33.234258
            ],
            [
              130.124888,
              33.226586
            ],
            [
              130.137751,
              33.215823
            ],
            [
              130.134945,
              33.208653
            ],
            [
              130.142029,
              33.204815
            ],
            [
              130.136788,
              33.196628
            ],
            [
              130.16744,
              33.192175
            ],
            [
              130.168099,
              33.202507
            ],
            [
              130.181735,
              33.199973
            ],
            [
              130.189587,
              33.205487
            ],
            [
              130.192871,
              33.214738
            ],
            [
              130.178958,
              33.227778
            ],
            [
              130.162905,
              33.228491
            ],
            [
              130.159811,
              33.237439
            ],
            [
              130.165706,
              33.243716
            ],
            [
              130.158808,
              33.254112
            ],
            [
              130.127025,
              33.238907
            ],
            [
              130.125558,
              33.234258
            ]
          ]
        ]
      },
      "properties": {
        "N03_001": "佐賀県",
        "N03_002": null,
        "N03_003": "杵島郡",
        "N03_004": "江北町",
        "N03_005": null,
        "N03_007": "41424"
      }
    },
    {
      "type": "Feature",
      "geometry": {
        "type": "Polygon",
        "coordinates": [
          [
            [
              130.077038,
              33.173117
            ],
            [
              130.080463,
              33.161269
            ],
            [
              130.088215,
              33.152027
            ],
            [
              130.083839,
              33.141598
            ],
            [
              130.070408,
              33.134673
            ],
            [
              130.082369,
              33.130768
            ],
            [
              130.110476,
              33.1316
            ],
            [
              130.120772,
              33.128538
            ],
            [
              130.128474,
              33.121921
            ],
            [
              130.12951,
              33.11783
            ],
            [
              130.149356,
              33.112391
            ],
            [
              130.168791,
              33.129664
            ],
            [
              130.191727,
              33.14042
            ],
            [
              130.190073,
              33.146079
            ],
            [
              130.223485,
              33.166662
            ],
            [
              130.232426,
              33.185256
            ],
            [
              130.229584,
              33.192962
            ],
            [
              130.223852,
              33.195858
            ],
            [
              130.202444,
              33.194111
            ],
            [
              130.189587,
              33.205487
            ],
            [
              130.181735,
              33.199973
            ],
            [
              130.168099,
              33.202507
            ],
            [
              130.16744,
              33.192175
            ],
            [
              130.136788,
              33.196628
            ],
            [
              130.142029,
              33.204815
            ],
            [
              130.134945,
              33.208653
            ],
            [
              130.126039,
              33.204122
            ],
            [
              130.12642,
              33.196292
            ],
            [
              130.11037,
              33.203262
            ],
            [
              130.099296,
              33.204609
            ],
            [
              130.090337,
              33.200443
            ],
            [
              130.08403,
              33.18411
            ],
            [
              130.070282,
              33.181631
            ],
            [
              130.077038,
              33.173117
            ]
          ]
        ]
      },
      "properties": {
        "N03_001": "佐賀県",
        "N03_002": null,
        "N03_003": "杵島郡",
        "N03_004": "白石町",
        "N03_005": null,
        "N03_007": "41425"
      }
    },
    {
      "type": "Feature",
      "geometry": {
        "type": "Polygon",
        "coordinates": [
          [
            [
              130.076132,
              32.987651
            ],
            [
              130.088682,
              32.974032
            ],
            [
              130.103026,
              32.97474
            ],
            [
              130.131341,
              32.968295
            ],
            [
              130.144056,
              32.971684
            ],
            [
              130.150092,
              32.962591
            ],
            [
              130.212572,
              32.958042
            ],
            [
              130.224921,
              32.960776
            ],
            [
              130.223983,
              32.973546
            ],
            [
              130.205078,
              32.990918
            ],
            [
              130.191509,
              32.989859
            ],
            [
              130.187885,
              33.011673
            ],
            [
              130.181242,
              33.015107
            ],
            [
              130.182735,
              33.024772
            ],
            [
              130.171212,
              33.035826
            ],
            [
              130.169725,
              33.05102
            ],
            [
              130.153591,
              33.040131
            ],
            [
              130.121403,
              33.024294
            ],
            [
              130.113296,
              33.023411
            ],
            [
              130.096893,
              33.014241
            ],
            [
              130.092906,
              32.999032
            ],
            [
              130.076132,
              32.987651
            ]
          ]
        ]
      },
      "properties": {
        "N03_001": "佐賀県",
        "N03_002": null,
        "N03_003": "藤津郡",
        "N03_004": "太良町",
        "N03_005": null,
        "N03_007": "41441"
      }
    }
  ]
}