{"type":"FeatureCollection","name":"大阪府","features":[{"type":"Feature","properties":{"name":"大阪府"},"geometry":{"type":"MultiLineString","coordinates":[[[135.12098694,34.27391361],[135.11140973,34.27183361],[135.10863973,34.28398667],[135.09869694,34.28903639],[135.09679501,34.29687277],[135.10622694,34.30807333],[135.09192489,34.31506033],[135.13055659,34.32617369],[135.13013905,34.32048033],[135.14015416,34.3176985],[135.15342336,34.33135664],[135.22287961,34.34728036],[135.2488315,34.37699877],[135.26379041,34.38107908],[135.28242497,34.39888164],[135.2878885,34.39591905],[135.29452837,34.4150672],[135.31965433,34.42093633],[135.31376636,34.42664725],[135.3254572,34.42674731],[135.32108416,34.43313777],[135.34674255,34.44825628],[135.35136425,34.46277947],[135.35344419,34.4508442],[135.36080486,34.46154687],[135.35291122,34.46243383],[135.36265983,34.47233628],[135.36354025,34.46578672],[135.372224,34.47167339],[135.36521681,34.48006559],[135.37593092,34.47322072],[135.37179798,34.48128431],[135.37737211,34.48651161],[135.36970756,34.49011836],[135.37864686,34.51088516],[135.36716139,34.51704464],[135.3789913,34.5329378],[135.38601992,34.51746508],[135.38174311,34.51168087],[135.38906341,34.51323416],[135.3900893,34.50548316],[135.40204117,34.51856616],[135.40527134,34.51035253],[135.41036433,34.52291249],[135.4186317,34.51926513],[135.43175333,34.53085439],[135.44478603,34.55722078],[135.40923905,34.55781809],[135.40213319,34.60000097],[135.41574825,34.59375872],[135.42081711,34.56967905],[135.42942949,34.57070416],[135.42618988,34.58962369],[135.44150936,34.58294925],[135.44496603,34.56700953],[135.45236825,34.56479739],[135.45139969,34.57498172],[135.457614,34.57571667],[135.45011209,34.58373459],[135.46581903,34.58291441],[135.44929486,34.58704553],[135.46233153,34.58737692],[135.46059683,34.59486114],[135.4377037,34.58865592],[135.42554936,34.59334477],[135.42359095,34.6050302],[135.44540095,34.59818347],[135.43750353,34.61076539],[135.42340547,34.61077141],[135.42342514,34.61898422],[135.432961,34.61302492],[135.43098769,34.62257844],[135.44129917,34.62617592],[135.44756479,34.61788019],[135.4481453,34.63070789],[135.45357425,34.62922456],[135.45078925,34.64533325],[135.42611672,34.64992023],[135.42046186,34.66020022],[135.41431394,34.65166739],[135.42626817,34.66782297],[135.41728158,34.66371213],[135.41666667,34.67321013],[135.40676815,34.6738368],[135.42225973,34.67963297],[135.40857778,34.69878167],[135.44617027,34.71833972],[135.44770861,34.73362],[135.46029501,34.73313556],[135.45993722,34.751],[135.44469667,34.76852916],[135.4427875,34.79117444],[135.42369139,34.80207444],[135.41599056,34.81769277],[135.42433,34.83712277],[135.41687834,34.85222472],[135.43135834,34.85641528],[135.44581778,34.89721222],[135.43074195,34.89243056],[135.42720445,34.90604583],[135.41865139,34.90894805],[135.43930278,34.92050444],[135.46359611,34.91830556],[135.46838195,34.92717056],[135.44165694,34.939395],[135.41848472,34.93389444],[135.40910027,34.94549444],[135.39235195,34.94136583],[135.38263222,34.95599139],[135.36038472,34.95446972],[135.34648139,34.96449611],[135.3495925,34.97897833],[135.35953278,34.98251556],[135.35256278,34.99038889],[135.3546975,35.02479028],[135.33980278,35.02587723],[135.33020389,35.03522361],[135.34983944,35.0511375],[135.35947805,35.05011195],[135.38004445,35.03910639],[135.38169333,35.01024751],[135.40324722,35.00669195],[135.40976722,35.01152556],[135.42101333,35.00215639],[135.44018416,35.00769333],[135.49260639,34.98933778],[135.48316278,34.98186833],[135.49091639,34.96802195],[135.48193639,34.96522972],[135.48732889,34.9571675],[135.4811375,34.94973944],[135.49435501,34.94085472],[135.51459361,34.94411972],[135.51727139,34.93347972],[135.53814584,34.92539972],[135.54131361,34.91522611],[135.58125805,34.92245167],[135.58105333,34.93703583],[135.5628,34.93341805],[135.5647125,34.94236444],[135.55732722,34.93468583],[135.56313139,34.95366389],[135.57857778,34.955885],[135.57273056,34.97123777],[135.58255195,34.97675611],[135.59236472,34.96604028],[135.61326361,34.97119528],[135.61870555,34.95813639],[135.59932167,34.92829167],[135.63040472,34.93514695],[135.64928889,34.92534805],[135.65351416,34.91728972],[135.64850222,34.90954749],[135.67138389,34.902385],[135.68269445,34.88784222],[135.68201306,34.87315333],[135.69111778,34.86888944],[135.69491445,34.84828222],[135.70772139,34.8492725],[135.74660306,34.80159056],[135.72728278,34.7762325],[135.70964083,34.78016916],[135.71021639,34.75387139],[135.69679333,34.743695],[135.70413555,34.72378111],[135.67301861,34.70163611],[135.67870472,34.67775944],[135.66432139,34.651295],[135.6590975,34.61481777],[135.65012139,34.60783277],[135.67569389,34.60173889],[135.68175888,34.58477833],[135.67154472,34.57991111],[135.67299389,34.57062972],[135.65692278,34.56227972],[135.65028472,34.54411195],[135.65949667,34.54389083],[135.66228667,34.53004111],[135.67704278,34.52537028],[135.67301973,34.50278805],[135.68472611,34.48541611],[135.68673611,34.4487575],[135.67897917,34.43276111],[135.66428528,34.42322667],[135.68009306,34.40919861],[135.67610472,34.4000175],[135.66383611,34.39730389],[135.65383139,34.38334667],[135.57712083,34.37604944],[135.50782083,34.33649667],[135.48537611,34.36283249],[135.46570501,34.34733472],[135.43545083,34.34867333],[135.42491584,34.3399825],[135.40897445,34.34184278],[135.39704611,34.33039111],[135.33823805,34.33527805],[135.33913555,34.32942972],[135.32790306,34.32374749],[135.33050694,34.31674639],[135.3039675,34.31371472],[135.29337306,34.29929277],[135.28281222,34.31791],[135.2722825,34.31198361],[135.25423639,34.31575333],[135.22500555,34.30086139],[135.20804306,34.3082025],[135.20518139,34.28834556],[135.18432167,34.27882889],[135.15359834,34.27425667],[135.1548025,34.28103805],[135.14676472,34.28380777],[135.13661555,34.27350639],[135.12098694,34.27391361]],[[135.09174249,34.31281857],[135.09174249,34.31281857]],[[135.09138355,34.31380244],[135.09138355,34.31380244]],[[135.13897102,34.32211383],[135.13897102,34.32211383]],[[135.14437341,34.32434136],[135.14437341,34.32434136]],[[135.11972171,34.32439862],[135.11972171,34.32439862]],[[135.15925462,34.33151292],[135.15925462,34.33151292]],[[135.15874472,34.33170895],[135.15874472,34.33170895]],[[135.17102445,34.33771262],[135.17102445,34.33771262]],[[135.19380633,34.3391902],[135.19380633,34.3391902]],[[135.22724333,34.35327797],[135.22724333,34.35327797]],[[135.23300462,34.35879747],[135.23300462,34.35879747]],[[135.31309239,34.42188453],[135.31309239,34.42188453]],[[135.2260045,34.41519189],[135.21912275,34.42222372],[135.22942506,34.43087972],[135.22162594,34.43348723],[135.20901283,34.42008225],[135.2011645,34.4280918],[135.24158256,34.45522441],[135.25421388,34.45114018],[135.23203195,34.4326398],[135.25536623,34.4462385],[135.26513442,34.43745872],[135.2260045,34.41519189]],[[135.31367005,34.42247544],[135.31367005,34.42247544]],[[135.3252238,34.43028041],[135.3252238,34.43028041]],[[135.31533467,34.43333333],[135.31533467,34.43333333]],[[135.33503992,34.44143959],[135.33503992,34.44143959]],[[135.33400217,34.44198478],[135.33400217,34.44198478]],[[135.25956253,34.44347628],[135.25956253,34.44347628]],[[135.32945475,34.45165441],[135.34078672,34.46692916],[135.33901231,34.47559367],[135.34596866,34.45468597],[135.33288589,34.44469644],[135.32945475,34.45165441]],[[135.36403092,34.46851397],[135.36403092,34.46851397]],[[135.36736949,34.47084311],[135.36736949,34.47084311]],[[135.35058341,34.46882065],[135.3525363,34.47968677],[135.34555122,34.47119639],[135.35485674,34.48900259],[135.35294519,34.48016611],[135.35962956,34.47368632],[135.35812903,34.48641439],[135.36119156,34.4758078],[135.35058341,34.46882065]],[[135.36684156,34.49223964],[135.36469606,34.48014872],[135.36684156,34.49223964]],[[135.34351839,34.62177631],[135.35583763,34.63510614],[135.35856835,34.62763996],[135.36509192,34.63248597],[135.35036405,34.61934334],[135.34351839,34.62177631]],[[135.36898698,34.47930567],[135.36898698,34.47930567]],[[135.37266228,34.48397523],[135.37266228,34.48397523]],[[135.37309876,34.48557669],[135.37309876,34.48557669]],[[135.38717178,34.52475772],[135.39464228,34.53249131],[135.40269494,34.52556269],[135.39504326,34.51732259],[135.38717178,34.52475772]],[[135.4334859,34.53820933],[135.4177145,34.52424192],[135.39916586,34.53648956],[135.4092745,34.55504351],[135.41587652,34.5499872],[135.41132536,34.54199859],[135.42023167,34.5379782],[135.43066289,34.55381611],[135.44075355,34.55449329],[135.4334859,34.53820933]],[[135.43894698,34.55529528],[135.43894698,34.55529528]],[[135.43862183,34.55537456],[135.43862183,34.55537456]],[[135.43738153,34.55567359],[135.43738153,34.55567359]],[[135.41296105,34.56057603],[135.41296105,34.56057603]],[[135.39656825,34.59558887],[135.38799754,34.60517468],[135.39656825,34.59558887]],[[135.42094664,34.60182883],[135.42094664,34.60182883]],[[135.39272959,34.62592739],[135.41842959,34.61954639],[135.42068492,34.61078097],[135.40128211,34.61073003],[135.39272959,34.62592739]],[[135.39850523,34.63285616],[135.39779965,34.6388076],[135.43242584,34.64402745],[135.44186209,34.62839569],[135.42212881,34.62190671],[135.40747097,34.62942589],[135.41228306,34.63720208],[135.39658973,34.62861961],[135.39850523,34.63285616]],[[135.40493523,34.64030657],[135.40493523,34.64030657]],[[135.43132791,34.64920728],[135.43132791,34.64920728]],[[135.38604808,34.65988692],[135.37946761,34.66011039],[135.40452345,34.65371813],[135.39275008,34.64139089],[135.37893891,34.6431892],[135.37290008,34.65207616],[135.38604808,34.65988692]],[[135.42804859,34.65243151],[135.42804859,34.65243151]],[[135.39883764,34.65723983],[135.39883764,34.65723983]],[[135.39922314,34.65779344],[135.39922314,34.65779344]],[[135.39990239,34.6598222],[135.39990239,34.6598222]],[[135.40091698,34.66036261],[135.40091698,34.66036261]],[[135.41079765,34.66566871],[135.40978423,34.65904908],[135.38685078,34.66267571],[135.4026207,34.67318019],[135.41079765,34.66566871]],[[135.40586239,34.67346008],[135.40586239,34.67346008]],[[135.45900861,34.58351997],[135.45900861,34.58351997]],[[135.44127131,34.6032292],[135.44127131,34.6032292]],[[135.44338822,34.62525467],[135.44338822,34.62525467]],[[135.45002501,34.64383222],[135.45002501,34.64383222]]]}}]}