{
  "type": "FeatureCollection",
  "features": [
    {
      "type": "Feature",
      "geometry": {
        "type": "Polygon",
        "coordinates": [
          [
            [
              135.526034,
              34.733155
            ],
            [
              135.514818,
              34.72056
            ],
            [
              135.520607,
              34.692952
            ],
            [
              135.534816,
              34.695469
            ],
            [
              135.540616,
              34.711765
            ],
            [
              135.526034,
              34.733155
            ]
          ]
        ]
      },
      "properties": {
        "N03_001": "大阪府",
        "N03_002": null,
        "N03_003": null,
        "N03_004": "大阪市",
        "N03_005": "都島区",
        "N03_007": "27102"
      }
    },
    {
      "type": "Feature",
      "geometry": {
        "type": "Polygon",
        "coordinates": [
          [
            [
              135.461884,
              34.699653
            ],
            [
              135.470951,
              34.681393
            ],
            [
              135.483607,
              34.686868
            ],
            [
              135.474437,
              34.706972
            ],
            [
              135.461884,
              34.699653
            ]
          ]
        ]
      },
      "properties": {
        "N03_001": "大阪府",
        "N03_002": null,
        "N03_003": null,
        "N03_004": "大阪市",
        "N03_005": "福島区",
        "N03_007": "27103"
      }
    },
    {
      "type": "Feature",
      "geometry": {
        "type": "Polygon",
        "coordinates": [
          [
            [
              135.461884,
              34.699653
            ],
            [
              135.455006,
              34.696538
            ],
            [
              135.442724,
              34.690976
            ],
            [
              135.416667,
              34.67321
            ],
            [
              135.423097,
              34.657373
            ],
            [
              135.440554,
              34.663169
            ],
            [
              135.462031,
              34.677328
            ],
            [
              135.470951,
              34.681393
            ],
            [
              135.461884,
              34.699653
            ]
          ]
        ]
      },
      "properties": {
        "N03_001": "大阪府",
        "N03_002": null,
        "N03_003": null,
        "N03_004": "大阪市",
        "N03_005": "此花区",
        "N03_007": "27104"
      }
    },
    {
      "type": "Feature",
      "geometry": {
        "type": "Polygon",
        "coordinates": [
          [
            [
              135.470951,
              34.681393
            ],
            [
              135.462031,
              34.677328
            ],
            [
              135.473101,
              34.66588
            ],
            [
              135.480537,
              34.668138
            ],
            [
              135.496775,
              34.668952
            ],
            [
              135.497468,
              34.692787
            ],
            [
              135.483607,
              34.686868
            ],
            [
              135.470951,
              34.681393
            ]
          ]
        ]
      },
      "properties": {
        "N03_001": "大阪府",
        "N03_002": null,
        "N03_003": null,
        "N03_004": "大阪市",
        "N03_005": "西区",
        "N03_007": "27106"
      }
    },
    {
      "type": "Feature",
      "geometry": {
        "type": "Polygon",
        "coordinates": [
          [
            [
              135.440554,
              34.663169
            ],
            [
              135.452639,
              34.646721
            ],
            [
              135.473101,
              34.66588
            ],
            [
              135.462031,
              34.677328
            ],
            [
              135.440554,
              34.663169
            ]
          ]
        ]
      },
      "properties": {
        "N03_001": "大阪府",
        "N03_002": null,
        "N03_003": null,
        "N03_004": "大阪市",
        "N03_005": "港区",
        "N03_007": "27107"
      }
    },
    {
      "type": "Feature",
      "geometry": {
        "type": "Polygon",
        "coordinates": [
          [
            [
              135.473101,
              34.66588
            ],
            [
              135.452639,
              34.646721
            ],
            [
              135.449591,
              34.626268
            ],
            [
              135.473683,
              34.629459
            ],
            [
              135.481071,
              34.655213
            ],
            [
              135.480537,
              34.668138
            ],
            [
              135.473101,
              34.66588
            ]
          ]
        ]
      },
      "properties": {
        "N03_001": "大阪府",
        "N03_002": null,
        "N03_003": null,
        "N03_004": "大阪市",
        "N03_005": "大正区",
        "N03_007": "27108"
      }
    },
    {
      "type": "Feature",
      "geometry": {
        "type": "Polygon",
        "coordinates": [
          [
            [
              135.510561,
              34.662511
            ],
            [
              135.506563,
              34.648215
            ],
            [
              135.508361,
              34.647602
            ],
            [
              135.524534,
              34.648458
            ],
            [
              135.531111,
              34.667255
            ],
            [
              135.532763,
              34.674888
            ],
            [
              135.510561,
              34.662511
            ]
          ]
        ]
      },
      "properties": {
        "N03_001": "大阪府",
        "N03_002": null,
        "N03_003": null,
        "N03_004": "大阪市",
        "N03_005": "天王寺区",
        "N03_007": "27109"
      }
    },
    {
      "type": "Feature",
      "geometry": {
        "type": "Polygon",
        "coordinates": [
          [
            [
              135.480537,
              34.668138
            ],
            [
              135.481071,
              34.655213
            ],
            [
              135.506563,
              34.648215
            ],
            [
              135.510561,
              34.662511
            ],
            [
              135.496775,
              34.668952
            ],
            [
              135.480537,
              34.668138
            ]
          ]
        ]
      },
      "properties": {
        "N03_001": "大阪府",
        "N03_002": null,
        "N03_003": null,
        "N03_004": "大阪市",
        "N03_005": "浪速区",
        "N03_007": "27111"
      }
    },
    {
      "type": "Feature",
      "geometry": {
        "type": "Polygon",
        "coordinates": [
          [
            [
              135.455006,
              34.696538
            ],
            [
              135.473929,
              34.706683
            ],
            [
              135.456778,
              34.725381
            ],
            [
              135.407294,
              34.697096
            ],
            [
              135.420365,
              34.682847
            ],
            [
              135.442724,
              34.690976
            ],
            [
              135.455006,
              34.696538
            ]
          ]
        ]
      },
      "properties": {
        "N03_001": "大阪府",
        "N03_002": null,
        "N03_003": null,
        "N03_004": "大阪市",
        "N03_005": "西淀川区",
        "N03_007": "27113"
      }
    },
    {
      "type": "Feature",
      "geometry": {
        "type": "Polygon",
        "coordinates": [
          [
            [
              135.526034,
              34.733155
            ],
            [
              135.551747,
              34.736918
            ],
            [
              135.556449,
              34.74606
            ],
            [
              135.560529,
              34.753992
            ],
            [
              135.549057,
              34.767529
            ],
            [
              135.527801,
              34.748596
            ],
            [
              135.507367,
              34.744866
            ],
            [
              135.503927,
              34.71941
            ],
            [
              135.514818,
              34.72056
            ],
            [
              135.526034,
              34.733155
            ]
          ]
        ]
      },
      "properties": {
        "N03_001": "大阪府",
        "N03_002": null,
        "N03_003": null,
        "N03_004": "大阪市",
        "N03_005": "東淀川区",
        "N03_007": "27114"
      }
    },
    {
      "type": "Feature",
      "geometry": {
        "type": "Polygon",
        "coordinates": [
          [
            [
              135.531111,
              34.667255
            ],
            [
              135.557928,
              34.663255
            ],
            [
              135.562203,
              34.667914
            ],
            [
              135.565635,
              34.687735
            ],
            [
              135.565633,
              34.687735
            ],
            [
              135.563439,
              34.67936
            ],
            [
              135.540324,
              34.683292
            ],
            [
              135.533863,
              34.679971
            ],
            [
              135.532763,
              34.674888
            ],
            [
              135.531111,
              34.667255
            ]
          ]
        ]
      },
      "properties": {
        "N03_001": "大阪府",
        "N03_002": null,
        "N03_003": null,
        "N03_004": "大阪市",
        "N03_005": "東成区",
        "N03_007": "27115"
      }
    },
    {
      "type": "Feature",
      "geometry": {
        "type": "Polygon",
        "coordinates": [
          [
            [
              135.524534,
              34.648458
            ],
            [
              135.529361,
              34.644218
            ],
            [
              135.544686,
              34.640454
            ],
            [
              135.561143,
              34.643551
            ],
            [
              135.557928,
              34.663255
            ],
            [
              135.531111,
              34.667255
            ],
            [
              135.524534,
              34.648458
            ]
          ]
        ]
      },
      "properties": {
        "N03_001": "大阪府",
        "N03_002": null,
        "N03_003": null,
        "N03_004": "大阪市",
        "N03_005": "生野区",
        "N03_007": "27116"
      }
    },
    {
      "type": "Feature",
      "geometry": {
        "type": "Polygon",
        "coordinates": [
          [
            [
              135.540616,
              34.711765
            ],
            [
              135.560246,
              34.714953
            ],
            [
              135.566558,
              34.717382
            ],
            [
              135.555118,
              34.724813
            ],
            [
              135.556449,
              34.74606
            ],
            [
              135.551747,
              34.736918
            ],
            [
              135.526034,
              34.733155
            ],
            [
              135.540616,
              34.711765
            ]
          ]
        ]
      },
      "properties": {
        "N03_001": "大阪府",
        "N03_002": null,
        "N03_003": null,
        "N03_004": "大阪市",
        "N03_005": "旭区",
        "N03_007": "27117"
      }
    },
    {
      "type": "Feature",
      "geometry": {
        "type": "Polygon",
        "coordinates": [
          [
            [
              135.534816,
              34.695469
            ],
            [
              135.533863,
              34.679971
            ],
            [
              135.540324,
              34.683292
            ],
            [
              135.563439,
              34.67936
            ],
            [
              135.565633,
              34.687735
            ],
            [
              135.565638,
              34.687752
            ],
            [
              135.560246,
              34.714953
            ],
            [
              135.540616,
              34.711765
            ],
            [
              135.534816,
              34.695469
            ]
          ]
        ]
      },
      "properties": {
        "N03_001": "大阪府",
        "N03_002": null,
        "N03_003": null,
        "N03_004": "大阪市",
        "N03_005": "城東区",
        "N03_007": "27118"
      }
    },
    {
      "type": "Feature",
      "geometry": {
        "type": "Polygon",
        "coordinates": [
          [
            [
              135.508361,
              34.647602
            ],
            [
              135.497321,
              34.624435
            ],
            [
              135.515804,
              34.616156
            ],
            [
              135.529361,
              34.644218
            ],
            [
              135.524534,
              34.648458
            ],
            [
              135.508361,
              34.647602
            ]
          ]
        ]
      },
      "properties": {
        "N03_001": "大阪府",
        "N03_002": null,
        "N03_003": null,
        "N03_004": "大阪市",
        "N03_005": "阿倍野区",
        "N03_007": "27119"
      }
    },
    {
      "type": "Feature",
      "geometry": {
        "type": "Polygon",
        "coordinates": [
          [
            [
              135.497321,
              34.624435
            ],
            [
              135.49284,
              34.623448
            ],
            [
              135.487074,
              34.596539
            ],
            [
              135.502778,
              34.586161
            ],
            [
              135.52199,
              34.594335
            ],
            [
              135.522503,
              34.594577
            ],
            [
              135.515804,
              34.616156
            ],
            [
              135.497321,
              34.624435
            ]
          ]
        ]
      },
      "properties": {
        "N03_001": "大阪府",
        "N03_002": null,
        "N03_003": null,
        "N03_004": "大阪市",
        "N03_005": "住吉区",
        "N03_007": "27120"
      }
    },
    {
      "type": "Feature",
      "geometry": {
        "type": "Polygon",
        "coordinates": [
          [
            [
              135.529361,
              34.644218
            ],
            [
              135.515804,
              34.616156
            ],
            [
              135.522503,
              34.594577
            ],
            [
              135.543437,
              34.599423
            ],
            [
              135.544686,
              34.640454
            ],
            [
              135.529361,
              34.644218
            ]
          ]
        ]
      },
      "properties": {
        "N03_001": "大阪府",
        "N03_002": null,
        "N03_003": null,
        "N03_004": "大阪市",
        "N03_005": "東住吉区",
        "N03_007": "27121"
      }
    },
    {
      "type": "Feature",
      "geometry": {
        "type": "Polygon",
        "coordinates": [
          [
            [
              135.473683,
              34.629459
            ],
            [
              135.49284,
              34.623448
            ],
            [
              135.497321,
              34.624435
            ],
            [
              135.508361,
              34.647602
            ],
            [
              135.506563,
              34.648215
            ],
            [
              135.481071,
              34.655213
            ],
            [
              135.473683,
              34.629459
            ]
          ]
        ]
      },
      "properties": {
        "N03_001": "大阪府",
        "N03_002": null,
        "N03_003": null,
        "N03_004": "大阪市",
        "N03_005": "西成区",
        "N03_007": "27122"
      }
    },
    {
      "type": "Feature",
      "geometry": {
        "type": "Polygon",
        "coordinates": [
          [
            [
              135.474437,
              34.706972
            ],
            [
              135.503927,
              34.71941
            ],
            [
              135.507367,
              34.744866
            ],
            [
              135.487967,
              34.751299
            ],
            [
              135.469879,
              34.730974
            ],
            [
              135.456778,
              34.725381
            ],
            [
              135.473929,
              34.706683
            ],
            [
              135.455006,
              34.696538
            ],
            [
              135.461884,
              34.699653
            ],
            [
              135.474437,
              34.706972
            ]
          ]
        ]
      },
      "properties": {
        "N03_001": "大阪府",
        "N03_002": null,
        "N03_003": null,
        "N03_004": "大阪市",
        "N03_005": "淀川区",
        "N03_007": "27123"
      }
    },
    {
      "type": "Feature",
      "geometry": {
        "type": "MultiPolygon",
        "coordinates": [
          [
            [
              [
                135.565635,
                34.687735
              ],
              [
                135.565638,
                34.687752
              ],
              [
                135.565633,
                34.687735
              ],
              [
                135.565635,
                34.687735
              ]
            ]
          ],
          [
            [
              [
                135.560246,
                34.714953
              ],
              [
                135.565638,
                34.687752
              ],
              [
                135.594397,
                34.703193
              ],
              [
                135.601418,
                34.716162
              ],
              [
                135.582231,
                34.723338
              ],
              [
                135.566558,
                34.717382
              ],
              [
                135.560246,
                34.714953
              ]
            ]
          ]
        ]
      },
      "properties": {
        "N03_001": "大阪府",
        "N03_002": null,
        "N03_003": null,
        "N03_004": "大阪市",
        "N03_005": "鶴見区",
        "N03_007": "27124"
      }
    },
    {
      "type": "Feature",
      "geometry": {
        "type": "MultiPolygon",
        "coordinates": [
          [
            [
              [
                135.449591,
                34.626268
              ],
              [
                135.439052,
                34.608197
              ],
              [
                135.487074,
                34.596539
              ],
              [
                135.49284,
                34.623448
              ],
              [
                135.473683,
                34.629459
              ],
              [
                135.449591,
                34.626268
              ]
            ]
          ],
          [
            [
              [
                135.4393,
                34.641213
              ],
              [
                135.416466,
                34.644815
              ],
              [
                135.397702,
                34.638749
              ],
              [
                135.422129,
                34.621907
              ],
              [
                135.441862,
                34.628396
              ],
              [
                135.4393,
                34.641213
              ]
            ]
          ]
        ]
      },
      "properties": {
        "N03_001": "大阪府",
        "N03_002": null,
        "N03_003": null,
        "N03_004": "大阪市",
        "N03_005": "住之江区",
        "N03_007": "27125"
      }
    },
    {
      "type": "Feature",
      "geometry": {
        "type": "Polygon",
        "coordinates": [
          [
            [
              135.544686,
              34.640454
            ],
            [
              135.543437,
              34.599423
            ],
            [
              135.579916,
              34.594091
            ],
            [
              135.58693,
              34.60914
            ],
            [
              135.574684,
              34.632181
            ],
            [
              135.561143,
              34.643551
            ],
            [
              135.544686,
              34.640454
            ]
          ]
        ]
      },
      "properties": {
        "N03_001": "大阪府",
        "N03_002": null,
        "N03_003": null,
        "N03_004": "大阪市",
        "N03_005": "平野区",
        "N03_007": "27126"
      }
    },
    {
      "type": "Feature",
      "geometry": {
        "type": "Polygon",
        "coordinates": [
          [
            [
              135.514818,
              34.72056
            ],
            [
              135.503927,
              34.71941
            ],
            [
              135.474437,
              34.706972
            ],
            [
              135.483607,
              34.686868
            ],
            [
              135.497468,
              34.692787
            ],
            [
              135.520607,
              34.692952
            ],
            [
              135.514818,
              34.72056
            ]
          ]
        ]
      },
      "properties": {
        "N03_001": "大阪府",
        "N03_002": null,
        "N03_003": null,
        "N03_004": "大阪市",
        "N03_005": "北区",
        "N03_007": "27127"
      }
    },
    {
      "type": "Feature",
      "geometry": {
        "type": "Polygon",
        "coordinates": [
          [
            [
              135.520607,
              34.692952
            ],
            [
              135.497468,
              34.692787
            ],
            [
              135.496775,
              34.668952
            ],
            [
              135.510561,
              34.662511
            ],
            [
              135.532763,
              34.674888
            ],
            [
              135.533863,
              34.679971
            ],
            [
              135.534816,
              34.695469
            ],
            [
              135.520607,
              34.692952
            ]
          ]
        ]
      },
      "properties": {
        "N03_001": "大阪府",
        "N03_002": null,
        "N03_003": null,
        "N03_004": "大阪市",
        "N03_005": "中央区",
        "N03_007": "27128"
      }
    },
    {
      "type": "Feature",
      "geometry": {
        "type": "Polygon",
        "coordinates": [
          [
            [
              135.487074,
              34.596539
            ],
            [
              135.439052,
              34.608197
            ],
            [
              135.425549,
              34.593345
            ],
            [
              135.449291,
              34.587078
            ],
            [
              135.452157,
              34.566563
            ],
            [
              135.483217,
              34.553588
            ],
            [
              135.502778,
              34.586161
            ],
            [
              135.487074,
              34.596539
            ]
          ]
        ]
      },
      "properties": {
        "N03_001": "大阪府",
        "N03_002": null,
        "N03_003": null,
        "N03_004": "堺市",
        "N03_005": "堺区",
        "N03_007": "27141"
      }
    },
    {
      "type": "Feature",
      "geometry": {
        "type": "Polygon",
        "coordinates": [
          [
            [
              135.508652,
              34.547466
            ],
            [
              135.489965,
              34.542521
            ],
            [
              135.471095,
              34.522821
            ],
            [
              135.487859,
              34.513938
            ],
            [
              135.502864,
              34.505987
            ],
            [
              135.539444,
              34.500517
            ],
            [
              135.533569,
              34.514194
            ],
            [
              135.508652,
              34.547466
            ]
          ]
        ]
      },
      "properties": {
        "N03_001": "大阪府",
        "N03_002": null,
        "N03_003": null,
        "N03_004": "堺市",
        "N03_005": "中区",
        "N03_007": "27142"
      }
    },
    {
      "type": "Feature",
      "geometry": {
        "type": "Polygon",
        "coordinates": [
          [
            [
              135.533569,
              34.514194
            ],
            [
              135.554723,
              34.528775
            ],
            [
              135.538764,
              34.548237
            ],
            [
              135.548111,
              34.558279
            ],
            [
              135.548099,
              34.559574
            ],
            [
              135.508652,
              34.547466
            ],
            [
              135.533569,
              34.514194
            ]
          ]
        ]
      },
      "properties": {
        "N03_001": "大阪府",
        "N03_002": null,
        "N03_003": null,
        "N03_004": "堺市",
        "N03_005": "東区",
        "N03_007": "27143"
      }
    },
    {
      "type": "Feature",
      "geometry": {
        "type": "Polygon",
        "coordinates": [
          [
            [
              135.452157,
              34.566563
            ],
            [
              135.441496,
              34.582958
            ],
            [
              135.410539,
              34.560747
            ],
            [
              135.444786,
              34.557221
            ],
            [
              135.437697,
              34.54106
            ],
            [
              135.455127,
              34.514766
            ],
            [
              135.466032,
              34.500455
            ],
            [
              135.487859,
              34.513938
            ],
            [
              135.471095,
              34.522821
            ],
            [
              135.489965,
              34.542521
            ],
            [
              135.483217,
              34.553588
            ],
            [
              135.452157,
              34.566563
            ]
          ]
        ]
      },
      "properties": {
        "N03_001": "大阪府",
        "N03_002": null,
        "N03_003": null,
        "N03_004": "堺市",
        "N03_005": "西区",
        "N03_007": "27144"
      }
    },
    {
      "type": "Feature",
      "geometry": {
        "type": "Polygon",
        "coordinates": [
          [
            [
              135.487859,
              34.513938
            ],
            [
              135.466032,
              34.500455
            ],
            [
              135.466137,
              34.483072
            ],
            [
              135.478072,
              34.465596
            ],
            [
              135.494516,
              34.455918
            ],
            [
              135.500511,
              34.43378
            ],
            [
              135.51898,
              34.430409
            ],
            [
              135.545313,
              34.461963
            ],
            [
              135.533572,
              34.487719
            ],
            [
              135.539444,
              34.500517
            ],
            [
              135.502864,
              34.505987
            ],
            [
              135.487859,
              34.513938
            ]
          ]
        ]
      },
      "properties": {
        "N03_001": "大阪府",
        "N03_002": null,
        "N03_003": null,
        "N03_004": "堺市",
        "N03_005": "南区",
        "N03_007": "27145"
      }
    },
    {
      "type": "Feature",
      "geometry": {
        "type": "Polygon",
        "coordinates": [
          [
            [
              135.502778,
              34.586161
            ],
            [
              135.483217,
              34.553588
            ],
            [
              135.489965,
              34.542521
            ],
            [
              135.508652,
              34.547466
            ],
            [
              135.548099,
              34.559574
            ],
            [
              135.522425,
              34.576656
            ],
            [
              135.52199,
              34.594335
            ],
            [
              135.502778,
              34.586161
            ]
          ]
        ]
      },
      "properties": {
        "N03_001": "大阪府",
        "N03_002": null,
        "N03_003": null,
        "N03_004": "堺市",
        "N03_005": "北区",
        "N03_007": "27146"
      }
    },
    {
      "type": "Feature",
      "geometry": {
        "type": "Polygon",
        "coordinates": [
          [
            [
              135.554723,
              34.528775
            ],
            [
              135.566568,
              34.513536
            ],
            [
              135.582058,
              34.510554
            ],
            [
              135.587077,
              34.531575
            ],
            [
              135.567404,
              34.548709
            ],
            [
              135.567258,
              34.560117
            ],
            [
              135.548111,
              34.558279
            ],
            [
              135.538764,
              34.548237
            ],
            [
              135.554723,
              34.528775
            ]
          ]
        ]
      },
      "properties": {
        "N03_001": "大阪府",
        "N03_002": null,
        "N03_003": null,
        "N03_004": "堺市",
        "N03_005": "美原区",
        "N03_007": "27147"
      }
    },
    {
      "type": "Feature",
      "geometry": {
        "type": "Polygon",
        "coordinates": [
          [
            [
              135.454945,
              34.351461
            ],
            [
              135.463551,
              34.377934
            ],
            [
              135.449776,
              34.3912
            ],
            [
              135.455478,
              34.405691
            ],
            [
              135.443824,
              34.435412
            ],
            [
              135.441926,
              34.460674
            ],
            [
              135.415199,
              34.473685
            ],
            [
              135.384527,
              34.493785
            ],
            [
              135.369748,
              34.490021
            ],
            [
              135.359418,
              34.459799
            ],
            [
              135.381213,
              34.4454
            ],
            [
              135.416464,
              34.379413
            ],
            [
              135.427093,
              34.374362
            ],
            [
              135.434129,
              34.348812
            ],
            [
              135.454945,
              34.351461
            ]
          ]
        ]
      },
      "properties": {
        "N03_001": "大阪府",
        "N03_002": null,
        "N03_003": null,
        "N03_004": "岸和田市",
        "N03_005": null,
        "N03_007": "27202"
      }
    },
    {
      "type": "Feature",
      "geometry": {
        "type": "Polygon",
        "coordinates": [
          [
            [
              135.487967,
              34.751299
            ],
            [
              135.496448,
              34.796447
            ],
            [
              135.508294,
              34.810629
            ],
            [
              135.497739,
              34.82477
            ],
            [
              135.475881,
              34.821042
            ],
            [
              135.448107,
              34.808427
            ],
            [
              135.441155,
              34.793238
            ],
            [
              135.444487,
              34.769132
            ],
            [
              135.469879,
              34.730974
            ],
            [
              135.487967,
              34.751299
            ]
          ]
        ]
      },
      "properties": {
        "N03_001": "大阪府",
        "N03_002": null,
        "N03_003": null,
        "N03_004": "豊中市",
        "N03_005": null,
        "N03_007": "27203"
      }
    },
    {
      "type": "Feature",
      "geometry": {
        "type": "Polygon",
        "coordinates": [
          [
            [
              135.448107,
              34.808427
            ],
            [
              135.448172,
              34.80981
            ],
            [
              135.448203,
              34.810455
            ],
            [
              135.459368,
              34.860327
            ],
            [
              135.438181,
              34.876793
            ],
            [
              135.416878,
              34.852225
            ],
            [
              135.42433,
              34.837123
            ],
            [
              135.416186,
              34.820457
            ],
            [
              135.423691,
              34.802074
            ],
            [
              135.441155,
              34.793238
            ],
            [
              135.448107,
              34.808427
            ]
          ]
        ]
      },
      "properties": {
        "N03_001": "大阪府",
        "N03_002": null,
        "N03_003": null,
        "N03_004": "池田市",
        "N03_005": null,
        "N03_007": "27204"
      }
    },
    {
      "type": "Feature",
      "geometry": {
        "type": "Polygon",
        "coordinates": [
          [
            [
              135.549057,
              34.767529
            ],
            [
              135.538374,
              34.786903
            ],
            [
              135.551934,
              34.793562
            ],
            [
              135.554481,
              34.806441
            ],
            [
              135.529994,
              34.816344
            ],
            [
              135.523461,
              34.826574
            ],
            [
              135.497739,
              34.82477
            ],
            [
              135.508294,
              34.810629
            ],
            [
              135.496448,
              34.796447
            ],
            [
              135.487967,
              34.751299
            ],
            [
              135.507367,
              34.744866
            ],
            [
              135.527801,
              34.748596
            ],
            [
              135.549057,
              34.767529
            ]
          ]
        ]
      },
      "properties": {
        "N03_001": "大阪府",
        "N03_002": null,
        "N03_003": null,
        "N03_004": "吹田市",
        "N03_005": null,
        "N03_007": "27205"
      }
    },
    {
      "type": "Feature",
      "geometry": {
        "type": "Polygon",
        "coordinates": [
          [
            [
              135.415463,
              34.482546
            ],
            [
              135.43338,
              34.513979
            ],
            [
              135.426818,
              34.512737
            ],
            [
              135.410364,
              34.522912
            ],
            [
              135.392694,
              34.512217
            ],
            [
              135.378991,
              34.532938
            ],
            [
              135.367161,
              34.517045
            ],
            [
              135.37783,
              34.507845
            ],
            [
              135.415463,
              34.482546
            ]
          ]
        ]
      },
      "properties": {
        "N03_001": "大阪府",
        "N03_002": null,
        "N03_003": null,
        "N03_004": "泉大津市",
        "N03_005": null,
        "N03_007": "27206"
      }
    },
    {
      "type": "Feature",
      "geometry": {
        "type": "Polygon",
        "coordinates": [
          [
            [
              135.573116,
              34.916831
            ],
            [
              135.566444,
              34.885474
            ],
            [
              135.569719,
              34.851344
            ],
            [
              135.598412,
              34.812521
            ],
            [
              135.598225,
              34.797938
            ],
            [
              135.602063,
              34.780774
            ],
            [
              135.613354,
              34.790711
            ],
            [
              135.620584,
              34.806361
            ],
            [
              135.640326,
              34.816128
            ],
            [
              135.650093,
              34.847599
            ],
            [
              135.664746,
              34.855192
            ],
            [
              135.672756,
              34.870031
            ],
            [
              135.655071,
              34.872476
            ],
            [
              135.634667,
              34.892308
            ],
            [
              135.628301,
              34.926229
            ],
            [
              135.613149,
              34.941704
            ],
            [
              135.613264,
              34.971195
            ],
            [
              135.570927,
              34.969788
            ],
            [
              135.566017,
              34.940128
            ],
            [
              135.58172,
              34.935807
            ],
            [
              135.573116,
              34.916831
            ]
          ]
        ]
      },
      "properties": {
        "N03_001": "大阪府",
        "N03_002": null,
        "N03_003": null,
        "N03_004": "高槻市",
        "N03_005": null,
        "N03_007": "27207"
      }
    },
    {
      "type": "Feature",
      "geometry": {
        "type": "Polygon",
        "coordinates": [
          [
            [
              135.359418,
              34.459799
            ],
            [
              135.329311,
              34.434522
            ],
            [
              135.356189,
              34.418582
            ],
            [
              135.387974,
              34.385566
            ],
            [
              135.386509,
              34.355715
            ],
            [
              135.409221,
              34.341938
            ],
            [
              135.434129,
              34.348812
            ],
            [
              135.427093,
              34.374362
            ],
            [
              135.416464,
              34.379413
            ],
            [
              135.381213,
              34.4454
            ],
            [
              135.359418,
              34.459799
            ]
          ]
        ]
      },
      "properties": {
        "N03_001": "大阪府",
        "N03_002": null,
        "N03_003": null,
        "N03_004": "貝塚市",
        "N03_005": null,
        "N03_007": "27208"
      }
    },
    {
      "type": "Feature",
      "geometry": {
        "type": "Polygon",
        "coordinates": [
          [
            [
              135.556449,
              34.74606
            ],
            [
              135.555118,
              34.724813
            ],
            [
              135.566558,
              34.717382
            ],
            [
              135.582231,
              34.723338
            ],
            [
              135.571814,
              34.740207
            ],
            [
              135.606647,
              34.748753
            ],
            [
              135.587006,
              34.767522
            ],
            [
              135.560529,
              34.753992
            ],
            [
              135.556449,
              34.74606
            ]
          ]
        ]
      },
      "properties": {
        "N03_001": "大阪府",
        "N03_002": null,
        "N03_003": null,
        "N03_004": "守口市",
        "N03_005": null,
        "N03_007": "27209"
      }
    },
    {
      "type": "Feature",
      "geometry": {
        "type": "Polygon",
        "coordinates": [
          [
            [
              135.613354,
              34.790711
            ],
            [
              135.629954,
              34.790356
            ],
            [
              135.65955,
              34.774935
            ],
            [
              135.66423,
              34.795386
            ],
            [
              135.676308,
              34.80342
            ],
            [
              135.708219,
              34.798153
            ],
            [
              135.716711,
              34.785987
            ],
            [
              135.740776,
              34.788469
            ],
            [
              135.746603,
              34.801591
            ],
            [
              135.724168,
              34.823284
            ],
            [
              135.707721,
              34.849273
            ],
            [
              135.694914,
              34.848282
            ],
            [
              135.682411,
              34.872253
            ],
            [
              135.664746,
              34.855192
            ],
            [
              135.650093,
              34.847599
            ],
            [
              135.640326,
              34.816128
            ],
            [
              135.620584,
              34.806361
            ],
            [
              135.613354,
              34.790711
            ]
          ]
        ]
      },
      "properties": {
        "N03_001": "大阪府",
        "N03_002": null,
        "N03_003": null,
        "N03_004": "枚方市",
        "N03_005": null,
        "N03_007": "27210"
      }
    },
    {
      "type": "Feature",
      "geometry": {
        "type": "Polygon",
        "coordinates": [
          [
            [
              135.551934,
              34.793562
            ],
            [
              135.56688,
              34.775444
            ],
            [
              135.598225,
              34.797938
            ],
            [
              135.598412,
              34.812521
            ],
            [
              135.569719,
              34.851344
            ],
            [
              135.566444,
              34.885474
            ],
            [
              135.573116,
              34.916831
            ],
            [
              135.541314,
              34.915226
            ],
            [
              135.525329,
              34.927981
            ],
            [
              135.497912,
              34.878108
            ],
            [
              135.508534,
              34.875186
            ],
            [
              135.525286,
              34.847608
            ],
            [
              135.523461,
              34.826574
            ],
            [
              135.529994,
              34.816344
            ],
            [
              135.554481,
              34.806441
            ],
            [
              135.551934,
              34.793562
            ]
          ]
        ]
      },
      "properties": {
        "N03_001": "大阪府",
        "N03_002": null,
        "N03_003": null,
        "N03_004": "茨木市",
        "N03_005": null,
        "N03_007": "27211"
      }
    },
    {
      "type": "Feature",
      "geometry": {
        "type": "Polygon",
        "coordinates": [
          [
            [
              135.579916,
              34.594091
            ],
            [
              135.585974,
              34.589468
            ],
            [
              135.610588,
              34.58838
            ],
            [
              135.620668,
              34.59869
            ],
            [
              135.649387,
              34.60234
            ],
            [
              135.659098,
              34.614818
            ],
            [
              135.663055,
              34.643331
            ],
            [
              135.595917,
              34.641721
            ],
            [
              135.574684,
              34.632181
            ],
            [
              135.58693,
              34.60914
            ],
            [
              135.579916,
              34.594091
            ]
          ]
        ]
      },
      "properties": {
        "N03_001": "大阪府",
        "N03_002": null,
        "N03_003": null,
        "N03_004": "八尾市",
        "N03_005": null,
        "N03_007": "27212"
      }
    },
    {
      "type": "Feature",
      "geometry": {
        "type": "Polygon",
        "coordinates": [
          [
            [
              135.386509,
              34.355715
            ],
            [
              135.355601,
              34.37271
            ],
            [
              135.336897,
              34.396984
            ],
            [
              135.356189,
              34.418582
            ],
            [
              135.329311,
              34.434522
            ],
            [
              135.288818,
              34.403624
            ],
            [
              135.289392,
              34.383432
            ],
            [
              135.305647,
              34.382087
            ],
            [
              135.325157,
              34.363495
            ],
            [
              135.32198,
              34.355372
            ],
            [
              135.338928,
              34.335782
            ],
            [
              135.380345,
              34.328444
            ],
            [
              135.409221,
              34.341938
            ],
            [
              135.386509,
              34.355715
            ]
          ]
        ]
      },
      "properties": {
        "N03_001": "大阪府",
        "N03_002": null,
        "N03_003": null,
        "N03_004": "泉佐野市",
        "N03_005": null,
        "N03_007": "27213"
      }
    },
    {
      "type": "Feature",
      "geometry": {
        "type": "Polygon",
        "coordinates": [
          [
            [
              135.566568,
              34.513536
            ],
            [
              135.559415,
              34.479301
            ],
            [
              135.582434,
              34.46873
            ],
            [
              135.577884,
              34.454817
            ],
            [
              135.603457,
              34.439637
            ],
            [
              135.616111,
              34.452023
            ],
            [
              135.615817,
              34.472931
            ],
            [
              135.62058,
              34.514806
            ],
            [
              135.627137,
              34.525451
            ],
            [
              135.587077,
              34.531575
            ],
            [
              135.582058,
              34.510554
            ],
            [
              135.566568,
              34.513536
            ]
          ]
        ]
      },
      "properties": {
        "N03_001": "大阪府",
        "N03_002": null,
        "N03_003": null,
        "N03_004": "富田林市",
        "N03_005": null,
        "N03_007": "27214"
      }
    },
    {
      "type": "Feature",
      "geometry": {
        "type": "Polygon",
        "coordinates": [
          [
            [
              135.602063,
              34.780774
            ],
            [
              135.587006,
              34.767522
            ],
            [
              135.606647,
              34.748753
            ],
            [
              135.620765,
              34.729108
            ],
            [
              135.622704,
              34.728982
            ],
            [
              135.631955,
              34.732162
            ],
            [
              135.630515,
              34.749656
            ],
            [
              135.657497,
              34.746605
            ],
            [
              135.65955,
              34.774935
            ],
            [
              135.629954,
              34.790356
            ],
            [
              135.613354,
              34.790711
            ],
            [
              135.602063,
              34.780774
            ]
          ]
        ]
      },
      "properties": {
        "N03_001": "大阪府",
        "N03_002": null,
        "N03_003": null,
        "N03_004": "寝屋川市",
        "N03_005": null,
        "N03_007": "27215"
      }
    },
    {
      "type": "Feature",
      "geometry": {
        "type": "Polygon",
        "coordinates": [
          [
            [
              135.51898,
              34.430409
            ],
            [
              135.526957,
              34.413929
            ],
            [
              135.517135,
              34.38612
            ],
            [
              135.491013,
              34.373136
            ],
            [
              135.48545,
              34.362692
            ],
            [
              135.507821,
              34.336497
            ],
            [
              135.539705,
              34.357505
            ],
            [
              135.554672,
              34.359531
            ],
            [
              135.577121,
              34.376049
            ],
            [
              135.619911,
              34.384483
            ],
            [
              135.653831,
              34.383347
            ],
            [
              135.656127,
              34.395966
            ],
            [
              135.637088,
              34.420067
            ],
            [
              135.626094,
              34.421028
            ],
            [
              135.603457,
              34.439637
            ],
            [
              135.577884,
              34.454817
            ],
            [
              135.582434,
              34.46873
            ],
            [
              135.559415,
              34.479301
            ],
            [
              135.545313,
              34.461963
            ],
            [
              135.51898,
              34.430409
            ]
          ]
        ]
      },
      "properties": {
        "N03_001": "大阪府",
        "N03_002": null,
        "N03_003": null,
        "N03_004": "河内長野市",
        "N03_005": null,
        "N03_007": "27216"
      }
    },
    {
      "type": "Feature",
      "geometry": {
        "type": "Polygon",
        "coordinates": [
          [
            [
              135.52199,
              34.594335
            ],
            [
              135.522425,
              34.576656
            ],
            [
              135.548099,
              34.559574
            ],
            [
              135.548111,
              34.558279
            ],
            [
              135.567258,
              34.560117
            ],
            [
              135.567194,
              34.576687
            ],
            [
              135.581614,
              34.582669
            ],
            [
              135.585974,
              34.589468
            ],
            [
              135.579916,
              34.594091
            ],
            [
              135.543437,
              34.599423
            ],
            [
              135.522503,
              34.594577
            ],
            [
              135.52199,
              34.594335
            ]
          ]
        ]
      },
      "properties": {
        "N03_001": "大阪府",
        "N03_002": null,
        "N03_003": null,
        "N03_004": "松原市",
        "N03_005": null,
        "N03_007": "27217"
      }
    },
    {
      "type": "Feature",
      "geometry": {
        "type": "Polygon",
        "coordinates": [
          [
            [
              135.594397,
              34.703193
            ],
            [
              135.633855,
              34.698723
            ],
            [
              135.672889,
              34.70005
            ],
            [
              135.673583,
              34.702286
            ],
            [
              135.67268,
              34.715319
            ],
            [
              135.646864,
              34.731549
            ],
            [
              135.631955,
              34.732162
            ],
            [
              135.622704,
              34.728982
            ],
            [
              135.620765,
              34.729108
            ],
            [
              135.601418,
              34.716162
            ],
            [
              135.594397,
              34.703193
            ]
          ]
        ]
      },
      "properties": {
        "N03_001": "大阪府",
        "N03_002": null,
        "N03_003": null,
        "N03_004": "大東市",
        "N03_005": null,
        "N03_007": "27218"
      }
    },
    {
      "type": "Feature",
      "geometry": {
        "type": "Polygon",
        "coordinates": [
          [
            [
              135.455127,
              34.514766
            ],
            [
              135.43338,
              34.513979
            ],
            [
              135.415463,
              34.482546
            ],
            [
              135.415199,
              34.473685
            ],
            [
              135.441926,
              34.460674
            ],
            [
              135.443824,
              34.435412
            ],
            [
              135.455478,
              34.405691
            ],
            [
              135.449776,
              34.3912
            ],
            [
              135.463551,
              34.377934
            ],
            [
              135.454945,
              34.351461
            ],
            [
              135.465705,
              34.347335
            ],
            [
              135.48545,
              34.362692
            ],
            [
              135.491013,
              34.373136
            ],
            [
              135.517135,
              34.38612
            ],
            [
              135.526957,
              34.413929
            ],
            [
              135.51898,
              34.430409
            ],
            [
              135.500511,
              34.43378
            ],
            [
              135.494516,
              34.455918
            ],
            [
              135.478072,
              34.465596
            ],
            [
              135.466137,
              34.483072
            ],
            [
              135.466032,
              34.500455
            ],
            [
              135.455127,
              34.514766
            ]
          ]
        ]
      },
      "properties": {
        "N03_001": "大阪府",
        "N03_002": null,
        "N03_003": null,
        "N03_004": "和泉市",
        "N03_005": null,
        "N03_007": "27219"
      }
    },
    {
      "type": "Feature",
      "geometry": {
        "type": "Polygon",
        "coordinates": [
          [
            [
              135.497739,
              34.82477
            ],
            [
              135.523461,
              34.826574
            ],
            [
              135.525286,
              34.847608
            ],
            [
              135.508534,
              34.875186
            ],
            [
              135.497912,
              34.878108
            ],
            [
              135.486929,
              34.898416
            ],
            [
              135.46571,
              34.909521
            ],
            [
              135.445851,
              34.895559
            ],
            [
              135.438181,
              34.876793
            ],
            [
              135.459368,
              34.860327
            ],
            [
              135.448203,
              34.810455
            ],
            [
              135.448172,
              34.80981
            ],
            [
              135.448107,
              34.808427
            ],
            [
              135.475881,
              34.821042
            ],
            [
              135.497739,
              34.82477
            ]
          ]
        ]
      },
      "properties": {
        "N03_001": "大阪府",
        "N03_002": null,
        "N03_003": null,
        "N03_004": "箕面市",
        "N03_005": null,
        "N03_007": "27220"
      }
    },
    {
      "type": "Feature",
      "geometry": {
        "type": "Polygon",
        "coordinates": [
          [
            [
              135.610588,
              34.58838
            ],
            [
              135.627465,
              34.577502
            ],
            [
              135.621639,
              34.564278
            ],
            [
              135.622363,
              34.553577
            ],
            [
              135.652324,
              34.547758
            ],
            [
              135.656923,
              34.56228
            ],
            [
              135.681233,
              34.583245
            ],
            [
              135.675694,
              34.601739
            ],
            [
              135.649387,
              34.60234
            ],
            [
              135.620668,
              34.59869
            ],
            [
              135.610588,
              34.58838
            ]
          ]
        ]
      },
      "properties": {
        "N03_001": "大阪府",
        "N03_002": null,
        "N03_003": null,
        "N03_004": "柏原市",
        "N03_005": null,
        "N03_007": "27221"
      }
    },
    {
      "type": "Feature",
      "geometry": {
        "type": "Polygon",
        "coordinates": [
          [
            [
              135.587077,
              34.531575
            ],
            [
              135.627137,
              34.525451
            ],
            [
              135.660143,
              34.541071
            ],
            [
              135.652324,
              34.547758
            ],
            [
              135.622363,
              34.553577
            ],
            [
              135.621639,
              34.564278
            ],
            [
              135.590865,
              34.563116
            ],
            [
              135.581614,
              34.582669
            ],
            [
              135.567194,
              34.576687
            ],
            [
              135.567258,
              34.560117
            ],
            [
              135.567404,
              34.548709
            ],
            [
              135.587077,
              34.531575
            ]
          ]
        ]
      },
      "properties": {
        "N03_001": "大阪府",
        "N03_002": null,
        "N03_003": null,
        "N03_004": "羽曳野市",
        "N03_005": null,
        "N03_007": "27222"
      }
    },
    {
      "type": "Feature",
      "geometry": {
        "type": "Polygon",
        "coordinates": [
          [
            [
              135.601418,
              34.716162
            ],
            [
              135.620765,
              34.729108
            ],
            [
              135.606647,
              34.748753
            ],
            [
              135.571814,
              34.740207
            ],
            [
              135.582231,
              34.723338
            ],
            [
              135.601418,
              34.716162
            ]
          ]
        ]
      },
      "properties": {
        "N03_001": "大阪府",
        "N03_002": null,
        "N03_003": null,
        "N03_004": "門真市",
        "N03_005": null,
        "N03_007": "27223"
      }
    },
    {
      "type": "Feature",
      "geometry": {
        "type": "Polygon",
        "coordinates": [
          [
            [
              135.560529,
              34.753992
            ],
            [
              135.587006,
              34.767522
            ],
            [
              135.602063,
              34.780774
            ],
            [
              135.598225,
              34.797938
            ],
            [
              135.56688,
              34.775444
            ],
            [
              135.551934,
              34.793562
            ],
            [
              135.538374,
              34.786903
            ],
            [
              135.549057,
              34.767529
            ],
            [
              135.560529,
              34.753992
            ]
          ]
        ]
      },
      "properties": {
        "N03_001": "大阪府",
        "N03_002": null,
        "N03_003": null,
        "N03_004": "摂津市",
        "N03_005": null,
        "N03_007": "27224"
      }
    },
    {
      "type": "Feature",
      "geometry": {
        "type": "Polygon",
        "coordinates": [
          [
            [
              135.437697,
              34.54106
            ],
            [
              135.418876,
              34.519482
            ],
            [
              135.426818,
              34.512737
            ],
            [
              135.43338,
              34.513979
            ],
            [
              135.455127,
              34.514766
            ],
            [
              135.437697,
              34.54106
            ]
          ]
        ]
      },
      "properties": {
        "N03_001": "大阪府",
        "N03_002": null,
        "N03_003": null,
        "N03_004": "高石市",
        "N03_005": null,
        "N03_007": "27225"
      }
    },
    {
      "type": "Feature",
      "geometry": {
        "type": "Polygon",
        "coordinates": [
          [
            [
              135.585974,
              34.589468
            ],
            [
              135.581614,
              34.582669
            ],
            [
              135.590865,
              34.563116
            ],
            [
              135.621639,
              34.564278
            ],
            [
              135.627465,
              34.577502
            ],
            [
              135.610588,
              34.58838
            ],
            [
              135.585974,
              34.589468
            ]
          ]
        ]
      },
      "properties": {
        "N03_001": "大阪府",
        "N03_002": null,
        "N03_003": null,
        "N03_004": "藤井寺市",
        "N03_005": null,
        "N03_007": "27226"
      }
    },
    {
      "type": "Feature",
      "geometry": {
        "type": "Polygon",
        "coordinates": [
          [
            [
              135.557928,
              34.663255
            ],
            [
              135.561143,
              34.643551
            ],
            [
              135.574684,
              34.632181
            ],
            [
              135.595917,
              34.641721
            ],
            [
              135.663055,
              34.643331
            ],
            [
              135.678705,
              34.677759
            ],
            [
              135.672889,
              34.70005
            ],
            [
              135.633855,
              34.698723
            ],
            [
              135.594397,
              34.703193
            ],
            [
              135.565638,
              34.687752
            ],
            [
              135.565635,
              34.687735
            ],
            [
              135.562203,
              34.667914
            ],
            [
              135.557928,
              34.663255
            ]
          ]
        ]
      },
      "properties": {
        "N03_001": "大阪府",
        "N03_002": null,
        "N03_003": null,
        "N03_004": "東大阪市",
        "N03_005": null,
        "N03_007": "27227"
      }
    },
    {
      "type": "Feature",
      "geometry": {
        "type": "Polygon",
        "coordinates": [
          [
            [
              135.289392,
              34.383432
            ],
            [
              135.280038,
              34.394932
            ],
            [
              135.25359,
              34.374541
            ],
            [
              135.279512,
              34.326449
            ],
            [
              135.287883,
              34.304902
            ],
            [
              135.324199,
              34.319132
            ],
            [
              135.338928,
              34.335782
            ],
            [
              135.32198,
              34.355372
            ],
            [
              135.325157,
              34.363495
            ],
            [
              135.305647,
              34.382087
            ],
            [
              135.289392,
              34.383432
            ]
          ]
        ]
      },
      "properties": {
        "N03_001": "大阪府",
        "N03_002": null,
        "N03_003": null,
        "N03_004": "泉南市",
        "N03_005": null,
        "N03_007": "27228"
      }
    },
    {
      "type": "Feature",
      "geometry": {
        "type": "Polygon",
        "coordinates": [
          [
            [
              135.631955,
              34.732162
            ],
            [
              135.646864,
              34.731549
            ],
            [
              135.67268,
              34.715319
            ],
            [
              135.673583,
              34.702286
            ],
            [
              135.704136,
              34.723781
            ],
            [
              135.696828,
              34.743882
            ],
            [
              135.684379,
              34.74205
            ],
            [
              135.657497,
              34.746605
            ],
            [
              135.630515,
              34.749656
            ],
            [
              135.631955,
              34.732162
            ]
          ]
        ]
      },
      "properties": {
        "N03_001": "大阪府",
        "N03_002": null,
        "N03_003": null,
        "N03_004": "四條畷市",
        "N03_005": null,
        "N03_007": "27229"
      }
    },
    {
      "type": "Feature",
      "geometry": {
        "type": "Polygon",
        "coordinates": [
          [
            [
              135.65955,
              34.774935
            ],
            [
              135.657497,
              34.746605
            ],
            [
              135.684379,
              34.74205
            ],
            [
              135.710296,
              34.754289
            ],
            [
              135.716711,
              34.785987
            ],
            [
              135.708219,
              34.798153
            ],
            [
              135.676308,
              34.80342
            ],
            [
              135.66423,
              34.795386
            ],
            [
              135.65955,
              34.774935
            ]
          ]
        ]
      },
      "properties": {
        "N03_001": "大阪府",
        "N03_002": null,
        "N03_003": null,
        "N03_004": "交野市",
        "N03_005": null,
        "N03_007": "27230"
      }
    },
    {
      "type": "Feature",
      "geometry": {
        "type": "Polygon",
        "coordinates": [
          [
            [
              135.539444,
              34.500517
            ],
            [
              135.533572,
              34.487719
            ],
            [
              135.545313,
              34.461963
            ],
            [
              135.559415,
              34.479301
            ],
            [
              135.566568,
              34.513536
            ],
            [
              135.554723,
              34.528775
            ],
            [
              135.533569,
              34.514194
            ],
            [
              135.539444,
              34.500517
            ]
          ]
        ]
      },
      "properties": {
        "N03_001": "大阪府",
        "N03_002": null,
        "N03_003": null,
        "N03_004": "大阪狭山市",
        "N03_005": null,
        "N03_007": "27231"
      }
    },
    {
      "type": "Feature",
      "geometry": {
        "type": "Polygon",
        "coordinates": [
          [
            [
              135.25359,
              34.374541
            ],
            [
              135.240418,
              34.368925
            ],
            [
              135.223671,
              34.347816
            ],
            [
              135.193124,
              34.338132
            ],
            [
              135.192669,
              34.311771
            ],
            [
              135.207896,
              34.307692
            ],
            [
              135.225006,
              34.300861
            ],
            [
              135.248959,
              34.314373
            ],
            [
              135.272283,
              34.311984
            ],
            [
              135.279512,
              34.326449
            ],
            [
              135.25359,
              34.374541
            ]
          ]
        ]
      },
      "properties": {
        "N03_001": "大阪府",
        "N03_002": null,
        "N03_003": null,
        "N03_004": "阪南市",
        "N03_005": null,
        "N03_007": "27232"
      }
    },
    {
      "type": "Feature",
      "geometry": {
        "type": "Polygon",
        "coordinates": [
          [
            [
              135.672756,
              34.870031
            ],
            [
              135.682694,
              34.887842
            ],
            [
              135.671384,
              34.902385
            ],
            [
              135.648502,
              34.909547
            ],
            [
              135.649289,
              34.925348
            ],
            [
              135.628301,
              34.926229
            ],
            [
              135.634667,
              34.892308
            ],
            [
              135.655071,
              34.872476
            ],
            [
              135.672756,
              34.870031
            ]
          ]
        ]
      },
      "properties": {
        "N03_001": "大阪府",
        "N03_002": null,
        "N03_003": "三島郡",
        "N03_004": "島本町",
        "N03_005": null,
        "N03_007": "27301"
      }
    },
    {
      "type": "Feature",
      "geometry": {
        "type": "Polygon",
        "coordinates": [
          [
            [
              135.525329,
              34.927981
            ],
            [
              135.514594,
              34.94412
            ],
            [
              135.484157,
              34.947146
            ],
            [
              135.467419,
              34.928031
            ],
            [
              135.422835,
              34.911636
            ],
            [
              135.432609,
              34.891739
            ],
            [
              135.445851,
              34.895559
            ],
            [
              135.46571,
              34.909521
            ],
            [
              135.486929,
              34.898416
            ],
            [
              135.497912,
              34.878108
            ],
            [
              135.525329,
              34.927981
            ]
          ]
        ]
      },
      "properties": {
        "N03_001": "大阪府",
        "N03_002": null,
        "N03_003": "豊能郡",
        "N03_004": "豊能町",
        "N03_005": null,
        "N03_007": "27321"
      }
    },
    {
      "type": "Feature",
      "geometry": {
        "type": "Polygon",
        "coordinates": [
          [
            [
              135.484157,
              34.947146
            ],
            [
              135.488263,
              34.967294
            ],
            [
              135.481886,
              34.995146
            ],
            [
              135.440184,
              35.007693
            ],
            [
              135.421013,
              35.002156
            ],
            [
              135.409767,
              35.011526
            ],
            [
              135.381693,
              35.010248
            ],
            [
              135.380044,
              35.039106
            ],
            [
              135.359478,
              35.050112
            ],
            [
              135.338087,
              35.043604
            ],
            [
              135.339803,
              35.025877
            ],
            [
              135.354698,
              35.02479
            ],
            [
              135.352563,
              34.990389
            ],
            [
              135.345069,
              34.966846
            ],
            [
              135.359711,
              34.954691
            ],
            [
              135.387351,
              34.945908
            ],
            [
              135.441657,
              34.939395
            ],
            [
              135.467419,
              34.928031
            ],
            [
              135.484157,
              34.947146
            ]
          ]
        ]
      },
      "properties": {
        "N03_001": "大阪府",
        "N03_002": null,
        "N03_003": "豊能郡",
        "N03_004": "能勢町",
        "N03_005": null,
        "N03_007": "27322"
      }
    },
    {
      "type": "Feature",
      "geometry": {
        "type": "Polygon",
        "coordinates": [
          [
            [
              135.415199,
              34.473685
            ],
            [
              135.415463,
              34.482546
            ],
            [
              135.37783,
              34.507845
            ],
            [
              135.384527,
              34.493785
            ],
            [
              135.415199,
              34.473685
            ]
          ]
        ]
      },
      "properties": {
        "N03_001": "大阪府",
        "N03_002": null,
        "N03_003": "泉北郡",
        "N03_004": "忠岡町",
        "N03_005": null,
        "N03_007": "27341"
      }
    },
    {
      "type": "Feature",
      "geometry": {
        "type": "Polygon",
        "coordinates": [
          [
            [
              135.356189,
              34.418582
            ],
            [
              135.336897,
              34.396984
            ],
            [
              135.355601,
              34.37271
            ],
            [
              135.386509,
              34.355715
            ],
            [
              135.387974,
              34.385566
            ],
            [
              135.356189,
              34.418582
            ]
          ]
        ]
      },
      "properties": {
        "N03_001": "大阪府",
        "N03_002": null,
        "N03_003": "泉南郡",
        "N03_004": "熊取町",
        "N03_005": null,
        "N03_007": "27361"
      }
    },
    {
      "type": "Feature",
      "geometry": {
        "type": "MultiPolygon",
        "coordinates": [
          [
            [
              [
                135.288818,
                34.403624
              ],
              [
                135.280038,
                34.394932
              ],
              [
                135.289392,
                34.383432
              ],
              [
                135.288818,
                34.403624
              ]
            ]
          ],
          [
            [
              [
                135.24034,
                34.422895
              ],
              [
                135.251486,
                34.430219
              ],
              [
                135.229325,
                34.446049
              ],
              [
                135.218049,
                34.438496
              ],
              [
                135.228881,
                34.430915
              ],
              [
                135.230447,
                34.429819
              ],
              [
                135.24034,
                34.422895
              ]
            ]
          ]
        ]
      },
      "properties": {
        "N03_001": "大阪府",
        "N03_002": null,
        "N03_003": "泉南郡",
        "N03_004": "田尻町",
        "N03_005": null,
        "N03_007": "27362"
      }
    },
    {
      "type": "Feature",
      "geometry": {
        "type": "Polygon",
        "coordinates": [
          [
            [
              135.193124,
              34.338132
            ],
            [
              135.102063,
              34.31978
            ],
            [
              135.096764,
              34.296642
            ],
            [
              135.110328,
              34.272731
            ],
            [
              135.139644,
              34.281893
            ],
            [
              135.184322,
              34.278829
            ],
            [
              135.205181,
              34.288346
            ],
            [
              135.207896,
              34.307692
            ],
            [
              135.192669,
              34.311771
            ],
            [
              135.193124,
              34.338132
            ]
          ]
        ]
      },
      "properties": {
        "N03_001": "大阪府",
        "N03_002": null,
        "N03_003": "泉南郡",
        "N03_004": "岬町",
        "N03_005": null,
        "N03_007": "27366"
      }
    },
    {
      "type": "Feature",
      "geometry": {
        "type": "Polygon",
        "coordinates": [
          [
            [
              135.62058,
              34.514806
            ],
            [
              135.649476,
              34.499414
            ],
            [
              135.664407,
              34.503846
            ],
            [
              135.677043,
              34.52537
            ],
            [
              135.660143,
              34.541071
            ],
            [
              135.627137,
              34.525451
            ],
            [
              135.62058,
              34.514806
            ]
          ]
        ]
      },
      "properties": {
        "N03_001": "大阪府",
        "N03_002": null,
        "N03_003": "南河内郡",
        "N03_004": "太子町",
        "N03_005": null,
        "N03_007": "27381"
      }
    },
    {
      "type": "Feature",
      "geometry": {
        "type": "Polygon",
        "coordinates": [
          [
            [
              135.615817,
              34.472931
            ],
            [
              135.627067,
              34.476262
            ],
            [
              135.647141,
              34.454747
            ],
            [
              135.65793,
              34.466711
            ],
            [
              135.682168,
              34.465245
            ],
            [
              135.678301,
              34.4995
            ],
            [
              135.664407,
              34.503846
            ],
            [
              135.649476,
              34.499414
            ],
            [
              135.62058,
              34.514806
            ],
            [
              135.615817,
              34.472931
            ]
          ]
        ]
      },
      "properties": {
        "N03_001": "大阪府",
        "N03_002": null,
        "N03_003": "南河内郡",
        "N03_004": "河南町",
        "N03_005": null,
        "N03_007": "27382"
      }
    },
    {
      "type": "Feature",
      "geometry": {
        "type": "Polygon",
        "coordinates": [
          [
            [
              135.603457,
              34.439637
            ],
            [
              135.626094,
              34.421028
            ],
            [
              135.637088,
              34.420067
            ],
            [
              135.656127,
              34.395966
            ],
            [
              135.680093,
              34.409199
            ],
            [
              135.664285,
              34.423227
            ],
            [
              135.686736,
              34.448758
            ],
            [
              135.682168,
              34.465245
            ],
            [
              135.65793,
              34.466711
            ],
            [
              135.647141,
              34.454747
            ],
            [
              135.627067,
              34.476262
            ],
            [
              135.615817,
              34.472931
            ],
            [
              135.616111,
              34.452023
            ],
            [
              135.603457,
              34.439637
            ]
          ]
        ]
      },
      "properties": {
        "N03_001": "大阪府",
        "N03_002": null,
        "N03_003": "南河内郡",
        "N03_004": "千早赤阪村",
        "N03_005": null,
        "N03_007": "27383"
      }
    }
  ]
}