{"type":"FeatureCollection","name":"奈良県","features":[{"type":"Feature","properties":{"name":"奈良県"},"geometry":{"type":"LineString","coordinates":[[135.91548917,33.97220667],[135.89244917,33.94582444],[135.89921056,33.92525723],[135.90908361,33.91847444],[135.89435167,33.92059223],[135.89285361,33.906225],[135.86575778,33.92193861],[135.8689475,33.91429667],[135.85881222,33.90147723],[135.85973445,33.88912777],[135.88268805,33.87887083],[135.87330944,33.8704475],[135.87311112,33.85904139],[135.86218584,33.86272139],[135.86212222,33.87654889],[135.85342501,33.87674195],[135.85132834,33.89431611],[135.80860278,33.90646805],[135.80168,33.8957075],[135.75611501,33.885165],[135.72411,33.90328778],[135.68595778,33.903955],[135.66060445,33.89756556],[135.66220445,33.88908305],[135.64798805,33.87689778],[135.61796372,33.87206389],[135.6265675,33.88336111],[135.62287222,33.89795861],[135.60620306,33.89911889],[135.59997361,33.90833611],[135.61053,33.91332833],[135.61693167,33.95381639],[135.63723111,33.95064861],[135.63867611,33.98514944],[135.62219306,34.00966833],[135.59384888,34.01298083],[135.59966027,34.03201944],[135.58048973,34.05791028],[135.56706222,34.05734611],[135.53969805,34.07537972],[135.54979306,34.08498472],[135.54728694,34.10032916],[135.57843555,34.11581389],[135.58864805,34.14712805],[135.62191834,34.15842167],[135.62060306,34.16852083],[135.64179083,34.18291944],[135.64510639,34.19067444],[135.63408416,34.19866916],[135.64351528,34.21562277],[135.67238083,34.22432361],[135.70803361,34.20819722],[135.73018083,34.228295],[135.71621472,34.26558249],[135.69246944,34.27827195],[135.68080584,34.27061611],[135.67268445,34.28157139],[135.66893501,34.32290416],[135.65895445,34.33287667],[135.66352528,34.35544389],[135.65117611,34.38128167],[135.66383611,34.39730389],[135.6762275,34.40024111],[135.68009306,34.40919861],[135.66428528,34.42322667],[135.67897917,34.43276111],[135.68697805,34.45146083],[135.68472611,34.48541611],[135.67301973,34.50278805],[135.67714361,34.52516167],[135.66228667,34.53004111],[135.65949667,34.54389083],[135.65028472,34.54411195],[135.65692278,34.56227972],[135.67299389,34.57062972],[135.67154472,34.57991111],[135.68174445,34.58486167],[135.67569389,34.60173889],[135.65012139,34.60783277],[135.6590975,34.61481777],[135.66432139,34.651295],[135.67870472,34.67775944],[135.67301861,34.70163611],[135.70413555,34.72378111],[135.69679333,34.743695],[135.71010056,34.75355528],[135.71136889,34.7812725],[135.7207175,34.77446083],[135.7291625,34.77745528],[135.73320167,34.75487916],[135.75695639,34.73611583],[135.75551361,34.72753195],[135.79915528,34.72311028],[135.81028445,34.71448972],[135.84901555,34.70597222],[135.8761375,34.71387749],[135.89017111,34.70831556],[135.89738639,34.73087195],[135.92441722,34.7576725],[135.92900861,34.75668222],[135.92556917,34.74033944],[135.94289584,34.73749195],[135.95477501,34.74829777],[135.95864944,34.74026167],[135.97610917,34.74114083],[135.98379888,34.7342325],[135.98625501,34.715195],[136.0093225,34.71661416],[136.01386611,34.70779889],[136.02876472,34.70631361],[136.04300389,34.73611],[136.05547639,34.73855556],[136.07107917,34.71475361],[136.05370639,34.70448833],[136.07493278,34.69786444],[136.08646472,34.67534749],[136.07778083,34.65876056],[136.06440889,34.65192611],[136.03955195,34.66139583],[136.05047445,34.65229639],[136.06484639,34.65156444],[136.07356528,34.63481305],[136.04656834,34.60055749],[136.04980555,34.58020583],[136.08362445,34.55911472],[136.11014973,34.55671361],[136.11427805,34.54589333],[136.13805973,34.56095667],[136.15035584,34.55520444],[136.15549861,34.55973056],[136.17100027,34.53745],[136.16752167,34.51998139],[136.18211667,34.51675111],[136.21520694,34.52895528],[136.21977584,34.51588556],[136.21466722,34.50131195],[136.22977667,34.49328916],[136.21555973,34.48115305],[136.20624778,34.44867749],[136.15842722,34.44907833],[136.15143667,34.44185333],[136.12966944,34.44550472],[136.09589805,34.43522167],[136.08865389,34.42863333],[136.09026501,34.41604249],[136.06909667,34.39410139],[136.08936056,34.37434444],[136.10210472,34.33636167],[136.12950528,34.31617444],[136.09490361,34.30145111],[136.09782944,34.28882195],[136.12054805,34.27017167],[136.11806361,34.26059639],[136.13184944,34.25189639],[136.13030584,34.24287305],[136.10968778,34.22810278],[136.11824501,34.21428028],[136.09757611,34.20247167],[136.0926525,34.19018305],[136.10900778,34.18499556],[136.10450472,34.173415],[136.11469222,34.16081639],[136.10194917,34.14132944],[136.10840445,34.12678444],[136.09940445,34.11885249],[136.10786584,34.10319583],[136.10226389,34.09613972],[136.11864861,34.08231695],[136.09328778,34.08275639],[136.09713584,34.05766111],[136.09203222,34.04833528],[136.10413944,34.02586722],[136.05252195,34.03212556],[136.04345917,34.04068278],[136.03172778,34.03186722],[136.01963083,34.03679305],[136.00248917,34.00699139],[135.99068306,34.00353472],[135.98502222,33.99183889],[135.94140445,33.97569028],[135.92630472,33.98138556],[135.91548917,33.97220667]]}}]}