{
  "type": "FeatureCollection",
  "features": [
    {
      "type": "Feature",
      "geometry": {
        "type": "Polygon",
        "coordinates": [
          [
            [
              137.036047,
              36.541396
            ],
            [
              137.03263,
              36.533451
            ],
            [
              137.034595,
              36.513951
            ],
            [
              137.028177,
              36.505366
            ],
            [
              137.031382,
              36.499984
            ],
            [
              137.042709,
              36.505471
            ],
            [
              137.050224,
              36.503073
            ],
            [
              137.054997,
              36.478348
            ],
            [
              137.059906,
              36.471246
            ],
            [
              137.058827,
              36.463744
            ],
            [
              137.064304,
              36.452371
            ],
            [
              137.054684,
              36.437613
            ],
            [
              137.062223,
              36.426007
            ],
            [
              137.056111,
              36.411991
            ],
            [
              137.058386,
              36.397773
            ],
            [
              137.046963,
              36.373228
            ],
            [
              137.058118,
              36.371881
            ],
            [
              137.076593,
              36.383644
            ],
            [
              137.094883,
              36.383967
            ],
            [
              137.091944,
              36.39654
            ],
            [
              137.101926,
              36.399193
            ],
            [
              137.109254,
              36.407447
            ],
            [
              137.11151,
              36.415383
            ],
            [
              137.122,
              36.41715
            ],
            [
              137.132268,
              36.434563
            ],
            [
              137.14339,
              36.43847
            ],
            [
              137.144192,
              36.445521
            ],
            [
              137.152833,
              36.447655
            ],
            [
              137.159697,
              36.456444
            ],
            [
              137.182265,
              36.452464
            ],
            [
              137.191675,
              36.455213
            ],
            [
              137.208944,
              36.431691
            ],
            [
              137.21387,
              36.438793
            ],
            [
              137.222449,
              36.443717
            ],
            [
              137.232064,
              36.444502
            ],
            [
              137.247086,
              36.461717
            ],
            [
              137.256379,
              36.451141
            ],
            [
              137.263942,
              36.458411
            ],
            [
              137.279028,
              36.465065
            ],
            [
              137.298513,
              36.45823
            ],
            [
              137.30661,
              36.463877
            ],
            [
              137.317012,
              36.460803
            ],
            [
              137.317788,
              36.451182
            ],
            [
              137.313875,
              36.441668
            ],
            [
              137.305007,
              36.435835
            ],
            [
              137.313451,
              36.425032
            ],
            [
              137.319793,
              36.424525
            ],
            [
              137.338397,
              36.433854
            ],
            [
              137.351207,
              36.432903
            ],
            [
              137.35859,
              36.436844
            ],
            [
              137.361498,
              36.450051
            ],
            [
              137.370345,
              36.453598
            ],
            [
              137.378017,
              36.45272
            ],
            [
              137.389936,
              36.459922
            ],
            [
              137.396206,
              36.450465
            ],
            [
              137.395222,
              36.436397
            ],
            [
              137.409724,
              36.424681
            ],
            [
              137.417196,
              36.425643
            ],
            [
              137.427224,
              36.420216
            ],
            [
              137.43601,
              36.420393
            ],
            [
              137.445309,
              36.412964
            ],
            [
              137.449369,
              36.416819
            ],
            [
              137.460712,
              36.412226
            ],
            [
              137.468723,
              36.417205
            ],
            [
              137.474108,
              36.425409
            ],
            [
              137.491076,
              36.423533
            ],
            [
              137.504239,
              36.42571
            ],
            [
              137.511498,
              36.423693
            ],
            [
              137.515046,
              36.411346
            ],
            [
              137.520264,
              36.406067
            ],
            [
              137.5312,
              36.402447
            ],
            [
              137.540903,
              36.391442
            ],
            [
              137.559505,
              36.387452
            ],
            [
              137.571168,
              36.38902
            ],
            [
              137.576744,
              36.392981
            ],
            [
              137.592205,
              36.389596
            ],
            [
              137.605361,
              36.402538
            ],
            [
              137.603805,
              36.410677
            ],
            [
              137.608079,
              36.419416
            ],
            [
              137.617403,
              36.418601
            ],
            [
              137.622999,
              36.423814
            ],
            [
              137.636545,
              36.428412
            ],
            [
              137.639912,
              36.44583
            ],
            [
              137.645293,
              36.45453
            ],
            [
              137.65541,
              36.459172
            ],
            [
              137.656718,
              36.470223
            ],
            [
              137.65082,
              36.479816
            ],
            [
              137.652001,
              36.4882
            ],
            [
              137.65765,
              36.493109
            ],
            [
              137.666821,
              36.493816
            ],
            [
              137.668746,
              36.509461
            ],
            [
              137.677355,
              36.514386
            ],
            [
              137.690106,
              36.513736
            ],
            [
              137.694296,
              36.510682
            ],
            [
              137.70544,
              36.51782
            ],
            [
              137.700914,
              36.526691
            ],
            [
              137.693164,
              36.519651
            ],
            [
              137.672672,
              36.526626
            ],
            [
              137.653769,
              36.520039
            ],
            [
              137.641254,
              36.526391
            ],
            [
              137.636517,
              36.528795
            ],
            [
              137.583385,
              36.555763
            ],
            [
              137.57084,
              36.555709
            ],
            [
              137.543137,
              36.545989
            ],
            [
              137.535137,
              36.548864
            ],
            [
              137.520758,
              36.544792
            ],
            [
              137.51041,
              36.547383
            ],
            [
              137.50944,
              36.55284
            ],
            [
              137.49808,
              36.557629
            ],
            [
              137.488098,
              36.5652
            ],
            [
              137.474626,
              36.565777
            ],
            [
              137.457154,
              36.572503
            ],
            [
              137.437932,
              36.585109
            ],
            [
              137.418309,
              36.583866
            ],
            [
              137.361234,
              36.571376
            ],
            [
              137.338741,
              36.576432
            ],
            [
              137.323778,
              36.587344
            ],
            [
              137.314026,
              36.604794
            ],
            [
              137.285056,
              36.640745
            ],
            [
              137.28329,
              36.672891
            ],
            [
              137.277528,
              36.694988
            ],
            [
              137.290555,
              36.697347
            ],
            [
              137.293631,
              36.703947
            ],
            [
              137.305127,
              36.713046
            ],
            [
              137.313695,
              36.711874
            ],
            [
              137.325755,
              36.716168
            ],
            [
              137.321338,
              36.726883
            ],
            [
              137.337073,
              36.723975
            ],
            [
              137.343357,
              36.72608
            ],
            [
              137.33533,
              36.733916
            ],
            [
              137.338995,
              36.73849
            ],
            [
              137.330762,
              36.744507
            ],
            [
              137.328049,
              36.751068
            ],
            [
              137.316065,
              36.75525
            ],
            [
              137.316011,
              36.758596
            ],
            [
              137.299359,
              36.759059
            ],
            [
              137.294241,
              36.75688
            ],
            [
              137.229201,
              36.766749
            ],
            [
              137.228136,
              36.761553
            ],
            [
              137.204345,
              36.75927
            ],
            [
              137.1929,
              36.761496
            ],
            [
              137.189229,
              36.75738
            ],
            [
              137.18013,
              36.757959
            ],
            [
              137.178019,
              36.746834
            ],
            [
              137.151199,
              36.740616
            ],
            [
              137.151972,
              36.73641
            ],
            [
              137.145856,
              36.724482
            ],
            [
              137.132194,
              36.7253
            ],
            [
              137.126716,
              36.713772
            ],
            [
              137.118569,
              36.709097
            ],
            [
              137.124249,
              36.704125
            ],
            [
              137.125332,
              36.696773
            ],
            [
              137.121648,
              36.686031
            ],
            [
              137.111288,
              36.685418
            ],
            [
              137.107736,
              36.680749
            ],
            [
              137.099931,
              36.68371
            ],
            [
              137.086509,
              36.658952
            ],
            [
              137.076748,
              36.654543
            ],
            [
              137.06364,
              36.654664
            ],
            [
              137.051738,
              36.646122
            ],
            [
              137.065327,
              36.638363
            ],
            [
              137.057957,
              36.632743
            ],
            [
              137.053781,
              36.6221
            ],
            [
              137.053996,
              36.600462
            ],
            [
              137.04443,
              36.589638
            ],
            [
              137.039661,
              36.580222
            ],
            [
              137.036047,
              36.541396
            ]
          ]
        ]
      },
      "properties": {
        "N03_001": "富山県",
        "N03_002": null,
        "N03_003": null,
        "N03_004": "富山市",
        "N03_005": null,
        "N03_007": "16201"
      }
    },
    {
      "type": "Feature",
      "geometry": {
        "type": "Polygon",
        "coordinates": [
          [
            [
              136.924226,
              36.685159
            ],
            [
              136.932198,
              36.686271
            ],
            [
              136.944901,
              36.679418
            ],
            [
              136.950086,
              36.679903
            ],
            [
              136.956338,
              36.660512
            ],
            [
              136.965354,
              36.659625
            ],
            [
              136.978014,
              36.670748
            ],
            [
              136.989233,
              36.667482
            ],
            [
              136.986662,
              36.657056
            ],
            [
              137.00751,
              36.659205
            ],
            [
              137.011432,
              36.672776
            ],
            [
              137.021497,
              36.672106
            ],
            [
              137.02212,
              36.666416
            ],
            [
              137.033732,
              36.66362
            ],
            [
              137.042749,
              36.656952
            ],
            [
              137.04711,
              36.659758
            ],
            [
              137.043061,
              36.66697
            ],
            [
              137.047936,
              36.671784
            ],
            [
              137.034442,
              36.677291
            ],
            [
              137.038767,
              36.689757
            ],
            [
              137.011029,
              36.699216
            ],
            [
              137.039593,
              36.730949
            ],
            [
              137.050963,
              36.754845
            ],
            [
              137.048607,
              36.76434
            ],
            [
              137.050451,
              36.77101
            ],
            [
              137.068206,
              36.769027
            ],
            [
              137.082709,
              36.761901
            ],
            [
              137.092412,
              36.76279
            ],
            [
              137.103899,
              36.769717
            ],
            [
              137.092605,
              36.769743
            ],
            [
              137.086983,
              36.775788
            ],
            [
              137.073827,
              36.774127
            ],
            [
              137.074406,
              36.781022
            ],
            [
              137.059081,
              36.78517
            ],
            [
              137.068149,
              36.793911
            ],
            [
              137.069014,
              36.80136
            ],
            [
              137.063002,
              36.805003
            ],
            [
              137.05682,
              36.801604
            ],
            [
              137.044847,
              36.814095
            ],
            [
              137.01677,
              36.829385
            ],
            [
              137.007528,
              36.815943
            ],
            [
              137.000258,
              36.809913
            ],
            [
              137.00469,
              36.80296
            ],
            [
              137.013254,
              36.802352
            ],
            [
              137.017968,
              36.797174
            ],
            [
              137.015368,
              36.789993
            ],
            [
              136.993071,
              36.795329
            ],
            [
              136.974854,
              36.790393
            ],
            [
              136.961444,
              36.78179
            ],
            [
              136.953295,
              36.790657
            ],
            [
              136.949922,
              36.782652
            ],
            [
              136.92568,
              36.769787
            ],
            [
              136.909432,
              36.775215
            ],
            [
              136.906052,
              36.780331
            ],
            [
              136.894966,
              36.773878
            ],
            [
              136.887378,
              36.777581
            ],
            [
              136.888337,
              36.782781
            ],
            [
              136.878816,
              36.785811
            ],
            [
              136.873032,
              36.782015
            ],
            [
              136.851702,
              36.786735
            ],
            [
              136.843271,
              36.782792
            ],
            [
              136.852695,
              36.770149
            ],
            [
              136.849165,
              36.759234
            ],
            [
              136.839474,
              36.745363
            ],
            [
              136.833458,
              36.74308
            ],
            [
              136.839763,
              36.736878
            ],
            [
              136.856945,
              36.734101
            ],
            [
              136.877015,
              36.717043
            ],
            [
              136.885515,
              36.717194
            ],
            [
              136.890721,
              36.698924
            ],
            [
              136.903856,
              36.702713
            ],
            [
              136.91069,
              36.687684
            ],
            [
              136.918954,
              36.690187
            ],
            [
              136.924226,
              36.685159
            ]
          ]
        ]
      },
      "properties": {
        "N03_001": "富山県",
        "N03_002": null,
        "N03_003": null,
        "N03_004": "高岡市",
        "N03_005": null,
        "N03_007": "16202"
      }
    },
    {
      "type": "Feature",
      "geometry": {
        "type": "Polygon",
        "coordinates": [
          [
            [
              137.446953,
              36.715828
            ],
            [
              137.456115,
              36.702406
            ],
            [
              137.469973,
              36.703107
            ],
            [
              137.47632,
              36.716389
            ],
            [
              137.475153,
              36.72285
            ],
            [
              137.493875,
              36.722912
            ],
            [
              137.509418,
              36.710401
            ],
            [
              137.511171,
              36.705818
            ],
            [
              137.506919,
              36.690725
            ],
            [
              137.516297,
              36.678873
            ],
            [
              137.526135,
              36.68064
            ],
            [
              137.535396,
              36.676266
            ],
            [
              137.542087,
              36.678098
            ],
            [
              137.552771,
              36.673776
            ],
            [
              137.562396,
              36.675781
            ],
            [
              137.572072,
              36.672779
            ],
            [
              137.585435,
              36.675437
            ],
            [
              137.590272,
              36.680826
            ],
            [
              137.585952,
              36.689521
            ],
            [
              137.58695,
              36.698947
            ],
            [
              137.607901,
              36.713816
            ],
            [
              137.611138,
              36.725772
            ],
            [
              137.599004,
              36.731209
            ],
            [
              137.590489,
              36.738734
            ],
            [
              137.584397,
              36.752182
            ],
            [
              137.564309,
              36.761521
            ],
            [
              137.561188,
              36.767143
            ],
            [
              137.544028,
              36.770391
            ],
            [
              137.533842,
              36.781521
            ],
            [
              137.521217,
              36.777759
            ],
            [
              137.506006,
              36.786833
            ],
            [
              137.506695,
              36.795617
            ],
            [
              137.499493,
              36.80418
            ],
            [
              137.506249,
              36.815105
            ],
            [
              137.506379,
              36.824027
            ],
            [
              137.480954,
              36.834489
            ],
            [
              137.458407,
              36.836845
            ],
            [
              137.429958,
              36.848633
            ],
            [
              137.422872,
              36.855285
            ],
            [
              137.409554,
              36.860948
            ],
            [
              137.411421,
              36.84823
            ],
            [
              137.392103,
              36.823777
            ],
            [
              137.392983,
              36.807375
            ],
            [
              137.382265,
              36.800362
            ],
            [
              137.395765,
              36.786101
            ],
            [
              137.409966,
              36.763054
            ],
            [
              137.423325,
              36.749999
            ],
            [
              137.446953,
              36.715828
            ]
          ]
        ]
      },
      "properties": {
        "N03_001": "富山県",
        "N03_002": null,
        "N03_003": null,
        "N03_004": "魚津市",
        "N03_005": null,
        "N03_007": "16204"
      }
    },
    {
      "type": "Feature",
      "geometry": {
        "type": "Polygon",
        "coordinates": [
          [
            [
              137.01677,
              36.829385
            ],
            [
              136.991109,
              36.853721
            ],
            [
              136.984874,
              36.876753
            ],
            [
              136.992832,
              36.878996
            ],
            [
              136.995174,
              36.885034
            ],
            [
              137.008068,
              36.893791
            ],
            [
              137.018002,
              36.910935
            ],
            [
              137.022433,
              36.911046
            ],
            [
              137.032604,
              36.923795
            ],
            [
              137.027441,
              36.939995
            ],
            [
              137.051698,
              36.959173
            ],
            [
              137.037671,
              36.967119
            ],
            [
              137.027239,
              36.962425
            ],
            [
              137.005087,
              36.961131
            ],
            [
              136.996267,
              36.967014
            ],
            [
              136.986648,
              36.967199
            ],
            [
              136.982416,
              36.952741
            ],
            [
              136.97341,
              36.944234
            ],
            [
              136.953787,
              36.956057
            ],
            [
              136.931035,
              36.950629
            ],
            [
              136.915612,
              36.930808
            ],
            [
              136.895581,
              36.92472
            ],
            [
              136.878976,
              36.906271
            ],
            [
              136.879011,
              36.892735
            ],
            [
              136.885609,
              36.885193
            ],
            [
              136.883032,
              36.876824
            ],
            [
              136.871243,
              36.862678
            ],
            [
              136.862389,
              36.860327
            ],
            [
              136.861794,
              36.841076
            ],
            [
              136.856442,
              36.839791
            ],
            [
              136.860018,
              36.829077
            ],
            [
              136.847991,
              36.809845
            ],
            [
              136.854053,
              36.794973
            ],
            [
              136.851702,
              36.786735
            ],
            [
              136.873032,
              36.782015
            ],
            [
              136.878816,
              36.785811
            ],
            [
              136.888337,
              36.782781
            ],
            [
              136.887378,
              36.777581
            ],
            [
              136.894966,
              36.773878
            ],
            [
              136.906052,
              36.780331
            ],
            [
              136.909432,
              36.775215
            ],
            [
              136.92568,
              36.769787
            ],
            [
              136.949922,
              36.782652
            ],
            [
              136.953295,
              36.790657
            ],
            [
              136.961444,
              36.78179
            ],
            [
              136.974854,
              36.790393
            ],
            [
              136.993071,
              36.795329
            ],
            [
              137.015368,
              36.789993
            ],
            [
              137.017968,
              36.797174
            ],
            [
              137.013254,
              36.802352
            ],
            [
              137.00469,
              36.80296
            ],
            [
              137.000258,
              36.809913
            ],
            [
              137.007528,
              36.815943
            ],
            [
              137.01677,
              36.829385
            ]
          ]
        ]
      },
      "properties": {
        "N03_001": "富山県",
        "N03_002": null,
        "N03_003": null,
        "N03_004": "氷見市",
        "N03_005": null,
        "N03_007": "16205"
      }
    },
    {
      "type": "Feature",
      "geometry": {
        "type": "Polygon",
        "coordinates": [
          [
            [
              137.338995,
              36.73849
            ],
            [
              137.365882,
              36.725165
            ],
            [
              137.373485,
              36.726695
            ],
            [
              137.391842,
              36.716644
            ],
            [
              137.4053,
              36.724105
            ],
            [
              137.419485,
              36.72107
            ],
            [
              137.426141,
              36.727739
            ],
            [
              137.4371,
              36.718783
            ],
            [
              137.432861,
              36.707001
            ],
            [
              137.440933,
              36.705456
            ],
            [
              137.45,
              36.699502
            ],
            [
              137.446953,
              36.715828
            ],
            [
              137.423325,
              36.749999
            ],
            [
              137.409966,
              36.763054
            ],
            [
              137.395765,
              36.786101
            ],
            [
              137.381736,
              36.800604
            ],
            [
              137.347633,
              36.781019
            ],
            [
              137.333581,
              36.762502
            ],
            [
              137.316011,
              36.758596
            ],
            [
              137.316065,
              36.75525
            ],
            [
              137.328049,
              36.751068
            ],
            [
              137.330762,
              36.744507
            ],
            [
              137.338995,
              36.73849
            ]
          ]
        ]
      },
      "properties": {
        "N03_001": "富山県",
        "N03_002": null,
        "N03_003": null,
        "N03_004": "滑川市",
        "N03_005": null,
        "N03_007": "16206"
      }
    },
    {
      "type": "Feature",
      "geometry": {
        "type": "Polygon",
        "coordinates": [
          [
            [
              137.590272,
              36.680826
            ],
            [
              137.607264,
              36.665904
            ],
            [
              137.614332,
              36.655239
            ],
            [
              137.620711,
              36.653812
            ],
            [
              137.627366,
              36.639652
            ],
            [
              137.64291,
              36.639456
            ],
            [
              137.646801,
              36.635219
            ],
            [
              137.668193,
              36.634878
            ],
            [
              137.681976,
              36.639473
            ],
            [
              137.68508,
              36.64494
            ],
            [
              137.72861,
              36.622912
            ],
            [
              137.751809,
              36.627104
            ],
            [
              137.756382,
              36.647624
            ],
            [
              137.753454,
              36.657768
            ],
            [
              137.761864,
              36.666183
            ],
            [
              137.75848,
              36.675968
            ],
            [
              137.759738,
              36.685932
            ],
            [
              137.754222,
              36.68746
            ],
            [
              137.756705,
              36.695563
            ],
            [
              137.750025,
              36.704745
            ],
            [
              137.752655,
              36.716763
            ],
            [
              137.750753,
              36.726584
            ],
            [
              137.759294,
              36.740741
            ],
            [
              137.751772,
              36.751108
            ],
            [
              137.754131,
              36.75403
            ],
            [
              137.747081,
              36.76715
            ],
            [
              137.647072,
              36.836383
            ],
            [
              137.647125,
              36.849461
            ],
            [
              137.631818,
              36.850564
            ],
            [
              137.628318,
              36.858121
            ],
            [
              137.610799,
              36.866478
            ],
            [
              137.594934,
              36.852451
            ],
            [
              137.589034,
              36.851971
            ],
            [
              137.582135,
              36.867401
            ],
            [
              137.573218,
              36.868515
            ],
            [
              137.560619,
              36.876491
            ],
            [
              137.551202,
              36.875592
            ],
            [
              137.544932,
              36.867516
            ],
            [
              137.533071,
              36.87432
            ],
            [
              137.515314,
              36.880219
            ],
            [
              137.498224,
              36.891542
            ],
            [
              137.453295,
              36.903507
            ],
            [
              137.426146,
              36.922211
            ],
            [
              137.408916,
              36.89725
            ],
            [
              137.414807,
              36.890617
            ],
            [
              137.419039,
              36.87984
            ],
            [
              137.417496,
              36.869019
            ],
            [
              137.40964,
              36.860984
            ],
            [
              137.422872,
              36.855285
            ],
            [
              137.429958,
              36.848633
            ],
            [
              137.458407,
              36.836845
            ],
            [
              137.480954,
              36.834489
            ],
            [
              137.506379,
              36.824027
            ],
            [
              137.506249,
              36.815105
            ],
            [
              137.499493,
              36.80418
            ],
            [
              137.506695,
              36.795617
            ],
            [
              137.506006,
              36.786833
            ],
            [
              137.521217,
              36.777759
            ],
            [
              137.533842,
              36.781521
            ],
            [
              137.544028,
              36.770391
            ],
            [
              137.561188,
              36.767143
            ],
            [
              137.564309,
              36.761521
            ],
            [
              137.584397,
              36.752182
            ],
            [
              137.590489,
              36.738734
            ],
            [
              137.599004,
              36.731209
            ],
            [
              137.611138,
              36.725772
            ],
            [
              137.607901,
              36.713816
            ],
            [
              137.58695,
              36.698947
            ],
            [
              137.585952,
              36.689521
            ],
            [
              137.590272,
              36.680826
            ]
          ]
        ]
      },
      "properties": {
        "N03_001": "富山県",
        "N03_002": null,
        "N03_003": null,
        "N03_004": "黒部市",
        "N03_005": null,
        "N03_007": "16207"
      }
    },
    {
      "type": "Feature",
      "geometry": {
        "type": "Polygon",
        "coordinates": [
          [
            [
              137.051738,
              36.646122
            ],
            [
              137.054278,
              36.652134
            ],
            [
              137.04711,
              36.659758
            ],
            [
              137.042749,
              36.656952
            ],
            [
              137.033732,
              36.66362
            ],
            [
              137.02212,
              36.666416
            ],
            [
              137.021497,
              36.672106
            ],
            [
              137.011432,
              36.672776
            ],
            [
              137.00751,
              36.659205
            ],
            [
              136.986662,
              36.657056
            ],
            [
              136.989233,
              36.667482
            ],
            [
              136.978014,
              36.670748
            ],
            [
              136.965354,
              36.659625
            ],
            [
              136.956338,
              36.660512
            ],
            [
              136.950086,
              36.679903
            ],
            [
              136.944901,
              36.679418
            ],
            [
              136.932198,
              36.686271
            ],
            [
              136.924226,
              36.685159
            ],
            [
              136.936286,
              36.672918
            ],
            [
              136.924565,
              36.673247
            ],
            [
              136.913866,
              36.665085
            ],
            [
              136.917617,
              36.6556
            ],
            [
              136.912094,
              36.651171
            ],
            [
              136.91721,
              36.641272
            ],
            [
              136.906454,
              36.627245
            ],
            [
              136.907876,
              36.622218
            ],
            [
              136.90851,
              36.620793
            ],
            [
              136.916557,
              36.620985
            ],
            [
              136.923768,
              36.612139
            ],
            [
              136.945317,
              36.605148
            ],
            [
              136.9704,
              36.585033
            ],
            [
              136.971987,
              36.574748
            ],
            [
              136.990088,
              36.55452
            ],
            [
              137.004439,
              36.550414
            ],
            [
              137.003685,
              36.545308
            ],
            [
              137.036047,
              36.541396
            ],
            [
              137.039661,
              36.580222
            ],
            [
              137.04443,
              36.589638
            ],
            [
              137.053996,
              36.600462
            ],
            [
              137.053781,
              36.6221
            ],
            [
              137.057957,
              36.632743
            ],
            [
              137.065327,
              36.638363
            ],
            [
              137.051738,
              36.646122
            ]
          ]
        ]
      },
      "properties": {
        "N03_001": "富山県",
        "N03_002": null,
        "N03_003": null,
        "N03_004": "砺波市",
        "N03_005": null,
        "N03_007": "16208"
      }
    },
    {
      "type": "Feature",
      "geometry": {
        "type": "Polygon",
        "coordinates": [
          [
            [
              136.833458,
              36.74308
            ],
            [
              136.821961,
              36.7403
            ],
            [
              136.819861,
              36.73065
            ],
            [
              136.796101,
              36.729577
            ],
            [
              136.78943,
              36.717925
            ],
            [
              136.815582,
              36.700507
            ],
            [
              136.810026,
              36.686586
            ],
            [
              136.820576,
              36.68393
            ],
            [
              136.823833,
              36.669868
            ],
            [
              136.810406,
              36.658089
            ],
            [
              136.807304,
              36.647706
            ],
            [
              136.800569,
              36.646572
            ],
            [
              136.799903,
              36.636405
            ],
            [
              136.78482,
              36.628504
            ],
            [
              136.783149,
              36.616832
            ],
            [
              136.786101,
              36.60881
            ],
            [
              136.7948,
              36.604278
            ],
            [
              136.801173,
              36.616976
            ],
            [
              136.813252,
              36.616322
            ],
            [
              136.810778,
              36.601458
            ],
            [
              136.83087,
              36.597857
            ],
            [
              136.842137,
              36.587685
            ],
            [
              136.848731,
              36.586757
            ],
            [
              136.856894,
              36.604411
            ],
            [
              136.860091,
              36.602034
            ],
            [
              136.88613,
              36.604592
            ],
            [
              136.900489,
              36.602349
            ],
            [
              136.905891,
              36.615279
            ],
            [
              136.902886,
              36.625114
            ],
            [
              136.906454,
              36.627245
            ],
            [
              136.91721,
              36.641272
            ],
            [
              136.912094,
              36.651171
            ],
            [
              136.917617,
              36.6556
            ],
            [
              136.913866,
              36.665085
            ],
            [
              136.924565,
              36.673247
            ],
            [
              136.936286,
              36.672918
            ],
            [
              136.924226,
              36.685159
            ],
            [
              136.918954,
              36.690187
            ],
            [
              136.91069,
              36.687684
            ],
            [
              136.903856,
              36.702713
            ],
            [
              136.890721,
              36.698924
            ],
            [
              136.885515,
              36.717194
            ],
            [
              136.877015,
              36.717043
            ],
            [
              136.856945,
              36.734101
            ],
            [
              136.839763,
              36.736878
            ],
            [
              136.833458,
              36.74308
            ]
          ]
        ]
      },
      "properties": {
        "N03_001": "富山県",
        "N03_002": null,
        "N03_003": null,
        "N03_004": "小矢部市",
        "N03_005": null,
        "N03_007": "16209"
      }
    },
    {
      "type": "Feature",
      "geometry": {
        "type": "Polygon",
        "coordinates": [
          [
            [
              137.036047,
              36.541396
            ],
            [
              137.003685,
              36.545308
            ],
            [
              137.004439,
              36.550414
            ],
            [
              136.990088,
              36.55452
            ],
            [
              136.971987,
              36.574748
            ],
            [
              136.9704,
              36.585033
            ],
            [
              136.945317,
              36.605148
            ],
            [
              136.923768,
              36.612139
            ],
            [
              136.916557,
              36.620985
            ],
            [
              136.90851,
              36.620793
            ],
            [
              136.907876,
              36.622218
            ],
            [
              136.906454,
              36.627245
            ],
            [
              136.902886,
              36.625114
            ],
            [
              136.905891,
              36.615279
            ],
            [
              136.900489,
              36.602349
            ],
            [
              136.88613,
              36.604592
            ],
            [
              136.860091,
              36.602034
            ],
            [
              136.856894,
              36.604411
            ],
            [
              136.848731,
              36.586757
            ],
            [
              136.842137,
              36.587685
            ],
            [
              136.83087,
              36.597857
            ],
            [
              136.810778,
              36.601458
            ],
            [
              136.813252,
              36.616322
            ],
            [
              136.801173,
              36.616976
            ],
            [
              136.7948,
              36.604278
            ],
            [
              136.788462,
              36.602084
            ],
            [
              136.788313,
              36.593024
            ],
            [
              136.795319,
              36.584841
            ],
            [
              136.791008,
              36.569622
            ],
            [
              136.802444,
              36.568772
            ],
            [
              136.817234,
              36.552386
            ],
            [
              136.812855,
              36.538099
            ],
            [
              136.795106,
              36.510808
            ],
            [
              136.797091,
              36.501994
            ],
            [
              136.79395,
              36.496981
            ],
            [
              136.802818,
              36.485007
            ],
            [
              136.795551,
              36.474886
            ],
            [
              136.803381,
              36.464506
            ],
            [
              136.788202,
              36.452685
            ],
            [
              136.796725,
              36.444688
            ],
            [
              136.778176,
              36.430883
            ],
            [
              136.768652,
              36.428767
            ],
            [
              136.771636,
              36.420442
            ],
            [
              136.795143,
              36.401264
            ],
            [
              136.800135,
              36.3703
            ],
            [
              136.80819,
              36.358689
            ],
            [
              136.784659,
              36.343787
            ],
            [
              136.786931,
              36.333429
            ],
            [
              136.783651,
              36.329592
            ],
            [
              136.79042,
              36.322076
            ],
            [
              136.788358,
              36.312334
            ],
            [
              136.79113,
              36.300557
            ],
            [
              136.804445,
              36.306235
            ],
            [
              136.809392,
              36.302541
            ],
            [
              136.826568,
              36.302583
            ],
            [
              136.832368,
              36.306811
            ],
            [
              136.832519,
              36.315418
            ],
            [
              136.839871,
              36.332264
            ],
            [
              136.835926,
              36.345068
            ],
            [
              136.844063,
              36.351112
            ],
            [
              136.852064,
              36.347429
            ],
            [
              136.8651,
              36.34966
            ],
            [
              136.864135,
              36.355201
            ],
            [
              136.871108,
              36.367531
            ],
            [
              136.876299,
              36.360279
            ],
            [
              136.875741,
              36.350106
            ],
            [
              136.882289,
              36.341942
            ],
            [
              136.890091,
              36.345558
            ],
            [
              136.907474,
              36.360842
            ],
            [
              136.932757,
              36.348293
            ],
            [
              136.939644,
              36.349208
            ],
            [
              136.955136,
              36.339097
            ],
            [
              136.961409,
              36.322947
            ],
            [
              136.971117,
              36.315543
            ],
            [
              136.973289,
              36.309852
            ],
            [
              136.957735,
              36.277937
            ],
            [
              136.970722,
              36.277749
            ],
            [
              136.975306,
              36.274364
            ],
            [
              136.986525,
              36.282465
            ],
            [
              136.986216,
              36.286275
            ],
            [
              137.002681,
              36.286926
            ],
            [
              137.012596,
              36.2931
            ],
            [
              137.010809,
              36.298029
            ],
            [
              137.021251,
              36.309176
            ],
            [
              137.019568,
              36.318121
            ],
            [
              137.037744,
              36.317509
            ],
            [
              137.051515,
              36.328133
            ],
            [
              137.052533,
              36.33854
            ],
            [
              137.048904,
              36.345495
            ],
            [
              137.062021,
              36.366872
            ],
            [
              137.058118,
              36.371881
            ],
            [
              137.046963,
              36.373228
            ],
            [
              137.058386,
              36.397773
            ],
            [
              137.056111,
              36.411991
            ],
            [
              137.062223,
              36.426007
            ],
            [
              137.054684,
              36.437613
            ],
            [
              137.064304,
              36.452371
            ],
            [
              137.058827,
              36.463744
            ],
            [
              137.059906,
              36.471246
            ],
            [
              137.054997,
              36.478348
            ],
            [
              137.050224,
              36.503073
            ],
            [
              137.042709,
              36.505471
            ],
            [
              137.031382,
              36.499984
            ],
            [
              137.028177,
              36.505366
            ],
            [
              137.034595,
              36.513951
            ],
            [
              137.03263,
              36.533451
            ],
            [
              137.036047,
              36.541396
            ]
          ]
        ]
      },
      "properties": {
        "N03_001": "富山県",
        "N03_002": null,
        "N03_003": null,
        "N03_004": "南砺市",
        "N03_005": null,
        "N03_007": "16210"
      }
    },
    {
      "type": "Feature",
      "geometry": {
        "type": "MultiPolygon",
        "coordinates": [
          [
            [
              [
                137.18013,
                36.757959
              ],
              [
                137.155575,
                36.763228
              ],
              [
                137.149113,
                36.768435
              ],
              [
                137.137936,
                36.769454
              ],
              [
                137.136602,
                36.773375
              ],
              [
                137.119989,
                36.78021
              ],
              [
                137.118319,
                36.766506
              ],
              [
                137.134354,
                36.759882
              ],
              [
                137.133051,
                36.756697
              ],
              [
                137.103899,
                36.769717
              ],
              [
                137.092412,
                36.76279
              ],
              [
                137.082709,
                36.761901
              ],
              [
                137.068206,
                36.769027
              ],
              [
                137.050451,
                36.77101
              ],
              [
                137.048607,
                36.76434
              ],
              [
                137.050963,
                36.754845
              ],
              [
                137.039593,
                36.730949
              ],
              [
                137.011029,
                36.699216
              ],
              [
                137.038767,
                36.689757
              ],
              [
                137.034442,
                36.677291
              ],
              [
                137.047936,
                36.671784
              ],
              [
                137.043061,
                36.66697
              ],
              [
                137.04711,
                36.659758
              ],
              [
                137.054278,
                36.652134
              ],
              [
                137.051738,
                36.646122
              ],
              [
                137.06364,
                36.654664
              ],
              [
                137.076748,
                36.654543
              ],
              [
                137.086509,
                36.658952
              ],
              [
                137.099931,
                36.68371
              ],
              [
                137.107736,
                36.680749
              ],
              [
                137.111288,
                36.685418
              ],
              [
                137.121648,
                36.686031
              ],
              [
                137.125332,
                36.696773
              ],
              [
                137.124249,
                36.704125
              ],
              [
                137.118569,
                36.709097
              ],
              [
                137.126716,
                36.713772
              ],
              [
                137.132194,
                36.7253
              ],
              [
                137.145856,
                36.724482
              ],
              [
                137.151972,
                36.73641
              ],
              [
                137.151199,
                36.740616
              ],
              [
                137.178019,
                36.746834
              ],
              [
                137.18013,
                36.757959
              ]
            ]
          ],
          [
            [
              [
                137.086983,
                36.775788
              ],
              [
                137.113623,
                36.77456
              ],
              [
                137.100432,
                36.785029
              ],
              [
                137.096484,
                36.781047
              ],
              [
                137.087364,
                36.782884
              ],
              [
                137.068149,
                36.793911
              ],
              [
                137.059081,
                36.78517
              ],
              [
                137.074406,
                36.781022
              ],
              [
                137.073827,
                36.774127
              ],
              [
                137.086983,
                36.775788
              ]
            ]
          ]
        ]
      },
      "properties": {
        "N03_001": "富山県",
        "N03_002": null,
        "N03_003": null,
        "N03_004": "射水市",
        "N03_005": null,
        "N03_007": "16211"
      }
    },
    {
      "type": "Feature",
      "geometry": {
        "type": "Polygon",
        "coordinates": [
          [
            [
              137.293631,
              36.703947
            ],
            [
              137.303133,
              36.699243
            ],
            [
              137.298131,
              36.690915
            ],
            [
              137.298605,
              36.685423
            ],
            [
              137.31169,
              36.691872
            ],
            [
              137.31702,
              36.704226
            ],
            [
              137.313695,
              36.711874
            ],
            [
              137.305127,
              36.713046
            ],
            [
              137.293631,
              36.703947
            ]
          ]
        ]
      },
      "properties": {
        "N03_001": "富山県",
        "N03_002": null,
        "N03_003": "中新川郡",
        "N03_004": "舟橋村",
        "N03_005": null,
        "N03_007": "16321"
      }
    },
    {
      "type": "Feature",
      "geometry": {
        "type": "Polygon",
        "coordinates": [
          [
            [
              137.313695,
              36.711874
            ],
            [
              137.31702,
              36.704226
            ],
            [
              137.328253,
              36.705061
            ],
            [
              137.3299,
              36.696361
            ],
            [
              137.338259,
              36.692013
            ],
            [
              137.342838,
              36.683138
            ],
            [
              137.352789,
              36.68224
            ],
            [
              137.360026,
              36.669084
            ],
            [
              137.35996,
              36.664458
            ],
            [
              137.387709,
              36.64897
            ],
            [
              137.393758,
              36.63791
            ],
            [
              137.405438,
              36.634259
            ],
            [
              137.405606,
              36.626972
            ],
            [
              137.42813,
              36.625381
            ],
            [
              137.437804,
              36.616096
            ],
            [
              137.441721,
              36.604854
            ],
            [
              137.458891,
              36.602546
            ],
            [
              137.474399,
              36.608725
            ],
            [
              137.487399,
              36.610787
            ],
            [
              137.501892,
              36.609597
            ],
            [
              137.50236,
              36.600285
            ],
            [
              137.518553,
              36.600855
            ],
            [
              137.531473,
              36.607773
            ],
            [
              137.540506,
              36.607083
            ],
            [
              137.555726,
              36.595964
            ],
            [
              137.576781,
              36.59924
            ],
            [
              137.584467,
              36.59271
            ],
            [
              137.600287,
              36.593808
            ],
            [
              137.609489,
              36.597494
            ],
            [
              137.608233,
              36.606943
            ],
            [
              137.614406,
              36.612599
            ],
            [
              137.615667,
              36.622404
            ],
            [
              137.622657,
              36.627306
            ],
            [
              137.618909,
              36.634682
            ],
            [
              137.627366,
              36.639652
            ],
            [
              137.620711,
              36.653812
            ],
            [
              137.614332,
              36.655239
            ],
            [
              137.607264,
              36.665904
            ],
            [
              137.590272,
              36.680826
            ],
            [
              137.585435,
              36.675437
            ],
            [
              137.572072,
              36.672779
            ],
            [
              137.562396,
              36.675781
            ],
            [
              137.552771,
              36.673776
            ],
            [
              137.542087,
              36.678098
            ],
            [
              137.535396,
              36.676266
            ],
            [
              137.526135,
              36.68064
            ],
            [
              137.516297,
              36.678873
            ],
            [
              137.506919,
              36.690725
            ],
            [
              137.511171,
              36.705818
            ],
            [
              137.509418,
              36.710401
            ],
            [
              137.493875,
              36.722912
            ],
            [
              137.475153,
              36.72285
            ],
            [
              137.47632,
              36.716389
            ],
            [
              137.469973,
              36.703107
            ],
            [
              137.456115,
              36.702406
            ],
            [
              137.446953,
              36.715828
            ],
            [
              137.45,
              36.699502
            ],
            [
              137.440933,
              36.705456
            ],
            [
              137.432861,
              36.707001
            ],
            [
              137.4371,
              36.718783
            ],
            [
              137.426141,
              36.727739
            ],
            [
              137.419485,
              36.72107
            ],
            [
              137.4053,
              36.724105
            ],
            [
              137.391842,
              36.716644
            ],
            [
              137.373485,
              36.726695
            ],
            [
              137.365882,
              36.725165
            ],
            [
              137.338995,
              36.73849
            ],
            [
              137.33533,
              36.733916
            ],
            [
              137.343357,
              36.72608
            ],
            [
              137.337073,
              36.723975
            ],
            [
              137.321338,
              36.726883
            ],
            [
              137.325755,
              36.716168
            ],
            [
              137.313695,
              36.711874
            ]
          ]
        ]
      },
      "properties": {
        "N03_001": "富山県",
        "N03_002": null,
        "N03_003": "中新川郡",
        "N03_004": "上市町",
        "N03_005": null,
        "N03_007": "16322"
      }
    },
    {
      "type": "Feature",
      "geometry": {
        "type": "Polygon",
        "coordinates": [
          [
            [
              137.700914,
              36.526691
            ],
            [
              137.710655,
              36.535538
            ],
            [
              137.684598,
              36.537807
            ],
            [
              137.689538,
              36.553794
            ],
            [
              137.687738,
              36.562075
            ],
            [
              137.693887,
              36.56906
            ],
            [
              137.713206,
              36.57708
            ],
            [
              137.724308,
              36.586491
            ],
            [
              137.747863,
              36.586854
            ],
            [
              137.753097,
              36.593722
            ],
            [
              137.743941,
              36.612745
            ],
            [
              137.746779,
              36.624556
            ],
            [
              137.72861,
              36.622912
            ],
            [
              137.68508,
              36.64494
            ],
            [
              137.681976,
              36.639473
            ],
            [
              137.668193,
              36.634878
            ],
            [
              137.646801,
              36.635219
            ],
            [
              137.64291,
              36.639456
            ],
            [
              137.627366,
              36.639652
            ],
            [
              137.618909,
              36.634682
            ],
            [
              137.622657,
              36.627306
            ],
            [
              137.615667,
              36.622404
            ],
            [
              137.614406,
              36.612599
            ],
            [
              137.608233,
              36.606943
            ],
            [
              137.609489,
              36.597494
            ],
            [
              137.600287,
              36.593808
            ],
            [
              137.584467,
              36.59271
            ],
            [
              137.576781,
              36.59924
            ],
            [
              137.555726,
              36.595964
            ],
            [
              137.540506,
              36.607083
            ],
            [
              137.531473,
              36.607773
            ],
            [
              137.518553,
              36.600855
            ],
            [
              137.50236,
              36.600285
            ],
            [
              137.501892,
              36.609597
            ],
            [
              137.487399,
              36.610787
            ],
            [
              137.474399,
              36.608725
            ],
            [
              137.458891,
              36.602546
            ],
            [
              137.441721,
              36.604854
            ],
            [
              137.437804,
              36.616096
            ],
            [
              137.42813,
              36.625381
            ],
            [
              137.405606,
              36.626972
            ],
            [
              137.405438,
              36.634259
            ],
            [
              137.393758,
              36.63791
            ],
            [
              137.387709,
              36.64897
            ],
            [
              137.35996,
              36.664458
            ],
            [
              137.360026,
              36.669084
            ],
            [
              137.352789,
              36.68224
            ],
            [
              137.342838,
              36.683138
            ],
            [
              137.338259,
              36.692013
            ],
            [
              137.3299,
              36.696361
            ],
            [
              137.328253,
              36.705061
            ],
            [
              137.31702,
              36.704226
            ],
            [
              137.31169,
              36.691872
            ],
            [
              137.298605,
              36.685423
            ],
            [
              137.298131,
              36.690915
            ],
            [
              137.303133,
              36.699243
            ],
            [
              137.293631,
              36.703947
            ],
            [
              137.290555,
              36.697347
            ],
            [
              137.277528,
              36.694988
            ],
            [
              137.28329,
              36.672891
            ],
            [
              137.285056,
              36.640745
            ],
            [
              137.314026,
              36.604794
            ],
            [
              137.323778,
              36.587344
            ],
            [
              137.338741,
              36.576432
            ],
            [
              137.361234,
              36.571376
            ],
            [
              137.418309,
              36.583866
            ],
            [
              137.437932,
              36.585109
            ],
            [
              137.457154,
              36.572503
            ],
            [
              137.474626,
              36.565777
            ],
            [
              137.488098,
              36.5652
            ],
            [
              137.49808,
              36.557629
            ],
            [
              137.50944,
              36.55284
            ],
            [
              137.51041,
              36.547383
            ],
            [
              137.520758,
              36.544792
            ],
            [
              137.535137,
              36.548864
            ],
            [
              137.543137,
              36.545989
            ],
            [
              137.57084,
              36.555709
            ],
            [
              137.583385,
              36.555763
            ],
            [
              137.636517,
              36.528795
            ],
            [
              137.641254,
              36.526391
            ],
            [
              137.653769,
              36.520039
            ],
            [
              137.672672,
              36.526626
            ],
            [
              137.693164,
              36.519651
            ],
            [
              137.700914,
              36.526691
            ]
          ]
        ]
      },
      "properties": {
        "N03_001": "富山県",
        "N03_002": null,
        "N03_003": "中新川郡",
        "N03_004": "立山町",
        "N03_005": null,
        "N03_007": "16323"
      }
    },
    {
      "type": "Feature",
      "geometry": {
        "type": "Polygon",
        "coordinates": [
          [
            [
              137.610799,
              36.866478
            ],
            [
              137.607852,
              36.873907
            ],
            [
              137.591573,
              36.887528
            ],
            [
              137.580937,
              36.881131
            ],
            [
              137.567159,
              36.883361
            ],
            [
              137.557794,
              36.888152
            ],
            [
              137.555233,
              36.89342
            ],
            [
              137.558827,
              36.900834
            ],
            [
              137.558743,
              36.910574
            ],
            [
              137.542462,
              36.911615
            ],
            [
              137.531755,
              36.908865
            ],
            [
              137.526902,
              36.920562
            ],
            [
              137.528133,
              36.934422
            ],
            [
              137.531262,
              36.941162
            ],
            [
              137.540956,
              36.943688
            ],
            [
              137.54281,
              36.961061
            ],
            [
              137.492667,
              36.954857
            ],
            [
              137.42581,
              36.925021
            ],
            [
              137.426146,
              36.922211
            ],
            [
              137.453295,
              36.903507
            ],
            [
              137.498224,
              36.891542
            ],
            [
              137.515314,
              36.880219
            ],
            [
              137.533071,
              36.87432
            ],
            [
              137.544932,
              36.867516
            ],
            [
              137.551202,
              36.875592
            ],
            [
              137.560619,
              36.876491
            ],
            [
              137.573218,
              36.868515
            ],
            [
              137.582135,
              36.867401
            ],
            [
              137.589034,
              36.851971
            ],
            [
              137.594934,
              36.852451
            ],
            [
              137.610799,
              36.866478
            ]
          ]
        ]
      },
      "properties": {
        "N03_001": "富山県",
        "N03_002": null,
        "N03_003": "下新川郡",
        "N03_004": "入善町",
        "N03_005": null,
        "N03_007": "16342"
      }
    },
    {
      "type": "Feature",
      "geometry": {
        "type": "Polygon",
        "coordinates": [
          [
            [
              137.754131,
              36.75403
            ],
            [
              137.763387,
              36.768233
            ],
            [
              137.749555,
              36.780025
            ],
            [
              137.754294,
              36.796589
            ],
            [
              137.749328,
              36.809576
            ],
            [
              137.730081,
              36.826426
            ],
            [
              137.734439,
              36.831399
            ],
            [
              137.734129,
              36.868832
            ],
            [
              137.713518,
              36.891438
            ],
            [
              137.712572,
              36.904081
            ],
            [
              137.717832,
              36.907674
            ],
            [
              137.716282,
              36.921391
            ],
            [
              137.720457,
              36.92669
            ],
            [
              137.713738,
              36.933842
            ],
            [
              137.711233,
              36.944174
            ],
            [
              137.687729,
              36.943144
            ],
            [
              137.673476,
              36.950682
            ],
            [
              137.666506,
              36.950239
            ],
            [
              137.651536,
              36.96902
            ],
            [
              137.634985,
              36.979798
            ],
            [
              137.589964,
              36.974277
            ],
            [
              137.574583,
              36.964133
            ],
            [
              137.54281,
              36.961061
            ],
            [
              137.540956,
              36.943688
            ],
            [
              137.531262,
              36.941162
            ],
            [
              137.528133,
              36.934422
            ],
            [
              137.526902,
              36.920562
            ],
            [
              137.531755,
              36.908865
            ],
            [
              137.542462,
              36.911615
            ],
            [
              137.558743,
              36.910574
            ],
            [
              137.558827,
              36.900834
            ],
            [
              137.555233,
              36.89342
            ],
            [
              137.557794,
              36.888152
            ],
            [
              137.567159,
              36.883361
            ],
            [
              137.580937,
              36.881131
            ],
            [
              137.591573,
              36.887528
            ],
            [
              137.607852,
              36.873907
            ],
            [
              137.610799,
              36.866478
            ],
            [
              137.628318,
              36.858121
            ],
            [
              137.631818,
              36.850564
            ],
            [
              137.647125,
              36.849461
            ],
            [
              137.647072,
              36.836383
            ],
            [
              137.747081,
              36.76715
            ],
            [
              137.754131,
              36.75403
            ]
          ]
        ]
      },
      "properties": {
        "N03_001": "富山県",
        "N03_002": null,
        "N03_003": "下新川郡",
        "N03_004": "朝日町",
        "N03_005": null,
        "N03_007": "16343"
      }
    }
  ]
}