{"type":"FeatureCollection","name":"山形県","features":[{"type":"Feature","properties":{"name":"山形県"},"geometry":{"type":"MultiLineString","coordinates":[[[139.54720003,38.55305156],[139.54720003,38.55305156]],[[139.54683681,38.55314517],[139.54683681,38.55314517]],[[139.54668769,38.5531075],[139.54668769,38.5531075]],[[139.54740394,38.55314087],[139.54740394,38.55314087]],[[139.54710031,38.55324995],[139.54710031,38.55324995]],[[139.54662601,38.55319689],[139.54662601,38.55319689]],[[139.54685953,38.55343744],[139.54685953,38.55343744]],[[139.54640834,38.55398686],[139.54640834,38.55398686]],[[139.54251978,38.55683533],[139.54251978,38.55683533]],[[139.53831353,38.5576468],[139.53831353,38.5576468]],[[139.53838341,38.55772905],[139.53838341,38.55772905]],[[139.53932525,38.55783972],[139.53932525,38.55783972]],[[139.54089586,38.5610782],[139.54089586,38.5610782]],[[139.54581839,38.56366595],[139.54581839,38.56366595]],[[139.54436776,38.56363213],[139.54436776,38.56363213]],[[139.54673275,38.56397741],[139.54673275,38.56397741]],[[139.54653103,38.56401095],[139.54653103,38.56401095]],[[139.54461825,38.56405333],[139.54461825,38.56405333]],[[139.54465153,38.56416011],[139.54465153,38.56416011]],[[139.54478764,38.56419177],[139.54478764,38.56419177]],[[139.54697711,38.56461175],[139.54697711,38.56461175]],[[139.54725345,38.56511831],[139.54725345,38.56511831]],[[139.54733997,38.56508595],[139.54733997,38.56508595]],[[139.54735986,38.56518964],[139.54735986,38.56518964]],[[139.54074205,38.56461497],[139.54074205,38.56461497]],[[139.54733745,38.56522677],[139.54733745,38.56522677]],[[139.54734964,38.56548336],[139.54734964,38.56548336]],[[139.54722883,38.56552267],[139.54722883,38.56552267]],[[139.54731514,38.56561792],[139.54731514,38.56561792]],[[139.54729012,38.56643369],[139.54729012,38.56643369]],[[139.54737083,38.56688508],[139.54737083,38.56688508]],[[139.54667776,38.56688078],[139.54667776,38.56688078]],[[139.54682667,38.56712386],[139.54682667,38.56712386]],[[139.54629959,38.56716925],[139.54629959,38.56716925]],[[139.54704759,38.56763814],[139.54704759,38.56763814]],[[139.54724097,38.5676408],[139.54724097,38.5676408]],[[139.52473319,39.17849361],[139.52473319,39.17849361]],[[139.52512739,39.17847389],[139.52512739,39.17847389]],[[139.52514903,39.17891833],[139.52514903,39.17891833]],[[139.52358681,39.17920528],[139.52358681,39.17920528]],[[139.52417986,39.17936],[139.52417986,39.17936]],[[139.52351292,39.17999056],[139.52351292,39.17999056]],[[139.52493903,39.1804325],[139.52493903,39.1804325]],[[139.52505458,39.18054778],[139.52505458,39.18054778]],[[139.52472209,39.18089667],[139.52472209,39.18089667]],[[139.52546681,39.18061528],[139.52546681,39.18061528]],[[139.54479969,39.18123803],[139.54479969,39.18123803]],[[139.52359403,39.18134139],[139.52359403,39.18134139]],[[139.54587414,39.18160828],[139.54587414,39.18160828]],[[139.5479675,39.18161217],[139.5479675,39.18161217]],[[139.52568014,39.18192944],[139.52568014,39.18192944]],[[139.52470737,39.18247278],[139.52470737,39.18247278]],[[139.54635552,39.18233995],[139.54635552,39.18233995]],[[139.52656514,39.18196972],[139.52656514,39.18196972]],[[139.54580497,39.18263356],[139.54580497,39.18263356]],[[139.54069056,39.18323822],[139.54069056,39.18323822]],[[139.52180761,39.18393611],[139.52180761,39.18393611]],[[139.52144623,39.18427364],[139.52144623,39.18427364]],[[139.52452319,39.18460028],[139.52452319,39.18460028]],[[139.52239345,39.18479444],[139.52239345,39.18479444]],[[139.52423372,39.18528139],[139.52423372,39.18528139]],[[139.52015511,39.18557669],[139.52015511,39.18557669]],[[139.53878326,39.18559692],[139.53878326,39.18559692]],[[139.52307678,39.18631972],[139.52307678,39.18631972]],[[139.52224484,39.18729333],[139.52224484,39.18729333]],[[139.53922047,39.19134636],[139.53922047,39.19134636]],[[139.5385985,39.19231441],[139.5385985,39.19231441]],[[139.53819684,39.19729553],[139.53819684,39.19729553]],[[139.53872489,39.19765859],[139.53872489,39.19765859]],[[139.54042044,39.19793441],[139.54042044,39.19793441]],[[139.54442297,39.19848605],[139.54442297,39.19848605]],[[139.54340128,39.19873272],[139.54340128,39.19873272]],[[139.54074961,39.19888303],[139.54074961,39.19888303]],[[139.54316822,39.19869995],[139.54316822,39.19869995]],[[139.54370711,39.19889411],[139.54370711,39.19889411]],[[139.54495516,39.20390495],[139.54495516,39.20390495]],[[139.54490628,39.20413051],[139.54490628,39.20413051]],[[139.54562655,39.20433217],[139.54562655,39.20433217]],[[139.54543545,39.20486884],[139.54543545,39.20486884]],[[139.54612934,39.20737633],[139.54612934,39.20737633]],[[139.54522791,39.21087244],[139.54522791,39.21087244]],[[139.54738703,38.56535005],[139.54738703,38.56535005]],[[139.54739686,38.56537864],[139.54739686,38.56537864]],[[139.54907253,38.56695405],[139.54907253,38.56695405]],[[139.54750828,38.56697439],[139.54750828,38.56697439]],[[139.54858477,38.56739447],[139.54858477,38.56739447]],[[139.54991533,38.56760961],[139.54991533,38.56760961]],[[139.54978361,38.56766044],[139.54978361,38.56766044]],[[139.55000783,38.56765244],[139.55000783,38.56765244]],[[139.55016278,38.56828633],[139.55016278,38.56828633]],[[139.54973297,38.56832917],[139.54973297,38.56832917]],[[139.54980244,38.56837178],[139.54980244,38.56837178]],[[139.55074742,38.56840869],[139.55074742,38.56840869]],[[139.54969306,38.56839433],[139.54969306,38.56839433]],[[139.54977978,38.56842192],[139.54977978,38.56842192]],[[139.54974497,38.56840347],[139.54974497,38.56840347]],[[139.54982922,38.56843292],[139.54982922,38.56843292]],[[139.54968536,38.56841708],[139.54968536,38.56841708]],[[139.5498438,38.56843023],[139.5498438,38.56843023]],[[139.54971905,38.56843075],[139.54971905,38.56843075]],[[139.55088003,38.56851087],[139.55088003,38.56851087]],[[139.55093769,38.56853813],[139.55093769,38.56853813]],[[139.54978397,38.56855092],[139.54978397,38.56855092]],[[139.54978447,38.568697],[139.54978447,38.568697]],[[139.54978205,38.56874528],[139.54978205,38.56874528]],[[139.551089,38.56876508],[139.551089,38.56876508]],[[139.54986737,38.56879089],[139.54986737,38.56879089]],[[139.5501718,38.56879422],[139.5501718,38.56879422]],[[139.55109222,38.56885544],[139.55109222,38.56885544]],[[139.54996905,38.56895377],[139.54996905,38.56895377]],[[139.55170278,38.56920628],[139.55170278,38.56920628]],[[139.5499872,38.56973531],[139.5499872,38.56973531]],[[139.54997533,38.56979675],[139.54997533,38.56979675]],[[139.55022997,38.56983333],[139.55022997,38.56983333]],[[139.55270703,38.57378841],[139.55270703,38.57378841]],[[139.55354898,38.57423175],[139.55354898,38.57423175]],[[139.55344703,38.57553759],[139.55344703,38.57553759]],[[139.55437897,38.57764425],[139.55437897,38.57764425]],[[139.55478815,38.57782231],[139.55478815,38.57782231]],[[139.55699233,38.58116256],[139.55699233,38.58116256]],[[139.55770455,38.58292977],[139.55770455,38.58292977]],[[139.5572465,38.58390839],[139.5572465,38.58390839]],[[139.55772538,38.583937],[139.55772538,38.583937]],[[139.55802706,38.58548423],[139.55802706,38.58548423]],[[139.56086733,38.58935339],[139.56086733,38.58935339]],[[139.56141733,38.58935284],[139.56141733,38.58935284]],[[139.56129066,38.58964256],[139.56129066,38.58964256]],[[139.56100039,38.58993617],[139.56100039,38.58993617]],[[139.56375837,38.59490441],[139.56375837,38.59490441]],[[139.57348156,38.61006636],[139.57348156,38.61006636]],[[139.57460406,38.61199997],[139.57460406,38.61199997]],[[139.57604825,38.61322497],[139.57604825,38.61322497]],[[139.57611075,38.61341886],[139.57611075,38.61341886]],[[139.57857791,38.61581639],[139.57857791,38.61581639]],[[139.57958061,38.61671375],[139.57958061,38.61671375]],[[139.57920111,38.6167772],[139.57920111,38.6167772]],[[139.58101036,38.61749595],[139.58101036,38.61749595]],[[139.58108248,38.61757967],[139.58108248,38.61757967]],[[139.58011961,38.61789592],[139.58011961,38.61789592]],[[139.58121584,38.61839833],[139.58121584,38.61839833]],[[139.54807555,39.18125577],[139.54807555,39.18125577]],[[139.54735372,39.18439217],[139.54735372,39.18439217]],[[139.55021742,39.1867855],[139.55021742,39.1867855]],[[139.55046105,39.18878873],[139.55046105,39.18878873]],[[139.5509975,39.18974953],[139.5509975,39.18974953]],[[139.55512407,39.19192223],[139.55512407,39.19192223]],[[139.56283808,39.19472408],[139.56283808,39.19472408]],[[139.54233134,39.18326636],[139.53914795,39.19546914],[139.54937798,39.20071244],[139.54984128,39.20844828],[139.56469253,39.19883572],[139.55018881,39.19049986],[139.54932361,39.18181244],[139.54233134,39.18326636]],[[139.56530392,39.19533211],[139.56530392,39.19533211]],[[139.56588224,39.19787044],[139.56588224,39.19787044]],[[139.56720558,39.19912823],[139.56720558,39.19912823]],[[139.56850003,39.19938156],[139.56850003,39.19938156]],[[139.54749992,39.19987939],[139.54749992,39.19987939]],[[139.55880852,39.20398436],[139.55880852,39.20398436]],[[139.54770211,39.20711744],[139.54770211,39.20711744]],[[139.55148044,39.20989241],[139.55148044,39.20989241]],[[139.551231,39.21061575],[139.551231,39.21061575]],[[139.55246377,39.21247603],[139.55246377,39.21247603]],[[139.55218156,39.21298547],[139.55218156,39.21298547]],[[139.5557338,39.21442103],[139.5557338,39.21442103]],[[139.55551516,39.21492187],[139.55551516,39.21492187]],[[139.55084042,39.21520603],[139.55084042,39.21520603]],[[139.58640394,38.62692313],[139.58640394,38.62692313]],[[139.58678927,38.62718661],[139.58678927,38.62718661]],[[139.5871609,38.62720297],[139.5871609,38.62720297]],[[139.58713481,38.627259],[139.58713481,38.627259]],[[139.58685681,38.62725453],[139.58685681,38.62725453]],[[139.58709255,38.62731897],[139.58709255,38.62731897]],[[139.58739372,38.62743517],[139.58739372,38.62743517]],[[139.58760805,38.62758833],[139.58760805,38.62758833]],[[139.58696256,38.62748087],[139.58696256,38.62748087]],[[139.58745333,38.62757731],[139.58745333,38.62757731]],[[139.58737776,38.62764744],[139.58737776,38.62764744]],[[139.58767423,38.62773544],[139.58767423,38.62773544]],[[139.58720594,38.62774733],[139.58720594,38.62774733]],[[139.58747903,38.62776303],[139.58747903,38.62776303]],[[139.58762453,38.62789633],[139.58762453,38.62789633]],[[139.58731109,38.62788584],[139.58731109,38.62788584]],[[139.58766674,38.62789264],[139.58766674,38.62789264]],[[139.58763458,38.62794408],[139.58763458,38.62794408]],[[139.5873117,38.62796167],[139.5873117,38.62796167]],[[139.58737642,38.62810764],[139.58737642,38.62810764]],[[139.58838781,38.62831717],[139.58838781,38.62831717]],[[139.58778399,38.62845395],[139.58778399,38.62845395]],[[139.58830494,38.62854731],[139.58830494,38.62854731]],[[139.58791438,38.62862631],[139.58791438,38.62862631]],[[139.5883737,38.62868092],[139.5883737,38.62868092]],[[139.58838555,38.62873511],[139.58838555,38.62873511]],[[139.58810364,38.62879292],[139.58810364,38.62879292]],[[139.5883285,38.629062],[139.5883285,38.629062]],[[139.58766597,38.629103],[139.58766597,38.629103]],[[139.58820228,38.62912936],[139.58820228,38.62912936]],[[139.58830039,38.62922292],[139.58830039,38.62922292]],[[139.5883935,38.62941497],[139.5883935,38.62941497]],[[139.58849039,38.62955113],[139.58849039,38.62955113]],[[139.58840228,38.62974203],[139.58840228,38.62974203]],[[139.58817317,38.63005977],[139.58817317,38.63005977]],[[139.58813397,38.6301348],[139.58813397,38.6301348]],[[139.58794428,38.63020222],[139.58794428,38.63020222]],[[139.5882602,38.63026039],[139.5882602,38.63026039]],[[139.58801042,38.63023897],[139.58801042,38.63023897]],[[139.58802866,38.63028008],[139.58802866,38.63028008]],[[139.58830752,38.63042756],[139.58830752,38.63042756]],[[139.58807616,38.63041087],[139.58807616,38.63041087]],[[139.5878962,38.63046072],[139.5878962,38.63046072]],[[139.58834608,38.63050005],[139.58834608,38.63050005]],[[139.5878183,38.63052747],[139.5878183,38.63052747]],[[139.5884273,38.63054184],[139.5884273,38.63054184]],[[139.58792752,38.63067653],[139.58792752,38.63067653]],[[139.58792728,38.63088261],[139.58792728,38.63088261]],[[139.588713,38.63217903],[139.588713,38.63217903]],[[139.58865134,38.63218078],[139.58865134,38.63218078]],[[139.58864864,38.63225911],[139.58864864,38.63225911]],[[139.588679,38.63239592],[139.588679,38.63239592]],[[139.58891494,38.63242667],[139.58891494,38.63242667]],[[139.58918297,38.63253578],[139.58918297,38.63253578]],[[139.58869664,38.63248517],[139.58869664,38.63248517]],[[139.58909545,38.63282847],[139.58909545,38.63282847]],[[139.59057538,38.63299347],[139.59057538,38.63299347]],[[139.59025092,38.63300614],[139.59025092,38.63300614]],[[139.59063805,38.63301872],[139.59063805,38.63301872]],[[139.59050008,38.63304917],[139.59050008,38.63304917]],[[139.59040475,38.63301428],[139.59040475,38.63301428]],[[139.59054372,38.63311339],[139.59054372,38.63311339]],[[139.59070766,38.63311451],[139.59070766,38.63311451]],[[139.59012552,38.63313733],[139.59012552,38.63313733]],[[139.59087205,38.63315586],[139.59087205,38.63315586]],[[139.58938881,38.63328328],[139.58938881,38.63328328]],[[139.59085367,38.63324531],[139.59085367,38.63324531]],[[139.58986953,38.63331039],[139.58986953,38.63331039]],[[139.59088883,38.63329544],[139.59088883,38.63329544]],[[139.59089776,38.63333625],[139.59089776,38.63333625]],[[139.59059844,38.63333308],[139.59059844,38.63333308]],[[139.58985075,38.63334784],[139.58985075,38.63334784]],[[139.59067875,38.63333392],[139.59067875,38.63333392]],[[139.59062189,38.63335711],[139.59062189,38.63335711]],[[139.59099927,38.63337823],[139.59099927,38.63337823]],[[139.59051314,38.63339541],[139.59051314,38.63339541]],[[139.5903727,38.63345672],[139.5903727,38.63345672]],[[139.59059647,38.63347467],[139.59059647,38.63347467]],[[139.59081764,38.63372205],[139.59081764,38.63372205]],[[139.590943,38.63606178],[139.590943,38.63606178]],[[139.59084111,38.63626667],[139.59084111,38.63626667]],[[139.5912855,38.63520856],[139.5912855,38.63520856]],[[139.5914385,38.63543939],[139.5914385,38.63543939]],[[139.59099642,38.63612805],[139.59099642,38.63612805]],[[139.59128153,38.63629695],[139.59128153,38.63629695]],[[139.59120484,38.63633589],[139.59120484,38.63633589]],[[139.59177175,38.63641147],[139.59177175,38.63641147]],[[139.59572667,38.64073267],[139.59572667,38.64073267]],[[139.5926391,38.64220072],[139.5926391,38.64220072]],[[139.59485778,38.64265933],[139.59485778,38.64265933]],[[139.59487889,38.64283822],[139.59487889,38.64283822]],[[139.59573847,38.64690305],[139.59573847,38.64690305]],[[139.59787472,38.65030903],[139.59787472,38.65030903]],[[139.60510558,38.65946984],[139.60510558,38.65946984]],[[139.60496891,38.65994456],[139.60496891,38.65994456]],[[139.60508224,38.66132067],[139.60508224,38.66132067]],[[139.60542475,38.66159095],[139.60542475,38.66159095]],[[139.60447197,38.66173317],[139.60447197,38.66173317]],[[139.60629058,38.66150817],[139.60629058,38.66150817]],[[139.60662752,38.662974],[139.60662752,38.662974]],[[139.60945672,38.66406286],[139.60945672,38.66406286]],[[139.60958589,38.66927675],[139.60958589,38.66927675]],[[139.6119017,38.67027369],[139.6119017,38.67027369]],[[139.61162783,38.67025095],[139.61162783,38.67025095]],[[139.62033372,38.67880836],[139.62033372,38.67880836]],[[139.62009538,38.68032113],[139.62009538,38.68032113]],[[139.62262927,38.68250725],[139.62262927,38.68250725]],[[139.62390097,38.68352113],[139.62390097,38.68352113]],[[139.62514737,38.68531225],[139.62514737,38.68531225]],[[139.61735287,38.68673003],[139.61735287,38.68673003]],[[139.61760564,38.68734447],[139.61760564,38.68734447]],[[139.63927467,38.68806913],[139.63927467,38.68806913]],[[139.63997856,38.68841608],[139.63997856,38.68841608]],[[139.63115305,38.68854056],[139.63115305,38.68854056]],[[139.64132581,38.68964887],[139.64132581,38.68964887]],[[139.65084253,38.69816797],[139.65084253,38.69816797]],[[139.6512253,38.69852713],[139.6512253,38.69852713]],[[139.65094725,38.69849464],[139.65094725,38.69849464]],[[139.6528592,38.70261214],[139.6528592,38.70261214]],[[139.65324326,38.7030732],[139.65324326,38.7030732]],[[139.65571969,38.70342422],[139.65571969,38.70342422]],[[139.65859625,38.70394022],[139.65859625,38.70394022]],[[139.658328,38.70407917],[139.658328,38.70407917]],[[139.658482,38.70436751],[139.658482,38.70436751]],[[139.65868936,38.70449964],[139.65868936,38.70449964]],[[139.66091044,38.70543847],[139.66091044,38.70543847]],[[139.66143903,38.70794508],[139.66143903,38.70794508]],[[139.66175747,38.71035805],[139.66175747,38.71035805]],[[139.661509,38.71082039],[139.661509,38.71082039]],[[139.66363481,38.71312184],[139.66363481,38.71312184]],[[139.66381241,38.71328956],[139.66381241,38.71328956]],[[139.66503545,38.71394736],[139.66503545,38.71394736]],[[139.66639864,38.71527992],[139.66639864,38.71527992]],[[139.6664865,38.71560914],[139.6664865,38.71560914]],[[139.66707314,38.71621772],[139.66707314,38.71621772]],[[139.66844672,38.71740436],[139.66844672,38.71740436]],[[139.66869317,38.71785105],[139.66869317,38.71785105]],[[139.66921519,38.71819913],[139.66921519,38.71819913]],[[139.6760428,38.71879744],[139.6760428,38.71879744]],[[139.67546061,38.71886692],[139.67546061,38.71886692]],[[139.67571503,38.71896636],[139.67571503,38.71896636]],[[139.67085336,38.7190858],[139.67085336,38.7190858]],[[139.67477934,38.71901917],[139.67477934,38.71901917]],[[139.6760675,38.71903777],[139.6760675,38.71903777]],[[139.67610523,38.71921441],[139.67610523,38.71921441]],[[139.67335012,38.71925169],[139.67335012,38.71925169]],[[139.67573759,38.71925192],[139.67573759,38.71925192]],[[139.67464703,38.71922269],[139.67464703,38.71922269]],[[139.674531,38.71941859],[139.674531,38.71941859]],[[139.67465467,38.71940544],[139.67465467,38.71940544]],[[139.67622827,38.71944228],[139.67622827,38.71944228]],[[139.67635691,38.71947703],[139.67635691,38.71947703]],[[139.67387114,38.71955139],[139.67387114,38.71955139]],[[139.67440759,38.71952684],[139.67440759,38.71952684]],[[139.67376934,38.71977047],[139.67376934,38.71977047]],[[139.6818192,38.72086686],[139.6818192,38.72086686]],[[139.67505878,38.72130223],[139.67505878,38.72130223]],[[139.67687623,38.72136794],[139.67687623,38.72136794]],[[139.6736855,38.72448339],[139.6736855,38.72448339]],[[139.68103717,38.72471347],[139.68103717,38.72471347]],[[139.68135109,38.72488959],[139.68135109,38.72488959]],[[139.68191103,38.72606205],[139.68191103,38.72606205]],[[139.68254939,38.72031578],[139.68254939,38.72031578]],[[139.68308986,38.72042467],[139.68308986,38.72042467]],[[139.68355898,38.72063347],[139.68355898,38.72063347]],[[139.68299564,38.72058647],[139.68299564,38.72058647]],[[139.68372294,38.72086708],[139.68372294,38.72086708]],[[139.68412397,38.72126741],[139.68412397,38.72126741]],[[139.6845138,38.72186789],[139.6845138,38.72186789]],[[139.68395973,38.72193772],[139.68395973,38.72193772]],[[139.68385822,38.72197597],[139.68385822,38.72197597]],[[139.68407747,38.72201961],[139.68407747,38.72201961]],[[139.68401769,38.72207844],[139.68401769,38.72207844]],[[139.68442783,38.72223261],[139.68442783,38.72223261]],[[139.68423825,38.722328],[139.68423825,38.722328]],[[139.68405603,38.72234164],[139.68405603,38.72234164]],[[139.68449492,38.72240339],[139.68449492,38.72240339]],[[139.68411611,38.72240444],[139.68411611,38.72240444]],[[139.68440708,38.72250272],[139.68440708,38.72250272]],[[139.68309756,38.72375964],[139.68309756,38.72375964]],[[139.692752,38.72675303],[139.692752,38.72675303]],[[139.69314842,38.7274455],[139.69314842,38.7274455]],[[139.69646603,38.73001908],[139.69646603,38.73001908]],[[139.699903,38.73823517],[139.699903,38.73823517]],[[139.70169914,38.7401782],[139.70169914,38.7401782]],[[139.7053017,38.74458761],[139.7053017,38.74458761]],[[139.70834866,38.75161108],[139.70834866,38.75161108]],[[139.70879645,38.75185203],[139.70879645,38.75185203]],[[139.70936061,38.75240675],[139.70936061,38.75240675]],[[139.72234364,38.75878784],[139.72234364,38.75878784]],[[139.72242425,38.75885513],[139.72242425,38.75885513]],[[139.72171492,38.7588872],[139.72171492,38.7588872]],[[139.72227616,38.75895664],[139.72227616,38.75895664]],[[139.72282497,38.75896575],[139.72282497,38.75896575]],[[139.72092616,38.75901564],[139.72092616,38.75901564]],[[139.72289217,38.75899067],[139.72289217,38.75899067]],[[139.72214947,38.75904031],[139.72214947,38.75904031]],[[139.72084686,38.75906353],[139.72084686,38.75906353]],[[139.72282752,38.7590792],[139.72282752,38.7590792]],[[139.72283875,38.75909384],[139.72283875,38.75909384]],[[139.722609,38.75905377],[139.722609,38.75905377]],[[139.72305467,38.75911236],[139.72305467,38.75911236]],[[139.72302131,38.75911214],[139.72302131,38.75911214]],[[139.72278041,38.75912977],[139.72278041,38.75912977]],[[139.72311414,38.75915011],[139.72311414,38.75915011]],[[139.72297869,38.7591655],[139.72297869,38.7591655]],[[139.72194294,38.75915084],[139.72194294,38.75915084]],[[139.72331333,38.75917217],[139.72331333,38.75917217]],[[139.72182501,38.75918344],[139.72182501,38.75918344]],[[139.72308345,38.75923125],[139.72308345,38.75923125]],[[139.72314411,38.75920872],[139.72314411,38.75920872]],[[139.72295667,38.75918864],[139.72295667,38.75918864]],[[139.72306586,38.75922053],[139.72306586,38.75922053]],[[139.72190078,38.75925731],[139.72190078,38.75925731]],[[139.72202034,38.75926272],[139.72202034,38.75926272]],[[139.72315519,38.75927122],[139.72315519,38.75927122]],[[139.72311058,38.75926069],[139.72311058,38.75926069]],[[139.72306475,38.7593072],[139.72306475,38.7593072]],[[139.72293997,38.75932292],[139.72293997,38.75932292]],[[139.7231338,38.75932144],[139.7231338,38.75932144]],[[139.72323392,38.7593368],[139.72323392,38.7593368]],[[139.72306003,38.75935313],[139.72306003,38.75935313]],[[139.72301837,38.75935884],[139.72301837,38.75935884]],[[139.72136883,38.75939089],[139.72136883,38.75939089]],[[139.72157361,38.7594105],[139.72157361,38.7594105]],[[139.7230708,38.7594008],[139.7230708,38.7594008]],[[139.72316939,38.75939564],[139.72316939,38.75939564]],[[139.72278584,38.75948808],[139.72278584,38.75948808]],[[139.72284431,38.75948647],[139.72284431,38.75948647]],[[139.72259964,38.75971584],[139.72259964,38.75971584]],[[139.72239895,38.75981977],[139.72239895,38.75981977]],[[139.72269927,38.75988697],[139.72269927,38.75988697]],[[139.72266616,38.75990239],[139.72266616,38.75990239]],[[139.72278328,38.75988847],[139.72278328,38.75988847]],[[139.72243584,38.76333244],[139.72243584,38.76333244]],[[139.7227455,38.76334811],[139.7227455,38.76334811]],[[139.72261064,38.76336841],[139.72261064,38.76336841]],[[139.72275558,38.76339931],[139.72275558,38.76339931]],[[139.72218764,38.76335272],[139.72218764,38.76335272]],[[139.72220172,38.76352436],[139.72220172,38.76352436]],[[139.72233217,38.76353953],[139.72233217,38.76353953]],[[139.72261462,38.76358439],[139.72261462,38.76358439]],[[139.72257397,38.76361261],[139.72257397,38.76361261]],[[139.72362214,38.7604468],[139.72362214,38.7604468]],[[139.72345105,38.7605262],[139.72345105,38.7605262]],[[139.72337764,38.7605858],[139.72337764,38.7605858]],[[139.72421922,38.76116841],[139.72421922,38.76116841]],[[139.72399925,38.76117275],[139.72399925,38.76117275]],[[139.72423431,38.76123723],[139.72423431,38.76123723]],[[139.72398711,38.76129636],[139.72398711,38.76129636]],[[139.72369872,38.76142956],[139.72369872,38.76142956]],[[139.72395789,38.76141336],[139.72395789,38.76141336]],[[139.72369375,38.76158972],[139.72369375,38.76158972]],[[139.72391109,38.76160456],[139.72391109,38.76160456]],[[139.72395311,38.76209761],[139.72395311,38.76209761]],[[139.72626234,38.76248833],[139.72626234,38.76248833]],[[139.72576394,38.76259753],[139.72576394,38.76259753]],[[139.72632837,38.76262505],[139.72632837,38.76262505]],[[139.72617949,38.76288275],[139.72617949,38.76288275]],[[139.72791167,38.76290061],[139.72791167,38.76290061]],[[139.72339302,38.76309408],[139.72339302,38.76309408]],[[139.72664852,38.76300659],[139.72664852,38.76300659]],[[139.72813317,38.76369047],[139.72813317,38.76369047]],[[139.73215287,38.76495744],[139.73215287,38.76495744]],[[139.73174625,38.76523923],[139.73174625,38.76523923]],[[139.73188756,38.76528808],[139.73188756,38.76528808]],[[139.73177814,38.76545744],[139.73177814,38.76545744]],[[139.73140481,38.76546633],[139.73140481,38.76546633]],[[139.72830995,38.76593397],[139.72830995,38.76593397]],[[139.73124601,38.76581153],[139.73124601,38.76581153]],[[139.73218584,38.76720384],[139.73218584,38.76720384]],[[139.73238628,38.76726264],[139.73238628,38.76726264]],[[139.72702642,38.76801997],[139.72702642,38.76801997]],[[139.73211536,38.76739877],[139.73211536,38.76739877]],[[139.73275872,38.767806],[139.73275872,38.767806]],[[139.73257078,38.76791978],[139.73257078,38.76791978]],[[139.73317501,38.767923],[139.73317501,38.767923]],[[139.73302606,38.76804459],[139.73302606,38.76804459]],[[139.73229542,38.7680985],[139.73229542,38.7680985]],[[139.73331827,38.76810164],[139.73331827,38.76810164]],[[139.73335667,38.76816084],[139.73335667,38.76816084]],[[139.73228713,38.76816205],[139.73228713,38.76816205]],[[139.73325377,38.76816905],[139.73325377,38.76816905]],[[139.73332228,38.76820047],[139.73332228,38.76820047]],[[139.73343759,38.76819072],[139.73343759,38.76819072]],[[139.73340053,38.76822333],[139.73340053,38.76822333]],[[139.73332728,38.76823544],[139.73332728,38.76823544]],[[139.73348403,38.76826461],[139.73348403,38.76826461]],[[139.73340827,38.76830328],[139.73340827,38.76830328]],[[139.73327842,38.76831608],[139.73327842,38.76831608]],[[139.73338358,38.76825672],[139.73338358,38.76825672]],[[139.73333333,38.76834075],[139.73333333,38.76834075]],[[139.7334417,38.76837108],[139.7334417,38.76837108]],[[139.73276258,38.76836889],[139.73276258,38.76836889]],[[139.73332795,38.76842995],[139.73332795,38.76842995]],[[139.73267017,38.76843953],[139.73267017,38.76843953]],[[139.73326759,38.76843511],[139.73326759,38.76843511]],[[139.73319345,38.76850451],[139.73319345,38.76850451]],[[139.73364623,38.76852161],[139.73364623,38.76852161]],[[139.72675463,38.76922709],[139.72675463,38.76922709]],[[139.73378044,38.76858292],[139.73378044,38.76858292]],[[139.7338408,38.7685792],[139.7338408,38.7685792]],[[139.73299669,38.76858844],[139.73299669,38.76858844]],[[139.73374392,38.76858259],[139.73374392,38.76858259]],[[139.73393674,38.76863589],[139.73393674,38.76863589]],[[139.73397005,38.76866156],[139.73397005,38.76866156]],[[139.73394678,38.76868047],[139.73394678,38.76868047]],[[139.73389148,38.76872986],[139.73389148,38.76872986]],[[139.73417891,38.76873095],[139.73417891,38.76873095]],[[139.73421472,38.76873613],[139.73421472,38.76873613]],[[139.73427511,38.76875453],[139.73427511,38.76875453]],[[139.734343,38.76873464],[139.734343,38.76873464]],[[139.73398708,38.76880797],[139.73398708,38.76880797]],[[139.73428992,38.76882269],[139.73428992,38.76882269]],[[139.73421292,38.76885011],[139.73421292,38.76885011]],[[139.73366558,38.76886717],[139.73366558,38.76886717]],[[139.73400533,38.76904839],[139.73400533,38.76904839]],[[139.73484419,38.76908344],[139.73484419,38.76908344]],[[139.73465086,38.76912308],[139.73465086,38.76912308]],[[139.73486012,38.76917653],[139.73486012,38.76917653]],[[139.73477975,38.76917578],[139.73477975,38.76917578]],[[139.73526969,38.76921184],[139.73526969,38.76921184]],[[139.73535834,38.7692098],[139.73535834,38.7692098]],[[139.73511392,38.76944511],[139.73511392,38.76944511]],[[139.73539942,38.76926956],[139.73539942,38.76926956]],[[139.73578228,38.76933267],[139.73578228,38.76933267]],[[139.73574205,38.76932208],[139.73574205,38.76932208]],[[139.73562538,38.76930747],[139.73562538,38.76930747]],[[139.73592039,38.76929617],[139.73592039,38.76929617]],[[139.73565139,38.76939703],[139.73565139,38.76939703]],[[139.73587511,38.76936969],[139.73587511,38.76936969]],[[139.73599144,38.7693802],[139.73599144,38.7693802]],[[139.73593817,38.76939567],[139.73593817,38.76939567]],[[139.73596278,38.76946144],[139.73596278,38.76946144]],[[139.73606036,38.76953284],[139.73606036,38.76953284]],[[139.73539103,38.76969777],[139.73539103,38.76969777]],[[139.73642881,38.76971384],[139.73642881,38.76971384]],[[139.73625367,38.76980236],[139.73625367,38.76980236]],[[139.73667086,38.76998492],[139.73667086,38.76998492]],[[139.73784922,38.77028628],[139.73784922,38.77028628]],[[139.7370607,38.7703135],[139.7370607,38.7703135]],[[139.73792497,38.77029239],[139.73792497,38.77029239]],[[139.73794095,38.77033033],[139.73794095,38.77033033]],[[139.73776263,38.77035567],[139.73776263,38.77035567]],[[139.73824881,38.77037164],[139.73824881,38.77037164]],[[139.73783494,38.7703628],[139.73783494,38.7703628]],[[139.7375125,38.77037492],[139.7375125,38.77037492]],[[139.73773056,38.77042586],[139.73773056,38.77042586]],[[139.73795686,38.77040895],[139.73795686,38.77040895]],[[139.73760742,38.77038208],[139.73760742,38.77038208]],[[139.73835601,38.77041053],[139.73835601,38.77041053]],[[139.73747674,38.77041344],[139.73747674,38.77041344]],[[139.73779263,38.77039597],[139.73779263,38.77039597]],[[139.7382553,38.77042389],[139.7382553,38.77042389]],[[139.73823647,38.77041895],[139.73823647,38.77041895]],[[139.73770562,38.77043177],[139.73770562,38.77043177]],[[139.73782367,38.77042369],[139.73782367,38.77042369]],[[139.73763419,38.7704238],[139.73763419,38.7704238]],[[139.73800178,38.770468],[139.73800178,38.770468]],[[139.73787776,38.77046036],[139.73787776,38.77046036]],[[139.73776086,38.77050295],[139.73776086,38.77050295]],[[139.73780148,38.77052169],[139.73780148,38.77052169]],[[139.73791161,38.77053461],[139.73791161,38.77053461]],[[139.7382328,38.77046159],[139.7382328,38.77046159]],[[139.73804022,38.77052503],[139.73804022,38.77052503]],[[139.73810411,38.77054072],[139.73810411,38.77054072]],[[139.73738988,38.7705102],[139.73738988,38.7705102]],[[139.73873017,38.77055131],[139.73873017,38.77055131]],[[139.73786822,38.77053039],[139.73786822,38.77053039]],[[139.73794234,38.77058186],[139.73794234,38.77058186]],[[139.73801606,38.77057178],[139.73801606,38.77057178]],[[139.73798484,38.77058389],[139.73798484,38.77058389]],[[139.73828358,38.77054186],[139.73828358,38.77054186]],[[139.73806086,38.77059656],[139.73806086,38.77059656]],[[139.73803365,38.77062753],[139.73803365,38.77062753]],[[139.73784864,38.77063931],[139.73784864,38.77063931]],[[139.7378827,38.77065925],[139.7378827,38.77065925]],[[139.7387763,38.77063897],[139.7387763,38.77063897]],[[139.73869425,38.77062964],[139.73869425,38.77062964]],[[139.73842489,38.77064792],[139.73842489,38.77064792]],[[139.73777577,38.77066995],[139.73777577,38.77066995]],[[139.73808791,38.77066313],[139.73808791,38.77066313]],[[139.73882124,38.77068661],[139.73882124,38.77068661]],[[139.73887455,38.77071475],[139.73887455,38.77071475]],[[139.73813973,38.77070359],[139.73813973,38.77070359]],[[139.73850508,38.77069653],[139.73850508,38.77069653]],[[139.73834786,38.77070361],[139.73834786,38.77070361]],[[139.73864664,38.7707185],[139.73864664,38.7707185]],[[139.73730355,38.77078039],[139.73730355,38.77078039]],[[139.73908173,38.77079275],[139.73908173,38.77079275]],[[139.73915733,38.77079022],[139.73915733,38.77079022]],[[139.73901086,38.77082556],[139.73901086,38.77082556]],[[139.73842601,38.77085022],[139.73842601,38.77085022]],[[139.73906267,38.77090767],[139.73906267,38.77090767]],[[139.73841484,38.77089287],[139.73841484,38.77089287]],[[139.73838725,38.77087561],[139.73838725,38.77087561]],[[139.73843319,38.77090977],[139.73843319,38.77090977]],[[139.73910039,38.77109841],[139.73910039,38.77109841]],[[139.73897386,38.77121164],[139.73897386,38.77121164]],[[139.73890189,38.77122717],[139.73890189,38.77122717]],[[139.73915623,38.77179141],[139.73915623,38.77179141]],[[139.73884336,38.77185323],[139.73884336,38.77185323]],[[139.73881737,38.7719302],[139.73881737,38.7719302]],[[139.73918978,38.77202056],[139.73918978,38.77202056]],[[139.73903672,38.77210659],[139.73903672,38.77210659]],[[139.73115872,37.83082889],[139.71563652,37.85415828],[139.6808292,37.84695086],[139.65834409,37.86252808],[139.65687469,37.87159084],[139.63183986,37.88927359],[139.62480575,37.9180688],[139.64298903,37.94667425],[139.6393438,37.98551972],[139.64365747,37.99526884],[139.65445728,37.99702467],[139.65467433,38.03516539],[139.68007012,38.04316369],[139.69272552,38.05702864],[139.68616547,38.0650378],[139.69180192,38.07506028],[139.67133314,38.07687417],[139.68267051,38.10807408],[139.69389283,38.11580156],[139.68835365,38.13457539],[139.69226314,38.14865786],[139.68226611,38.17178725],[139.69622708,38.18546303],[139.69918992,38.20317297],[139.72162455,38.20586544],[139.75489458,38.19309933],[139.76396577,38.19895431],[139.78636569,38.192244],[139.81095372,38.21151584],[139.85794558,38.22966623],[139.87643859,38.26162275],[139.89990467,38.27580569],[139.89894105,38.29302731],[139.87923503,38.30351844],[139.87503361,38.31664925],[139.84758834,38.33670733],[139.84893558,38.34284675],[139.82769536,38.34474264],[139.81649134,38.35601233],[139.7906272,38.34876747],[139.77072172,38.35290559],[139.73239969,38.37160069],[139.72263516,38.393844],[139.70980506,38.38676522],[139.70338917,38.40021825],[139.71720842,38.42132364],[139.72013287,38.45069208],[139.71139636,38.47680117],[139.72514674,38.48524469],[139.72176447,38.49622633],[139.69316173,38.50679861],[139.63780881,38.51142122],[139.62121394,38.52558453],[139.59982852,38.52205987],[139.53910759,38.55793311],[139.54821825,38.55977889],[139.54312501,38.56222547],[139.55754973,38.5754662],[139.56356511,38.59548031],[139.62447209,38.68479113],[139.64793,38.69344077],[139.66898533,38.71818387],[139.69031864,38.72314141],[139.7073992,38.75040759],[139.72259616,38.76329892],[139.73449786,38.76276678],[139.72952239,38.76620328],[139.75379555,38.78599364],[139.80484878,38.90610028],[139.80868881,38.92530841],[139.79295783,38.9365646],[139.80868944,38.92536913],[139.80291717,38.93014725],[139.81778445,38.94280095],[139.81239861,38.95098014],[139.83587256,38.95599277],[139.8337398,38.96397895],[139.82944958,38.95797364],[139.81888698,38.96052469],[139.82601039,38.9748612],[139.83233258,38.97318611],[139.83858322,38.98165947],[139.86715144,39.052328],[139.87061467,39.06647811],[139.8645928,39.06914384],[139.87278178,39.06960669],[139.8637409,39.07084123],[139.86991769,39.07063514],[139.8793428,39.09620484],[139.86954869,39.11822217],[139.94805224,39.11716669],[139.99444672,39.10551564],[140.00776639,39.12304028],[140.0624392,39.13349864],[140.06721798,39.09931305],[140.06273078,39.09254669],[140.11449581,39.07836322],[140.11686283,39.06823103],[140.13779553,39.06556789],[140.15186384,39.04839595],[140.19810713,39.06125659],[140.20476584,39.05349631],[140.20065847,39.03557247],[140.22673428,39.02720933],[140.25064425,39.02763505],[140.26056486,39.035235],[140.31072253,39.01358922],[140.31879575,39.03126167],[140.32910248,39.03480217],[140.34425244,39.02582486],[140.36220956,39.02595533],[140.36403367,39.00949533],[140.37622511,38.99445833],[140.43185856,38.991902],[140.45108662,38.97214639],[140.4495825,38.94559503],[140.46212219,38.91943147],[140.48244086,38.91654978],[140.50033586,38.89478569],[140.53824392,38.90018944],[140.54773839,38.89018917],[140.54004642,38.86189161],[140.59072825,38.8360442],[140.59888706,38.82526689],[140.59567224,38.80232692],[140.60352616,38.7837052],[140.62698124,38.77395367],[140.63728331,38.77738692],[140.64646236,38.76951631],[140.60703895,38.72131311],[140.60664044,38.70371292],[140.62363489,38.69978477],[140.62442414,38.6871712],[140.60201978,38.64060392],[140.58786211,38.63394261],[140.54665475,38.64970333],[140.53739947,38.63538341],[140.56212197,38.60725303],[140.55844586,38.59763667],[140.56973467,38.59406577],[140.5784672,38.57008575],[140.56641345,38.56037584],[140.56463964,38.54572364],[140.5540845,38.54075897],[140.55573872,38.52995456],[140.57195569,38.52563808],[140.56346589,38.51070622],[140.56740849,38.50130261],[140.60422978,38.4822822],[140.60821022,38.45840256],[140.62003964,38.45519833],[140.59776462,38.43652884],[140.59235752,38.44172105],[140.58039261,38.43726892],[140.57130086,38.41311408],[140.5782172,38.39278053],[140.56355025,38.37727261],[140.55221114,38.37621269],[140.54552881,38.36411669],[140.52631258,38.357526],[140.52158083,38.34733053],[140.52974202,38.32069759],[140.52028348,38.3095152],[140.50434128,38.31432692],[140.50198372,38.30482669],[140.49245358,38.3022262],[140.49694834,38.2831435],[140.47118017,38.26936144],[140.46707086,38.23275136],[140.47428844,38.22447944],[140.47095672,38.21383731],[140.48002263,38.18156559],[140.4676582,38.15697584],[140.44375306,38.14092877],[140.44568525,38.12985477],[140.42515772,38.12190797],[140.41767416,38.08033528],[140.40276869,38.07034469],[140.38301538,38.07151003],[140.37365747,38.05700861],[140.27709036,38.05616067],[140.28339294,38.04997267],[140.27606834,38.02871944],[140.28961453,38.00720575],[140.27624623,37.99303186],[140.28000258,37.97664441],[140.27129713,37.966818],[140.28100436,37.94134777],[140.26452983,37.91193692],[140.27072008,37.89073744],[140.26476581,37.88595577],[140.26996244,37.8665455],[140.26211597,37.83441631],[140.29851014,37.80725653],[140.28221131,37.79822905],[140.27628798,37.781768],[140.26603442,37.77906525],[140.23704319,37.74637875],[140.16641425,37.75729097],[140.14600975,37.75272022],[140.14069292,37.73807869],[140.124411,37.7338268],[140.10211769,37.73771264],[140.08673014,37.75804386],[140.06912272,37.75784417],[140.05142655,37.77933295],[140.01950261,37.76202339],[139.98649872,37.76040813],[139.96014589,37.79564753],[139.95791903,37.81486139],[139.93272109,37.82938364],[139.92465786,37.81346369],[139.87981014,37.81009595],[139.85771717,37.82653872],[139.81002988,37.80323714],[139.78295447,37.8319688],[139.74130678,37.82029277],[139.73115872,37.83082889]],[[139.73916394,38.770737],[139.73916394,38.770737]],[[139.73933674,38.770807],[139.73933674,38.770807]],[[139.73939953,38.77081084],[139.73939953,38.77081084]],[[139.73926158,38.77095361],[139.73926158,38.77095361]],[[139.73932202,38.77096984],[139.73932202,38.77096984]],[[139.73925586,38.77105675],[139.73925586,38.77105675]],[[139.73946608,38.77115475],[139.73946608,38.77115475]],[[139.73941197,38.77113439],[139.73941197,38.77113439]],[[139.73934669,38.77121064],[139.73934669,38.77121064]],[[139.73917411,38.77126622],[139.73917411,38.77126622]],[[139.73930183,38.77175653],[139.73930183,38.77175653]],[[139.73963205,38.77189517],[139.73963205,38.77189517]],[[139.73954027,38.77193177],[139.73954027,38.77193177]],[[139.73968562,38.77198605],[139.73968562,38.77198605]],[[139.74008019,38.77269922],[139.74008019,38.77269922]],[[139.74018647,38.77270667],[139.74018647,38.77270667]],[[139.73995267,38.77273959],[139.73995267,38.77273959]],[[139.74010981,38.77274861],[139.74010981,38.77274861]],[[139.73990669,38.77277047],[139.73990669,38.77277047]],[[139.7403265,38.77279595],[139.7403265,38.77279595]],[[139.74027041,38.77280892],[139.74027041,38.77280892]],[[139.74023124,38.7728458],[139.74023124,38.7728458]],[[139.74034927,38.77290895],[139.74034927,38.77290895]],[[139.74021475,38.77288722],[139.74021475,38.77288722]],[[139.73980783,38.77292231],[139.73980783,38.77292231]],[[139.7402308,38.77291869],[139.7402308,38.77291869]],[[139.74037825,38.77292495],[139.74037825,38.77292495]],[[139.741011,38.77294103],[139.741011,38.77294103]],[[139.74031233,38.77299987],[139.74031233,38.77299987]],[[139.74041925,38.77301056],[139.74041925,38.77301056]],[[139.73994995,38.77303967],[139.73994995,38.77303967]],[[139.74039109,38.77304808],[139.74039109,38.77304808]],[[139.74037633,38.77305223],[139.74037633,38.77305223]],[[139.74018153,38.77312761],[139.74018153,38.77312761]],[[139.739986,38.77313008],[139.739986,38.77313008]],[[139.73963814,38.77317975],[139.73963814,38.77317975]],[[139.73973891,38.7732808],[139.73973891,38.7732808]],[[139.74121655,38.77331267],[139.74121655,38.77331267]],[[139.74113614,38.77333244],[139.74113614,38.77333244]],[[139.74124144,38.77333884],[139.74124144,38.77333884]],[[139.74137616,38.7733462],[139.74137616,38.7733462]],[[139.74143375,38.77333808],[139.74143375,38.77333808]],[[139.74146501,38.77333984],[139.74146501,38.77333984]],[[139.74150384,38.77335639],[139.74150384,38.77335639]],[[139.74159983,38.7733688],[139.74159983,38.7733688]],[[139.74158044,38.77337511],[139.74158044,38.77337511]],[[139.74120086,38.77337047],[139.74120086,38.77337047]],[[139.74160109,38.77337744],[139.74160109,38.77337744]],[[139.74110003,38.77337925],[139.74110003,38.77337925]],[[139.74141326,38.77338723],[139.74141326,38.77338723]],[[139.74154778,38.77340647],[139.74154778,38.77340647]],[[139.7410255,38.77341203],[139.7410255,38.77341203]],[[139.74132839,38.77343359],[139.74132839,38.77343359]],[[139.74151236,38.77343708],[139.74151236,38.77343708]],[[139.74119569,38.77347513],[139.74119569,38.77347513]],[[139.74214183,38.77352311],[139.74214183,38.77352311]],[[139.74210547,38.773526],[139.74210547,38.773526]],[[139.74140066,38.77374461],[139.74140066,38.77374461]],[[139.74174789,38.77379864],[139.74174789,38.77379864]],[[139.74221336,38.773823],[139.74221336,38.773823]],[[139.74210997,38.77383403],[139.74210997,38.77383403]],[[139.74250767,38.77381144],[139.74250767,38.77381144]],[[139.74569025,38.77458408],[139.74569025,38.77458408]],[[139.74556399,38.77463331],[139.74556399,38.77463331]],[[139.74569173,38.77467047],[139.74569173,38.77467047]],[[139.74557959,38.77466656],[139.74557959,38.77466656]],[[139.74554783,38.77469792],[139.74554783,38.77469792]],[[139.74537306,38.774724],[139.74537306,38.774724]],[[139.74559908,38.77474517],[139.74559908,38.77474517]],[[139.74548625,38.77475672],[139.74548625,38.77475672]],[[139.80001872,38.94878076],[139.79080511,38.94100614],[139.80001872,38.94878076]],[[139.81783956,38.96057711],[139.82566477,38.97543844],[139.81837839,38.96076647],[139.80111638,38.94856572],[139.81783956,38.96057711]],[[139.875,39.08938092],[139.875,39.08938092]],[[139.87490389,39.08947936],[139.87490389,39.08947936]],[[139.87813886,39.10327344],[139.87813886,39.10327344]],[[139.86933711,39.11187792],[139.86933711,39.11187792]],[[139.86858542,39.11296487],[139.86858542,39.11296487]]]}}]}