{"type":"FeatureCollection","name":"山梨県","features":[{"type":"Feature","properties":{"name":"山梨県"},"geometry":{"type":"LineString","coordinates":[[138.52308394,35.24860303],[138.53313642,35.20068805],[138.51535698,35.19819695],[138.49162141,35.16843305],[138.47789866,35.17808359],[138.43302536,35.1797172],[138.41836319,35.19933497],[138.39869711,35.20026995],[138.39449992,35.20703022],[138.38615228,35.24624353],[138.36703185,35.2701882],[138.37247869,35.29941095],[138.35849306,35.31757117],[138.34843635,35.31565395],[138.32584394,35.32761197],[138.29590095,35.31631841],[138.28417414,35.30434736],[138.25767961,35.31661267],[138.24873742,35.33160239],[138.25713975,35.33897431],[138.25125572,35.363529],[138.23201708,35.37122484],[138.24649986,35.39989172],[138.25811717,35.40742451],[138.25925756,35.43207947],[138.24400403,35.45860836],[138.25520516,35.46890808],[138.26017745,35.50573395],[138.26898577,35.51432728],[138.2573483,35.53084867],[138.25955805,35.55289784],[138.24566837,35.56150592],[138.24047448,35.57615536],[138.24329364,35.59745508],[138.23513866,35.6073798],[138.23688367,35.62110953],[138.22826759,35.62709511],[138.23231536,35.64009733],[138.21798538,35.64489097],[138.19334075,35.67215325],[138.19360438,35.6969288],[138.18008859,35.7142288],[138.23690027,35.75798684],[138.18517419,35.79107989],[138.20569287,35.81573431],[138.20470008,35.82813903],[138.23866859,35.88289011],[138.25145584,35.88501039],[138.28364078,35.85931572],[138.32646652,35.90329403],[138.34504667,35.94133314],[138.35991533,35.95071314],[138.36190287,35.96259564],[138.37285431,35.97170841],[138.44467789,35.95021286],[138.45435481,35.9384798],[138.44437192,35.91780705],[138.45458497,35.89985844],[138.46020861,35.90360925],[138.47160224,35.89619675],[138.49013231,35.89637477],[138.4947015,35.91134144],[138.51057185,35.92233895],[138.52905769,35.91453589],[138.5553991,35.919137],[138.57651019,35.911422],[138.59101742,35.91976867],[138.61225594,35.90915336],[138.60498842,35.89375114],[138.61087364,35.87361031],[138.63423411,35.87005308],[138.65746125,35.87587613],[138.67617647,35.86980141],[138.68584558,35.89386561],[138.70813186,35.90977756],[138.77864805,35.90011028],[138.79062005,35.89187861],[138.79200364,35.87545113],[138.81360486,35.86236778],[138.85590064,35.86509389],[138.85881117,35.85757444],[138.8694315,35.85724917],[138.89222267,35.83977859],[138.91094608,35.85272747],[138.92663003,35.84891828],[138.94539341,35.85432187],[138.95019589,35.83934572],[138.96976562,35.83122541],[138.97022139,35.80487236],[138.98642523,35.78225289],[138.98439689,35.76776486],[139.00515542,35.75045153],[139.02484837,35.71970105],[139.07220581,35.69536031],[139.1058592,35.6909798],[139.13134139,35.67199459],[139.11716822,35.65453764],[139.12755348,35.641081],[139.12349061,35.62395156],[139.13441367,35.61650964],[139.12779698,35.61289908],[139.13310475,35.60670103],[139.12143767,35.58698797],[139.12985484,35.56637356],[139.11196078,35.54979356],[139.11012597,35.53228884],[139.08578997,35.51208631],[139.04611481,35.50973639],[139.02754944,35.4809678],[138.98882158,35.47364059],[138.97876934,35.46374169],[138.9587273,35.46208611],[138.93736966,35.44886751],[138.92740375,35.43764472],[138.93016978,35.42087056],[138.9180663,35.41133917],[138.91640292,35.40061361],[138.87426248,35.37917352],[138.86283263,35.3901489],[138.8512073,35.39054141],[138.82174883,35.3740878],[138.79910464,35.37664364],[138.68053562,35.35767833],[138.67118297,35.39283],[138.66382467,35.39810028],[138.60916353,35.39316389],[138.59734486,35.43270417],[138.58201131,35.445675],[138.55891983,35.43416892],[138.53176645,35.40933336],[138.53584772,35.38988028],[138.52817105,35.37904695],[138.5350862,35.33056472],[138.51212348,35.3137208],[138.52172453,35.28381497],[138.51424283,35.2622308],[138.52308394,35.24860303]]}}]}