{"type":"FeatureCollection","name":"岐阜県","features":[{"type":"Feature","properties":{"name":"岐阜県"},"geometry":{"type":"LineString","coordinates":[[136.67777326,35.23947764],[136.68336798,35.20229656],[136.67231739,35.18877739],[136.66962995,35.13372908],[136.65547019,35.16130711],[136.64638156,35.16581323],[136.64521825,35.14457241],[136.61555211,35.1499285],[136.60230125,35.17803928],[136.58771903,35.18446344],[136.57605567,35.20225231],[136.55983958,35.20657841],[136.55698789,35.22062592],[136.54737124,35.22031622],[136.55044486,35.23305508],[136.54085458,35.23741261],[136.53417489,35.257089],[136.516011,35.25389375],[136.50598489,35.23506072],[136.46166353,35.23622603],[136.44082883,35.21673272],[136.43090134,35.22940439],[136.41201022,35.2184472],[136.37729025,35.24316053],[136.39696219,35.25773133],[136.39103163,35.28996939],[136.40684778,35.30526439],[136.42232506,35.34838961],[136.42142311,35.35391684],[136.41055949,35.3525435],[136.411974,35.37006487],[136.436484,35.37882292],[136.44435183,35.38942511],[136.41180808,35.41859805],[136.4262227,35.44840097],[136.42053861,35.465962],[136.40161947,35.470017],[136.38671872,35.48880972],[136.39409494,35.50632325],[136.40567781,35.51345541],[136.4004045,35.53008184],[136.38425278,35.53309133],[136.37280058,35.55972333],[136.36264027,35.55874639],[136.35666214,35.53991447],[136.34597681,35.53612811],[136.33732014,35.55025453],[136.31750339,35.54739736],[136.32444939,35.58418008],[136.31498167,35.60592953],[136.32371148,35.61644423],[136.31576481,35.62342451],[136.29370389,35.61818564],[136.27916419,35.63668564],[136.28310314,35.64373644],[136.27662903,35.65469951],[136.2989073,35.67768328],[136.29182202,35.69052331],[136.32395314,35.716747],[136.32519842,35.74364844],[136.31838616,35.75105847],[136.32794783,35.77510187],[136.34652756,35.77604686],[136.37777647,35.79519414],[136.43093419,35.77499192],[136.48571445,35.77645444],[136.50593075,35.75029333],[136.52281497,35.78816553],[136.57074545,35.77742384],[136.59914964,35.79852992],[136.62205681,35.78679986],[136.62662767,35.79683847],[136.63785377,35.79730456],[136.64519519,35.80683175],[136.65766542,35.78348259],[136.6769593,35.79325305],[136.71004791,35.79204325],[136.7233838,35.80819425],[136.74109655,35.80106877],[136.76390964,35.8106072],[136.77438547,35.80667336],[136.77602128,35.79883311],[136.78931683,35.79943592],[136.80195975,35.84367451],[136.82511614,35.8454065],[136.83214594,35.86034008],[136.81899825,35.88165559],[136.82376859,35.89276639],[136.81370258,35.91092269],[136.78392239,35.92573905],[136.79324416,35.9459815],[136.75286536,35.95645992],[136.75225083,35.9886052],[136.72674506,35.99593778],[136.73572611,36.03231469],[136.73279258,36.04888195],[136.76496988,36.06939241],[136.7539692,36.09019803],[136.78078503,36.14154469],[136.76644927,36.1625558],[136.79840728,36.17256411],[136.80205866,36.18705908],[136.8226025,36.20149767],[136.82099364,36.21074184],[136.85182333,36.24710208],[136.833672,36.26582759],[136.81457869,36.266402],[136.79228708,36.29921103],[136.80417681,36.30619105],[136.83236764,36.30681141],[136.84249659,36.33271586],[136.83715192,36.34721559],[136.86510027,36.34966036],[136.87036477,36.36720011],[136.87629864,36.360279],[136.86958528,36.35165064],[136.87574112,36.35010567],[136.87475691,36.34279289],[136.89009053,36.34555847],[136.90747423,36.36084156],[136.95489689,36.33935044],[136.97328872,36.30985236],[136.95773469,36.2779368],[136.97530577,36.27436403],[136.98621611,36.28627456],[137.01259558,36.2930998],[137.01974125,36.31828092],[137.03757097,36.31743867],[137.05151492,36.32813284],[137.05873553,36.34250033],[137.04890442,36.3454948],[137.06216647,36.36614092],[137.05936178,36.37341787],[137.078726,36.38431144],[137.09488267,36.38396672],[137.09194411,36.39654033],[137.10192577,36.39919311],[137.11151031,36.41538284],[137.12200031,36.41715005],[137.13226761,36.43456311],[137.15969662,36.4564442],[137.17493936,36.45006225],[137.19167525,36.45521336],[137.20562983,36.42760417],[137.24708558,36.46171692],[137.25637859,36.45114133],[137.27902837,36.46506464],[137.2985125,36.45822986],[137.30661003,36.46387678],[137.3170117,36.46080317],[137.31387464,36.44166789],[137.30500684,36.43583539],[137.31345122,36.42503175],[137.35120655,36.43290253],[137.36149778,36.45005139],[137.38993594,36.45992164],[137.39522163,36.43639747],[137.40470691,36.42669105],[137.46071156,36.41222611],[137.47410776,36.42540914],[137.51041367,36.42432139],[137.51504586,36.41134559],[137.5409025,36.39144177],[137.5873472,36.38980053],[137.58708655,36.37196417],[137.61865455,36.36468011],[137.63547051,36.34254987],[137.64542241,36.34171544],[137.65303156,36.30455233],[137.64782061,36.28905175],[137.61473944,36.264777],[137.58302538,36.22039647],[137.57305764,36.2186548],[137.57856997,36.19753869],[137.59508878,36.1907398],[137.59506365,36.17204817],[137.55472144,36.14019897],[137.56055134,36.13024175],[137.55018003,36.11259813],[137.5734275,36.08768264],[137.59681445,36.07584103],[137.61395005,36.07638717],[137.61372333,36.05961689],[137.59785936,36.04240744],[137.59477594,36.01291528],[137.57571589,35.99549278],[137.54345803,35.9828708],[137.54198272,35.96662805],[137.53255739,35.96161722],[137.524519,35.94246364],[137.50355611,35.9398878],[137.48421462,35.91610256],[137.47652039,35.89416869],[137.45832975,35.8893945],[137.4348991,35.90548892],[137.38081616,35.89242222],[137.36437003,35.87887253],[137.36758533,35.860667],[137.36112703,35.84620784],[137.33331728,35.84196505],[137.32455175,35.81202092],[137.33811425,35.79804092],[137.39179263,35.79858261],[137.39326153,35.77772708],[137.43426686,35.77115684],[137.44017934,35.75855325],[137.45969603,35.76135356],[137.466631,35.74103023],[137.48521236,35.72470414],[137.48571927,35.70602833],[137.49763397,35.69813889],[137.49719645,35.68848195],[137.53537392,35.66580505],[137.5454475,35.65108228],[137.53844358,35.63855033],[137.52659856,35.63425951],[137.51380878,35.60802284],[137.53760319,35.58445147],[137.57130353,35.58416092],[137.5641185,35.56861286],[137.57206131,35.56124841],[137.57394683,35.54472453],[137.60780942,35.53329536],[137.6315875,35.50991395],[137.62442969,35.49382675],[137.63175022,35.47004397],[137.61817575,35.46776925],[137.59301119,35.4470298],[137.61553759,35.43059453],[137.63429283,35.39975095],[137.61309805,35.39168817],[137.57522778,35.40000872],[137.57736331,35.39043623],[137.59854331,35.37902817],[137.60365681,35.33255928],[137.55698761,35.30987456],[137.56176175,35.28320595],[137.51893533,35.28332731],[137.52067506,35.27347647],[137.43031297,35.22296039],[137.417078,35.24032259],[137.40841828,35.2348012],[137.40074438,35.24175508],[137.38745661,35.24054147],[137.38318025,35.26020869],[137.34409908,35.25785789],[137.34462995,35.27371761],[137.30808105,35.29115569],[137.27508659,35.29049189],[137.26266377,35.28520195],[137.25719711,35.27241305],[137.22399733,35.25620086],[137.21225594,35.25994725],[137.20700956,35.25306141],[137.18871786,35.25265725],[137.17289455,35.2649028],[137.17710927,35.26924169],[137.16522678,35.28341475],[137.14560122,35.27982614],[137.13171445,35.29360989],[137.10233375,35.3016475],[137.09603345,35.29055417],[137.08131066,35.29219084],[137.0818407,35.30512084],[137.06676959,35.30897164],[137.06352211,35.31819692],[137.07297881,35.32645692],[137.06821772,35.33568192],[137.04718494,35.336778],[137.04695255,35.36613128],[137.00223652,35.38137395],[136.98896302,35.40116441],[136.97826472,35.40317605],[136.99321564,35.42419578],[136.98642453,35.42460492],[136.96437261,35.42093903],[136.96171302,35.39977133],[136.92420058,35.38005117],[136.86493183,35.37260541],[136.83425012,35.35599992],[136.80075372,35.36093353],[136.79445567,35.36833461],[136.76878678,35.36736378],[136.72573331,35.29561436],[136.67777326,35.23947764]]}}]}