{"type":"FeatureCollection","name":"広島県","features":[{"type":"Feature","properties":{"name":"広島県"},"geometry":{"type":"MultiLineString","coordinates":[[[132.31660166,34.12324667],[132.31945944,34.11892667],[132.31660166,34.12324667]],[[132.34844365,34.17669704],[132.34844365,34.17669704]],[[132.30551805,34.18395778],[132.30551805,34.18395778]],[[132.29357555,34.19191195],[132.29613639,34.19960056],[132.30257333,34.19358861],[132.31107056,34.198915],[132.31955306,34.18987583],[132.30089361,34.18451833],[132.29357555,34.19191195]],[[132.29225888,34.19399028],[132.29225888,34.19399028]],[[132.31680083,34.19908],[132.31680083,34.19908]],[[132.29844222,34.19791667],[132.29844222,34.19791667]],[[132.29803445,34.19798195],[132.29803445,34.19798195]],[[132.22994442,34.23279545],[132.22994442,34.23279545]],[[132.26427944,34.23362861],[132.26427944,34.23362861]],[[132.225,34.23457705],[132.225,34.23457705]],[[132.35394895,34.24166667],[132.35769333,34.23572944],[132.35394895,34.24166667]],[[132.35378472,34.24163722],[132.35378472,34.24163722]],[[132.36010272,34.25114449],[132.36010272,34.25114449]],[[132.26204833,34.25176667],[132.26204833,34.25176667]],[[132.26161944,34.25181695],[132.26161944,34.25181695]],[[132.23403248,34.2559298],[132.23403248,34.2559298]],[[132.25017489,34.26568195],[132.25017489,34.26568195]],[[132.22635114,34.24647408],[132.2273798,34.23542636],[132.22065969,34.23276],[132.23889012,34.2271395],[132.24748917,34.21501172],[132.21016889,34.20257583],[132.19334944,34.20680778],[132.20485611,34.22860778],[132.17191,34.2251225],[132.17089166,34.2335825],[132.15691472,34.22923583],[132.14430694,34.23681667],[132.14635472,34.25678472],[132.13356888,34.27201389],[132.14005139,34.28494223],[132.12399778,34.2966475],[132.12947056,34.30402167],[132.12264528,34.31039195],[132.12735528,34.33292444],[132.10752722,34.32805223],[132.10142361,34.34514556],[132.08526333,34.35788167],[132.06979722,34.35629583],[132.07779973,34.38789972],[132.06975499,34.39099195],[132.07462195,34.40220083],[132.06879,34.41604778],[132.08102056,34.44347111],[132.05737694,34.48182472],[132.05983278,34.49216305],[132.03644805,34.50126195],[132.05237861,34.53027583],[132.08395056,34.53753],[132.11386722,34.56269278],[132.12552833,34.58315139],[132.12968416,34.59547861],[132.1176375,34.60176277],[132.11634805,34.61246277],[132.13080528,34.62916528],[132.12775139,34.64177972],[132.16193445,34.68314083],[132.15831973,34.69243111],[132.14222195,34.69159389],[132.12954861,34.69937056],[132.13076861,34.70802611],[132.17801944,34.73676639],[132.18916584,34.73362972],[132.20254555,34.74866556],[132.22238361,34.74953944],[132.22511027,34.76991583],[132.24265722,34.78299889],[132.24166611,34.80613889],[132.27810333,34.79898249],[132.27454333,34.79195583],[132.28021389,34.78350667],[132.29786778,34.77655972],[132.31831027,34.80160916],[132.33448333,34.79000305],[132.37431472,34.80098556],[132.38301139,34.79492528],[132.38139694,34.78583777],[132.39668083,34.77942333],[132.41462611,34.79782861],[132.42482083,34.79916416],[132.42089584,34.81377056],[132.43662056,34.8209525],[132.45668166,34.80740611],[132.45425917,34.80069805],[132.50557584,34.79603444],[132.51969056,34.80399556],[132.53805973,34.79499167],[132.55408472,34.80828389],[132.56778027,34.80615416],[132.59916778,34.83358195],[132.61224944,34.8330225],[132.61470472,34.84304611],[132.65231056,34.84053611],[132.66212166,34.83209944],[132.66965584,34.83281249],[132.68038056,34.85173167],[132.6986575,34.84294749],[132.71084611,34.85226889],[132.7010475,34.88168889],[132.68021083,34.88466305],[132.67515416,34.89448889],[132.66358861,34.88973167],[132.65569111,34.89948833],[132.63577083,34.89870611],[132.63402917,34.90480416],[132.64124944,34.90377444],[132.65126499,34.92040778],[132.67575917,34.93259667],[132.68520195,34.95063195],[132.70727694,34.95508667],[132.72039316,34.94799369],[132.7386075,34.96231305],[132.74253222,34.95632944],[132.74972195,34.96025889],[132.75296805,34.96676139],[132.74513,34.97682639],[132.76870333,34.98394861],[132.76570306,34.99683556],[132.78775445,35.00478833],[132.78858611,35.01575472],[132.80883445,35.02856028],[132.81371917,35.04055167],[132.83673584,35.04696639],[132.82819805,35.06221084],[132.86129778,35.09575889],[132.88350694,35.10490305],[132.89735499,35.10406056],[132.90947778,35.08621695],[132.95041528,35.0753775],[132.97466917,35.08296195],[132.99084917,35.10132028],[133.03397861,35.06815751],[133.05123861,35.06957056],[133.06080389,35.08145528],[133.08595805,35.07804056],[133.09642306,35.08542444],[133.12216944,35.08398667],[133.14213944,35.06472528],[133.16104027,35.07417528],[133.16825667,35.06745417],[133.21092,35.07421444],[133.23007306,35.06802333],[133.23234472,35.07741584],[133.24957722,35.07903556],[133.26896917,35.04997722],[133.32175722,35.006145],[133.32017333,34.98363667],[133.30311805,34.97213556],[133.29726166,34.95600389],[133.30944555,34.937045],[133.30187333,34.92891361],[133.30481166,34.91752861],[133.29519139,34.89572611],[133.33133639,34.85566805],[133.33595639,34.83479223],[133.35298639,34.83064278],[133.37808584,34.80835972],[133.3696875,34.78916056],[133.37684722,34.78175278],[133.36737499,34.77433111],[133.3618475,34.75560028],[133.37037833,34.74685916],[133.35820139,34.73327333],[133.36975139,34.72282],[133.37417472,34.69535667],[133.38665973,34.68489167],[133.38274944,34.68028528],[133.40337805,34.67192249],[133.38357833,34.61978833],[133.39700611,34.59488416],[133.42293833,34.58585889],[133.42673278,34.56914472],[133.44621416,34.55633805],[133.45438861,34.53150611],[133.44516222,34.509515],[133.4564425,34.49992944],[133.44690847,34.48026767],[133.44285192,34.48264156],[133.44492272,34.44614367],[133.4144851,34.45926518],[133.41495335,34.47844961],[133.40853715,34.47846062],[133.40819236,34.4572468],[133.44050868,34.43625593],[133.43132949,34.42409625],[133.41044725,34.43793158],[133.40458049,34.43531646],[133.40742774,34.4282951],[133.38644484,34.4225374],[133.3801503,34.39517766],[133.38461852,34.38437049],[133.37515569,34.37693459],[133.38235189,34.37555928],[133.34605333,34.36556959],[133.34360754,34.37855961],[133.32276208,34.37646037],[133.30580789,34.38756578],[133.28570117,34.38572724],[133.28144769,34.40167327],[133.27087388,34.39178511],[133.24679086,34.38942586],[133.24368545,34.40020964],[133.25934722,34.39708786],[133.26007668,34.40376174],[133.27232414,34.40697026],[133.27397713,34.41757645],[133.27036135,34.43271155],[133.25117713,34.44146546],[133.25403268,34.42351518],[133.24211944,34.43588985],[133.24545145,34.42389269],[133.23398558,34.41151027],[133.20724987,34.41002237],[133.12746897,34.38255692],[133.08487639,34.39564861],[133.09673764,34.37936436],[133.08627136,34.37862495],[133.0756868,34.34379178],[133.05973703,34.34513183],[133.03998134,34.33132519],[133.03770489,34.33590844],[133.01549163,34.32860464],[132.99448166,34.33753314],[132.98311497,34.33120431],[132.95080926,34.34033411],[132.92889119,34.32569957],[132.91760124,34.32668673],[132.91670929,34.33288832],[132.91474698,34.32706734],[132.88860966,34.32403706],[132.88539914,34.31541849],[132.86918843,34.31229139],[132.87404983,34.3021947],[132.86839907,34.30517123],[132.84706664,34.29169478],[132.84618494,34.29960493],[132.83479328,34.30463661],[132.8343237,34.31620249],[132.79895217,34.31255897],[132.78852348,34.277999],[132.75424105,34.28233808],[132.75975306,34.26744953],[132.75300448,34.25949387],[132.76488278,34.26259059],[132.77340095,34.25534205],[132.75836442,34.24658453],[132.76041275,34.24037003],[132.70131844,34.23751577],[132.68507438,34.22245483],[132.68438703,34.21031713],[132.660248,34.21928136],[132.66097103,34.20840641],[132.6409117,34.20177383],[132.61749722,34.21071703],[132.61592505,34.22444022],[132.60275428,34.22014644],[132.60574903,34.22651972],[132.5956202,34.23114039],[132.59249041,34.21162369],[132.54359489,34.19326659],[132.53782161,34.19418469],[132.54327414,34.21119297],[132.53155694,34.222171],[132.53811122,34.22862897],[132.54840302,34.22504305],[132.558529,34.2382263],[132.53964519,34.24774789],[132.53155161,34.24152844],[132.524466,34.24626687],[132.52991733,34.25530053],[132.51457178,34.25694567],[132.51885414,34.28262175],[132.49431585,34.31624379],[132.50435555,34.3364195],[132.49169844,34.33672011],[132.5029638,34.35058628],[132.51643536,34.3437598],[132.50873027,34.352715],[132.52249545,34.36281558],[132.48255681,34.35311804],[132.47560684,34.36709361],[132.47851241,34.35672186],[132.45249497,34.35280144],[132.44981704,34.34083631],[132.44371257,34.34052472],[132.43991532,34.35235847],[132.39926228,34.36536497],[132.37552756,34.3603644],[132.3768534,34.35236582],[132.3647262,34.34746759],[132.36449089,34.36031264],[132.33827642,34.3542132],[132.35654234,34.34940359],[132.33570545,34.34741822],[132.33892314,34.34195692],[132.3587532,34.34528501],[132.32001431,34.33922613],[132.3189883,34.32330439],[132.29080027,34.30121753],[132.28191416,34.28577775],[132.23424392,34.25883033],[132.22635114,34.24647408]],[[132.2812072,34.26937069],[132.2812072,34.26937069]],[[132.3058925,34.24809639],[132.27425416,34.23142083],[132.26220944,34.25188778],[132.28049222,34.26697083],[132.29008956,34.287392],[132.32015472,34.29540525],[132.33370728,34.31141444],[132.34858555,34.29292],[132.34804333,34.28222444],[132.3058925,34.24809639]],[[132.28203861,34.271685],[132.28203861,34.271685]],[[132.26132939,34.27202547],[132.26132939,34.27202547]],[[132.26148416,34.27223928],[132.26148416,34.27223928]],[[132.36482445,34.27311695],[132.36482445,34.27311695]],[[132.36444477,34.27338416],[132.36444477,34.27338416]],[[132.36584195,34.27397333],[132.36584195,34.27397333]],[[132.36742917,34.27843389],[132.36742917,34.27843389]],[[132.2837275,34.27868028],[132.2837275,34.27868028]],[[132.3701591,34.28053956],[132.3701591,34.28053956]],[[132.29004499,34.28750327],[132.29004499,34.28750327]],[[132.29020758,34.28752576],[132.29020758,34.28752576]],[[132.3629735,34.28759595],[132.3629735,34.28759595]],[[132.36314861,34.28787916],[132.36314861,34.28787916]],[[132.36200195,34.28963333],[132.36200195,34.28963333]],[[132.28435769,34.28978656],[132.28435769,34.28978656]],[[132.36070639,34.29030944],[132.36070639,34.29030944]],[[132.36272464,34.29189375],[132.36272464,34.29189375]],[[132.34796056,34.29344111],[132.34796056,34.29344111]],[[132.34786778,34.29361556],[132.34786778,34.29361556]],[[132.3477775,34.29379028],[132.3477775,34.29379028]],[[132.34770389,34.29388889],[132.34770389,34.29388889]],[[132.34133477,34.30282111],[132.34133477,34.30282111]],[[132.32379345,34.30306367],[132.32379345,34.30306367]],[[132.29849572,34.30437411],[132.29849572,34.30437411]],[[132.33344611,34.31228944],[132.33344611,34.31228944]],[[132.31985394,34.32706297],[132.31985394,34.32706297]],[[132.3369307,34.33752839],[132.3369307,34.33752839]],[[132.32447678,34.33672616],[132.32447678,34.33672616]],[[132.33793479,34.33766502],[132.33793479,34.33766502]],[[132.33785977,34.33775465],[132.33785977,34.33775465]],[[132.33862418,34.33798294],[132.33862418,34.33798294]],[[132.33823495,34.33797149],[132.33823495,34.33797149]],[[132.33921073,34.33834031],[132.33921073,34.33834031]],[[132.33938608,34.33820302],[132.33938608,34.33820302]],[[132.33939512,34.33821121],[132.33939512,34.33821121]],[[132.3395151,34.33825937],[132.3395151,34.33825937]],[[132.3396796,34.33823064],[132.3396796,34.33823064]],[[132.34021054,34.33855806],[132.34021054,34.33855806]],[[132.3396918,34.33856682],[132.3396918,34.33856682]],[[132.34026856,34.33865193],[132.34026856,34.33865193]],[[132.34117614,34.33908717],[132.34117614,34.33908717]],[[132.35418667,34.34539308],[132.35418667,34.34539308]],[[132.45989639,34.05599361],[132.45989639,34.05599361]],[[132.45476416,34.05682472],[132.45476416,34.05682472]],[[132.45480306,34.05739556],[132.45480306,34.05739556]],[[132.45458222,34.05752139],[132.45458222,34.05752139]],[[132.45418112,34.05763333],[132.45418112,34.05763333]],[[132.45480833,34.05771305],[132.45480833,34.05771305]],[[132.4533975,34.05773416],[132.4533975,34.05773416]],[[132.45348195,34.05817416],[132.45348195,34.05817416]],[[132.44649333,34.06419195],[132.44649333,34.06419195]],[[132.45448499,34.08492333],[132.45448499,34.08492333]],[[132.45559973,34.08891],[132.45559973,34.08891]],[[132.4553275,34.08916916],[132.4553275,34.08916916]],[[132.44835112,34.10103889],[132.44835112,34.10103889]],[[132.44908722,34.10697639],[132.44908722,34.10697639]],[[132.42787667,34.12787167],[132.42787667,34.12787167]],[[132.42751805,34.1278375],[132.42751805,34.1278375]],[[132.42795416,34.12813639],[132.42795416,34.12813639]],[[132.42804297,34.12824367],[132.42804297,34.12824367]],[[132.42823128,34.12841195],[132.42823128,34.12841195]],[[132.42910265,34.12869075],[132.42910265,34.12869075]],[[132.42898758,34.12881586],[132.42898758,34.12881586]],[[132.41646944,34.13248778],[132.42266645,34.1352284],[132.41646944,34.13248778]],[[132.41794528,34.13447223],[132.41794528,34.13447223]],[[132.43695755,34.14308819],[132.43695755,34.14308819]],[[132.4301075,34.14603583],[132.4301075,34.14603583]],[[132.43960555,34.14735944],[132.43960555,34.14735944]],[[132.40526802,34.14774939],[132.40526802,34.14774939]],[[132.42886445,34.14882472],[132.42886445,34.14882472]],[[132.43169673,34.14813354],[132.42921639,34.15453],[132.43992,34.16025864],[132.44286006,34.15313334],[132.43169673,34.14813354]],[[132.41216163,34.16626069],[132.41409195,34.15116472],[132.3973044,34.14631286],[132.38336326,34.15649817],[132.3820325,34.17463654],[132.41216163,34.16626069]],[[132.44515416,34.16374111],[132.44515416,34.16374111]],[[132.40029201,34.17338936],[132.40029201,34.17338936]],[[132.44730332,34.18387957],[132.44730332,34.18387957]],[[132.44056665,34.19273613],[132.44056665,34.19273613]],[[132.37448564,34.25440969],[132.37741258,34.26458065],[132.38033189,34.25650784],[132.41981139,34.25799083],[132.43893569,34.22509628],[132.45773027,34.23095472],[132.47418089,34.20847926],[132.4797251,34.23168112],[132.47091934,34.24454748],[132.45609459,34.25674181],[132.45026489,34.2469714],[132.43310463,34.25030535],[132.44577629,34.26662],[132.43414642,34.2860288],[132.47474726,34.2835043],[132.480483,34.28510644],[132.47971755,34.2962578],[132.49892595,34.26712107],[132.4907214,34.24706138],[132.49754333,34.24229741],[132.49017673,34.20385841],[132.47954826,34.1918021],[132.47332239,34.19457181],[132.47131676,34.17888393],[132.48805843,34.16071176],[132.48921516,34.14129208],[132.4818731,34.14466329],[132.44614082,34.13231031],[132.44587849,34.14004553],[132.42948231,34.12875594],[132.44556917,34.15232305],[132.44968132,34.16762211],[132.44359143,34.1695398],[132.44483977,34.17918203],[132.45718792,34.17786242],[132.43900751,34.19580186],[132.42884946,34.17304078],[132.42002309,34.19812878],[132.3844208,34.22649581],[132.38906639,34.24015195],[132.37448564,34.25440969]],[[132.39517975,34.21455359],[132.39517975,34.21455359]],[[132.44290432,34.22544768],[132.44290432,34.22544768]],[[132.384923,34.22589834],[132.384923,34.22589834]],[[132.45800473,34.25289305],[132.45800473,34.25289305]],[[132.37243328,34.25727333],[132.37243328,34.25727333]],[[132.40062472,34.26146577],[132.40711311,34.26114572],[132.40062472,34.26146577]],[[132.4418587,34.26126285],[132.4418587,34.26126285]],[[132.41325136,34.26265203],[132.41325136,34.26265203]],[[132.37317163,34.26287933],[132.37317163,34.26287933]],[[132.37426547,34.2709128],[132.37426547,34.2709128]],[[132.37639667,34.2738],[132.37639667,34.2738]],[[132.40440925,34.27645786],[132.40440925,34.27645786]],[[132.37440783,34.27382389],[132.36106,34.27653028],[132.3784927,34.27911067],[132.37440783,34.27382389]],[[132.41637783,34.29980103],[132.44405953,34.32534097],[132.44809878,34.31558397],[132.43811827,34.30446064],[132.4428273,34.29696256],[132.41637783,34.29980103]],[[132.40159503,34.31209095],[132.40159503,34.31209095]],[[132.46237908,34.31105259],[132.46273555,34.317144],[132.46237908,34.31105259]],[[132.40549506,34.31802783],[132.40549506,34.31802783]],[[132.40518453,34.31849464],[132.40518453,34.31849464]],[[132.44606499,34.3210075],[132.44606499,34.3210075]],[[132.44504083,34.32303333],[132.44504083,34.32303333]],[[132.38839611,34.33719472],[132.38839611,34.33719472]],[[132.45619222,34.3453625],[132.45619222,34.3453625]],[[132.4537347,34.34442713],[132.45007759,34.34724313],[132.4537347,34.34442713]],[[132.45777927,34.34649589],[132.4618362,34.35125303],[132.46563628,34.34271786],[132.45777927,34.34649589]],[[132.44985652,34.35106475],[132.44985652,34.35106475]],[[132.41578606,34.35597131],[132.41578606,34.35597131]],[[132.41576752,34.35592013],[132.41576752,34.35592013]],[[132.41339742,34.35653333],[132.41339742,34.35653333]],[[132.41574608,34.35616803],[132.41574608,34.35616803]],[[132.41517464,34.35624872],[132.41517464,34.35624872]],[[132.41501628,34.35630025],[132.41501628,34.35630025]],[[132.41571319,34.35621822],[132.41571319,34.35621822]],[[132.41452086,34.3565452],[132.41452086,34.3565452]],[[132.41631211,34.35703544],[132.41631211,34.35703544]],[[132.41691833,34.35771011],[132.41691833,34.35771011]],[[132.41676128,34.35772377],[132.41676128,34.35772377]],[[132.41745306,34.3585032],[132.41745306,34.3585032]],[[132.41732639,34.35850275],[132.41732639,34.35850275]],[[132.40069425,34.36111289],[132.40069425,34.36111289]],[[132.40168297,34.36159964],[132.40168297,34.36159964]],[[132.39777419,34.36227153],[132.39777419,34.36227153]],[[132.53348278,34.03900944],[132.53348278,34.03900944]],[[132.48265776,34.03641795],[132.49604523,34.04491413],[132.48265776,34.03641795]],[[132.51961,34.04124056],[132.51961,34.04124056]],[[132.52088139,34.04281222],[132.52088139,34.04281222]],[[132.52051611,34.04355556],[132.52051611,34.04355556]],[[132.48411852,34.04405925],[132.48411852,34.04405925]],[[132.49628375,34.0446665],[132.49628375,34.0446665]],[[132.48209737,34.04561569],[132.48209737,34.04561569]],[[132.47974798,34.04612049],[132.47974798,34.04612049]],[[132.48001939,34.04632789],[132.48001939,34.04632789]],[[132.47278326,34.05468822],[132.47278326,34.05468822]],[[132.47281166,34.0553728],[132.47281166,34.0553728]],[[132.47278297,34.05572547],[132.47278297,34.05572547]],[[132.46875248,34.05621759],[132.46875248,34.05621759]],[[132.46893,34.05672861],[132.46893,34.05672861]],[[132.46375667,34.05821444],[132.46375667,34.05821444]],[[132.52066445,34.05044028],[132.53341166,34.07421833],[132.53946555,34.06650667],[132.53496889,34.04870861],[132.52066445,34.05044028]],[[132.52628389,34.06452889],[132.52628389,34.06452889]],[[132.52565694,34.06455667],[132.52565694,34.06455667]],[[132.52052361,34.09048611],[132.52052361,34.09048611]],[[132.49299805,34.09237944],[132.49299805,34.09237944]],[[132.5354325,34.09381028],[132.5354325,34.09381028]],[[132.53506416,34.09451416],[132.53506416,34.09451416]],[[132.50087472,34.09574028],[132.50087472,34.09574028]],[[132.46280861,34.08245333],[132.44785584,34.09404861],[132.44732333,34.10837305],[132.46733694,34.12167667],[132.47259445,34.11852278],[132.47367333,34.12553472],[132.50438278,34.13352333],[132.50810222,34.14415528],[132.49299193,34.15308924],[132.49993399,34.18017614],[132.525177,34.19934147],[132.53770411,34.19979347],[132.53373148,34.18901408],[132.55209141,34.18724805],[132.5590172,34.17322697],[132.54677917,34.17663003],[132.53992008,34.16420044],[132.52147097,34.15752095],[132.5320225,34.14663944],[132.54841416,34.15145583],[132.54875111,34.14125695],[132.55779195,34.1506],[132.53761636,34.12110913],[132.53908973,34.10756277],[132.57624,34.12785222],[132.58391166,34.12370028],[132.58301528,34.11206111],[132.59301861,34.11520528],[132.58990528,34.1086775],[132.57013555,34.11551305],[132.56788778,34.09715389],[132.5564875,34.07996861],[132.54935031,34.079732],[132.54568056,34.09789916],[132.53525611,34.09533111],[132.53227973,34.10391528],[132.51295416,34.09102639],[132.51376445,34.09908277],[132.50194139,34.10339583],[132.49851917,34.09095861],[132.46280861,34.08245333]],[[132.53714805,34.15046416],[132.53714805,34.15046416]],[[132.4909203,34.15055346],[132.4909203,34.15055346]],[[132.49050061,34.15086319],[132.49050061,34.15086319]],[[132.53353311,34.15142767],[132.53353311,34.15142767]],[[132.53480672,34.15211928],[132.53480672,34.15211928]],[[132.52941639,34.15226639],[132.52941639,34.15226639]],[[132.52985639,34.15223305],[132.52985639,34.15223305]],[[132.53028306,34.15360695],[132.53028306,34.15360695]],[[132.48204434,34.17684078],[132.48204434,34.17684078]],[[132.47799379,34.17859092],[132.47799379,34.17859092]],[[132.47852837,34.17876133],[132.47852837,34.17876133]],[[132.47535103,34.17919977],[132.47535103,34.17919977]],[[132.47452711,34.1810216],[132.47452711,34.1810216]],[[132.53486895,34.19058349],[132.53486895,34.19058349]],[[132.53687694,34.19462408],[132.53687694,34.19462408]],[[132.51308326,34.19269931],[132.51430837,34.19942997],[132.51308326,34.19269931]],[[132.51481239,34.19972531],[132.51481239,34.19972531]],[[132.47155713,34.20884608],[132.47155713,34.20884608]],[[132.47606978,34.21673339],[132.47606978,34.21673339]],[[132.51896936,34.24007269],[132.51896936,34.24007269]],[[132.52170506,34.24153544],[132.52170506,34.24153544]],[[132.46857704,34.24497025],[132.46857704,34.24497025]],[[132.49616844,34.25362108],[132.49616844,34.25362108]],[[132.49635865,34.25409021],[132.49635865,34.25409021]],[[132.49785912,34.25606513],[132.49785912,34.25606513]],[[132.51539234,34.2619062],[132.51539234,34.2619062]],[[132.49635446,34.27394259],[132.49635446,34.27394259]],[[132.49171475,34.2810593],[132.49171475,34.2810593]],[[132.4816046,34.29116908],[132.4816046,34.29116908]],[[132.47760628,34.29460384],[132.47760628,34.29460384]],[[132.47979763,34.29623478],[132.47979763,34.29623478]],[[132.47898455,34.29823989],[132.47898455,34.29823989]],[[132.47914323,34.2982604],[132.47914323,34.2982604]],[[132.50292587,34.33656726],[132.50292587,34.33656726]],[[132.50242272,34.33692026],[132.50242272,34.33692026]],[[132.50155492,34.3373111],[132.50155492,34.3373111]],[[132.5,34.33741171],[132.5,34.33741171]],[[132.48459433,34.33305905],[132.4805665,34.33014908],[132.47711927,34.34618944],[132.48573739,34.34395611],[132.48459433,34.33305905]],[[132.46625191,34.34360712],[132.46625191,34.34360712]],[[132.46627754,34.34690039],[132.46627754,34.34690039]],[[132.47662416,34.34667472],[132.47662416,34.34667472]],[[132.46634166,34.34695892],[132.46634166,34.34695892]],[[132.46272438,34.35080939],[132.46272438,34.35080939]],[[132.46349856,34.35124359],[132.46349856,34.35124359]],[[132.51814384,34.36091547],[132.51814384,34.36091547]],[[132.55429056,34.02765722],[132.55429056,34.02765722]],[[132.55449278,34.02848778],[132.55449278,34.02848778]],[[132.55469499,34.02890277],[132.55469499,34.02890277]],[[132.56349611,34.07253944],[132.56349611,34.07253944]],[[132.54248722,34.07123028],[132.5490225,34.07965305],[132.54944278,34.07216167],[132.55931056,34.07200361],[132.54248722,34.07123028]],[[132.54880027,34.07454444],[132.54880027,34.07454444]],[[132.5621875,34.08941556],[132.5621875,34.08941556]],[[132.58462445,34.12175416],[132.58462445,34.12175416]],[[132.75737652,34.14459508],[132.75737652,34.14459508]],[[132.53746667,34.15055416],[132.53746667,34.15055416]],[[132.67345833,34.15111861],[132.67345833,34.15111861]],[[132.56012778,34.15191805],[132.56012778,34.15191805]],[[132.75199833,34.15211],[132.75199833,34.15211]],[[132.75235722,34.15239305],[132.75235722,34.15239305]],[[132.75050195,34.15285416],[132.75050195,34.15285416]],[[132.75854805,34.15425695],[132.75854805,34.15425695]],[[132.65557584,34.15625056],[132.65172278,34.15084195],[132.65557584,34.15625056]],[[132.75720361,34.15448416],[132.75720361,34.15448416]],[[132.75884389,34.15452528],[132.75884389,34.15452528]],[[132.75957555,34.15455167],[132.75957555,34.15455167]],[[132.66695805,34.15570416],[132.67344472,34.15951305],[132.67402027,34.15276361],[132.66695805,34.15570416]],[[132.56252833,34.15743805],[132.56252833,34.15743805]],[[132.74975667,34.15741556],[132.74975667,34.15741556]],[[132.75206722,34.15798],[132.75206722,34.15798]],[[132.57918811,34.15887577],[132.57918811,34.15887577]],[[132.57959778,34.16629389],[132.57913083,34.15893695],[132.56996278,34.15689167],[132.57959778,34.16629389]],[[132.67901056,34.16331056],[132.67901056,34.16331056]],[[132.67813694,34.16335528],[132.67813694,34.16335528]],[[132.73892555,34.16473411],[132.73892555,34.16473411]],[[132.74064499,34.16595747],[132.74064499,34.16595747]],[[132.66623922,34.17129428],[132.66623922,34.17129428]],[[132.54848778,34.17143667],[132.54848778,34.17143667]],[[132.66190506,34.17243697],[132.66190506,34.17243697]],[[132.68630056,34.17488778],[132.68630056,34.17488778]],[[132.68632111,34.17505695],[132.68632111,34.17505695]],[[132.68615166,34.17699472],[132.68615166,34.17699472]],[[132.68598222,34.1771525],[132.68598222,34.1771525]],[[132.68551778,34.17796889],[132.68551778,34.17796889]],[[132.74326195,34.16726639],[132.73848639,34.17337333],[132.72219,34.16933389],[132.71321333,34.18097303],[132.68582195,34.18258611],[132.68620555,34.19602444],[132.7098175,34.20446528],[132.7210925,34.19699361],[132.75734166,34.19361695],[132.75404056,34.18205777],[132.76469944,34.18216139],[132.76534083,34.17691916],[132.75466195,34.16403944],[132.73537416,34.15949139],[132.74326195,34.16726639]],[[132.55851003,34.18177833],[132.55851003,34.18177833]],[[132.64707567,34.17668041],[132.65610145,34.19647835],[132.67733,34.20290639],[132.67474333,34.19602389],[132.68446139,34.18771167],[132.67388798,34.17289459],[132.64437166,34.17102777],[132.64707567,34.17668041]],[[132.76032499,34.19196916],[132.76032499,34.19196916]],[[132.76160445,34.19219],[132.76160445,34.19219]],[[132.76218416,34.19251361],[132.76218416,34.19251361]],[[132.53782942,34.19399978],[132.53782942,34.19399978]],[[132.72105105,34.19944822],[132.72105105,34.19944822]],[[132.56998,34.2],[132.56998,34.2]],[[132.74099306,34.20132472],[132.74099306,34.20132472]],[[132.73642472,34.20263139],[132.73642472,34.20263139]],[[132.63291969,34.20456405],[132.63291969,34.20456405]],[[132.68144166,34.20860944],[132.68144166,34.20860944]],[[132.68402698,34.20993289],[132.68402698,34.20993289]],[[132.62147158,34.21162092],[132.62147158,34.21162092]],[[132.65881278,34.21449167],[132.65881278,34.21449167]],[[132.69482027,34.22318639],[132.70101314,34.21837295],[132.69347895,34.21746569],[132.69482027,34.22318639]],[[132.59573577,34.22018853],[132.59573577,34.22018853]],[[132.61666667,34.22218778],[132.61666667,34.22218778]],[[132.60124973,34.225],[132.60124973,34.225]],[[132.69746056,34.23102275],[132.69746056,34.23102275]],[[132.55585577,34.23729689],[132.55585577,34.23729689]],[[132.75483606,34.23906775],[132.75483606,34.23906775]],[[132.73820047,34.24078267],[132.73820047,34.24078267]],[[132.73856564,34.24089086],[132.73856564,34.24089086]],[[132.73837462,34.24102428],[132.73837462,34.24102428]],[[132.73547306,34.24093087],[132.73547306,34.24093087]],[[132.73854399,34.24099953],[132.73854399,34.24099953]],[[132.74442969,34.24146472],[132.74442969,34.24146472]],[[132.74415608,34.24155508],[132.74415608,34.24155508]],[[132.75368717,34.25987403],[132.75368717,34.25987403]],[[132.75866114,34.26977461],[132.75866114,34.26977461]],[[132.75862455,34.26983692],[132.75862455,34.26983692]],[[132.75821128,34.27133153],[132.75821128,34.27133153]],[[132.78816805,34.11381416],[132.78831944,34.12215056],[132.80055,34.12086861],[132.78816805,34.11381416]],[[132.79381387,34.12031805],[132.79381387,34.12031805]],[[132.79317764,34.12028525],[132.79317764,34.12028525]],[[132.75840445,34.15280333],[132.77518195,34.15508667],[132.75993,34.14817389],[132.75840445,34.15280333]],[[132.80381703,34.15386839],[132.80381703,34.15386839]],[[132.80209944,34.15409003],[132.80209944,34.15409003]],[[132.80303117,34.15449441],[132.80303117,34.15449441]],[[132.79653805,34.15860639],[132.79653805,34.15860639]],[[132.84117163,34.15962044],[132.84117163,34.15962044]],[[132.80385233,34.16716059],[132.80385233,34.16716059]],[[132.79590542,34.16847769],[132.79590542,34.16847769]],[[132.8,34.17361716],[132.8,34.17361716]],[[132.85358039,34.16461205],[132.81971306,34.15085916],[132.79958895,34.15863222],[132.80662,34.16273333],[132.80676244,34.17804639],[132.84899611,34.19631389],[132.85556118,34.18308273],[132.86937597,34.1770042],[132.85358039,34.16461205]],[[132.79932311,34.17410977],[132.79932311,34.17410977]],[[132.78860222,34.16368472],[132.77110584,34.16325583],[132.77143056,34.17655833],[132.78654584,34.18881611],[132.79983131,34.17664489],[132.78860222,34.16368472]],[[132.80003209,34.17525053],[132.80003209,34.17525053]],[[132.79985698,34.17630278],[132.79985698,34.17630278]],[[132.86680275,34.18005147],[132.86680275,34.18005147]],[[132.76397499,34.18541389],[132.76397499,34.18541389]],[[132.82856144,34.18711247],[132.82856144,34.18711247]],[[132.82940499,34.18704016],[132.82940499,34.18704016]],[[132.76656639,34.18787695],[132.76656639,34.18787695]],[[132.86032,34.18766722],[132.86032,34.18766722]],[[132.76727278,34.18816777],[132.76727278,34.18816777]],[[132.76796499,34.18822],[132.76796499,34.18822]],[[132.82854652,34.18804605],[132.82854652,34.18804605]],[[132.80729778,34.18739805],[132.80840722,34.19377749],[132.82077584,34.196215],[132.80729778,34.18739805]],[[132.83499778,34.19261],[132.83499778,34.19261]],[[132.85617361,34.19164749],[132.85617361,34.19164749]],[[132.85177611,34.19486111],[132.85177611,34.19486111]],[[132.85492333,34.20866222],[132.85492333,34.20866222]],[[132.85497917,34.20886333],[132.85497917,34.20886333]],[[132.85478333,34.20895778],[132.85478333,34.20895778]],[[132.80024306,34.22726944],[132.80439805,34.22890916],[132.80024306,34.22726944]],[[132.8025,34.23051444],[132.8025,34.23051444]],[[132.77024453,34.24328928],[132.77024453,34.24328928]],[[132.77191876,34.24932003],[132.77191876,34.24932003]],[[132.77185947,34.24935283],[132.77185947,34.24935283]],[[132.77188272,34.24936811],[132.77188272,34.24936811]],[[132.86147611,34.250535],[132.86281667,34.25496],[132.86147611,34.250535]],[[132.86451222,34.25359111],[132.86451222,34.25359111]],[[132.77299394,34.25431997],[132.77299394,34.25431997]],[[132.83585778,34.25499861],[132.84115611,34.25464583],[132.83585778,34.25499861]],[[132.78161842,34.25693708],[132.78788289,34.26054005],[132.78161842,34.25693708]],[[132.77416131,34.25980978],[132.77944064,34.25782333],[132.77416131,34.25980978]],[[132.768538,34.25965775],[132.768538,34.25965775]],[[132.76871178,34.25994],[132.76871178,34.25994]],[[132.76933025,34.26008905],[132.76933025,34.26008905]],[[132.76938034,34.26010856],[132.76938034,34.26010856]],[[132.76922136,34.26013889],[132.76922136,34.26013889]],[[132.77024783,34.2601435],[132.77024783,34.2601435]],[[132.86258,34.26401916],[132.86258,34.26401916]],[[132.86280361,34.264085],[132.86280361,34.264085]],[[132.79896672,34.2637338],[132.79896672,34.2637338]],[[132.77285889,34.2649182],[132.77285889,34.2649182]],[[132.86431861,34.26766056],[132.86431861,34.26766056]],[[132.86023528,34.26810861],[132.86023528,34.26810861]],[[132.86022584,34.26833056],[132.86022584,34.26833056]],[[132.85782472,34.26852],[132.85782472,34.26852]],[[132.85822361,34.26850444],[132.85822361,34.26850444]],[[132.78999056,34.27533861],[132.78999056,34.27533861]],[[132.79039,34.27534805],[132.79039,34.27534805]],[[132.79094061,34.27210428],[132.80524464,34.28220723],[132.81066533,34.27945649],[132.8031298,34.26849667],[132.79094061,34.27210428]],[[132.79012499,34.27546361],[132.79012499,34.27546361]],[[132.80814319,34.28161031],[132.80814319,34.28161031]],[[132.80916817,34.2816702],[132.80916817,34.2816702]],[[132.80847611,34.28283222],[132.80847611,34.28283222]],[[132.80861944,34.28340416],[132.80861944,34.28340416]],[[132.85232742,34.28794259],[132.85232742,34.28794259]],[[132.81719514,34.29122069],[132.81457772,34.28683208],[132.81719514,34.29122069]],[[132.84974278,34.29157189],[132.84974278,34.29157189]],[[132.84048759,34.29350116],[132.84048759,34.29350116]],[[132.80261759,34.29495811],[132.80261759,34.29495811]],[[132.86058873,34.29618441],[132.86058873,34.29618441]],[[132.83588433,34.29985387],[132.83588433,34.29985387]],[[132.83143075,34.31031567],[132.83143075,34.31031567]],[[132.79770156,34.31081072],[132.79770156,34.31081072]],[[132.79753078,34.31172695],[132.79753078,34.31172695]],[[132.81964064,34.31461389],[132.81964064,34.31461389]],[[132.87519966,34.20656611],[132.87519966,34.20656611]],[[132.88667661,34.20846511],[132.88667661,34.20846511]],[[132.88728815,34.2088218],[132.88728815,34.2088218]],[[132.88781484,34.20930178],[132.88781484,34.20930178]],[[132.88808005,34.2093858],[132.88808005,34.2093858]],[[132.88864878,34.20979159],[132.88864878,34.20979159]],[[132.89321733,34.21084708],[132.89321733,34.21084708]],[[132.8910562,34.21069228],[132.8910562,34.21069228]],[[132.91827372,34.23634861],[132.91827372,34.23634861]],[[132.87169445,34.2065625],[132.84790889,34.21549195],[132.83991083,34.22816028],[132.84632973,34.23524167],[132.83818545,34.24215039],[132.85778462,34.23988659],[132.85576584,34.24905278],[132.88354986,34.24412413],[132.87699944,34.2517052],[132.8874675,34.26230278],[132.89435222,34.25705583],[132.89150328,34.24977011],[132.90055148,34.24752947],[132.92675195,34.28268223],[132.94213211,34.2775618],[132.9298275,34.24796611],[132.91334795,34.23489014],[132.92075772,34.21412667],[132.87169445,34.2065625]],[[132.87533798,34.25047539],[132.87533798,34.25047539]],[[132.87641628,34.25155797],[132.87641628,34.25155797]],[[132.88067416,34.25870639],[132.88067416,34.25870639]],[[132.88246667,34.25888083],[132.88246667,34.25888083]],[[132.8773625,34.26071195],[132.8773625,34.26071195]],[[132.87379278,34.25553139],[132.86339389,34.26386249],[132.86937,34.27148195],[132.87640027,34.26802111],[132.87379278,34.25553139]],[[132.89902,34.26286972],[132.89902,34.26286972]],[[132.87748778,34.26756861],[132.87748778,34.26756861]],[[132.90469888,34.26770916],[132.90469888,34.26770916]],[[132.90470166,34.268075],[132.90470166,34.268075]],[[132.87604499,34.26876389],[132.87604499,34.26876389]],[[132.87607056,34.26897222],[132.87607056,34.26897222]],[[132.88979166,34.269195],[132.88979166,34.269195]],[[132.89001027,34.27122695],[132.89001027,34.27122695]],[[132.90522528,34.27040416],[132.90522528,34.27040416]],[[132.88113722,34.27447111],[132.88113722,34.27447111]],[[132.88092361,34.27474861],[132.88092361,34.27474861]],[[132.90624428,34.275],[132.91186222,34.27688639],[132.90624428,34.275]],[[132.88346195,34.27547223],[132.88346195,34.27547223]],[[132.89089805,34.27621583],[132.89089805,34.27621583]],[[132.91759027,34.27954583],[132.91759027,34.27954583]],[[132.88165528,34.27943277],[132.88399306,34.28999333],[132.88798056,34.27955111],[132.88165528,34.27943277]],[[132.93840694,34.2834],[132.94414,34.28582277],[132.93840694,34.2834]],[[133.04980485,34.28563084],[133.04980485,34.28563084]],[[132.89018667,34.28747611],[132.89018667,34.28747611]],[[132.92621361,34.2879625],[132.92621361,34.2879625]],[[132.90402,34.28955083],[132.90402,34.28955083]],[[132.90702083,34.28965611],[132.91491667,34.30014805],[132.91668083,34.29037361],[132.92607056,34.29564472],[132.91651833,34.27965861],[132.9052075,34.28397916],[132.90702083,34.28965611]],[[132.90592139,34.29259111],[132.90592139,34.29259111]],[[132.91665389,34.29433972],[132.91665389,34.29433972]],[[132.90328139,34.29707777],[132.90328139,34.29707777]],[[132.94559528,34.29852916],[132.94559528,34.29852916]],[[132.8751247,34.29879325],[132.8751247,34.29879325]],[[132.87500113,34.2988257],[132.87500113,34.2988257]],[[132.87509086,34.29882599],[132.87509086,34.29882599]],[[132.87505167,34.29885507],[132.87505167,34.29885507]],[[132.87507887,34.29884363],[132.87507887,34.29884363]],[[132.8752134,34.29886513],[132.8752134,34.29886513]],[[132.87499187,34.29884839],[132.87499187,34.29884839]],[[132.87513613,34.29892715],[132.87513613,34.29892715]],[[132.87498195,34.29925838],[132.87498195,34.29925838]],[[132.87571213,34.30014443],[132.87571213,34.30014443]],[[132.99047528,34.30173305],[132.99047528,34.30173305]],[[132.99874027,34.30490611],[132.99874027,34.30490611]],[[132.98634165,34.30604022],[132.98634165,34.30604022]],[[132.97939156,34.30626531],[132.97822257,34.31097325],[132.97939156,34.30626531]],[[132.99011328,34.30761516],[132.98906895,34.31591032],[132.99891587,34.30782758],[132.99385589,34.30225002],[132.99011328,34.30761516]],[[132.87138645,34.30973215],[132.87138645,34.30973215]],[[132.87698558,34.31243168],[132.87698558,34.31243168]],[[132.87598886,34.31260461],[132.87598886,34.31260461]],[[132.8772404,34.31292732],[132.8772404,34.31292732]],[[132.98809265,34.31559259],[132.98809265,34.31559259]],[[132.98783001,34.31556883],[132.98783001,34.31556883]],[[132.94068997,34.32044214],[132.93615275,34.32430914],[132.94275376,34.32385422],[132.94868869,34.3093529],[132.94068997,34.32044214]],[[133.07862121,34.33309188],[133.08714175,34.31327107],[133.08176379,34.30347321],[133.06913756,34.30258529],[133.06278565,34.31796523],[133.07862121,34.33309188]],[[132.89819917,34.32364333],[132.89819917,34.32364333]],[[132.94329805,34.32416749],[132.94329805,34.32416749]],[[132.9407547,34.3248281],[132.9407547,34.3248281]],[[133.00199632,34.33376156],[133.00199632,34.33376156]],[[132.96115826,34.33407391],[132.96115826,34.33407391]],[[132.99414802,34.33590768],[132.99414802,34.33590768]],[[133.06024597,34.34177649],[133.06024597,34.34177649]],[[133.08054269,34.34790077],[133.08054269,34.34790077]],[[133.08109856,34.34908322],[133.08109856,34.34908322]],[[133.12942964,34.27787289],[133.12942964,34.27787289]],[[133.14114724,34.27955674],[133.14114724,34.27955674]],[[133.12263951,34.27757112],[133.09336983,34.25652614],[133.07588607,34.25832575],[133.06727291,34.26646931],[133.08410519,34.30826385],[133.09332782,34.31404473],[133.10213114,34.30612547],[133.12904458,34.31617512],[133.1426483,34.31259983],[133.15008254,34.2978607],[133.14697289,34.28747078],[133.12263951,34.27757112]],[[133.17299221,34.29230931],[133.17299221,34.29230931]],[[133.11909667,34.31552528],[133.11909667,34.31552528]],[[133.11926639,34.31562056],[133.11926639,34.31562056]],[[133.11974805,34.31608861],[133.11974805,34.31608861]],[[133.19744528,34.33286813],[133.21149791,34.31401139],[133.19355123,34.29900445],[133.21029497,34.29677944],[133.19150646,34.2749364],[133.16865044,34.29608136],[133.15573527,34.29883572],[133.13400454,34.33310304],[133.14170551,34.34041949],[133.13766064,34.34621016],[133.1472025,34.34516196],[133.14690051,34.35717543],[133.15452246,34.35937048],[133.17358353,34.35794547],[133.1782329,34.34188814],[133.19720659,34.33806931],[133.19744528,34.33286813]],[[133.21080489,34.31924503],[133.21080489,34.31924503]],[[133.12140389,34.32033611],[133.12140389,34.32033611]],[[133.12157361,34.32057278],[133.12157361,34.32057278]],[[133.12215027,34.32062889],[133.12215027,34.32062889]],[[133.09945965,34.32936874],[133.09945965,34.32936874]],[[133.25616305,34.33119199],[133.25616305,34.33119199]],[[133.2649311,34.33261115],[133.2649311,34.33261115]],[[133.26535344,34.33253287],[133.26535344,34.33253287]],[[133.26562118,34.33259101],[133.26562118,34.33259101]],[[133.12609456,34.33796995],[133.11257778,34.31747972],[133.09491416,34.32482528],[133.0950175,34.33111528],[133.10354376,34.32651261],[133.09725813,34.34013685],[133.10665725,34.35870183],[133.11717154,34.36004108],[133.12609456,34.33796995]],[[133.13688345,34.34018436],[133.13688345,34.34018436]],[[133.14028305,34.34160261],[133.14028305,34.34160261]],[[133.17792296,34.34309495],[133.17792296,34.34309495]],[[133.18371944,34.34288916],[133.18371944,34.34288916]],[[133.18300741,34.3434359],[133.18300741,34.3434359]],[[133.12347003,34.35369785],[133.12347003,34.35369785]],[[133.14107078,34.35145039],[133.13875936,34.35776874],[133.14107078,34.35145039]],[[133.18579827,34.35732195],[133.18579827,34.35732195]],[[133.14150861,34.35748056],[133.14150861,34.35748056]],[[133.10445725,34.35750327],[133.10445725,34.35750327]],[[133.11968597,34.35807099],[133.11968597,34.35807099]],[[133.1062525,34.35860261],[133.1062525,34.35860261]],[[133.16120165,34.35951446],[133.16120165,34.35951446]],[[133.13692964,34.35985413],[133.13692964,34.35985413]],[[133.16093224,34.35986238],[133.16093224,34.35986238]],[[133.12531555,34.36060167],[133.12531555,34.36060167]],[[133.08510503,34.3597419],[133.08510503,34.3597419]],[[133.12673667,34.36070916],[133.12673667,34.36070916]],[[133.24197889,34.36086028],[133.24197889,34.36086028]],[[133.1626759,34.3613669],[133.1626759,34.3613669]],[[133.10678263,34.36353561],[133.10678263,34.36353561]],[[133.09991285,34.35993101],[133.10886021,34.36688966],[133.09991285,34.35993101]],[[133.13399064,34.36511768],[133.13399064,34.36511768]],[[133.13284468,34.36176604],[133.14649406,34.37062332],[133.14495481,34.36322908],[133.13284468,34.36176604]],[[133.11867352,34.36670536],[133.11867352,34.36670536]],[[133.21936765,34.36843044],[133.21936765,34.36843044]],[[133.13936528,34.37073249],[133.13936528,34.37073249]],[[133.1399266,34.3711804],[133.1399266,34.3711804]],[[133.14001125,34.37125103],[133.14001125,34.37125103]],[[133.14018414,34.37145935],[133.14018414,34.37145935]],[[133.22865973,34.371905],[133.22865973,34.371905]],[[133.22758778,34.37210611],[133.22758778,34.37210611]],[[133.22355136,34.37227332],[133.22355136,34.37227332]],[[133.17118969,34.37241803],[133.17118969,34.37241803]],[[133.13868071,34.3729277],[133.13868071,34.3729277]],[[133.22262689,34.37496789],[133.22262689,34.37496789]],[[133.24059171,34.37186524],[133.24171938,34.37971821],[133.24649438,34.37488943],[133.24059171,34.37186524]],[[133.15629747,34.374355],[133.15329777,34.38596387],[133.1682269,34.3897015],[133.17263734,34.37407273],[133.15629747,34.374355]],[[133.17437232,34.36643965],[133.17215027,34.39279349],[133.21316337,34.40916372],[133.23778717,34.404978],[133.23687544,34.39139083],[133.2304435,34.39421635],[133.21873457,34.38033178],[133.21206715,34.35619043],[133.20785803,34.36160186],[133.18388616,34.35850956],[133.17437232,34.36643965]],[[133.14876721,34.38405141],[133.14876721,34.38405141]],[[133.11210278,34.38413536],[133.11210278,34.38413536]],[[133.14663296,34.38642995],[133.14663296,34.38642995]],[[133.16531996,34.39535702],[133.16531996,34.39535702]],[[133.24800829,34.39966639],[133.24800829,34.39966639]],[[133.24366191,34.40028187],[133.24366191,34.40028187]],[[133.25018551,34.40147059],[133.25018551,34.40147059]],[[133.23782473,34.40148182],[133.23782473,34.40148182]],[[133.20771373,34.40984227],[133.20771373,34.40984227]],[[133.20858388,34.40976049],[133.20858388,34.40976049]],[[133.2091952,34.40998182],[133.2091952,34.40998182]],[[133.20991986,34.41016722],[133.20991986,34.41016722]],[[133.21093091,34.41043013],[133.21093091,34.41043013]],[[133.21139047,34.41048173],[133.21139047,34.41048173]],[[133.21324365,34.41074463],[133.21324365,34.41074463]],[[133.2135941,34.4107868],[133.2135941,34.4107868]],[[133.25365313,34.41816465],[133.25365313,34.41816465]],[[133.25577558,34.41852479],[133.25577558,34.41852479]],[[133.25956665,34.42887946],[133.26406909,34.43034298],[133.25738313,34.41765224],[133.26403636,34.43032905],[133.25956665,34.42887946]],[[133.29798852,34.34361508],[133.29798852,34.34361508]],[[133.26407802,34.33311945],[133.26365783,34.34755992],[133.28791612,34.35777438],[133.28583635,34.33841799],[133.26407802,34.33311945]],[[133.31068231,34.34642544],[133.31068231,34.34642544]],[[133.31071689,34.34674828],[133.31071689,34.34674828]],[[133.28786136,34.34674608],[133.28786136,34.34674608]],[[133.29140253,34.34994021],[133.29140253,34.34994021]],[[133.32155951,34.35259722],[133.32155951,34.35259722]],[[133.32554437,34.35419668],[133.32554437,34.35419668]],[[133.33256554,34.35462778],[133.33256554,34.35462778]],[[133.33304027,34.35488291],[133.33304027,34.35488291]],[[133.33318979,34.35493612],[133.33318979,34.35493612]],[[133.33448829,34.3549575],[133.33448829,34.3549575]],[[133.3343437,34.3549984],[133.3343437,34.3549984]],[[133.33479617,34.35503832],[133.33479617,34.35503832]],[[133.33494576,34.35507306],[133.33494576,34.35507306]],[[133.33506909,34.35507441],[133.33506909,34.35507441]],[[133.33787498,34.35638151],[133.33787498,34.35638151]],[[133.33785451,34.35642386],[133.33785451,34.35642386]],[[133.29127432,34.35868409],[133.31492346,34.37235008],[133.32515434,34.3599364],[133.33200309,34.37043197],[133.34260694,34.37055704],[133.33799945,34.3564723],[133.30238901,34.34240043],[133.29144217,34.35036642],[133.29127432,34.35868409]],[[133.28495728,34.35782047],[133.28495728,34.35782047]],[[133.33900738,34.35857967],[133.33900738,34.35857967]],[[133.34121136,34.3628197],[133.34121136,34.3628197]],[[133.3605759,34.36807225],[133.3605759,34.36807225]],[[133.36065263,34.36808202],[133.36065263,34.36808202]],[[133.36071453,34.36824544],[133.36071453,34.36824544]],[[133.3670979,34.36881214],[133.3670979,34.36881214]],[[133.36723418,34.36883134],[133.36723418,34.36883134]],[[133.36610817,34.36887851],[133.36610817,34.36887851]],[[133.36567493,34.36890364],[133.36567493,34.36890364]],[[133.36668332,34.36896359],[133.36668332,34.36896359]],[[133.37471271,34.36865914],[133.37471271,34.36865914]],[[133.36784912,34.3696349],[133.36784912,34.3696349]],[[133.36786476,34.36968723],[133.36786476,34.36968723]],[[133.36811409,34.36986175],[133.36811409,34.36986175]],[[133.33652805,34.37026434],[133.33652805,34.37026434]],[[133.33322926,34.3709409],[133.33322926,34.3709409]],[[133.33364794,34.37124928],[133.33364794,34.37124928]],[[133.36919455,34.37168358],[133.36919455,34.37168358]],[[133.25767377,34.37518378],[133.26062507,34.38441517],[133.27944982,34.38015846],[133.27011064,34.36070058],[133.25897087,34.36583521],[133.25767377,34.37518378]],[[133.3733462,34.37486024],[133.3733462,34.37486024]],[[133.38146261,34.37507507],[133.38146261,34.37507507]],[[133.38162726,34.37514575],[133.38162726,34.37514575]],[[133.38165707,34.37515013],[133.38165707,34.37515013]],[[133.38163148,34.37525439],[133.38163148,34.37525439]],[[133.38049236,34.37527268],[133.38049236,34.37527268]],[[133.37977091,34.37533503],[133.37977091,34.37533503]],[[133.37961372,34.37535256],[133.37961372,34.37535256]],[[133.37954006,34.37535716],[133.37954006,34.37535716]],[[133.38050569,34.37539608],[133.38050569,34.37539608]],[[133.38054968,34.37540932],[133.38054968,34.37540932]],[[133.3797973,34.37540852],[133.3797973,34.37540852]],[[133.38000237,34.37549357],[133.38000237,34.37549357]],[[133.37814013,34.37637531],[133.37814013,34.37637531]],[[133.34341917,34.37735143],[133.34341917,34.37735143]],[[133.38074787,34.37834277],[133.38074787,34.37834277]],[[133.39060374,34.37978814],[133.39060374,34.37978814]],[[133.39066764,34.3816269],[133.39066764,34.3816269]],[[133.38645045,34.38280943],[133.38645045,34.38280943]],[[133.3860483,34.38323002],[133.3860483,34.38323002]],[[133.3864503,34.38344447],[133.3864503,34.38344447]],[[133.38608763,34.38362478],[133.38608763,34.38362478]],[[133.28792824,34.38598452],[133.28792824,34.38598452]],[[133.38525353,34.3849356],[133.38525353,34.3849356]],[[133.3851863,34.38626436],[133.3851863,34.38626436]],[[133.38496783,34.38683956],[133.38496783,34.38683956]],[[133.38495499,34.3868915],[133.38495499,34.3868915]],[[133.38494357,34.38829753],[133.38494357,34.38829753]],[[133.38481454,34.38831477],[133.38481454,34.38831477]],[[133.38471335,34.38837623],[133.38471335,34.38837623]],[[133.38450794,34.38835361],[133.38450794,34.38835361]],[[133.3844968,34.38841809],[133.3844968,34.38841809]],[[133.28243239,34.39136419],[133.28243239,34.39136419]],[[133.27693245,34.39374993],[133.27693245,34.39374993]],[[133.2687476,34.40537487],[133.2687476,34.40537487]],[[133.38333333,34.40579956],[133.38333333,34.40579956]],[[133.27124787,34.4077056],[133.27124787,34.4077056]],[[133.2712872,34.4228814],[133.2712872,34.4228814]],[[133.46120126,34.30960486],[133.46120126,34.30960486]],[[133.46103071,34.30968627],[133.46103071,34.30968627]],[[133.46105931,34.30976934],[133.46105931,34.30976934]],[[133.46161733,34.30976295],[133.46161733,34.30976295]],[[133.46094331,34.30979411],[133.46094331,34.30979411]],[[133.46108946,34.30981131],[133.46108946,34.30981131]],[[133.46869057,34.31032022],[133.46869057,34.31032022]],[[133.46832903,34.31040239],[133.46832903,34.31040239]],[[133.46084001,34.31046895],[133.46084001,34.31046895]],[[133.46796198,34.31130856],[133.46796198,34.31130856]],[[133.46773405,34.31162516],[133.46773405,34.31162516]],[[133.45987261,34.31263056],[133.45987261,34.31263056]],[[133.45978051,34.31265127],[133.45978051,34.31265127]],[[133.4593897,34.31302461],[133.4593897,34.31302461]],[[133.45825009,34.31437213],[133.46752995,34.3166789],[133.47028756,34.31064998],[133.45825009,34.31437213]],[[133.45802291,34.31436135],[133.45802291,34.31436135]],[[133.47007776,34.31552924],[133.47007776,34.31552924]],[[133.46996294,34.31572196],[133.46996294,34.31572196]],[[133.4592638,34.31606468],[133.4592638,34.31606468]],[[133.45888319,34.31616238],[133.45888319,34.31616238]],[[133.45893843,34.31623968],[133.45893843,34.31623968]],[[133.46610748,34.31656373],[133.46610748,34.31656373]],[[133.46754856,34.31657088],[133.46754856,34.31657088]],[[133.46580346,34.31662245],[133.46580346,34.31662245]],[[133.44546119,34.33587972],[133.44546119,34.33587972]],[[133.44660825,34.33654967],[133.44660825,34.33654967]],[[133.44273442,34.33692698],[133.44273442,34.33692698]],[[133.44812856,34.33737051],[133.44812856,34.33737051]],[[133.44838455,34.3375523],[133.44838455,34.3375523]],[[133.44102013,34.33758887],[133.44102013,34.33758887]],[[133.43860053,34.33744112],[133.43860053,34.33744112]],[[133.44020171,34.33786776],[133.44020171,34.33786776]],[[133.45360733,34.33802572],[133.45360733,34.33802572]],[[133.4534624,34.33804629],[133.4534624,34.33804629]],[[133.45456075,34.33802814],[133.45456075,34.33802814]],[[133.45468319,34.33815555],[133.45468319,34.33815555]],[[133.4345009,34.33837072],[133.4345009,34.33837072]],[[133.43295913,34.3385622],[133.43295913,34.3385622]],[[133.44836409,34.33873467],[133.44836409,34.33873467]],[[133.43145411,34.33916385],[133.43145411,34.33916385]],[[133.44694607,34.34260563],[133.44694607,34.34260563]],[[133.4287042,34.34292364],[133.4287042,34.34292364]],[[133.42863052,34.34293797],[133.42863052,34.34293797]],[[133.43335057,34.33859713],[133.42736445,34.35017037],[133.44031283,34.35027531],[133.45455996,34.33771934],[133.43335057,34.33859713]],[[133.42758721,34.34467404],[133.42758721,34.34467404]],[[133.44447332,34.34619094],[133.44447332,34.34619094]],[[133.43331267,34.35003046],[133.43331267,34.35003046]],[[133.42751407,34.35184941],[133.42751407,34.35184941]],[[133.42666783,34.35240036],[133.42666783,34.35240036]],[[133.46733805,34.35504191],[133.46733805,34.35504191]],[[133.46649483,34.35733874],[133.46649483,34.35733874]],[[133.42612973,34.36558139],[133.42612973,34.36558139]],[[133.39859824,34.37716885],[133.39859824,34.37716885]],[[133.39855097,34.37725325],[133.39855097,34.37725325]],[[133.39871601,34.3775424],[133.39871601,34.3775424]],[[133.39823455,34.37764858],[133.39823455,34.37764858]],[[133.39775122,34.37785038],[133.39775122,34.37785038]],[[133.40588144,34.3784449],[133.40588144,34.3784449]],[[133.40598096,34.3785497],[133.40598096,34.3785497]],[[133.40621065,34.37925079],[133.40621065,34.37925079]],[[133.39548388,34.37904291],[133.39548388,34.37904291]],[[133.40623124,34.37909373],[133.40623124,34.37909373]],[[133.39516586,34.37949614],[133.39516586,34.37949614]],[[133.40631405,34.37958023],[133.40631405,34.37958023]],[[133.39069182,34.37967664],[133.39069182,34.37967664]],[[133.4064714,34.37974737],[133.4064714,34.37974737]],[[133.40668339,34.37980769],[133.40668339,34.37980769]],[[133.39068001,34.37983711],[133.39068001,34.37983711]],[[133.39470034,34.38029225],[133.39470034,34.38029225]],[[133.40225471,34.38065073],[133.40225471,34.38065073]],[[133.39167533,34.38312723],[133.39920354,34.38856768],[133.40401859,34.38283204],[133.39866022,34.37764173],[133.39167533,34.38312723]],[[133.39916992,34.38626011],[133.39916992,34.38626011]],[[133.39916833,34.38639906],[133.39916833,34.38639906]],[[133.39895613,34.38858248],[133.39895613,34.38858248]],[[133.39929525,34.3886379],[133.39929525,34.3886379]],[[133.39917599,34.38870282],[133.39917599,34.38870282]]]}}]}