{"type":"FeatureCollection","name":"滋賀県","features":[{"type":"Feature","properties":{"name":"滋賀県"},"geometry":{"type":"LineString","coordinates":[[136.41838555,35.01790139],[136.41580083,34.98052916],[136.39511278,34.95163556],[136.38567083,34.95264861],[136.37268973,34.94225749],[136.37523973,34.92450944],[136.36781222,34.92190083],[136.36603416,34.90489889],[136.31322611,34.88697223],[136.31291778,34.88062749],[136.29293167,34.87030944],[136.27711528,34.87421361],[136.25067501,34.85772805],[136.19807445,34.86986222],[136.1787425,34.87981556],[136.17854611,34.88711749],[136.14793333,34.88186556],[136.13681917,34.88838861],[136.13121584,34.883105],[136.11084778,34.90185583],[136.09804027,34.88925556],[136.08747501,34.89062195],[136.08562083,34.87724639],[136.10316667,34.86969389],[136.12398834,34.87248695],[136.12641056,34.86185195],[136.10707445,34.85256389],[136.1044725,34.84058139],[136.0860525,34.83759777],[136.09518694,34.81910416],[136.0905,34.81208583],[136.02810973,34.79058916],[136.01133111,34.79580556],[136.02785778,34.82166472],[136.01627333,34.82891139],[136.0055,34.82640777],[136.00399333,34.84434139],[135.96986667,34.83777861],[135.97205445,34.84604889],[135.96139917,34.85465972],[135.94635056,34.85163083],[135.94100694,34.89368333],[135.89789139,34.87126749],[135.86663722,34.89214028],[135.86293361,34.90338723],[135.87117834,34.90994861],[135.87874778,34.94704528],[135.85243778,34.97078889],[135.85669528,34.98245749],[135.84926722,34.99173389],[135.82690472,34.99120389],[135.83655888,35.00122639],[135.82023917,35.01519444],[135.83546416,35.01232861],[135.83451778,35.02208056],[135.82737445,35.02213278],[135.8147575,35.04519972],[135.8348525,35.05555389],[135.83189195,35.07145556],[135.83985027,35.08586],[135.83504611,35.09132695],[135.85676306,35.153615],[135.84531333,35.16554444],[135.82930805,35.22034639],[135.83805639,35.226105],[135.83452611,35.24111917],[135.86075528,35.28296],[135.85708445,35.28904056],[135.84008167,35.27555417],[135.82962333,35.27673528],[135.80929,35.31643278],[135.79113639,35.32352751],[135.78081852,35.34056197],[135.76407275,35.34455753],[135.76994394,35.35981114],[135.79088606,35.37902503],[135.79089358,35.38663892],[135.8075292,35.38536172],[135.81365776,35.41330086],[135.85320255,35.41153697],[135.85433895,35.40077836],[135.86469109,35.39440003],[135.89057008,35.403175],[135.8929815,35.4198475],[135.91416224,35.43210611],[135.90978231,35.44704556],[135.91594345,35.47090469],[135.93964708,35.52054275],[135.94702236,35.52047553],[135.95237008,35.50622136],[135.97260058,35.50018969],[135.9811591,35.48655667],[135.98950689,35.49268195],[136.00434297,35.49097111],[136.02884217,35.52342808],[136.02653248,35.52949669],[136.04861744,35.53451256],[136.06943652,35.52626672],[136.08290708,35.54057759],[136.1064545,35.52898869],[136.10543569,35.55555011],[136.11383828,35.58289844],[136.16983008,35.56594336],[136.16638433,35.58248059],[136.17680776,35.59844803],[136.15986597,35.62522775],[136.15016258,35.65938103],[136.13447489,35.66944631],[136.15094584,35.69819069],[136.19109224,35.70246395],[136.21260834,35.68170111],[136.234232,35.68251741],[136.26935988,35.66872784],[136.28057686,35.66119392],[136.27916419,35.63668564],[136.28855942,35.62058817],[136.31576481,35.62342451],[136.32371148,35.61644423],[136.31498167,35.60592953],[136.32444939,35.58418008],[136.31750339,35.54739736],[136.33732014,35.55025453],[136.34597681,35.53612811],[136.35666214,35.53991447],[136.36264027,35.55874639],[136.37280058,35.55972333],[136.38425278,35.53309133],[136.4004045,35.53008184],[136.40567781,35.51345541],[136.39409494,35.50632325],[136.38671872,35.48880972],[136.40161947,35.470017],[136.42053861,35.465962],[136.4262227,35.44840097],[136.41180808,35.41859805],[136.44435183,35.38942511],[136.436484,35.37882292],[136.411974,35.37006487],[136.41055949,35.3525435],[136.42142311,35.35391684],[136.42232506,35.34838961],[136.40684778,35.30526439],[136.39103163,35.28996939],[136.39696219,35.25773133],[136.37726664,35.24326747],[136.41568966,35.21718969],[136.41800248,35.20377775],[136.40865333,35.18718277],[136.4247025,35.18438056],[136.45460778,35.16206389],[136.45499834,35.15241472],[136.44429917,35.14924444],[136.43558472,35.13077805],[136.44805472,35.12371889],[136.43996584,35.11663222],[136.44210889,35.08597389],[136.43526667,35.08248723],[136.44155639,35.06630417],[136.41776888,35.04946805],[136.41793861,35.03065917],[136.42446889,35.02949361],[136.41838555,35.01790139]]}}]}