{"type":"FeatureCollection","name":"福島県","features":[{"type":"Feature","properties":{"name":"福島県"},"geometry":{"type":"MultiLineString","coordinates":[[[140.52859311,36.841675],[140.51379717,36.82337317],[140.48800039,36.81836297],[140.48932339,36.80957661],[140.47862036,36.79694167],[140.46497436,36.79131536],[140.43850102,36.82154184],[140.4309698,36.81703939],[140.41509866,36.83202641],[140.37720608,36.83792469],[140.36521183,36.88432495],[140.32652603,36.89130217],[140.32166501,36.90802195],[140.29270392,36.93319744],[140.27297489,36.9301548],[140.24084125,36.94566459],[140.25308983,36.96296789],[140.24367019,36.97399928],[140.2502465,36.98865869],[140.24021322,37.00027508],[140.24489531,37.01024061],[140.2520462,37.01022614],[140.24922883,37.02575114],[140.21998386,37.01848764],[140.20308047,37.02396239],[140.19306214,37.06550351],[140.172782,37.07027608],[140.14008519,37.10466225],[140.12826005,37.10405784],[140.10043681,37.123429],[140.05947322,37.12547467],[140.03865636,37.13943278],[139.990308,37.14274839],[139.95388678,37.15506239],[139.91617636,37.14761156],[139.89464419,37.15325872],[139.83177314,37.13364095],[139.81505186,37.11661569],[139.822093,37.08513687],[139.774911,37.09189428],[139.75181689,37.07022786],[139.71924811,37.07094978],[139.70043988,37.05932731],[139.67327442,37.05774897],[139.66465092,37.03984069],[139.62555706,37.0332238],[139.61668633,37.01517553],[139.58205202,37.01508197],[139.57642333,37.00207839],[139.54787903,36.99363764],[139.53526036,36.98058439],[139.49416492,36.9679062],[139.48420737,36.97547169],[139.46116525,36.97072059],[139.4570827,36.95421425],[139.43444856,36.94185364],[139.43035012,36.92593197],[139.40800326,36.92656941],[139.3932892,36.91079551],[139.37297519,36.91840741],[139.34939975,36.91304017],[139.34238672,36.9275332],[139.30445455,36.92582428],[139.29439983,36.93466425],[139.28171058,36.93114731],[139.26613501,36.94115364],[139.24084737,36.92932114],[139.22995209,36.94004861],[139.24162019,36.9415492],[139.2498975,36.95581389],[139.24771562,36.97098747],[139.25269314,36.9735472],[139.24717623,36.98048553],[139.25566545,36.98874859],[139.24336664,37.01513464],[139.26033017,37.04759708],[139.24699717,37.07086759],[139.24891278,37.08111561],[139.23878778,37.08991141],[139.23514759,37.11236556],[139.25384569,37.16497184],[139.2432162,37.17037961],[139.24443012,37.18159903],[139.2207509,37.20912897],[139.20838525,37.19577259],[139.1965838,37.19402841],[139.19439911,37.20466533],[139.16483689,37.2363778],[139.17474839,37.25643478],[139.21232109,37.28623925],[139.22428591,37.31998508],[139.21786791,37.33415039],[139.23362183,37.3436065],[139.23805747,37.37263031],[139.23150151,37.3878775],[139.21213399,37.39209444],[139.19724633,37.41076664],[139.20843306,37.41679053],[139.20753175,37.42890884],[139.22358611,37.44917103],[139.23552141,37.44481933],[139.25145044,37.45252069],[139.25855798,37.44701011],[139.28396708,37.44990978],[139.3047998,37.45883911],[139.34582961,37.4602712],[139.36255031,37.46996803],[139.3975127,37.45983917],[139.40632969,37.46604605],[139.41124558,37.50516251],[139.42921228,37.5146608],[139.45719876,37.51786756],[139.47611516,37.50255436],[139.48579411,37.51027687],[139.51366477,37.50858003],[139.52343737,37.51453951],[139.56474949,37.50167378],[139.58510577,37.51289705],[139.59054728,37.52803259],[139.57870776,37.530017],[139.56573722,37.54611003],[139.57238403,37.57034803],[139.56498667,37.59738389],[139.54853969,37.60963611],[139.55220034,37.61857447],[139.54603953,37.62889087],[139.55530375,37.64108059],[139.54929261,37.6490378],[139.59641997,37.66586444],[139.60941167,37.68427111],[139.62720339,37.68828444],[139.624092,37.71024947],[139.64961261,37.729062],[139.65788767,37.75500747],[139.72162124,37.80942284],[139.74150538,37.81771277],[139.71464956,37.85292161],[139.6808292,37.84695086],[139.70616811,37.85592831],[139.71588652,37.85401244],[139.72085647,37.83968664],[139.74130678,37.82029277],[139.78295447,37.8319688],[139.80975822,37.80326131],[139.85771717,37.82653872],[139.88661964,37.80915705],[139.92482674,37.81351397],[139.92795825,37.82752336],[139.93703195,37.82829587],[139.95791903,37.81486139],[139.96014589,37.79564753],[139.98649872,37.76040813],[140.01950261,37.76202339],[140.05142655,37.77933295],[140.06912272,37.75784417],[140.08673014,37.75804386],[140.10211769,37.73771264],[140.12609214,37.73387569],[140.14069292,37.73807869],[140.14600975,37.75272022],[140.16641425,37.75729097],[140.23725486,37.74646847],[140.26603442,37.77906525],[140.27628798,37.781768],[140.28221131,37.79822905],[140.29851014,37.80725653],[140.26211597,37.83441631],[140.26996244,37.8665455],[140.26476581,37.88595577],[140.27072008,37.89073744],[140.26452983,37.91193692],[140.28100436,37.94134777],[140.27129713,37.966818],[140.28000258,37.97664441],[140.3485909,37.95015728],[140.35887442,37.95897033],[140.38449086,37.95221689],[140.38840717,37.96911577],[140.40745163,37.97367311],[140.40912134,37.96381395],[140.4291272,37.95441439],[140.44465056,37.95698317],[140.44819533,37.95095622],[140.47487983,37.94678222],[140.46742988,37.9381692],[140.46953097,37.91786867],[140.48885772,37.89947077],[140.55894569,37.90993844],[140.56637925,37.92279089],[140.59130575,37.90617325],[140.61239458,37.91528197],[140.62734228,37.89907328],[140.66260278,37.90022047],[140.69008053,37.88821303],[140.68187025,37.87592377],[140.69200689,37.85086311],[140.67923397,37.83633777],[140.69437333,37.80326497],[140.7122398,37.80029492],[140.72696983,37.78147917],[140.74515005,37.78846286],[140.79208703,37.77327292],[140.80323516,37.7798428],[140.76443811,37.79689628],[140.77505403,37.80635753],[140.81038635,37.79552325],[140.85171681,37.79530805],[140.85791039,37.80285384],[140.85053883,37.849232],[140.86146594,37.86197325],[140.85457953,37.87451823],[140.86112309,37.87940123],[140.85625141,37.89090005],[140.90022139,37.90432967],[140.90111966,37.89763777],[140.92020986,37.89199739],[140.93101396,37.89617134],[140.94643121,37.85321795],[140.96778634,37.85941518],[140.9493762,37.8552431],[140.95877467,37.84504578],[140.9539285,37.84064376],[140.96238282,37.84162627],[140.95511838,37.83855878],[140.95948232,37.83137407],[140.96740685,37.84454822],[140.96306462,37.83138508],[140.98104748,37.82554751],[140.97654132,37.8372719],[140.98722957,37.82281545],[140.98916721,37.7715592],[141.0111865,37.73986781],[141.01488847,37.67383652],[141.03213003,37.67332784],[141.04101602,37.66501187],[141.03205973,37.67318368],[141.019068,37.6717576],[141.02225156,37.66428275],[141.03307355,37.66694936],[141.0187459,37.65726615],[141.03045167,37.52879884],[141.03950496,37.48462662],[141.04515879,37.48359409],[141.04098328,37.47912856],[141.04586074,37.47972609],[141.03899132,37.47674932],[141.03570313,37.46031589],[141.0354552,37.42012947],[141.04286268,37.42331743],[141.03382025,37.41641845],[141.03909271,37.36392191],[141.02525444,37.32495157],[141.03606782,37.31910844],[141.02775039,37.32224364],[141.02807822,37.31361004],[141.03859069,37.3189486],[141.02273987,37.30950231],[141.01300966,37.25415763],[141.01318599,37.24065666],[141.02310538,37.23486588],[141.01636323,37.23012461],[141.02868332,37.23789169],[141.02237664,37.2291233],[141.01293536,37.22922358],[141.00250276,37.20040397],[141.00059891,37.10889572],[140.98272004,37.08927838],[140.97386348,37.05512253],[140.97356074,37.01646678],[140.98198869,37.00969603],[140.9830578,36.99542921],[140.97148745,36.98982643],[140.96691376,36.97026656],[140.95879466,36.96976789],[140.95106444,36.95507365],[140.93422414,36.95029046],[140.92456266,36.93520036],[140.90868494,36.93420183],[140.91619691,36.94069311],[140.90312546,36.94469458],[140.88498137,36.93842801],[140.88828039,36.93443479],[140.87905808,36.93306456],[140.88049064,36.92770727],[140.87342625,36.93164262],[140.86907261,36.92633456],[140.87396616,36.92379094],[140.86163111,36.92174272],[140.86492319,36.91625155],[140.85334052,36.92006604],[140.84145345,36.90879823],[140.82736336,36.91285521],[140.81276673,36.90563644],[140.79126947,36.87827722],[140.78972986,36.85648417],[140.77206861,36.86859895],[140.76538148,36.86207459],[140.76010628,36.8723648],[140.75838144,36.86729875],[140.74084606,36.87555605],[140.71427056,36.87278384],[140.69508375,36.88877125],[140.65495936,36.90104169],[140.63621411,36.89757195],[140.61551944,36.90327031],[140.59267,36.92674336],[140.59386064,36.93885905],[140.58621747,36.945299],[140.57583111,36.94266105],[140.56739842,36.93658428],[140.56495803,36.91285661],[140.58077358,36.90440772],[140.57985523,36.89363372],[140.59224625,36.87345297],[140.53803589,36.85885628],[140.52859311,36.841675]],[[140.79347346,36.86222514],[140.79347346,36.86222514]],[[140.79273432,36.87738615],[140.79273432,36.87738615]],[[140.83856547,36.90946984],[140.83856547,36.90946984]],[[140.90640104,36.91633413],[140.88327603,36.90802285],[140.90640104,36.91633413]],[[140.85046287,36.91356078],[140.85046287,36.91356078]],[[140.87257737,36.91760996],[140.86482192,36.91271365],[140.87257737,36.91760996]],[[140.86055733,36.9160532],[140.86055733,36.9160532]],[[140.8735524,36.91805117],[140.88471237,36.92077364],[140.8735524,36.91805117]],[[140.91159947,36.92119623],[140.91159947,36.92119623]],[[140.89018165,36.92666875],[140.90959497,36.93874863],[140.89984625,36.93656472],[140.9027848,36.93157447],[140.89256234,36.92876278],[140.88857179,36.91718458],[140.89018165,36.92666875]],[[140.91955241,36.93384227],[140.91955241,36.93384227]],[[140.91864307,36.93394967],[140.91864307,36.93394967]],[[140.91829562,36.93410978],[140.91829562,36.93410978]],[[140.91946214,36.93402429],[140.91946214,36.93402429]],[[140.91803993,36.93429491],[140.91803993,36.93429491]],[[140.91833743,36.93442442],[140.91833743,36.93442442]],[[140.90633853,36.93450599],[140.90633853,36.93450599]],[[140.9256763,36.9359308],[140.9256763,36.9359308]],[[140.92594755,36.93648648],[140.92594755,36.93648648]],[[140.88778589,36.93839891],[140.88778589,36.93839891]],[[140.94990316,36.95326698],[140.94990316,36.95326698]],[[140.95116809,36.95981195],[140.95116809,36.95981195]],[[140.94536645,37.85745208],[140.94536645,37.85745208]],[[140.94579547,37.8576667],[140.94579547,37.8576667]],[[140.94584071,37.85770538],[140.94584071,37.85770538]],[[140.9407103,37.87513058],[140.9407103,37.87513058]],[[140.93838612,37.87608738],[140.93838612,37.87608738]],[[140.93312044,37.88154511],[140.93312044,37.88154511]],[[140.95308188,36.95276063],[140.95308188,36.95276063]],[[140.95622698,36.95381571],[140.95622698,36.95381571]],[[140.95490009,36.95558879],[140.95490009,36.95558879]],[[140.95313924,36.95804706],[140.95313924,36.95804706]],[[140.9532996,36.96061158],[140.9532996,36.96061158]],[[140.95186859,36.96056082],[140.95186859,36.96056082]],[[140.95176676,36.96056914],[140.95176676,36.96056914]],[[140.95110374,36.96111936],[140.95110374,36.96111936]],[[140.96877508,36.96109413],[140.96877508,36.96109413]],[[140.96394455,36.96446068],[140.96394455,36.96446068]],[[140.96803031,36.96596644],[140.96803031,36.96596644]],[[140.9659827,36.96694861],[140.9659827,36.96694861]],[[140.96028387,36.96726476],[140.96028387,36.96726476]],[[140.96108336,36.96732691],[140.96108336,36.96732691]],[[140.96592747,36.96868881],[140.96592747,36.96868881]],[[140.96218888,36.96882633],[140.96218888,36.96882633]],[[140.96600751,36.96902012],[140.96600751,36.96902012]],[[140.96239263,36.96907194],[140.96239263,36.96907194]],[[140.96634652,36.96931344],[140.96634652,36.96931344]],[[140.96712227,36.96995331],[140.96712227,36.96995331]],[[140.96775466,36.97063348],[140.96775466,36.97063348]],[[140.97097678,36.97157974],[140.97097678,36.97157974]],[[140.97067646,36.97179772],[140.97067646,36.97179772]],[[140.97190627,36.97263623],[140.97190627,36.97263623]],[[140.96880969,36.97270653],[140.96880969,36.97270653]],[[140.96985632,36.97299443],[140.96985632,36.97299443]],[[140.96997344,36.973038],[140.96997344,36.973038]],[[140.96985929,36.97314093],[140.96985929,36.97314093]],[[140.96993883,36.9731881],[140.96993883,36.9731881]],[[140.97133952,36.9739994],[140.97133952,36.9739994]],[[140.96983003,36.97408847],[140.96983003,36.97408847]],[[140.96958835,36.97409042],[140.96958835,36.97409042]],[[140.969968,36.97428143],[140.969968,36.97428143]],[[140.97023913,36.97439517],[140.97023913,36.97439517]],[[140.98125571,36.99390528],[140.98125571,36.99390528]],[[140.98143563,36.99432059],[140.98143563,36.99432059]],[[140.98148065,37.00964075],[140.98148065,37.00964075]],[[140.98215471,37.01003705],[140.98215471,37.01003705]],[[140.98182629,37.009694],[140.98182629,37.009694]],[[140.98180731,37.01144983],[140.98180731,37.01144983]],[[140.97103524,37.8327267],[140.97103524,37.8327267]],[[140.96337873,37.83335941],[140.96337873,37.83335941]],[[140.97248663,37.84659923],[140.97631125,37.86753936],[140.97248663,37.84659923]],[[140.98355623,36.99165273],[140.98355623,36.99165273]],[[140.98227876,37.00963677],[140.98227876,37.00963677]],[[140.98251761,37.00997112],[140.98251761,37.00997112]],[[140.98247328,37.01005866],[140.98247328,37.01005866]],[[141.0007454,37.10044362],[141.0007454,37.10044362]],[[140.99857511,37.10229575],[140.99857511,37.10229575]],[[141.00101803,37.10810538],[141.00101803,37.10810538]],[[141.00081905,37.10882677],[141.00081905,37.10882677]],[[141.00170521,37.10923148],[141.00170521,37.10923148]],[[141.00104834,37.10927291],[141.00104834,37.10927291]],[[141.00121442,37.10959667],[141.00121442,37.10959667]],[[141.00098376,37.11055546],[141.00098376,37.11055546]],[[141.00117344,37.11130169],[141.00117344,37.11130169]],[[141.00097176,37.11152588],[141.00097176,37.11152588]],[[141.00083808,37.11199307],[141.00083808,37.11199307]],[[141.00109367,37.11210751],[141.00109367,37.11210751]],[[141.00113379,37.11226589],[141.00113379,37.11226589]],[[141.00105978,37.11260454],[141.00105978,37.11260454]],[[140.99963109,37.11391222],[140.99963109,37.11391222]],[[141.00003716,37.11445457],[141.00003716,37.11445457]],[[140.99987598,37.1154489],[140.99987598,37.1154489]],[[141.00125826,37.11558605],[141.00125826,37.11558605]],[[141.00129131,37.11578171],[141.00129131,37.11578171]],[[141.00099449,37.11575995],[141.00099449,37.11575995]],[[141.00124023,37.11625809],[141.00124023,37.11625809]],[[141.00141935,37.11637428],[141.00141935,37.11637428]],[[141.00142221,37.11646481],[141.00142221,37.11646481]],[[141.00137665,37.11683282],[141.00137665,37.11683282]],[[141.00142591,37.11703625],[141.00142591,37.11703625]],[[141.00139319,37.11706659],[141.00139319,37.11706659]],[[141.0005841,37.11794997],[141.0005841,37.11794997]],[[141.00067589,37.11800665],[141.00067589,37.11800665]],[[141.00120281,37.11847409],[141.00120281,37.11847409]],[[141.00053315,37.11860404],[141.00053315,37.11860404]],[[141.00027508,37.11913544],[141.00027508,37.11913544]],[[141.00020105,37.11918781],[141.00020105,37.11918781]],[[141.00021486,37.11929535],[141.00021486,37.11929535]],[[141.0006235,37.11932855],[141.0006235,37.11932855]],[[140.99904795,37.12209007],[140.99904795,37.12209007]],[[141.00202336,37.1664136],[141.00202336,37.1664136]],[[141.0015138,37.16805457],[141.0015138,37.16805457]],[[141.00191942,37.16805021],[141.00191942,37.16805021]],[[141.00130709,37.16846615],[141.00130709,37.16846615]],[[141.00060403,37.16840748],[141.00060403,37.16840748]],[[141.00129093,37.16893065],[141.00129093,37.16893065]],[[141.00145195,37.18915736],[141.00145195,37.18915736]],[[141.00293477,37.10915348],[141.00293477,37.10915348]],[[141.00618633,37.14090502],[141.00618633,37.14090502]],[[141.00620787,37.14124299],[141.00620787,37.14124299]],[[141.00617315,37.14142193],[141.00617315,37.14142193]],[[141.00610763,37.14157414],[141.00610763,37.14157414]],[[141.00604722,37.14218938],[141.00604722,37.14218938]],[[141.00577154,37.14270582],[141.00577154,37.14270582]],[[141.0057582,37.14335015],[141.0057582,37.14335015]],[[141.00667549,37.14641211],[141.00667549,37.14641211]],[[141.00452571,37.14641995],[141.00452571,37.14641995]],[[141.00833333,37.14751421],[141.00833333,37.14751421]],[[141.00571185,37.15076773],[141.00571185,37.15076773]],[[141.00269604,37.15331952],[141.00269604,37.15331952]],[[141.00200829,37.15399014],[141.00200829,37.15399014]],[[141.00285537,37.15723087],[141.00285537,37.15723087]],[[141.00223756,37.16252704],[141.00223756,37.16252704]],[[141.00410297,37.16385694],[141.00410297,37.16385694]],[[141.00213075,37.16391164],[141.00213075,37.16391164]],[[141.002109,37.16861116],[141.002109,37.16861116]],[[141.03046318,37.31373461],[141.03046318,37.31373461]],[[141.02952022,37.34131695],[141.02952022,37.34131695]],[[141.02998163,37.34129183],[141.02998163,37.34129183]],[[141.03024201,37.34209493],[141.03024201,37.34209493]],[[141.03136894,37.34256477],[141.03136894,37.34256477]],[[141.03394521,37.34672923],[141.03394521,37.34672923]],[[141.03859197,37.36207864],[141.03859197,37.36207864]],[[141.03789093,37.3619292],[141.03789093,37.3619292]],[[141.04076838,37.42206457],[141.04076838,37.42206457]],[[141.04047564,37.4235552],[141.03654393,37.42653291],[141.04047564,37.4235552]],[[141.03517449,37.42602554],[141.03517449,37.42602554]],[[141.04600783,37.48077493],[141.04600783,37.48077493]],[[141.03836143,37.50107137],[141.03836143,37.50107137]],[[141.03845855,37.50118913],[141.03845855,37.50118913]],[[141.0383186,37.50179147],[141.0383186,37.50179147]],[[141.03527438,37.51142734],[141.03527438,37.51142734]],[[141.03490484,37.5116894],[141.03490484,37.5116894]],[[141.03509842,37.51171864],[141.03509842,37.51171864]],[[141.02445785,37.63974077],[141.02445785,37.63974077]],[[141.02339428,37.64453935],[141.02339428,37.64453935]],[[141.02303524,37.64719296],[141.02303524,37.64719296]],[[141.02605808,37.66338125],[141.02605808,37.66338125]],[[141.0218806,37.66818091],[141.0218806,37.66818091]],[[141.02548719,37.6728],[141.02548719,37.6728]],[[141.01638741,37.68555617],[141.01638741,37.68555617]],[[141.01878358,37.68749884],[141.01878358,37.68749884]]]}}]}