{"type":"FeatureCollection","name":"群馬県","features":[{"type":"Feature","properties":{"name":"群馬県"},"geometry":{"type":"MultiLineString","coordinates":[[[138.82900667,36.03952003],[138.79108109,36.02940536],[138.77354772,36.03879317],[138.75441119,36.03452597],[138.74376983,36.01009989],[138.71255005,35.985333],[138.68869538,35.99177467],[138.67958361,36.01171439],[138.66198805,36.01150439],[138.63196514,36.0270538],[138.64419112,36.04968933],[138.64281538,36.06874233],[138.63053302,36.09118092],[138.64518306,36.09880675],[138.64016564,36.11722592],[138.64537703,36.12019675],[138.63432372,36.13394703],[138.60076759,36.13551233],[138.57727486,36.1680732],[138.58338961,36.17883128],[138.59058158,36.17793792],[138.594491,36.16562986],[138.60954406,36.16141233],[138.61316659,36.16873153],[138.63634275,36.17206677],[138.62279725,36.19692792],[138.636707,36.20427041],[138.63466119,36.21367487],[138.62224453,36.21458572],[138.61176234,36.22950297],[138.61249681,36.24091797],[138.60211847,36.24905297],[138.60595217,36.26679467],[138.60033552,36.27839995],[138.64450428,36.29325572],[138.6535307,36.30311489],[138.64782881,36.31557713],[138.65716348,36.36890153],[138.64955878,36.37923764],[138.64783584,36.40928205],[138.63715139,36.41721622],[138.59239689,36.42439151],[138.55500798,36.41777375],[138.53892597,36.40250239],[138.50475217,36.41490375],[138.49182275,36.41307569],[138.48895742,36.4009335],[138.45965,36.40475044],[138.45696477,36.42024014],[138.40078856,36.4350092],[138.4033492,36.46687028],[138.39702616,36.48952828],[138.4060318,36.50736408],[138.40392739,36.52128517],[138.41279713,36.52932851],[138.41238856,36.54148625],[138.42884086,36.55622539],[138.42842949,36.5686962],[138.42029508,36.57396453],[138.42659603,36.59452836],[138.44129745,36.59968947],[138.44158333,36.61066944],[138.45497364,36.61385084],[138.45859764,36.63437884],[138.47309717,36.64404828],[138.49008185,36.6411958],[138.529444,36.65528836],[138.53461737,36.66563839],[138.51827195,36.67620889],[138.5198992,36.68919417],[138.51433564,36.69078525],[138.55977717,36.70703764],[138.58405572,36.70119797],[138.59572856,36.71453553],[138.61086158,36.70638084],[138.62257778,36.72050811],[138.71240141,36.73875739],[138.72702745,36.76416884],[138.78527953,36.74489159],[138.80168889,36.76229353],[138.81777034,36.76158575],[138.83176389,36.79389928],[138.82174425,36.81762613],[138.85644538,36.81164389],[138.88189105,36.82578547],[138.9290228,36.83261323],[138.92497095,36.84645736],[138.916019,36.8508382],[138.9231492,36.88359925],[138.94063484,36.89515814],[138.97147014,36.8872132],[138.9791685,36.89117625],[138.97669089,36.92079067],[138.9666573,36.93115372],[138.96660511,36.97912733],[139.04738917,36.98729287],[139.05423089,36.99831311],[139.09113103,37.01973333],[139.09517092,37.057068],[139.1111762,37.05525853],[139.12501533,37.04482964],[139.13190611,37.02572772],[139.17733717,36.99370717],[139.17521594,36.9732958],[139.18272953,36.96171692],[139.20605484,36.9558622],[139.22871467,36.96119775],[139.2379527,36.94657084],[139.2298115,36.93827195],[139.24066542,36.92940641],[139.26613501,36.94115364],[139.28171058,36.93114731],[139.29439983,36.93466425],[139.30445455,36.92582428],[139.34238672,36.9275332],[139.34934613,36.91305823],[139.37313158,36.9183938],[139.39559,36.90686744],[139.37388064,36.89396741],[139.37023386,36.87823103],[139.35614655,36.87781353],[139.3556809,36.85854131],[139.34852608,36.85274047],[139.40670927,36.82704205],[139.38861178,36.80526813],[139.37764811,36.80425953],[139.37499791,36.78481308],[139.35305686,36.77360892],[139.35591553,36.75056577],[139.37246503,36.74626523],[139.36113128,36.71349931],[139.33694586,36.69235395],[139.33931455,36.6784265],[139.32670186,36.65711241],[139.32955891,36.6276675],[139.34568949,36.62587],[139.35228842,36.61509028],[139.38668883,36.61198333],[139.39816722,36.60203947],[139.40654725,36.60478586],[139.40372642,36.60882253],[139.42776594,36.60097228],[139.46524197,36.60658151],[139.48352947,36.58188205],[139.46075789,36.55324675],[139.43904645,36.55068533],[139.43448553,36.533742],[139.44284834,36.53158311],[139.42172681,36.50900478],[139.41792008,36.49471117],[139.42808119,36.49041784],[139.43647472,36.46597531],[139.43117302,36.4575692],[139.40823769,36.45796867],[139.41195739,36.45004367],[139.36102523,36.38523428],[139.36736997,36.36880347],[139.4227925,36.3322562],[139.42670859,36.32470703],[139.41483662,36.32518647],[139.41697462,36.31329595],[139.42916322,36.30617841],[139.43516348,36.29209595],[139.43821628,36.29685622],[139.4436493,36.28836095],[139.46087436,36.28720425],[139.46848545,36.2791962],[139.45849789,36.27684678],[139.46271567,36.27210289],[139.52596506,36.28471361],[139.54402981,36.27578367],[139.55326847,36.27945672],[139.56225761,36.26692095],[139.6324915,36.27116517],[139.63691287,36.26401572],[139.64305178,36.26608961],[139.63071975,36.25484131],[139.64151581,36.23545859],[139.64549472,36.24046689],[139.66309139,36.23055884],[139.65905302,36.22120914],[139.66535636,36.22344217],[139.66994995,36.21324608],[139.66442547,36.2070608],[139.65997467,36.21490136],[139.65078158,36.21209195],[139.65116567,36.19766864],[139.62871978,36.19507923],[139.62488861,36.18657175],[139.58777167,36.21036928],[139.52821664,36.19150177],[139.46365414,36.18934195],[139.41983075,36.21094831],[139.35928939,36.25322911],[139.34740158,36.25370692],[139.32226623,36.23659478],[139.2669727,36.2505578],[139.26701073,36.24262197],[139.24406678,36.24443392],[139.22400403,36.25830169],[139.21163453,36.25624756],[139.16390338,36.27891172],[139.12966389,36.28339756],[139.06341866,36.19628553],[139.06452808,36.18721997],[139.05638584,36.18051967],[139.06215856,36.15293656],[139.04272209,36.14802736],[139.04200674,36.12804786],[139.00485664,36.13341203],[138.98532652,36.11548864],[138.95845228,36.12409036],[138.95790503,36.10764089],[138.94506859,36.09459617],[138.93149051,36.08810313],[138.91631409,36.09374903],[138.89785878,36.09065461],[138.86480625,36.07734692],[138.84603706,36.066625],[138.82900667,36.03952003]],[[139.26370156,36.2445478],[139.26370156,36.2445478]]]}}]}