{"type":"FeatureCollection","name":"茨城県","features":[{"type":"Feature","properties":{"name":"茨城県"},"geometry":{"type":"MultiLineString","coordinates":[[[140.2044107,35.86111284],[140.15073022,35.84337731],[140.12459703,35.87250895],[140.09282336,35.88386461],[140.07367336,35.87671803],[140.02090053,35.90922761],[139.99431545,35.90980659],[139.93796711,35.94101028],[139.93165523,35.95076669],[139.93620808,35.96656559],[139.91289445,35.97144003],[139.88416365,35.98882808],[139.87641759,36.01061913],[139.81367058,36.06242547],[139.80119205,36.09196487],[139.78677567,36.10409989],[139.76920966,36.08082747],[139.73028039,36.08725305],[139.72637856,36.11251913],[139.69538869,36.15799972],[139.69055914,36.20536411],[139.70647306,36.20185659],[139.70693058,36.21056214],[139.71896842,36.21152156],[139.72748672,36.20158072],[139.82180669,36.2397695],[139.84169219,36.27590086],[139.83535614,36.29349641],[139.84802961,36.31074947],[139.87012589,36.31384167],[139.88067767,36.32296359],[139.87881814,36.31070303],[139.89664241,36.30975439],[139.89428905,36.30193387],[139.9005563,36.29905411],[139.91035306,36.30092051],[139.91433156,36.33671159],[139.96450141,36.35094175],[139.97354022,36.37853728],[139.98992878,36.3672078],[140.00224175,36.36801836],[140.00043178,36.37663253],[140.04816567,36.37558297],[140.06914781,36.38892736],[140.06639872,36.4037732],[140.111077,36.39795364],[140.10958455,36.40730141],[140.13183306,36.41492053],[140.14426148,36.41404467],[140.15650866,36.39799272],[140.18069633,36.3974435],[140.192622,36.40469847],[140.20326109,36.42074317],[140.20260655,36.45407367],[140.22716525,36.48594497],[140.22945814,36.50208133],[140.24115545,36.50265797],[140.24921056,36.50794156],[140.24738669,36.51497013],[140.26019403,36.51748122],[140.24774737,36.53449011],[140.25153975,36.55458005],[140.24378197,36.56281978],[140.24848623,36.61067636],[140.23469567,36.62375805],[140.23376655,36.63440139],[140.24282025,36.63670639],[140.24093031,36.6509228],[140.22930861,36.66227839],[140.23168978,36.66979397],[140.22156584,36.67428623],[140.22042034,36.68714651],[140.23141078,36.69973011],[140.26818911,36.70221584],[140.29225961,36.71256411],[140.28333633,36.73413861],[140.25488934,36.76002287],[140.26107636,36.76751005],[140.25368083,36.78337756],[140.26639095,36.7904892],[140.26740141,36.81767722],[140.251536,36.852457],[140.25672789,36.8732495],[140.24838519,36.92131486],[140.25668564,36.93209705],[140.28558167,36.93554528],[140.30300034,36.92688459],[140.32185667,36.90778305],[140.32652603,36.89130217],[140.36521183,36.88432495],[140.37720608,36.83792469],[140.41509866,36.83202641],[140.4309698,36.81703939],[140.43850102,36.82154184],[140.46419297,36.79140175],[140.47862036,36.79694167],[140.48932339,36.80957661],[140.48800039,36.81836297],[140.51391497,36.82344289],[140.53803589,36.85885628],[140.59198514,36.87301964],[140.59328214,36.88003275],[140.57985523,36.89363372],[140.58077358,36.90440772],[140.56495803,36.91285661],[140.56744453,36.93667511],[140.58611302,36.94528428],[140.59446008,36.93805378],[140.59278944,36.92656725],[140.61551944,36.90327031],[140.63621411,36.89757195],[140.65495936,36.90104169],[140.69508375,36.88877125],[140.71427056,36.87278384],[140.74084606,36.87555605],[140.75838144,36.86729875],[140.76010628,36.8723648],[140.7661815,36.86174959],[140.77206861,36.86859895],[140.78641739,36.86210833],[140.78616759,36.85622586],[140.79836533,36.85823764],[140.79711927,36.84150653],[140.80556667,36.8307788],[140.77280122,36.82260077],[140.74845192,36.78436433],[140.73060384,36.74270869],[140.72913639,36.7155408],[140.71638366,36.6931484],[140.71649252,36.66180688],[140.69363272,36.64457841],[140.68950664,36.62097547],[140.66638128,36.59465527],[140.6622865,36.57741108],[140.65284328,36.57294114],[140.62831306,36.4951638],[140.61206816,36.48647354],[140.6281962,36.48349813],[140.61444604,36.48357291],[140.60973436,36.4689452],[140.61649837,36.46529941],[140.61047061,36.46767461],[140.61480917,36.46550597],[140.60836667,36.45201439],[140.60935438,36.44044525],[140.63288533,36.44151556],[140.62730742,36.44150087],[140.62720326,36.43119759],[140.60827141,36.42834808],[140.62358102,36.42633567],[140.61261248,36.42134623],[140.61560633,36.41060305],[140.60969484,36.40517887],[140.61900462,36.41118208],[140.61173195,36.39915169],[140.62735789,36.37713372],[140.6037572,36.33776725],[140.60435322,36.34341261],[140.59399433,36.33806711],[140.59385314,36.32154682],[140.57980328,36.30086914],[140.58484489,36.31080705],[140.56996026,36.3077673],[140.57546166,36.30079235],[140.56126516,36.29307023],[140.55817999,36.27309148],[140.56943722,36.19427469],[140.60274493,36.09925052],[140.66756572,35.97636817],[140.67863703,35.97305017],[140.67833117,35.96746831],[140.68074066,35.97243928],[140.70234472,35.96306052],[140.68489664,35.96443403],[140.70350883,35.93867659],[140.69390953,35.92881492],[140.67688995,35.91912789],[140.66284777,35.92859644],[140.65236698,35.92661505],[140.66989964,35.91845784],[140.67465672,35.89699778],[140.69102572,35.88291725],[140.67728433,35.91223784],[140.71022995,35.92687923],[140.71309936,35.96221688],[140.70667659,35.92399139],[140.74190322,35.86712684],[140.81476511,35.77175959],[140.83511392,35.75328803],[140.84064672,35.75788428],[140.84470975,35.75283184],[140.836631,35.7524678],[140.8427873,35.74648831],[140.84877908,35.74787075],[140.84668569,35.75995279],[140.85122586,35.74263297],[140.81805462,35.74036336],[140.74436764,35.78323947],[140.72678141,35.79945956],[140.70657575,35.83625541],[140.68355636,35.84905217],[140.63068616,35.8591242],[140.60799292,35.89581195],[140.51124464,35.95873541],[140.4955298,35.93122278],[140.48717639,35.928592],[140.4907782,35.91495672],[140.50280261,35.90552028],[140.45843817,35.92654022],[140.44846577,35.91501867],[140.42479922,35.90721939],[140.39831248,35.90929953],[140.36160856,35.89855705],[140.31940691,35.86464431],[140.27971005,35.87415623],[140.24056433,35.85438372],[140.2044107,35.86111284]],[[140.58520567,36.29354954],[140.58508765,36.30190674],[140.58520567,36.29354954]],[[140.58616038,36.30973359],[140.58616038,36.30973359]],[[140.5889708,36.31002796],[140.5889708,36.31002796]],[[140.5864001,36.31057646],[140.5864001,36.31057646]],[[140.58619763,36.31079359],[140.58619763,36.31079359]],[[140.58623661,36.31086463],[140.58623661,36.31086463]],[[140.58781706,36.31095308],[140.58781706,36.31095308]],[[140.5863697,36.31099339],[140.5863697,36.31099339]],[[140.58796817,36.3111496],[140.58796817,36.3111496]],[[140.58754165,36.31120501],[140.58754165,36.31120501]],[[140.58747492,36.31149077],[140.58747492,36.31149077]],[[140.58711357,36.31142158],[140.58711357,36.31142158]],[[140.5873979,36.31161103],[140.5873979,36.31161103]],[[140.58715711,36.31157217],[140.58715711,36.31157217]],[[140.58716538,36.3117494],[140.58716538,36.3117494]],[[140.58769397,36.31181582],[140.58769397,36.31181582]],[[140.58723966,36.31245523],[140.58723966,36.31245523]],[[140.58812182,36.3125334],[140.58812182,36.3125334]],[[140.5873807,36.31255322],[140.5873807,36.31255322]],[[140.58854747,36.31253666],[140.58854747,36.31253666]],[[140.58789497,36.31277484],[140.58789497,36.31277484]],[[140.58890825,36.31281223],[140.58890825,36.31281223]],[[140.58789061,36.31285327],[140.58789061,36.31285327]],[[140.58831032,36.31290046],[140.58831032,36.31290046]],[[140.58828397,36.31298507],[140.58828397,36.31298507]],[[140.58926307,36.3130928],[140.58926307,36.3130928]],[[140.58872106,36.31311281],[140.58872106,36.31311281]],[[140.58867532,36.31316123],[140.58867532,36.31316123]],[[140.58898389,36.31319515],[140.58898389,36.31319515]],[[140.58863086,36.31327345],[140.58863086,36.31327345]],[[140.58927331,36.31325235],[140.58927331,36.31325235]],[[140.5887231,36.31330071],[140.5887231,36.31330071]],[[140.58909916,36.31343929],[140.58909916,36.31343929]],[[140.58911436,36.31372165],[140.58911436,36.31372165]],[[140.58945584,36.31376113],[140.58945584,36.31376113]],[[140.58898726,36.31398372],[140.58898726,36.31398372]],[[140.58945337,36.31408235],[140.58945337,36.31408235]],[[140.58909333,36.31427749],[140.58909333,36.31427749]],[[140.58932499,36.31430405],[140.58932499,36.31430405]],[[140.58949712,36.31449539],[140.58949712,36.31449539]],[[140.58926959,36.314539],[140.58926959,36.314539]],[[140.58919746,36.31471575],[140.58919746,36.31471575]],[[140.58947005,36.31476052],[140.58947005,36.31476052]],[[140.58950428,36.3132535],[140.58950428,36.3132535]],[[140.58981196,36.31390956],[140.58981196,36.31390956]],[[140.59006245,36.31484825],[140.59006245,36.31484825]],[[140.58978432,36.31488741],[140.58978432,36.31488741]],[[140.58941904,36.31497841],[140.58941904,36.31497841]],[[140.58951047,36.31511608],[140.58951047,36.31511608]],[[140.58982872,36.31519518],[140.58982872,36.31519518]],[[140.5899994,36.315457],[140.5899994,36.315457]],[[140.59108529,36.31563957],[140.59108529,36.31563957]],[[140.59022516,36.31559787],[140.59022516,36.31559787]],[[140.59014558,36.31563587],[140.59014558,36.31563587]],[[140.59099477,36.31571043],[140.59099477,36.31571043]],[[140.59156585,36.31632084],[140.59156585,36.31632084]],[[140.59095872,36.31630053],[140.59095872,36.31630053]],[[140.59120913,36.31620404],[140.59120913,36.31620404]],[[140.59144739,36.31640522],[140.59144739,36.31640522]],[[140.59101894,36.31650447],[140.59101894,36.31650447]],[[140.5914073,36.31658852],[140.5914073,36.31658852]],[[140.59094329,36.31653622],[140.59094329,36.31653622]],[[140.59160833,36.31670513],[140.59160833,36.31670513]],[[140.59131693,36.31685848],[140.59131693,36.31685848]],[[140.59151228,36.31691871],[140.59151228,36.31691871]],[[140.59129693,36.31698983],[140.59129693,36.31698983]],[[140.59145512,36.31706534],[140.59145512,36.31706534]],[[140.59125204,36.31712693],[140.59125204,36.31712693]],[[140.59169843,36.31713194],[140.59169843,36.31713194]],[[140.59143986,36.31715566],[140.59143986,36.31715566]],[[140.59133023,36.31726748],[140.59133023,36.31726748]],[[140.59136488,36.31748626],[140.59136488,36.31748626]],[[140.59151732,36.31759912],[140.59151732,36.31759912]],[[140.59222131,36.31828204],[140.59222131,36.31828204]],[[140.59255302,36.31863295],[140.59255302,36.31863295]],[[140.59344337,36.31869949],[140.59344337,36.31869949]],[[140.59337743,36.31912232],[140.59337743,36.31912232]],[[140.59349005,36.31952573],[140.59349005,36.31952573]],[[140.59399624,36.32021512],[140.59399624,36.32021512]],[[140.59361418,36.32020889],[140.59361418,36.32020889]],[[140.59399027,36.32040396],[140.59399027,36.32040396]],[[140.59398252,36.32110744],[140.59398252,36.32110744]],[[140.59415662,36.32194694],[140.59415662,36.32194694]],[[140.59415377,36.32338454],[140.59415377,36.32338454]],[[140.59406734,36.32380696],[140.59406734,36.32380696]],[[140.59416939,36.32407344],[140.59416939,36.32407344]],[[140.59413119,36.32426908],[140.59413119,36.32426908]],[[140.68095336,35.97328911],[140.68095336,35.97328911]],[[140.59447389,36.32070641],[140.59447389,36.32070641]],[[140.59446935,36.32138562],[140.59446935,36.32138562]],[[140.59474213,36.32172069],[140.59474213,36.32172069]],[[140.59433757,36.32186395],[140.59433757,36.32186395]],[[140.59469272,36.3219309],[140.59469272,36.3219309]],[[140.5945391,36.32214485],[140.5945391,36.32214485]],[[140.59450093,36.32225143],[140.59450093,36.32225143]],[[140.59443827,36.3223133],[140.59443827,36.3223133]],[[140.59443466,36.32242175],[140.59443466,36.32242175]],[[140.59425004,36.32331868],[140.59425004,36.32331868]],[[140.59476547,36.32337659],[140.59476547,36.32337659]],[[140.6051485,36.33766508],[140.6051485,36.33766508]],[[140.5950876,36.33748285],[140.60246633,36.33739847],[140.5950876,36.33748285]],[[140.63908844,36.39723133],[140.63612112,36.44555223],[140.63908844,36.39723133]],[[140.625,36.427263],[140.625,36.427263]],[[140.62749706,36.4373772],[140.62749706,36.4373772]],[[140.63005627,36.47681486],[140.63005627,36.47681486]],[[140.63683921,36.48263282],[140.63696031,36.47451281],[140.63683921,36.48263282]],[[140.63240302,36.48285315],[140.63053728,36.49488896],[140.63240302,36.48285315]],[[140.63049541,36.49483318],[140.63049541,36.49483318]],[[140.63895331,36.49921656],[140.63895331,36.49921656]],[[140.63528205,36.50833017],[140.63528205,36.50833017]],[[140.64669516,36.53956084],[140.64669516,36.53956084]],[[140.65059103,36.54410113],[140.65059103,36.54410113]],[[140.66209192,36.58070964],[140.66209192,36.58070964]],[[140.66231431,36.58091878],[140.66231431,36.58091878]],[[140.66233134,36.58098744],[140.66233134,36.58098744]],[[140.662419,36.58102451],[140.662419,36.58102451]],[[140.66251464,36.58105428],[140.66251464,36.58105428]],[[140.66307969,36.58107244],[140.66307969,36.58107244]],[[140.66313662,36.58111792],[140.66313662,36.58111792]],[[140.66278944,36.58135086],[140.66278944,36.58135086]],[[140.66287436,36.58137064],[140.66287436,36.58137064]],[[140.67214163,36.59757089],[140.67214163,36.59757089]],[[140.67158878,36.59747041],[140.67158878,36.59747041]],[[140.67181419,36.59753175],[140.67181419,36.59753175]],[[140.671448,36.59763084],[140.671448,36.59763084]],[[140.67175949,36.59764089],[140.67175949,36.59764089]],[[140.67211778,36.59766839],[140.67211778,36.59766839]],[[140.84111703,35.75025556],[140.84111703,35.75025556]],[[140.69763529,35.93333333],[140.69480192,35.92933164],[140.69763529,35.93333333]],[[140.68025442,36.61442959],[140.68025442,36.61442959]],[[140.68351891,36.61597759],[140.68351891,36.61597759]],[[140.68327389,36.61630592],[140.68327389,36.61630592]],[[140.70791384,36.6545662],[140.70791384,36.6545662]],[[140.70898034,36.65475772],[140.70898034,36.65475772]],[[140.70852669,36.65482639],[140.70852669,36.65482639]],[[140.71286925,36.65766011],[140.71286925,36.65766011]],[[140.71220579,36.65878226],[140.71220579,36.65878226]],[[140.74459603,36.71281561],[140.74459603,36.71281561]],[[140.73003339,36.7162752],[140.73003339,36.7162752]],[[140.72868341,36.71792023],[140.72868341,36.71792023]],[[140.72852258,36.718123],[140.72852258,36.718123]],[[140.73015234,36.71908631],[140.73015234,36.71908631]],[[140.73298489,36.72083295],[140.73298489,36.72083295]],[[140.75778486,36.7937275],[140.75778486,36.7937275]],[[140.76204922,36.8049652],[140.76204922,36.8049652]],[[140.76255883,36.80546384],[140.76255883,36.80546384]],[[140.78559031,36.82103075],[140.78559031,36.82103075]],[[140.78577613,36.82238478],[140.7927655,36.82587489],[140.78577613,36.82238478]],[[140.80396228,36.82903856],[140.80396228,36.82903856]],[[140.80402897,36.82917147],[140.80402897,36.82917147]],[[140.80358131,36.83307056],[140.80358131,36.83307056]],[[140.80377633,36.83312797],[140.80377633,36.83312797]],[[140.80368856,36.83365208],[140.80368856,36.83365208]],[[140.80339713,36.83376341],[140.80339713,36.83376341]],[[140.80393114,36.833818],[140.80393114,36.833818]],[[140.8040117,36.83411525],[140.8040117,36.83411525]],[[140.8041682,36.83428475],[140.8041682,36.83428475]],[[140.80349839,36.83461544],[140.80349839,36.83461544]],[[140.80455698,36.83468061],[140.80455698,36.83468061]],[[140.80418628,36.83607744],[140.80418628,36.83607744]],[[140.80435419,36.83608384],[140.80435419,36.83608384]],[[140.802928,36.83791059],[140.802928,36.83791059]],[[140.80245606,36.83925528],[140.80245606,36.83925528]],[[140.79724966,36.84374728],[140.79724966,36.84374728]],[[140.79721217,36.8440092],[140.79721217,36.8440092]],[[140.80044407,36.86088717],[140.80044407,36.86088717]],[[140.79782953,36.85938917],[140.79782953,36.85938917]]]}}]}