{"type": "FeatureCollection", "features": [{"type": "Feature", "properties": {}, "geometry": {"type": "MultiLineString", "coordinates": [[[135.997159, 33.730511], [135.983275, 33.736367], [135.972959, 33.735442], [135.971699, 33.731726], [135.977071, 33.724771], [135.973192, 33.722986], [135.963523, 33.724314], [135.945934, 33.732032], [135.939933, 33.738587], [135.938533, 33.751057], [135.938884, 33.756259], [135.934813, 33.757225], [135.928371, 33.75402], [135.920503, 33.758762], [135.919282, 33.764091], [135.91586, 33.767025], [135.909149, 33.766574], [135.905675, 33.76848], [135.901398, 33.780824], [135.896778, 33.786937], [135.898229, 33.7901], [135.894706, 33.797673], [135.890913, 33.801678], [135.880407, 33.802963], [135.872169, 33.809001], [135.864396, 33.810468], [135.858026, 33.816204], [135.855856, 33.820336], [135.85893, 33.830188], [135.855731, 33.836689], [135.857033, 33.842574], [135.860587, 33.848958], [135.853438, 33.857839], [135.853251, 33.862299], [135.858893, 33.868481], [135.857824, 33.871973], [135.862122, 33.876549], [135.862186, 33.862721], [135.867074, 33.859897], [135.873138, 33.859166], [135.878151, 33.864615], [135.877789, 33.871337], [135.886413, 33.87202], [135.890883, 33.868392], [135.897633, 33.869746], [135.898773, 33.877716], [135.901313, 33.885406], [135.893103, 33.893487], [135.891047, 33.880974], [135.886514, 33.882698], [135.884219, 33.886537], [135.887919, 33.896302], [135.880856, 33.902318], [135.878956, 33.908363], [135.893951, 33.906151], [135.897874, 33.912609], [135.893699, 33.920014], [135.898146, 33.921598], [135.909746, 33.918479], [135.915788, 33.919876], [135.922255, 33.914114], [135.932487, 33.916852], [135.932674, 33.922664], [135.927861, 33.922489], [135.923686, 33.919817], [135.91961, 33.920945], [135.917287, 33.925056], [135.919002, 33.931753], [135.921833, 33.934327], [135.927952, 33.934801], [135.929544, 33.941431], [135.93683, 33.939186], [135.944194, 33.939552], [135.957586, 33.934468], [135.964553, 33.928362], [135.969764, 33.930024], [135.975539, 33.941463], [135.977961, 33.95146], [135.975157, 33.960637], [135.977607, 33.966976], [135.985449, 33.968556], [135.991457, 33.965049], [135.997157, 33.956882], [136.001441, 33.957206], [136.00426, 33.963025], [136.010351, 33.965604], [136.01333, 33.969227], [136.013364, 33.974231], [136.008166, 33.979142], [136.004153, 33.985711], [136.004042, 33.99177], [135.997157, 33.997762], [135.996242, 34.002274], [136.001911, 34.001391], [136.006955, 34.007398], [136.003607, 34.009881], [136.007349, 34.019747], [136.014964, 34.024598], [136.017044, 34.033523], [136.022983, 34.036522], [136.031728, 34.031867], [136.035841, 34.03911], [136.038997, 34.036518], [136.050895, 34.033443], [136.054926, 34.035626], [136.06238, 34.03228], [136.072656, 34.033863], [136.082125, 34.027555], [136.085538, 34.028789], [136.096375, 34.022462], [136.101062, 34.025763], [136.104469, 34.026957], [136.097821, 34.044825], [136.092226, 34.048174], [136.097082, 34.057413], [136.093916, 34.066614], [136.096592, 34.079061], [136.093309, 34.082875], [136.096097, 34.086349], [136.103383, 34.083913], [136.115986, 34.081758], [136.112757, 34.086665], [136.102361, 34.09603], [136.107866, 34.103093], [136.104302, 34.105904], [136.104505, 34.114158], [136.100298, 34.116717], [136.099678, 34.12042], [136.108404, 34.126784], [136.101949, 34.141329], [136.106217, 34.143858], [136.105686, 34.152517], [136.110836, 34.154717], [136.114692, 34.160816], [136.112045, 34.167558], [136.105597, 34.171618], [136.108814, 34.180782], [136.108865, 34.185138], [136.096203, 34.187806], [136.092683, 34.190394], [136.093449, 34.195698], [136.097576, 34.202472], [136.107403, 34.207381], [136.109741, 34.211244], [136.115466, 34.210835], [136.118735, 34.215506], [136.117298, 34.22311], [136.10965, 34.224221], [136.110667, 34.229355], [136.115782, 34.229625], [136.117442, 34.233947], [136.124693, 34.241319], [136.130306, 34.242873], [136.129393, 34.249096], [136.131849, 34.251896], [136.127806, 34.256654], [136.118064, 34.260596], [136.119356, 34.265667], [136.113419, 34.278763], [136.105456, 34.283003], [136.097829, 34.288822], [136.094904, 34.301451], [136.10036, 34.305541], [136.111646, 34.305014], [136.114944, 34.308812], [136.122311, 34.310428], [136.129505, 34.316174], [136.122217, 34.325423], [136.115351, 34.326319], [136.109231, 34.329107], [136.102363, 34.336048], [136.102068, 34.342159], [136.096726, 34.349536], [136.098627, 34.352105], [136.095521, 34.359809], [136.090544, 34.362823], [136.091941, 34.368557], [136.086092, 34.379625], [136.078159, 34.386404], [136.069306, 34.389341], [136.069141, 34.394257], [136.074989, 34.398367], [136.076538, 34.405863], [136.083494, 34.409513], [136.090265, 34.416042], [136.091102, 34.422865], [136.088699, 34.428724], [136.095898, 34.435222], [136.111255, 34.435704], [136.118021, 34.44271], [136.131321, 34.445104], [136.144215, 34.44109], [136.151437, 34.441853], [136.158236, 34.449006], [136.165445, 34.448431], [136.170333, 34.446416], [136.178484, 34.445521], [136.188522, 34.450605], [136.206248, 34.448677], [136.2086, 34.455497], [136.207451, 34.460548], [136.209323, 34.467056], [136.214733, 34.472717], [136.21556, 34.481153], [136.219201, 34.485226], [136.22852, 34.489065], [136.229036, 34.494722], [136.218256, 34.497021], [136.214667, 34.501312], [136.215786, 34.507806], [136.219479, 34.510533], [136.219776, 34.515886], [136.215979, 34.523285], [136.216629, 34.527975], [136.209941, 34.529029], [136.193613, 34.523479], [136.189785, 34.523957], [136.182117, 34.516751], [136.171825, 34.518151], [136.167714, 34.520912], [136.171774, 34.534819], [136.169719, 34.538877], [136.159774, 34.546712], [136.161688, 34.548297], [136.157589, 34.552694], [136.155499, 34.559731], [136.151205, 34.559157], [136.14661, 34.555787], [136.139603, 34.559259], [136.133946, 34.555226], [136.11863, 34.546486], [136.113632, 34.546446], [136.110587, 34.556451], [136.09102, 34.557287], [136.083357, 34.559327], [136.082331, 34.562169], [136.071355, 34.567727], [136.065777, 34.566999], [136.060311, 34.569418], [136.060802, 34.574965], [136.049767, 34.580271], [136.046523, 34.585217], [136.050652, 34.586914], [136.052141, 34.593058], [136.049144, 34.594888], [136.046568, 34.600557], [136.050322, 34.606019], [136.05583, 34.610157], [136.062467, 34.619958], [136.068858, 34.622304], [136.069424, 34.628564], [136.073577, 34.634094], [136.071223, 34.640539], [136.067942, 34.643875], [136.064846, 34.651564], [136.058216, 34.652811], [136.050474, 34.652296], [136.040965, 34.659186], [136.04399, 34.660227], [136.064515, 34.651965], [136.070582, 34.657752], [136.077781, 34.658761], [136.077836, 34.662566], [136.081973, 34.665172], [136.082223, 34.669932], [136.08574, 34.676435], [136.082107, 34.679009], [136.078864, 34.689907], [136.075083, 34.697701], [136.068215, 34.697842], [136.059943, 34.699754], [136.054186, 34.706165], [136.066346, 34.70979], [136.071066, 34.714677], [136.068031, 34.723887], [136.063101, 34.72644], [136.062537, 34.730667], [136.052763, 34.740141], [136.039269, 34.749388], [136.038133, 34.756223], [136.030204, 34.755905], [136.031036, 34.762231], [136.029344, 34.764816], [136.033315, 34.771819], [136.033577, 34.779439], [136.022606, 34.782311], [136.01996, 34.786374], [136.022607, 34.791772], [136.028429, 34.79068], [136.034661, 34.794266], [136.038481, 34.793939], [136.041171, 34.798458], [136.051554, 34.799091], [136.055117, 34.802073], [136.063691, 34.801608], [136.072993, 34.804212], [136.075507, 34.807852], [136.081804, 34.807748], [136.090616, 34.812227], [136.090798, 34.815841], [136.095187, 34.819104], [136.087555, 34.83045], [136.095078, 34.840177], [136.104403, 34.840566], [136.107396, 34.845239], [136.108301, 34.852824], [136.113386, 34.856139], [136.117409, 34.855887], [136.121035, 34.859789], [136.126382, 34.862022], [136.122771, 34.866321], [136.125857, 34.870019], [136.122132, 34.872752], [136.113239, 34.869304], [136.098892, 34.870581], [136.08698, 34.876356], [136.085163, 34.878784], [136.0896, 34.8825], [136.085373, 34.886765], [136.086223, 34.889128], [136.094786, 34.887801], [136.098378, 34.889534], [136.101785, 34.896144], [136.106269, 34.900085], [136.112297, 34.90188], [136.11628, 34.892157], [136.120446, 34.89144], [136.131533, 34.883134], [136.136439, 34.888209], [136.144076, 34.885406], [136.148546, 34.882016], [136.153572, 34.884581], [136.166898, 34.887894], [136.180779, 34.88579], [136.178255, 34.882583], [136.182197, 34.87817], [136.187076, 34.87839], [136.198074, 34.869862], [136.209073, 34.868121], [136.212014, 34.866021], [136.227832, 34.860972], [136.235387, 34.861474], [136.250675, 34.857728], [136.267897, 34.864467], [136.268894, 34.867905], [136.280683, 34.873039], [136.283722, 34.870292], [136.289061, 34.869573], [136.297098, 34.872757], [136.298766, 34.875366], [136.305019, 34.875182], [136.312918, 34.880627], [136.313226, 34.886972], [136.319057, 34.889566], [136.326342, 34.888642], [136.330729, 34.892434], [136.339409, 34.895472], [136.346046, 34.894728], [136.350331, 34.898966], [136.357357, 34.900482], [136.360193, 34.904116], [136.366097, 34.905006], [136.365152, 34.912686], [136.367812, 34.921901], [136.373913, 34.923779], [136.371903, 34.934588], [136.375353, 34.939892], [136.37269, 34.942257], [136.387709, 34.953081], [136.395259, 34.951882], [136.399122, 34.963143], [136.403146, 34.969152], [136.415874, 34.980801], [136.415195, 34.984619], [136.416357, 34.99213], [136.413486, 34.995427], [136.421169, 34.999633], [136.416962, 35.011238], [136.417122, 35.019601], [136.421284, 35.021271], [136.423828, 35.029771], [136.418839, 35.02991], [136.416455, 35.037295], [136.417853, 35.049503], [136.42221, 35.051383], [136.42472, 35.056984], [136.431041, 35.059233], [136.441598, 35.066719], [136.435267, 35.082487], [136.441973, 35.086561], [136.438699, 35.096368], [136.441911, 35.101577], [136.440823, 35.107749], [136.442514, 35.110854], [136.439966, 35.116632], [136.444519, 35.119007], [136.448023, 35.123841], [136.444656, 35.126614], [136.435639, 35.130655], [136.437951, 35.136564], [136.442948, 35.139057], [136.443184, 35.145174], [136.446041, 35.149871], [136.450394, 35.149499], [136.454998, 35.152415], [136.454653, 35.161418], [136.452554, 35.165839], [136.448536, 35.166824], [136.443871, 35.171701], [136.439777, 35.171496], [136.435724, 35.176503], [136.424461, 35.18451], [136.419442, 35.182722], [136.409434, 35.187661], [136.412707, 35.192053], [136.412623, 35.195911], [136.416137, 35.205484], [136.416799, 35.214389], [136.415112, 35.218846], [136.424535, 35.224211], [136.430901, 35.229404], [136.434539, 35.220448], [136.440722, 35.216743], [136.450595, 35.224127], [136.453759, 35.22956], [136.465823, 35.237477], [136.46902, 35.233373], [136.47422, 35.237351], [136.480336, 35.234927], [136.482812, 35.239761], [136.49039, 35.236922], [136.494354, 35.237922], [136.500735, 35.235117], [136.505985, 35.235061], [136.51082, 35.238828], [136.513642, 35.250422], [136.528049, 35.257648], [136.533544, 35.255419], [136.536769, 35.248705], [136.541393, 35.245749], [136.53978, 35.241002], [136.544062, 35.235136], [136.550282, 35.231906], [136.546964, 35.222435], [136.549656, 35.219206], [136.556826, 35.220686], [136.561403, 35.208861], [136.561745, 35.205526], [136.5745, 35.201697], [136.577343, 35.196806], [136.585189, 35.19446], [136.584696, 35.188598], [136.591744, 35.185665], [136.594339, 35.180925], [136.597021, 35.177306], [136.602301, 35.178039], [136.606126, 35.172069], [136.604781, 35.168505], [136.612508, 35.15942], [136.615552, 35.149929], [136.624267, 35.146528], [136.63049, 35.150221], [136.639925, 35.147576], [136.646019, 35.14766], [136.646189, 35.15657], [136.64468, 35.162773], [136.646284, 35.165809], [136.655642, 35.161053], [136.661494, 35.149205], [136.667664, 35.141153], [136.66963, 35.133729], [136.672778, 35.134777], [136.676393, 35.128867], [136.681091, 35.128441], [136.695195, 35.124606], [136.714072, 35.105167], [136.719979, 35.103369], [136.731275, 35.097281], [136.741864, 35.085955], [136.749574, 35.080728], [136.752047, 35.071701], [136.751697, 35.061823], [136.753401, 35.053016], [136.760857, 35.037714], [136.772707, 35.02439], [136.765404, 35.020725], [136.757699, 35.026553], [136.749788, 35.036049], [136.739736, 35.032532], [136.734411, 35.02749], [136.727302, 35.025452], [136.710737, 35.024251], [136.700347, 35.021042], [136.6971, 35.015902], [136.700005, 35.007212], [136.686211, 35.004105], [136.684805, 35.008234], [136.676143, 35.008386], [136.673976, 35.006362], [136.66609, 35.004196], [136.660442, 35.001043], [136.651824, 34.993303], [136.645989, 34.976522], [136.650405, 34.974745], [136.64662, 34.964388], [136.645534, 34.955871], [136.64112, 34.948985], [136.637574, 34.946399], [136.641111, 34.938746], [136.648474, 34.946836], [136.663133, 34.94541], [136.667528, 34.94177], [136.66687, 34.937001], [136.653211, 34.937367], [136.645746, 34.934412], [136.645016, 34.920716], [136.647277, 34.90801], [136.645987, 34.903548], [136.642335, 34.900586], [136.638805, 34.897441], [136.635069, 34.889052], [136.635872, 34.885642], [136.63157, 34.877806], [136.616228, 34.856949], [136.615513, 34.853335], [136.604366, 34.84253], [136.589463, 34.824745], [136.570399, 34.804536], [136.554914, 34.788006], [136.544644, 34.773711], [136.538713, 34.764094], [136.531299, 34.746752], [136.528833, 34.737247], [136.528115, 34.725775], [136.52432, 34.713069], [136.521057, 34.698463], [136.521577, 34.689536], [136.523353, 34.685086], [136.529675, 34.684146], [136.53609, 34.6803], [136.541405, 34.683227], [136.546849, 34.680213], [136.542355, 34.674669], [136.549328, 34.670816], [136.553453, 34.676224], [136.557613, 34.671354], [136.554259, 34.667339], [136.548454, 34.666312], [136.548913, 34.661868], [136.547953, 34.645354], [136.549575, 34.6347], [136.544176, 34.621829], [136.539374, 34.62361], [136.537627, 34.616445], [136.531899, 34.616434], [136.52958, 34.613396], [136.529857, 34.608538], [136.542777, 34.61002], [136.548765, 34.60693], [136.554985, 34.612251], [136.564915, 34.607679], [136.573286, 34.609884], [136.578496, 34.60558], [136.588087, 34.602438], [136.603756, 34.600827], [136.618823, 34.59934], [136.626465, 34.597515], [136.629447, 34.594796], [136.640424, 34.59234], [136.647056, 34.588842], [136.655419, 34.572835], [136.660448, 34.566304], [136.666862, 34.558327], [136.679695, 34.553575], [136.688334, 34.551261], [136.694223, 34.547043], [136.700073, 34.545634], [136.716008, 34.544497], [136.736245, 34.533525], [136.740814, 34.531866], [136.747203, 34.5263], [136.753199, 34.524757], [136.757549, 34.519202], [136.765338, 34.51355], [136.776859, 34.508922], [136.787303, 34.509234], [136.795747, 34.506533], [136.8089, 34.508265], [136.812448, 34.502467], [136.812745, 34.497928], [136.816001, 34.496603], [136.816045, 34.485204], [136.820418, 34.484493], [136.825694, 34.487801], [136.828847, 34.492765], [136.824495, 34.505034], [136.831285, 34.506207], [136.834236, 34.503659], [136.834745, 34.491596], [136.841756, 34.490103], [136.845247, 34.487706], [136.844742, 34.483157], [136.84731, 34.480519], [136.857994, 34.477933], [136.866559, 34.481105], [136.867769, 34.475625], [136.871724, 34.47392], [136.872345, 34.464247], [136.868427, 34.459779], [136.868123, 34.455844], [136.875182, 34.454505], [136.884162, 34.449659], [136.881023, 34.444514], [136.885269, 34.443402], [136.892877, 34.44716], [136.893013, 34.451578], [136.897114, 34.453685], [136.90705, 34.451399], [136.915, 34.4523], [136.91936, 34.445222], [136.924568, 34.444173], [136.919767, 34.438256], [136.922687, 34.435332], [136.922429, 34.430991], [136.91888, 34.426477], [136.923641, 34.421066], [136.923944, 34.411961], [136.919907, 34.411119], [136.915975, 34.402151], [136.912141, 34.400977], [136.909003, 34.396345], [136.909735, 34.390321], [136.906962, 34.385235], [136.912067, 34.381542], [136.912455, 34.376037], [136.907131, 34.375553], [136.898006, 34.378677], [136.899166, 34.386909], [136.892883, 34.389263], [136.888967, 34.385264], [136.886252, 34.388464], [136.881845, 34.387143], [136.881634, 34.381146], [136.873402, 34.384155], [136.870169, 34.387154], [136.876323, 34.373936], [136.870804, 34.369964], [136.861567, 34.367329], [136.857891, 34.363804], [136.855358, 34.368627], [136.847088, 34.37204], [136.843895, 34.367589], [136.837758, 34.366882], [136.834384, 34.361763], [136.827613, 34.365166], [136.823016, 34.364935], [136.820091, 34.357838], [136.826565, 34.352662], [136.834242, 34.354335], [136.840448, 34.358278], [136.840344, 34.365098], [136.852136, 34.36859], [136.85293, 34.36325], [136.850923, 34.357048], [136.861364, 34.361636], [136.867709, 34.358848], [136.868569, 34.354354], [136.866006, 34.351047], [136.865391, 34.344978], [136.869658, 34.344634], [136.870184, 34.349522], [136.874738, 34.354024], [136.892139, 34.365603], [136.894543, 34.361768], [136.903067, 34.36281], [136.901155, 34.35552], [136.893969, 34.352751], [136.887076, 34.346643], [136.881906, 34.345479], [136.877797, 34.335418], [136.878903, 34.325286], [136.885261, 34.317977], [136.890353, 34.315323], [136.891236, 34.310609], [136.886017, 34.305415], [136.884271, 34.300082], [136.89398, 34.292665], [136.894146, 34.28805], [136.897926, 34.286512], [136.897663, 34.281353], [136.894703, 34.276951], [136.878205, 34.272836], [136.869946, 34.273432], [136.871431, 34.2665], [136.870151, 34.262673], [136.86482, 34.263129], [136.852969, 34.261723], [136.84831, 34.256927], [136.847365, 34.249972], [136.840514, 34.252287], [136.819341, 34.250654], [136.806123, 34.254468], [136.78385, 34.258058], [136.775866, 34.260787], [136.773421, 34.2595], [136.765383, 34.260647], [136.763133, 34.2669], [136.759118, 34.269451], [136.752678, 34.269386], [136.751954, 34.27247], [136.761729, 34.273556], [136.765615, 34.278201], [136.776265, 34.27822], [136.781914, 34.275536], [136.785003, 34.278353], [136.798394, 34.276263], [136.803752, 34.27328], [136.813736, 34.272049], [136.814103, 34.266063], [136.82135, 34.273283], [136.827873, 34.267292], [136.834391, 34.264622], [136.835681, 34.261], [136.841608, 34.264528], [136.846779, 34.269683], [136.851875, 34.268425], [136.853652, 34.274162], [136.85725, 34.277263], [136.854338, 34.279833], [136.845991, 34.276098], [136.838968, 34.270701], [136.832999, 34.271402], [136.830512, 34.275959], [136.832459, 34.284232], [136.837905, 34.29063], [136.842823, 34.290741], [136.847641, 34.287377], [136.862698, 34.285879], [136.863824, 34.291801], [136.856462, 34.287833], [136.850255, 34.291097], [136.846487, 34.295267], [136.840433, 34.297754], [136.832777, 34.296926], [136.829042, 34.302976], [136.839089, 34.305112], [136.848037, 34.303911], [136.850441, 34.307304], [136.841526, 34.314251], [136.837706, 34.307946], [136.82957, 34.308061], [136.82403, 34.311533], [136.81877, 34.312529], [136.813531, 34.310385], [136.809153, 34.313638], [136.802526, 34.315282], [136.799269, 34.312549], [136.797641, 34.307609], [136.804414, 34.305747], [136.808578, 34.301648], [136.808978, 34.297825], [136.803674, 34.295607], [136.79831, 34.290759], [136.793557, 34.288936], [136.787096, 34.289207], [136.778663, 34.291706], [136.77987, 34.297447], [136.773125, 34.296393], [136.775109, 34.305664], [136.772038, 34.308853], [136.775814, 34.31393], [136.76262, 34.313226], [136.765568, 34.306642], [136.76063, 34.302112], [136.759639, 34.297219], [136.750867, 34.293093], [136.743038, 34.299027], [136.735686, 34.302325], [136.729321, 34.302142], [136.724523, 34.30432], [136.715754, 34.302224], [136.711487, 34.293575], [136.698839, 34.292787], [136.698238, 34.289751], [136.689976, 34.287551], [136.68938, 34.305708], [136.690806, 34.31007], [136.698008, 34.323351], [136.704907, 34.324288], [136.704128, 34.328665], [136.710283, 34.330589], [136.716326, 34.328886], [136.720447, 34.330323], [136.721727, 34.338265], [136.718509, 34.342308], [136.712173, 34.340882], [136.709378, 34.336588], [136.704322, 34.342172], [136.705707, 34.348672], [136.699025, 34.346002], [136.694663, 34.335728], [136.69006, 34.332886], [136.685703, 34.325311], [136.682509, 34.32769], [136.687039, 34.333355], [136.681472, 34.342866], [136.677323, 34.339915], [136.67213, 34.343162], [136.661412, 34.345505], [136.656923, 34.339336], [136.666949, 34.339548], [136.670695, 34.337233], [136.670218, 34.331594], [136.67294, 34.326415], [136.669513, 34.324008], [136.661002, 34.323069], [136.658253, 34.318783], [136.654057, 34.319462], [136.649566, 34.316154], [136.637338, 34.312513], [136.640374, 34.308034], [136.651634, 34.312798], [136.653175, 34.316549], [136.662304, 34.311122], [136.66461, 34.31586], [136.67476, 34.315418], [136.674539, 34.312082], [136.665184, 34.306628], [136.663906, 34.302079], [136.656425, 34.299577], [136.653646, 34.296815], [136.654981, 34.287071], [136.635632, 34.284629], [136.634973, 34.275678], [136.628046, 34.272929], [136.621184, 34.273943], [136.612915, 34.269389], [136.605291, 34.258625], [136.595991, 34.257268], [136.585854, 34.257467], [136.582833, 34.26608], [136.579442, 34.268993], [136.58109, 34.274952], [136.576662, 34.278316], [136.58916, 34.284953], [136.593823, 34.28437], [136.597142, 34.290915], [136.590204, 34.290532], [136.580458, 34.293225], [136.58077, 34.290195], [136.573739, 34.286743], [136.570436, 34.288869], [136.563883, 34.285438], [136.558752, 34.28526], [136.55346, 34.280775], [136.555123, 34.270247], [136.557639, 34.267991], [136.553149, 34.260984], [136.548154, 34.259286], [136.545832, 34.253179], [136.539051, 34.257414], [136.537821, 34.260792], [136.542822, 34.266185], [136.540762, 34.277586], [136.535763, 34.275198], [136.530434, 34.268357], [136.52866, 34.260117], [136.525478, 34.26223], [136.531894, 34.270261], [136.529167, 34.273311], [136.524204, 34.269764], [136.52465, 34.267069], [136.512605, 34.269939], [136.51503, 34.273099], [136.513985, 34.278333], [136.505567, 34.278957], [136.503994, 34.276287], [136.506869, 34.270429], [136.505651, 34.26439], [136.508884, 34.258578], [136.50832, 34.252491], [136.502471, 34.254927], [136.500115, 34.251675], [136.502085, 34.242713], [136.497368, 34.244216], [136.491773, 34.242271], [136.490645, 34.238624], [136.496421, 34.236864], [136.502605, 34.238039], [136.506546, 34.235175], [136.496845, 34.229559], [136.492656, 34.225217], [136.481951, 34.219946], [136.482818, 34.227998], [136.476633, 34.228626], [136.47312, 34.231621], [136.468145, 34.23248], [136.460309, 34.239243], [136.46388, 34.247154], [136.468745, 34.249589], [136.46603, 34.257036], [136.458782, 34.250961], [136.460258, 34.247548], [136.448887, 34.249641], [136.440426, 34.247912], [136.441094, 34.245236], [136.453456, 34.24509], [136.455453, 34.239068], [136.455096, 34.234193], [136.45209, 34.230881], [136.455451, 34.221596], [136.442556, 34.21987], [136.43962, 34.22149], [136.430708, 34.219864], [136.426181, 34.214563], [136.419822, 34.213803], [136.413146, 34.210827], [136.409001, 34.206709], [136.400105, 34.205014], [136.393717, 34.211232], [136.39922, 34.218458], [136.389076, 34.218312], [136.385005, 34.212033], [136.386206, 34.208332], [136.378536, 34.204751], [136.374494, 34.197471], [136.362283, 34.189433], [136.362492, 34.192445], [136.356018, 34.198936], [136.349614, 34.199299], [136.35394, 34.208177], [136.344512, 34.207101], [136.33897, 34.204674], [136.33686, 34.198048], [136.327152, 34.19826], [136.329176, 34.194806], [136.337791, 34.197244], [136.338608, 34.192901], [136.332161, 34.187692], [136.335077, 34.183418], [136.33173, 34.180302], [136.325322, 34.185755], [136.320962, 34.18614], [136.317262, 34.179472], [136.306768, 34.180562], [136.302931, 34.179721], [136.2961, 34.171946], [136.297087, 34.16545], [136.289927, 34.16506], [136.287242, 34.159311], [136.282917, 34.163152], [136.27758, 34.16043], [136.279208, 34.152872], [136.284582, 34.148002], [136.276461, 34.139485], [136.279552, 34.135638], [136.280058, 34.130958], [136.288882, 34.129222], [136.291775, 34.127149], [136.28319, 34.122482], [136.28401, 34.118081], [136.292633, 34.112479], [136.298826, 34.118322], [136.313225, 34.117533], [136.307793, 34.113424], [136.307557, 34.109506], [136.302231, 34.100787], [136.302373, 34.098835], [136.298312, 34.090505], [136.293718, 34.088715], [136.29284, 34.096705], [136.286344, 34.093808], [136.280107, 34.094277], [136.281158, 34.089039], [136.278383, 34.085177], [136.273672, 34.082833], [136.269924, 34.086989], [136.270563, 34.089995], [136.26605, 34.09301], [136.264865, 34.097116], [136.272887, 34.099929], [136.266716, 34.102764], [136.258741, 34.098041], [136.260673, 34.090187], [136.254332, 34.088142], [136.250699, 34.09326], [136.250816, 34.099272], [136.248115, 34.102948], [136.258426, 34.106915], [136.266701, 34.112694], [136.268873, 34.117087], [136.274446, 34.122672], [136.268206, 34.129117], [136.265592, 34.124319], [136.257913, 34.119806], [136.252491, 34.111745], [136.241109, 34.108116], [136.243088, 34.105953], [136.230568, 34.10256], [136.227497, 34.09873], [136.236915, 34.089289], [136.23643, 34.086784], [136.228671, 34.085923], [136.225789, 34.083297], [136.21687, 34.079073], [136.201605, 34.076983], [136.201794, 34.072091], [136.20768, 34.06944], [136.210917, 34.065498], [136.221451, 34.062987], [136.226566, 34.065336], [136.241574, 34.063559], [136.249015, 34.063456], [136.250485, 34.060332], [136.243234, 34.059744], [136.244598, 34.055824], [136.24336, 34.049819], [136.24537, 34.044764], [136.244363, 34.038448], [136.255039, 34.036365], [136.257836, 34.032466], [136.265872, 34.031665], [136.273707, 34.026238], [136.280888, 34.022682], [136.277046, 34.018758], [136.263333, 34.010671], [136.254102, 34.009769], [136.253239, 34.006761], [136.263493, 34.003917], [136.265397, 34.006741], [136.271201, 34.005848], [136.269516, 34.000756], [136.266204, 34.000265], [136.267242, 33.994684], [136.260955, 33.994005], [136.263619, 33.989622], [136.272296, 33.988356], [136.269639, 33.98113], [136.272137, 33.976443], [136.270848, 33.971317], [136.264515, 33.970785], [136.262839, 33.967133], [136.252581, 33.967346], [136.249033, 33.972683], [136.239267, 33.968693], [136.23563, 33.972834], [136.235541, 33.980102], [136.239802, 33.982926], [136.250432, 33.980088], [136.248093, 33.985413], [136.231287, 33.987482], [136.226926, 33.988719], [136.213721, 34.001064], [136.210177, 33.998498], [136.212228, 33.995334], [136.21543, 33.983249], [136.210506, 33.981668], [136.206821, 33.975288], [136.201919, 33.971164], [136.194871, 33.973083], [136.192933, 33.970156], [136.198727, 33.96466], [136.203793, 33.964743], [136.21402, 33.969767], [136.218987, 33.97462], [136.221719, 33.9715], [136.218564, 33.967124], [136.224879, 33.966828], [136.225439, 33.957126], [136.228321, 33.954488], [136.229031, 33.9486], [136.231956, 33.947609], [136.223673, 33.946071], [136.216606, 33.946634], [136.219932, 33.941221], [136.210102, 33.931278], [136.207787, 33.934813], [136.21119, 33.93743], [136.203398, 33.944038], [136.200301, 33.941854], [136.194943, 33.942288], [136.190696, 33.939668], [136.180681, 33.937907], [136.189344, 33.933878], [136.19876, 33.932588], [136.194795, 33.927659], [136.19802, 33.922114], [136.193423, 33.91715], [136.190441, 33.918965], [136.184828, 33.914824], [136.176132, 33.912446], [136.169764, 33.913353], [136.168691, 33.924989], [136.164007, 33.929782], [136.158927, 33.931347], [136.15039, 33.93138], [136.147296, 33.92666], [136.154734, 33.920684], [136.151074, 33.918502], [136.151689, 33.912242], [136.14446, 33.912035], [136.138853, 33.908007], [136.141557, 33.904286], [136.150801, 33.900188], [136.144584, 33.896254], [136.138824, 33.898716], [136.138708, 33.8915], [136.136076, 33.888027], [136.128416, 33.886899], [136.128089, 33.892904], [136.12484, 33.897424], [136.118128, 33.898807], [136.114112, 33.888938], [136.106695, 33.890093], [136.100948, 33.885477], [136.085952, 33.869559], [136.076754, 33.857671], [136.066059, 33.840476], [136.057103, 33.826085], [136.051952, 33.813936], [136.045985, 33.805713], [136.04122, 33.795242], [136.038082, 33.785809], [136.031515, 33.772288], [136.024272, 33.755412], [136.018318, 33.73056], [136.01189, 33.723301], [136.008084, 33.727022], [135.997159, 33.730511]], [[136.300144, 34.162478], [136.303948, 34.163756], [136.305581, 34.158759], [136.30022, 34.158421], [136.300144, 34.162478]], [[136.381039, 34.187264], [136.381005, 34.187368], [136.381083, 34.187131], [136.381047, 34.18724], [136.381039, 34.187264]], [[136.81338, 34.309211], [136.821261, 34.311876], [136.826297, 34.307023], [136.816052, 34.304399], [136.81338, 34.309211]], [[136.873669, 34.357781], [136.866554, 34.365764], [136.876226, 34.367844], [136.876958, 34.361672], [136.873669, 34.357781]], [[136.851566, 34.488499], [136.858341, 34.490771], [136.863437, 34.489286], [136.863612, 34.485523], [136.854799, 34.48346], [136.851566, 34.488499]], [[136.903983, 34.503212], [136.90958, 34.499657], [136.904501, 34.49051], [136.897473, 34.487714], [136.895573, 34.483924], [136.879698, 34.480744], [136.874011, 34.48359], [136.872273, 34.486777], [136.878477, 34.494399], [136.890463, 34.496133], [136.898853, 34.498838], [136.903983, 34.503212]], [[136.902127, 34.521748], [136.894208, 34.523101], [136.885969, 34.516083], [136.877736, 34.514677], [136.874504, 34.510331], [136.867616, 34.510828], [136.858212, 34.505856], [136.849276, 34.508331], [136.848018, 34.511402], [136.858598, 34.517561], [136.863981, 34.518819], [136.867595, 34.517138], [136.87187, 34.519093], [136.872546, 34.525091], [136.876255, 34.524198], [136.881635, 34.529766], [136.898093, 34.538898], [136.90077, 34.537539], [136.902247, 34.531066], [136.902127, 34.521748]], [[136.981428, 34.541934], [136.977351, 34.545752], [136.98076, 34.550593], [136.987697, 34.549581], [136.986457, 34.545719], [136.981428, 34.541934]], [[136.67227, 34.982736], [136.665621, 34.97294], [136.650125, 34.977349], [136.652812, 34.991853], [136.665977, 35.000211], [136.675299, 35.002033], [136.6722, 34.99655], [136.666746, 34.99784], [136.661286, 34.993473], [136.676983, 34.987451], [136.67227, 34.982736]]]}}]}