{
  "type": "FeatureCollection",
  "features": [
    {
      "type": "Feature",
      "geometry": {
        "type": "Polygon",
        "coordinates": [
          [
            [
              136.569846,
              34.804831
            ],
            [
              136.551419,
              34.811391
            ],
            [
              136.487984,
              34.802365
            ],
            [
              136.471455,
              34.812196
            ],
            [
              136.450233,
              34.810938
            ],
            [
              136.435875,
              34.822301
            ],
            [
              136.434656,
              34.839864
            ],
            [
              136.40761,
              34.843353
            ],
            [
              136.3889,
              34.835806
            ],
            [
              136.374364,
              34.820674
            ],
            [
              136.359256,
              34.822625
            ],
            [
              136.334064,
              34.818149
            ],
            [
              136.311695,
              34.807028
            ],
            [
              136.314731,
              34.791237
            ],
            [
              136.332234,
              34.787202
            ],
            [
              136.341115,
              34.769187
            ],
            [
              136.325201,
              34.760893
            ],
            [
              136.317028,
              34.747621
            ],
            [
              136.301114,
              34.743118
            ],
            [
              136.296653,
              34.733895
            ],
            [
              136.309564,
              34.724906
            ],
            [
              136.294603,
              34.715526
            ],
            [
              136.278559,
              34.689846
            ],
            [
              136.270431,
              34.686278
            ],
            [
              136.269993,
              34.664071
            ],
            [
              136.251355,
              34.643973
            ],
            [
              136.245239,
              34.630599
            ],
            [
              136.250465,
              34.619129
            ],
            [
              136.250091,
              34.599678
            ],
            [
              136.259062,
              34.59452
            ],
            [
              136.255907,
              34.583999
            ],
            [
              136.226356,
              34.579282
            ],
            [
              136.219538,
              34.568033
            ],
            [
              136.193342,
              34.566836
            ],
            [
              136.176901,
              34.568325
            ],
            [
              136.162997,
              34.548526
            ],
            [
              136.171,
              34.53745
            ],
            [
              136.167522,
              34.519981
            ],
            [
              136.182117,
              34.516751
            ],
            [
              136.189785,
              34.523957
            ],
            [
              136.216585,
              34.528208
            ],
            [
              136.219479,
              34.510533
            ],
            [
              136.214667,
              34.501312
            ],
            [
              136.229759,
              34.491862
            ],
            [
              136.21556,
              34.481153
            ],
            [
              136.206498,
              34.45
            ],
            [
              136.252168,
              34.447688
            ],
            [
              136.28206,
              34.453092
            ],
            [
              136.293408,
              34.462555
            ],
            [
              136.310533,
              34.463783
            ],
            [
              136.348202,
              34.507611
            ],
            [
              136.33813,
              34.522473
            ],
            [
              136.360371,
              34.549835
            ],
            [
              136.377279,
              34.584218
            ],
            [
              136.390376,
              34.594821
            ],
            [
              136.396969,
              34.615705
            ],
            [
              136.419561,
              34.623053
            ],
            [
              136.422525,
              34.631563
            ],
            [
              136.436765,
              34.634957
            ],
            [
              136.463173,
              34.649541
            ],
            [
              136.485754,
              34.644997
            ],
            [
              136.499738,
              34.651102
            ],
            [
              136.528678,
              34.648263
            ],
            [
              136.549576,
              34.6347
            ],
            [
              136.549328,
              34.670816
            ],
            [
              136.525215,
              34.6827
            ],
            [
              136.521057,
              34.698463
            ],
            [
              136.534365,
              34.754187
            ],
            [
              136.548045,
              34.779822
            ],
            [
              136.569846,
              34.804831
            ]
          ]
        ]
      },
      "properties": {
        "N03_001": "三重県",
        "N03_002": null,
        "N03_003": null,
        "N03_004": "津市",
        "N03_005": null,
        "N03_007": "24201"
      }
    },
    {
      "type": "Feature",
      "geometry": {
        "type": "MultiPolygon",
        "coordinates": [
          [
            [
              [
                136.650125,
                34.977349
              ],
              [
                136.665621,
                34.97294
              ],
              [
                136.677579,
                34.987019
              ],
              [
                136.652358,
                34.992964
              ],
              [
                136.650125,
                34.977349
              ]
            ]
          ],
          [
            [
              [
                136.415195,
                34.984619
              ],
              [
                136.443497,
                34.987459
              ],
              [
                136.470342,
                34.97065
              ],
              [
                136.475431,
                34.95861
              ],
              [
                136.506351,
                34.949018
              ],
              [
                136.523946,
                34.931
              ],
              [
                136.560781,
                34.914216
              ],
              [
                136.577999,
                34.9153
              ],
              [
                136.58663,
                34.909303
              ],
              [
                136.642335,
                34.900586
              ],
              [
                136.647517,
                34.903832
              ],
              [
                136.64564,
                34.934344
              ],
              [
                136.66687,
                34.937001
              ],
              [
                136.663333,
                34.945465
              ],
              [
                136.633839,
                34.948908
              ],
              [
                136.644847,
                34.962269
              ],
              [
                136.650303,
                34.991221
              ],
              [
                136.665439,
                35.005639
              ],
              [
                136.673976,
                35.006362
              ],
              [
                136.654386,
                35.0182
              ],
              [
                136.657911,
                35.025224
              ],
              [
                136.644854,
                35.02951
              ],
              [
                136.640698,
                35.043378
              ],
              [
                136.600186,
                35.048611
              ],
              [
                136.574005,
                35.053542
              ],
              [
                136.563789,
                35.064363
              ],
              [
                136.538812,
                35.070505
              ],
              [
                136.541814,
                35.060469
              ],
              [
                136.534288,
                35.038023
              ],
              [
                136.558889,
                35.035789
              ],
              [
                136.554142,
                35.016879
              ],
              [
                136.534319,
                35.012963
              ],
              [
                136.544083,
                35.000961
              ],
              [
                136.515924,
                34.996687
              ],
              [
                136.474233,
                34.995811
              ],
              [
                136.46265,
                34.99063
              ],
              [
                136.445103,
                35.00038
              ],
              [
                136.42511,
                34.999718
              ],
              [
                136.413468,
                34.995376
              ],
              [
                136.415195,
                34.984619
              ]
            ]
          ]
        ]
      },
      "properties": {
        "N03_001": "三重県",
        "N03_002": null,
        "N03_003": null,
        "N03_004": "四日市市",
        "N03_005": null,
        "N03_007": "24202"
      }
    },
    {
      "type": "Feature",
      "geometry": {
        "type": "Polygon",
        "coordinates": [
          [
            [
              136.650697,
              34.456723
            ],
            [
              136.643149,
              34.439
            ],
            [
              136.632643,
              34.431356
            ],
            [
              136.643299,
              34.423257
            ],
            [
              136.643263,
              34.3986
            ],
            [
              136.67211,
              34.392008
            ],
            [
              136.689202,
              34.395744
            ],
            [
              136.694566,
              34.385228
            ],
            [
              136.721082,
              34.391634
            ],
            [
              136.745622,
              34.385099
            ],
            [
              136.758362,
              34.398562
            ],
            [
              136.759219,
              34.41169
            ],
            [
              136.787478,
              34.423291
            ],
            [
              136.781558,
              34.446033
            ],
            [
              136.787343,
              34.45598
            ],
            [
              136.800793,
              34.459123
            ],
            [
              136.807012,
              34.481267
            ],
            [
              136.816701,
              34.496441
            ],
            [
              136.810007,
              34.508104
            ],
            [
              136.795322,
              34.506524
            ],
            [
              136.773126,
              34.50994
            ],
            [
              136.748474,
              34.522269
            ],
            [
              136.738582,
              34.533639
            ],
            [
              136.716008,
              34.544497
            ],
            [
              136.694246,
              34.547034
            ],
            [
              136.688412,
              34.55332
            ],
            [
              136.666372,
              34.558592
            ],
            [
              136.660448,
              34.566304
            ],
            [
              136.658639,
              34.551605
            ],
            [
              136.647152,
              34.545609
            ],
            [
              136.645417,
              34.536308
            ],
            [
              136.660502,
              34.528514
            ],
            [
              136.652032,
              34.519667
            ],
            [
              136.639048,
              34.499854
            ],
            [
              136.649579,
              34.497776
            ],
            [
              136.644751,
              34.48435
            ],
            [
              136.670752,
              34.475751
            ],
            [
              136.650697,
              34.456723
            ]
          ]
        ]
      },
      "properties": {
        "N03_001": "三重県",
        "N03_002": null,
        "N03_003": null,
        "N03_004": "伊勢市",
        "N03_005": null,
        "N03_007": "24203"
      }
    },
    {
      "type": "Feature",
      "geometry": {
        "type": "Polygon",
        "coordinates": [
          [
            [
              136.252168,
              34.447688
            ],
            [
              136.188522,
              34.450605
            ],
            [
              136.17751,
              34.445435
            ],
            [
              136.158427,
              34.449078
            ],
            [
              136.151437,
              34.441853
            ],
            [
              136.128835,
              34.445384
            ],
            [
              136.111255,
              34.435704
            ],
            [
              136.095898,
              34.435222
            ],
            [
              136.088699,
              34.428724
            ],
            [
              136.090265,
              34.416042
            ],
            [
              136.077998,
              34.407853
            ],
            [
              136.069306,
              34.389341
            ],
            [
              136.086285,
              34.379384
            ],
            [
              136.098606,
              34.352265
            ],
            [
              136.102363,
              34.336048
            ],
            [
              136.121554,
              34.326186
            ],
            [
              136.131722,
              34.315965
            ],
            [
              136.158279,
              34.313452
            ],
            [
              136.166141,
              34.324198
            ],
            [
              136.188435,
              34.324592
            ],
            [
              136.18624,
              34.340045
            ],
            [
              136.207518,
              34.350135
            ],
            [
              136.215363,
              34.34823
            ],
            [
              136.252923,
              34.355084
            ],
            [
              136.259389,
              34.364817
            ],
            [
              136.271151,
              34.368578
            ],
            [
              136.256569,
              34.385034
            ],
            [
              136.273009,
              34.406757
            ],
            [
              136.298354,
              34.407994
            ],
            [
              136.323507,
              34.403745
            ],
            [
              136.359596,
              34.407609
            ],
            [
              136.378336,
              34.406677
            ],
            [
              136.407304,
              34.417488
            ],
            [
              136.409854,
              34.430978
            ],
            [
              136.422723,
              34.441753
            ],
            [
              136.418279,
              34.451655
            ],
            [
              136.427175,
              34.478562
            ],
            [
              136.446808,
              34.476582
            ],
            [
              136.456285,
              34.487435
            ],
            [
              136.48105,
              34.484794
            ],
            [
              136.477663,
              34.498011
            ],
            [
              136.496613,
              34.508719
            ],
            [
              136.503228,
              34.499638
            ],
            [
              136.517911,
              34.505953
            ],
            [
              136.538353,
              34.505424
            ],
            [
              136.565353,
              34.521135
            ],
            [
              136.587578,
              34.523636
            ],
            [
              136.603033,
              34.538712
            ],
            [
              136.609222,
              34.560607
            ],
            [
              136.607916,
              34.579739
            ],
            [
              136.614886,
              34.589055
            ],
            [
              136.607524,
              34.597436
            ],
            [
              136.573357,
              34.609924
            ],
            [
              136.548765,
              34.60693
            ],
            [
              136.531783,
              34.616412
            ],
            [
              136.544213,
              34.621843
            ],
            [
              136.549576,
              34.6347
            ],
            [
              136.528678,
              34.648263
            ],
            [
              136.499738,
              34.651102
            ],
            [
              136.485754,
              34.644997
            ],
            [
              136.463173,
              34.649541
            ],
            [
              136.436765,
              34.634957
            ],
            [
              136.422525,
              34.631563
            ],
            [
              136.419561,
              34.623053
            ],
            [
              136.396969,
              34.615705
            ],
            [
              136.390376,
              34.594821
            ],
            [
              136.377279,
              34.584218
            ],
            [
              136.360371,
              34.549835
            ],
            [
              136.33813,
              34.522473
            ],
            [
              136.348202,
              34.507611
            ],
            [
              136.310533,
              34.463783
            ],
            [
              136.293408,
              34.462555
            ],
            [
              136.28206,
              34.453092
            ],
            [
              136.252168,
              34.447688
            ]
          ]
        ]
      },
      "properties": {
        "N03_001": "三重県",
        "N03_002": null,
        "N03_003": null,
        "N03_004": "松阪市",
        "N03_005": null,
        "N03_007": "24204"
      }
    },
    {
      "type": "Feature",
      "geometry": {
        "type": "Polygon",
        "coordinates": [
          [
            [
              136.640698,
              35.043378
            ],
            [
              136.660346,
              35.04084
            ],
            [
              136.674971,
              35.046779
            ],
            [
              136.686264,
              35.035325
            ],
            [
              136.700347,
              35.021042
            ],
            [
              136.72844,
              35.02522
            ],
            [
              136.755169,
              35.039304
            ],
            [
              136.742864,
              35.038819
            ],
            [
              136.72646,
              35.062805
            ],
            [
              136.714072,
              35.105167
            ],
            [
              136.695066,
              35.124702
            ],
            [
              136.66963,
              35.133729
            ],
            [
              136.655252,
              35.161477
            ],
            [
              136.645218,
              35.144572
            ],
            [
              136.613458,
              35.152978
            ],
            [
              136.602073,
              35.178185
            ],
            [
              136.593667,
              35.180545
            ],
            [
              136.577418,
              35.171358
            ],
            [
              136.574643,
              35.14531
            ],
            [
              136.594352,
              35.115998
            ],
            [
              136.616124,
              35.092349
            ],
            [
              136.609271,
              35.061329
            ],
            [
              136.600186,
              35.048611
            ],
            [
              136.640698,
              35.043378
            ]
          ]
        ]
      },
      "properties": {
        "N03_001": "三重県",
        "N03_002": null,
        "N03_003": null,
        "N03_004": "桑名市",
        "N03_005": null,
        "N03_007": "24205"
      }
    },
    {
      "type": "Feature",
      "geometry": {
        "type": "Polygon",
        "coordinates": [
          [
            [
              136.569846,
              34.804831
            ],
            [
              136.597298,
              34.829315
            ],
            [
              136.596103,
              34.833324
            ],
            [
              136.61721,
              34.855099
            ],
            [
              136.636801,
              34.885694
            ],
            [
              136.642335,
              34.900586
            ],
            [
              136.58663,
              34.909303
            ],
            [
              136.577999,
              34.9153
            ],
            [
              136.560781,
              34.914216
            ],
            [
              136.523946,
              34.931
            ],
            [
              136.506351,
              34.949018
            ],
            [
              136.475431,
              34.95861
            ],
            [
              136.470342,
              34.97065
            ],
            [
              136.443497,
              34.987459
            ],
            [
              136.415195,
              34.984619
            ],
            [
              136.403146,
              34.969153
            ],
            [
              136.395259,
              34.951882
            ],
            [
              136.418858,
              34.945648
            ],
            [
              136.431404,
              34.931066
            ],
            [
              136.43117,
              34.920334
            ],
            [
              136.455625,
              34.904217
            ],
            [
              136.476633,
              34.904982
            ],
            [
              136.494289,
              34.901241
            ],
            [
              136.496212,
              34.864845
            ],
            [
              136.48185,
              34.836421
            ],
            [
              136.49189,
              34.823084
            ],
            [
              136.487984,
              34.802365
            ],
            [
              136.551419,
              34.811391
            ],
            [
              136.569846,
              34.804831
            ]
          ]
        ]
      },
      "properties": {
        "N03_001": "三重県",
        "N03_002": null,
        "N03_003": null,
        "N03_004": "鈴鹿市",
        "N03_005": null,
        "N03_007": "24207"
      }
    },
    {
      "type": "Feature",
      "geometry": {
        "type": "Polygon",
        "coordinates": [
          [
            [
              136.193342,
              34.566836
            ],
            [
              136.180628,
              34.595308
            ],
            [
              136.179352,
              34.626765
            ],
            [
              136.152246,
              34.645353
            ],
            [
              136.149181,
              34.661077
            ],
            [
              136.131716,
              34.681963
            ],
            [
              136.120455,
              34.688251
            ],
            [
              136.112009,
              34.66964
            ],
            [
              136.100729,
              34.673935
            ],
            [
              136.08574,
              34.676435
            ],
            [
              136.077781,
              34.658761
            ],
            [
              136.064846,
              34.651564
            ],
            [
              136.073565,
              34.634813
            ],
            [
              136.046568,
              34.600557
            ],
            [
              136.052179,
              34.578568
            ],
            [
              136.0918,
              34.556844
            ],
            [
              136.11015,
              34.556714
            ],
            [
              136.123733,
              34.548099
            ],
            [
              136.138218,
              34.560998
            ],
            [
              136.162997,
              34.548526
            ],
            [
              136.176901,
              34.568325
            ],
            [
              136.193342,
              34.566836
            ]
          ]
        ]
      },
      "properties": {
        "N03_001": "三重県",
        "N03_002": null,
        "N03_003": null,
        "N03_004": "名張市",
        "N03_005": null,
        "N03_007": "24208"
      }
    },
    {
      "type": "Feature",
      "geometry": {
        "type": "MultiPolygon",
        "coordinates": [
          [
            [
              [
                136.254685,
                34.088507
              ],
              [
                136.264752,
                34.097466
              ],
              [
                136.274121,
                34.083253
              ],
              [
                136.286289,
                34.093477
              ],
              [
                136.302496,
                34.098915
              ],
              [
                136.277274,
                34.112145
              ],
              [
                136.258353,
                34.103065
              ],
              [
                136.254685,
                34.088507
              ]
            ]
          ],
          [
            [
              [
                136.104505,
                34.114158
              ],
              [
                136.107866,
                34.103093
              ],
              [
                136.097883,
                34.086739
              ],
              [
                136.092032,
                34.048335
              ],
              [
                136.101353,
                34.039193
              ],
              [
                136.101062,
                34.025763
              ],
              [
                136.124113,
                34.027889
              ],
              [
                136.148086,
                34.025299
              ],
              [
                136.150942,
                34.013468
              ],
              [
                136.136818,
                34.00812
              ],
              [
                136.131576,
                33.995426
              ],
              [
                136.140885,
                33.964413
              ],
              [
                136.151044,
                33.957812
              ],
              [
                136.167775,
                33.95714
              ],
              [
                136.176829,
                33.966633
              ],
              [
                136.191364,
                33.954396
              ],
              [
                136.218786,
                33.954626
              ],
              [
                136.231591,
                33.947559
              ],
              [
                136.215496,
                33.983301
              ],
              [
                136.22112,
                33.996108
              ],
              [
                136.249033,
                33.972683
              ],
              [
                136.262936,
                33.967138
              ],
              [
                136.272151,
                33.972556
              ],
              [
                136.265755,
                33.993369
              ],
              [
                136.256818,
                34.00512
              ],
              [
                136.281675,
                34.022347
              ],
              [
                136.269952,
                34.030092
              ],
              [
                136.244363,
                34.038448
              ],
              [
                136.241697,
                34.065924
              ],
              [
                136.211002,
                34.06303
              ],
              [
                136.201605,
                34.076983
              ],
              [
                136.225619,
                34.081075
              ],
              [
                136.23643,
                34.086784
              ],
              [
                136.215616,
                34.093181
              ],
              [
                136.189762,
                34.090001
              ],
              [
                136.167817,
                34.092251
              ],
              [
                136.164479,
                34.108509
              ],
              [
                136.145645,
                34.120226
              ],
              [
                136.104505,
                34.114158
              ]
            ]
          ]
        ]
      },
      "properties": {
        "N03_001": "三重県",
        "N03_002": null,
        "N03_003": null,
        "N03_004": "尾鷲市",
        "N03_005": null,
        "N03_007": "24209"
      }
    },
    {
      "type": "Feature",
      "geometry": {
        "type": "Polygon",
        "coordinates": [
          [
            [
              136.487984,
              34.802365
            ],
            [
              136.49189,
              34.823084
            ],
            [
              136.48185,
              34.836421
            ],
            [
              136.496212,
              34.864845
            ],
            [
              136.494289,
              34.901241
            ],
            [
              136.476633,
              34.904982
            ],
            [
              136.455625,
              34.904217
            ],
            [
              136.43117,
              34.920334
            ],
            [
              136.431404,
              34.931066
            ],
            [
              136.418858,
              34.945648
            ],
            [
              136.385671,
              34.952649
            ],
            [
              136.367812,
              34.921901
            ],
            [
              136.366034,
              34.904899
            ],
            [
              136.346133,
              34.894707
            ],
            [
              136.313226,
              34.886972
            ],
            [
              136.312918,
              34.880627
            ],
            [
              136.283356,
              34.869634
            ],
            [
              136.289882,
              34.840913
            ],
            [
              136.27846,
              34.834926
            ],
            [
              136.277894,
              34.810681
            ],
            [
              136.293716,
              34.812935
            ],
            [
              136.311695,
              34.807028
            ],
            [
              136.334064,
              34.818149
            ],
            [
              136.359256,
              34.822625
            ],
            [
              136.374364,
              34.820674
            ],
            [
              136.3889,
              34.835806
            ],
            [
              136.40761,
              34.843353
            ],
            [
              136.434656,
              34.839864
            ],
            [
              136.435875,
              34.822301
            ],
            [
              136.450233,
              34.810938
            ],
            [
              136.471455,
              34.812196
            ],
            [
              136.487984,
              34.802365
            ]
          ]
        ]
      },
      "properties": {
        "N03_001": "三重県",
        "N03_002": null,
        "N03_003": null,
        "N03_004": "亀山市",
        "N03_005": null,
        "N03_007": "24210"
      }
    },
    {
      "type": "Feature",
      "geometry": {
        "type": "MultiPolygon",
        "coordinates": [
          [
            [
              [
                136.787478,
                34.423291
              ],
              [
                136.793043,
                34.424324
              ],
              [
                136.819742,
                34.412434
              ],
              [
                136.835542,
                34.399041
              ],
              [
                136.846949,
                34.407849
              ],
              [
                136.867618,
                34.403
              ],
              [
                136.866468,
                34.393568
              ],
              [
                136.880692,
                34.380224
              ],
              [
                136.913696,
                34.378463
              ],
              [
                136.909386,
                34.398391
              ],
              [
                136.920007,
                34.411222
              ],
              [
                136.91936,
                34.445223
              ],
              [
                136.908137,
                34.451511
              ],
              [
                136.875322,
                34.450519
              ],
              [
                136.866559,
                34.481105
              ],
              [
                136.84731,
                34.480519
              ],
              [
                136.831913,
                34.506233
              ],
              [
                136.825087,
                34.484263
              ],
              [
                136.807012,
                34.481267
              ],
              [
                136.800793,
                34.459123
              ],
              [
                136.787343,
                34.45598
              ],
              [
                136.781558,
                34.446033
              ],
              [
                136.787478,
                34.423291
              ]
            ]
          ],
          [
            [
              [
                136.879445,
                34.481645
              ],
              [
                136.906791,
                34.489231
              ],
              [
                136.90869,
                34.503075
              ],
              [
                136.877851,
                34.494127
              ],
              [
                136.879445,
                34.481645
              ]
            ]
          ],
          [
            [
              [
                136.882535,
                34.531438
              ],
              [
                136.869995,
                34.517774
              ],
              [
                136.852808,
                34.516359
              ],
              [
                136.858119,
                34.505722
              ],
              [
                136.885949,
                34.516069
              ],
              [
                136.904108,
                34.530109
              ],
              [
                136.901363,
                34.538124
              ],
              [
                136.882535,
                34.531438
              ]
            ]
          ]
        ]
      },
      "properties": {
        "N03_001": "三重県",
        "N03_002": null,
        "N03_003": null,
        "N03_004": "鳥羽市",
        "N03_005": null,
        "N03_007": "24211"
      }
    },
    {
      "type": "Feature",
      "geometry": {
        "type": "Polygon",
        "coordinates": [
          [
            [
              136.101062,
              34.025763
            ],
            [
              136.096521,
              34.022429
            ],
            [
              136.072844,
              34.033831
            ],
            [
              136.031728,
              34.031867
            ],
            [
              136.019631,
              34.036793
            ],
            [
              136.014964,
              34.024598
            ],
            [
              136.003676,
              34.013514
            ],
            [
              136.007585,
              33.981065
            ],
            [
              136.014296,
              33.968874
            ],
            [
              135.999528,
              33.955743
            ],
            [
              135.987151,
              33.968213
            ],
            [
              135.974938,
              33.961609
            ],
            [
              135.977461,
              33.947391
            ],
            [
              135.966961,
              33.927848
            ],
            [
              135.944194,
              33.939553
            ],
            [
              135.929096,
              33.941422
            ],
            [
              135.917367,
              33.923536
            ],
            [
              135.894352,
              33.920592
            ],
            [
              135.895582,
              33.906635
            ],
            [
              135.884219,
              33.886537
            ],
            [
              135.897718,
              33.869853
            ],
            [
              135.878603,
              33.87195
            ],
            [
              135.860588,
              33.848958
            ],
            [
              135.855731,
              33.836689
            ],
            [
              135.856431,
              33.818427
            ],
            [
              135.864396,
              33.810468
            ],
            [
              135.891681,
              33.801065
            ],
            [
              135.901398,
              33.780824
            ],
            [
              135.920296,
              33.790646
            ],
            [
              135.926734,
              33.802809
            ],
            [
              135.946046,
              33.815727
            ],
            [
              135.946357,
              33.827959
            ],
            [
              135.935993,
              33.836279
            ],
            [
              135.938795,
              33.844749
            ],
            [
              135.961726,
              33.846718
            ],
            [
              135.970533,
              33.86292
            ],
            [
              135.967779,
              33.879744
            ],
            [
              135.981524,
              33.89032
            ],
            [
              135.991442,
              33.887117
            ],
            [
              136.010368,
              33.892106
            ],
            [
              136.035088,
              33.892645
            ],
            [
              136.035285,
              33.876908
            ],
            [
              136.045652,
              33.863244
            ],
            [
              136.067579,
              33.853542
            ],
            [
              136.066059,
              33.840476
            ],
            [
              136.081205,
              33.863662
            ],
            [
              136.100846,
              33.885395
            ],
            [
              136.134136,
              33.899042
            ],
            [
              136.138713,
              33.908538
            ],
            [
              136.152053,
              33.912577
            ],
            [
              136.147641,
              33.925604
            ],
            [
              136.159764,
              33.93117
            ],
            [
              136.169764,
              33.913353
            ],
            [
              136.193799,
              33.917119
            ],
            [
              136.200487,
              33.941905
            ],
            [
              136.214714,
              33.937619
            ],
            [
              136.231591,
              33.947559
            ],
            [
              136.218786,
              33.954626
            ],
            [
              136.191364,
              33.954396
            ],
            [
              136.176829,
              33.966633
            ],
            [
              136.167775,
              33.95714
            ],
            [
              136.151044,
              33.957812
            ],
            [
              136.140885,
              33.964413
            ],
            [
              136.131576,
              33.995426
            ],
            [
              136.136818,
              34.00812
            ],
            [
              136.150942,
              34.013468
            ],
            [
              136.148086,
              34.025299
            ],
            [
              136.124113,
              34.027889
            ],
            [
              136.101062,
              34.025763
            ]
          ]
        ]
      },
      "properties": {
        "N03_001": "三重県",
        "N03_002": null,
        "N03_003": null,
        "N03_004": "熊野市",
        "N03_005": null,
        "N03_007": "24212"
      }
    },
    {
      "type": "Feature",
      "geometry": {
        "type": "Polygon",
        "coordinates": [
          [
            [
              136.563789,
              35.064363
            ],
            [
              136.57333,
              35.090066
            ],
            [
              136.594352,
              35.115998
            ],
            [
              136.574643,
              35.14531
            ],
            [
              136.577418,
              35.171358
            ],
            [
              136.593667,
              35.180545
            ],
            [
              136.576056,
              35.202252
            ],
            [
              136.55984,
              35.206578
            ],
            [
              136.550445,
              35.233055
            ],
            [
              136.540855,
              35.237413
            ],
            [
              136.534175,
              35.257089
            ],
            [
              136.516011,
              35.253894
            ],
            [
              136.510798,
              35.23863
            ],
            [
              136.481109,
              35.234976
            ],
            [
              136.466254,
              35.238054
            ],
            [
              136.442218,
              35.21707
            ],
            [
              136.430901,
              35.229404
            ],
            [
              136.416033,
              35.220316
            ],
            [
              136.418002,
              35.203778
            ],
            [
              136.408653,
              35.187183
            ],
            [
              136.424703,
              35.184381
            ],
            [
              136.445335,
              35.166183
            ],
            [
              136.455038,
              35.152481
            ],
            [
              136.444299,
              35.149244
            ],
            [
              136.435585,
              35.130778
            ],
            [
              136.448055,
              35.123719
            ],
            [
              136.439848,
              35.116013
            ],
            [
              136.441927,
              35.086622
            ],
            [
              136.458883,
              35.085689
            ],
            [
              136.476935,
              35.092792
            ],
            [
              136.507682,
              35.087922
            ],
            [
              136.518286,
              35.089824
            ],
            [
              136.527728,
              35.076327
            ],
            [
              136.538812,
              35.070505
            ],
            [
              136.563789,
              35.064363
            ]
          ]
        ]
      },
      "properties": {
        "N03_001": "三重県",
        "N03_002": null,
        "N03_003": null,
        "N03_004": "いなべ市",
        "N03_005": null,
        "N03_007": "24214"
      }
    },
    {
      "type": "Feature",
      "geometry": {
        "type": "Polygon",
        "coordinates": [
          [
            [
              136.745622,
              34.385099
            ],
            [
              136.742997,
              34.377975
            ],
            [
              136.754017,
              34.368197
            ],
            [
              136.747871,
              34.351873
            ],
            [
              136.756046,
              34.340921
            ],
            [
              136.745594,
              34.325321
            ],
            [
              136.724324,
              34.316352
            ],
            [
              136.705683,
              34.313004
            ],
            [
              136.715656,
              34.302334
            ],
            [
              136.737636,
              34.301955
            ],
            [
              136.753227,
              34.292504
            ],
            [
              136.773138,
              34.295742
            ],
            [
              136.792507,
              34.288364
            ],
            [
              136.811643,
              34.298052
            ],
            [
              136.809031,
              34.309059
            ],
            [
              136.837153,
              34.307423
            ],
            [
              136.830082,
              34.275418
            ],
            [
              136.804869,
              34.273109
            ],
            [
              136.792858,
              34.277939
            ],
            [
              136.768294,
              34.277326
            ],
            [
              136.761002,
              34.273133
            ],
            [
              136.765369,
              34.259796
            ],
            [
              136.781848,
              34.260836
            ],
            [
              136.804804,
              34.252218
            ],
            [
              136.84066,
              34.252264
            ],
            [
              136.852097,
              34.261154
            ],
            [
              136.868782,
              34.262007
            ],
            [
              136.869821,
              34.273384
            ],
            [
              136.900372,
              34.276033
            ],
            [
              136.89581,
              34.291166
            ],
            [
              136.884156,
              34.298671
            ],
            [
              136.892694,
              34.315564
            ],
            [
              136.879425,
              34.324545
            ],
            [
              136.881657,
              34.345319
            ],
            [
              136.892064,
              34.348778
            ],
            [
              136.891768,
              34.36574
            ],
            [
              136.872221,
              34.352133
            ],
            [
              136.853224,
              34.367298
            ],
            [
              136.876975,
              34.371215
            ],
            [
              136.866468,
              34.393568
            ],
            [
              136.867618,
              34.403
            ],
            [
              136.846949,
              34.407849
            ],
            [
              136.835542,
              34.399041
            ],
            [
              136.819742,
              34.412434
            ],
            [
              136.793043,
              34.424324
            ],
            [
              136.787478,
              34.423291
            ],
            [
              136.759219,
              34.41169
            ],
            [
              136.758362,
              34.398562
            ],
            [
              136.745622,
              34.385099
            ]
          ]
        ]
      },
      "properties": {
        "N03_001": "三重県",
        "N03_002": null,
        "N03_003": null,
        "N03_004": "志摩市",
        "N03_005": null,
        "N03_007": "24215"
      }
    },
    {
      "type": "Feature",
      "geometry": {
        "type": "Polygon",
        "coordinates": [
          [
            [
              136.311695,
              34.807028
            ],
            [
              136.293716,
              34.812935
            ],
            [
              136.277894,
              34.810681
            ],
            [
              136.27846,
              34.834926
            ],
            [
              136.289882,
              34.840913
            ],
            [
              136.283356,
              34.869634
            ],
            [
              136.253767,
              34.858154
            ],
            [
              136.227832,
              34.860972
            ],
            [
              136.190474,
              34.873085
            ],
            [
              136.165827,
              34.887918
            ],
            [
              136.147933,
              34.881866
            ],
            [
              136.131216,
              34.883105
            ],
            [
              136.106218,
              34.900068
            ],
            [
              136.085672,
              34.877148
            ],
            [
              136.103167,
              34.869694
            ],
            [
              136.123988,
              34.872487
            ],
            [
              136.126411,
              34.861852
            ],
            [
              136.107074,
              34.852564
            ],
            [
              136.104473,
              34.840581
            ],
            [
              136.086053,
              34.837598
            ],
            [
              136.095187,
              34.819104
            ],
            [
              136.090318,
              34.811963
            ],
            [
              136.062549,
              34.79976
            ],
            [
              136.047013,
              34.801519
            ],
            [
              136.038779,
              34.794038
            ],
            [
              136.020175,
              34.790329
            ],
            [
              136.033578,
              34.779439
            ],
            [
              136.0286,
              34.757457
            ],
            [
              136.057466,
              34.737103
            ],
            [
              136.068084,
              34.723826
            ],
            [
              136.070115,
              34.712502
            ],
            [
              136.053584,
              34.704791
            ],
            [
              136.074933,
              34.697864
            ],
            [
              136.082107,
              34.679009
            ],
            [
              136.100729,
              34.673935
            ],
            [
              136.112009,
              34.66964
            ],
            [
              136.120455,
              34.688251
            ],
            [
              136.131716,
              34.681963
            ],
            [
              136.149181,
              34.661077
            ],
            [
              136.152246,
              34.645353
            ],
            [
              136.179352,
              34.626765
            ],
            [
              136.180628,
              34.595308
            ],
            [
              136.193342,
              34.566836
            ],
            [
              136.219538,
              34.568033
            ],
            [
              136.226356,
              34.579282
            ],
            [
              136.255907,
              34.583999
            ],
            [
              136.259062,
              34.59452
            ],
            [
              136.250091,
              34.599678
            ],
            [
              136.250465,
              34.619129
            ],
            [
              136.245239,
              34.630599
            ],
            [
              136.251355,
              34.643973
            ],
            [
              136.269993,
              34.664071
            ],
            [
              136.270431,
              34.686278
            ],
            [
              136.278559,
              34.689846
            ],
            [
              136.294603,
              34.715526
            ],
            [
              136.309564,
              34.724906
            ],
            [
              136.296653,
              34.733895
            ],
            [
              136.301114,
              34.743118
            ],
            [
              136.317028,
              34.747621
            ],
            [
              136.325201,
              34.760893
            ],
            [
              136.341115,
              34.769187
            ],
            [
              136.332234,
              34.787202
            ],
            [
              136.314731,
              34.791237
            ],
            [
              136.311695,
              34.807028
            ]
          ]
        ]
      },
      "properties": {
        "N03_001": "三重県",
        "N03_002": null,
        "N03_003": null,
        "N03_004": "伊賀市",
        "N03_005": null,
        "N03_007": "24216"
      }
    },
    {
      "type": "Feature",
      "geometry": {
        "type": "Polygon",
        "coordinates": [
          [
            [
              136.755169,
              35.039304
            ],
            [
              136.750464,
              35.079846
            ],
            [
              136.731275,
              35.097281
            ],
            [
              136.714072,
              35.105167
            ],
            [
              136.72646,
              35.062805
            ],
            [
              136.742864,
              35.038819
            ],
            [
              136.755169,
              35.039304
            ]
          ]
        ]
      },
      "properties": {
        "N03_001": "三重県",
        "N03_002": null,
        "N03_003": "桑名郡",
        "N03_004": "木曽岬町",
        "N03_005": null,
        "N03_007": "24303"
      }
    },
    {
      "type": "Feature",
      "geometry": {
        "type": "Polygon",
        "coordinates": [
          [
            [
              136.600186,
              35.048611
            ],
            [
              136.609271,
              35.061329
            ],
            [
              136.616124,
              35.092349
            ],
            [
              136.594352,
              35.115998
            ],
            [
              136.57333,
              35.090066
            ],
            [
              136.563789,
              35.064363
            ],
            [
              136.574005,
              35.053542
            ],
            [
              136.600186,
              35.048611
            ]
          ]
        ]
      },
      "properties": {
        "N03_001": "三重県",
        "N03_002": null,
        "N03_003": "員弁郡",
        "N03_004": "東員町",
        "N03_005": null,
        "N03_007": "24324"
      }
    },
    {
      "type": "Feature",
      "geometry": {
        "type": "Polygon",
        "coordinates": [
          [
            [
              136.538812,
              35.070505
            ],
            [
              136.527728,
              35.076327
            ],
            [
              136.518286,
              35.089824
            ],
            [
              136.507682,
              35.087922
            ],
            [
              136.476935,
              35.092792
            ],
            [
              136.458883,
              35.085689
            ],
            [
              136.441927,
              35.086622
            ],
            [
              136.438532,
              35.065473
            ],
            [
              136.417769,
              35.049468
            ],
            [
              136.417097,
              35.019518
            ],
            [
              136.42511,
              34.999718
            ],
            [
              136.445103,
              35.00038
            ],
            [
              136.46265,
              34.99063
            ],
            [
              136.474233,
              34.995811
            ],
            [
              136.515924,
              34.996687
            ],
            [
              136.544083,
              35.000961
            ],
            [
              136.534319,
              35.012963
            ],
            [
              136.554142,
              35.016879
            ],
            [
              136.558889,
              35.035789
            ],
            [
              136.534288,
              35.038023
            ],
            [
              136.541814,
              35.060469
            ],
            [
              136.538812,
              35.070505
            ]
          ]
        ]
      },
      "properties": {
        "N03_001": "三重県",
        "N03_002": null,
        "N03_003": "三重郡",
        "N03_004": "菰野町",
        "N03_005": null,
        "N03_007": "24341"
      }
    },
    {
      "type": "Feature",
      "geometry": {
        "type": "Polygon",
        "coordinates": [
          [
            [
              136.657911,
              35.025224
            ],
            [
              136.686264,
              35.035325
            ],
            [
              136.674971,
              35.046779
            ],
            [
              136.660346,
              35.04084
            ],
            [
              136.640698,
              35.043378
            ],
            [
              136.644854,
              35.02951
            ],
            [
              136.657911,
              35.025224
            ]
          ]
        ]
      },
      "properties": {
        "N03_001": "三重県",
        "N03_002": null,
        "N03_003": "三重郡",
        "N03_004": "朝日町",
        "N03_005": null,
        "N03_007": "24343"
      }
    },
    {
      "type": "Feature",
      "geometry": {
        "type": "Polygon",
        "coordinates": [
          [
            [
              136.673976,
              35.006362
            ],
            [
              136.700005,
              35.007212
            ],
            [
              136.700347,
              35.021042
            ],
            [
              136.686264,
              35.035325
            ],
            [
              136.657911,
              35.025224
            ],
            [
              136.654386,
              35.0182
            ],
            [
              136.673976,
              35.006362
            ]
          ]
        ]
      },
      "properties": {
        "N03_001": "三重県",
        "N03_002": null,
        "N03_003": "三重郡",
        "N03_004": "川越町",
        "N03_005": null,
        "N03_007": "24344"
      }
    },
    {
      "type": "Feature",
      "geometry": {
        "type": "Polygon",
        "coordinates": [
          [
            [
              136.407304,
              34.417488
            ],
            [
              136.433688,
              34.416476
            ],
            [
              136.452678,
              34.420413
            ],
            [
              136.466591,
              34.427801
            ],
            [
              136.468882,
              34.435723
            ],
            [
              136.498698,
              34.439266
            ],
            [
              136.511033,
              34.451722
            ],
            [
              136.547925,
              34.459599
            ],
            [
              136.552907,
              34.449829
            ],
            [
              136.578848,
              34.45165
            ],
            [
              136.583964,
              34.466702
            ],
            [
              136.579166,
              34.480539
            ],
            [
              136.600872,
              34.503806
            ],
            [
              136.587813,
              34.50854
            ],
            [
              136.587578,
              34.523636
            ],
            [
              136.565353,
              34.521135
            ],
            [
              136.538353,
              34.505424
            ],
            [
              136.517911,
              34.505953
            ],
            [
              136.503228,
              34.499638
            ],
            [
              136.496613,
              34.508719
            ],
            [
              136.477663,
              34.498011
            ],
            [
              136.48105,
              34.484794
            ],
            [
              136.456285,
              34.487435
            ],
            [
              136.446808,
              34.476582
            ],
            [
              136.427175,
              34.478562
            ],
            [
              136.418279,
              34.451655
            ],
            [
              136.422723,
              34.441753
            ],
            [
              136.409854,
              34.430978
            ],
            [
              136.407304,
              34.417488
            ]
          ]
        ]
      },
      "properties": {
        "N03_001": "三重県",
        "N03_002": null,
        "N03_003": "多気郡",
        "N03_004": "多気町",
        "N03_005": null,
        "N03_007": "24441"
      }
    },
    {
      "type": "Feature",
      "geometry": {
        "type": "Polygon",
        "coordinates": [
          [
            [
              136.660448,
              34.566304
            ],
            [
              136.647873,
              34.588918
            ],
            [
              136.627564,
              34.596191
            ],
            [
              136.607524,
              34.597436
            ],
            [
              136.614886,
              34.589055
            ],
            [
              136.607916,
              34.579739
            ],
            [
              136.609222,
              34.560607
            ],
            [
              136.603033,
              34.538712
            ],
            [
              136.587578,
              34.523636
            ],
            [
              136.587813,
              34.50854
            ],
            [
              136.600872,
              34.503806
            ],
            [
              136.622976,
              34.5156
            ],
            [
              136.652032,
              34.519667
            ],
            [
              136.660502,
              34.528514
            ],
            [
              136.645417,
              34.536308
            ],
            [
              136.647152,
              34.545609
            ],
            [
              136.658639,
              34.551605
            ],
            [
              136.660448,
              34.566304
            ]
          ]
        ]
      },
      "properties": {
        "N03_001": "三重県",
        "N03_002": null,
        "N03_003": "多気郡",
        "N03_004": "明和町",
        "N03_005": null,
        "N03_007": "24442"
      }
    },
    {
      "type": "Feature",
      "geometry": {
        "type": "Polygon",
        "coordinates": [
          [
            [
              136.131722,
              34.315965
            ],
            [
              136.111646,
              34.305014
            ],
            [
              136.095774,
              34.302944
            ],
            [
              136.097829,
              34.288822
            ],
            [
              136.111987,
              34.280736
            ],
            [
              136.121834,
              34.267127
            ],
            [
              136.118064,
              34.260596
            ],
            [
              136.131849,
              34.251896
            ],
            [
              136.130306,
              34.242873
            ],
            [
              136.115782,
              34.229625
            ],
            [
              136.118245,
              34.21428
            ],
            [
              136.097576,
              34.202472
            ],
            [
              136.092653,
              34.190183
            ],
            [
              136.109008,
              34.184996
            ],
            [
              136.104464,
              34.17361
            ],
            [
              136.120351,
              34.165658
            ],
            [
              136.135939,
              34.165585
            ],
            [
              136.158985,
              34.184866
            ],
            [
              136.192442,
              34.193693
            ],
            [
              136.189691,
              34.212041
            ],
            [
              136.207409,
              34.220706
            ],
            [
              136.217778,
              34.246082
            ],
            [
              136.240388,
              34.247578
            ],
            [
              136.242963,
              34.261431
            ],
            [
              136.254215,
              34.262804
            ],
            [
              136.269796,
              34.274266
            ],
            [
              136.26912,
              34.289056
            ],
            [
              136.287963,
              34.295216
            ],
            [
              136.314029,
              34.299296
            ],
            [
              136.324769,
              34.318838
            ],
            [
              136.335109,
              34.315867
            ],
            [
              136.354297,
              34.319227
            ],
            [
              136.373021,
              34.339851
            ],
            [
              136.411037,
              34.354424
            ],
            [
              136.417076,
              34.364208
            ],
            [
              136.418709,
              34.381952
            ],
            [
              136.405526,
              34.39043
            ],
            [
              136.425034,
              34.399757
            ],
            [
              136.434781,
              34.386283
            ],
            [
              136.429287,
              34.378861
            ],
            [
              136.439233,
              34.370659
            ],
            [
              136.450848,
              34.376319
            ],
            [
              136.445959,
              34.393127
            ],
            [
              136.45599,
              34.39524
            ],
            [
              136.477545,
              34.418974
            ],
            [
              136.495061,
              34.42067
            ],
            [
              136.497954,
              34.434159
            ],
            [
              136.516143,
              34.429592
            ],
            [
              136.526752,
              34.435309
            ],
            [
              136.547531,
              34.438671
            ],
            [
              136.552907,
              34.449829
            ],
            [
              136.547925,
              34.459599
            ],
            [
              136.511033,
              34.451722
            ],
            [
              136.498698,
              34.439266
            ],
            [
              136.468882,
              34.435723
            ],
            [
              136.466591,
              34.427801
            ],
            [
              136.452678,
              34.420413
            ],
            [
              136.433688,
              34.416476
            ],
            [
              136.407304,
              34.417488
            ],
            [
              136.378336,
              34.406677
            ],
            [
              136.359596,
              34.407609
            ],
            [
              136.323507,
              34.403745
            ],
            [
              136.298354,
              34.407994
            ],
            [
              136.273009,
              34.406757
            ],
            [
              136.256569,
              34.385034
            ],
            [
              136.271151,
              34.368578
            ],
            [
              136.259389,
              34.364817
            ],
            [
              136.252923,
              34.355084
            ],
            [
              136.215363,
              34.34823
            ],
            [
              136.207518,
              34.350135
            ],
            [
              136.18624,
              34.340045
            ],
            [
              136.188435,
              34.324592
            ],
            [
              136.166141,
              34.324198
            ],
            [
              136.158279,
              34.313452
            ],
            [
              136.131722,
              34.315965
            ]
          ]
        ]
      },
      "properties": {
        "N03_001": "三重県",
        "N03_002": null,
        "N03_003": "多気郡",
        "N03_004": "大台町",
        "N03_005": null,
        "N03_007": "24443"
      }
    },
    {
      "type": "Feature",
      "geometry": {
        "type": "Polygon",
        "coordinates": [
          [
            [
              136.652032,
              34.519667
            ],
            [
              136.622976,
              34.5156
            ],
            [
              136.600872,
              34.503806
            ],
            [
              136.579166,
              34.480539
            ],
            [
              136.583964,
              34.466702
            ],
            [
              136.578848,
              34.45165
            ],
            [
              136.587533,
              34.454252
            ],
            [
              136.624246,
              34.45205
            ],
            [
              136.650697,
              34.456723
            ],
            [
              136.670752,
              34.475751
            ],
            [
              136.644751,
              34.48435
            ],
            [
              136.649579,
              34.497776
            ],
            [
              136.639048,
              34.499854
            ],
            [
              136.652032,
              34.519667
            ]
          ]
        ]
      },
      "properties": {
        "N03_001": "三重県",
        "N03_002": null,
        "N03_003": "度会郡",
        "N03_004": "玉城町",
        "N03_005": null,
        "N03_007": "24461"
      }
    },
    {
      "type": "Feature",
      "geometry": {
        "type": "Polygon",
        "coordinates": [
          [
            [
              136.650697,
              34.456723
            ],
            [
              136.624246,
              34.45205
            ],
            [
              136.587533,
              34.454252
            ],
            [
              136.578848,
              34.45165
            ],
            [
              136.552907,
              34.449829
            ],
            [
              136.547531,
              34.438671
            ],
            [
              136.526752,
              34.435309
            ],
            [
              136.534492,
              34.414106
            ],
            [
              136.520977,
              34.393839
            ],
            [
              136.527988,
              34.380495
            ],
            [
              136.515901,
              34.373204
            ],
            [
              136.520616,
              34.358859
            ],
            [
              136.512272,
              34.338009
            ],
            [
              136.547185,
              34.319376
            ],
            [
              136.572837,
              34.322892
            ],
            [
              136.586164,
              34.316783
            ],
            [
              136.592488,
              34.328845
            ],
            [
              136.604775,
              34.328985
            ],
            [
              136.604458,
              34.34248
            ],
            [
              136.618289,
              34.370028
            ],
            [
              136.634841,
              34.373634
            ],
            [
              136.643263,
              34.3986
            ],
            [
              136.643299,
              34.423257
            ],
            [
              136.632643,
              34.431356
            ],
            [
              136.643149,
              34.439
            ],
            [
              136.650697,
              34.456723
            ]
          ]
        ]
      },
      "properties": {
        "N03_001": "三重県",
        "N03_002": null,
        "N03_003": "度会郡",
        "N03_004": "度会町",
        "N03_005": null,
        "N03_007": "24470"
      }
    },
    {
      "type": "Feature",
      "geometry": {
        "type": "Polygon",
        "coordinates": [
          [
            [
              136.269796,
              34.274266
            ],
            [
              136.288351,
              34.271699
            ],
            [
              136.295767,
              34.257164
            ],
            [
              136.311149,
              34.243312
            ],
            [
              136.343036,
              34.244386
            ],
            [
              136.356795,
              34.240287
            ],
            [
              136.373035,
              34.22242
            ],
            [
              136.370429,
              34.204594
            ],
            [
              136.387282,
              34.209137
            ],
            [
              136.412888,
              34.207905
            ],
            [
              136.43069,
              34.219852
            ],
            [
              136.422053,
              34.226391
            ],
            [
              136.416888,
              34.241667
            ],
            [
              136.418534,
              34.261411
            ],
            [
              136.428593,
              34.269809
            ],
            [
              136.432953,
              34.28395
            ],
            [
              136.453117,
              34.290959
            ],
            [
              136.463919,
              34.32755
            ],
            [
              136.497439,
              34.326574
            ],
            [
              136.512272,
              34.338009
            ],
            [
              136.520616,
              34.358859
            ],
            [
              136.515901,
              34.373204
            ],
            [
              136.527988,
              34.380495
            ],
            [
              136.520977,
              34.393839
            ],
            [
              136.534492,
              34.414106
            ],
            [
              136.526752,
              34.435309
            ],
            [
              136.516143,
              34.429592
            ],
            [
              136.497954,
              34.434159
            ],
            [
              136.495061,
              34.42067
            ],
            [
              136.477545,
              34.418974
            ],
            [
              136.45599,
              34.39524
            ],
            [
              136.445959,
              34.393127
            ],
            [
              136.450848,
              34.376319
            ],
            [
              136.439233,
              34.370659
            ],
            [
              136.429287,
              34.378861
            ],
            [
              136.434781,
              34.386283
            ],
            [
              136.425034,
              34.399757
            ],
            [
              136.405526,
              34.39043
            ],
            [
              136.418709,
              34.381952
            ],
            [
              136.417076,
              34.364208
            ],
            [
              136.411037,
              34.354424
            ],
            [
              136.373021,
              34.339851
            ],
            [
              136.354297,
              34.319227
            ],
            [
              136.335109,
              34.315867
            ],
            [
              136.324769,
              34.318838
            ],
            [
              136.314029,
              34.299296
            ],
            [
              136.287963,
              34.295216
            ],
            [
              136.26912,
              34.289056
            ],
            [
              136.269796,
              34.274266
            ]
          ]
        ]
      },
      "properties": {
        "N03_001": "三重県",
        "N03_002": null,
        "N03_003": "度会郡",
        "N03_004": "大紀町",
        "N03_005": null,
        "N03_007": "24471"
      }
    },
    {
      "type": "Feature",
      "geometry": {
        "type": "Polygon",
        "coordinates": [
          [
            [
              136.643263,
              34.3986
            ],
            [
              136.634841,
              34.373634
            ],
            [
              136.618289,
              34.370028
            ],
            [
              136.604458,
              34.34248
            ],
            [
              136.604775,
              34.328985
            ],
            [
              136.592488,
              34.328845
            ],
            [
              136.586164,
              34.316783
            ],
            [
              136.572837,
              34.322892
            ],
            [
              136.547185,
              34.319376
            ],
            [
              136.512272,
              34.338009
            ],
            [
              136.497439,
              34.326574
            ],
            [
              136.463919,
              34.32755
            ],
            [
              136.453117,
              34.290959
            ],
            [
              136.432953,
              34.28395
            ],
            [
              136.428593,
              34.269809
            ],
            [
              136.418534,
              34.261411
            ],
            [
              136.416888,
              34.241667
            ],
            [
              136.422053,
              34.226391
            ],
            [
              136.43069,
              34.219852
            ],
            [
              136.452425,
              34.219575
            ],
            [
              136.470512,
              34.232443
            ],
            [
              136.483273,
              34.22019
            ],
            [
              136.497971,
              34.225662
            ],
            [
              136.491763,
              34.242272
            ],
            [
              136.504837,
              34.24312
            ],
            [
              136.505134,
              34.265384
            ],
            [
              136.522812,
              34.266619
            ],
            [
              136.541147,
              34.278447
            ],
            [
              136.53735,
              34.256412
            ],
            [
              136.548227,
              34.249865
            ],
            [
              136.558526,
              34.267382
            ],
            [
              136.55346,
              34.280775
            ],
            [
              136.574522,
              34.282899
            ],
            [
              136.58592,
              34.257336
            ],
            [
              136.605059,
              34.258467
            ],
            [
              136.61822,
              34.273163
            ],
            [
              136.635882,
              34.27631
            ],
            [
              136.636278,
              34.285196
            ],
            [
              136.660153,
              34.288949
            ],
            [
              136.656927,
              34.299876
            ],
            [
              136.677409,
              34.315508
            ],
            [
              136.671043,
              34.337059
            ],
            [
              136.687511,
              34.33313
            ],
            [
              136.718509,
              34.342308
            ],
            [
              136.729894,
              34.333211
            ],
            [
              136.704005,
              34.329043
            ],
            [
              136.694121,
              34.319243
            ],
            [
              136.687292,
              34.301413
            ],
            [
              136.697618,
              34.289315
            ],
            [
              136.715656,
              34.302334
            ],
            [
              136.705683,
              34.313004
            ],
            [
              136.724324,
              34.316352
            ],
            [
              136.745594,
              34.325321
            ],
            [
              136.756046,
              34.340921
            ],
            [
              136.747871,
              34.351873
            ],
            [
              136.754017,
              34.368197
            ],
            [
              136.742997,
              34.377975
            ],
            [
              136.745622,
              34.385099
            ],
            [
              136.721082,
              34.391634
            ],
            [
              136.694566,
              34.385228
            ],
            [
              136.689202,
              34.395744
            ],
            [
              136.67211,
              34.392008
            ],
            [
              136.643263,
              34.3986
            ]
          ]
        ]
      },
      "properties": {
        "N03_001": "三重県",
        "N03_002": null,
        "N03_003": "度会郡",
        "N03_004": "南伊勢町",
        "N03_005": null,
        "N03_007": "24472"
      }
    },
    {
      "type": "Feature",
      "geometry": {
        "type": "Polygon",
        "coordinates": [
          [
            [
              136.302496,
              34.098915
            ],
            [
              136.307793,
              34.113424
            ],
            [
              136.28401,
              34.118081
            ],
            [
              136.277693,
              34.141893
            ],
            [
              136.279208,
              34.152872
            ],
            [
              136.303802,
              34.180139
            ],
            [
              136.317262,
              34.179472
            ],
            [
              136.328282,
              34.199532
            ],
            [
              136.349555,
              34.207885
            ],
            [
              136.364088,
              34.189215
            ],
            [
              136.370429,
              34.204594
            ],
            [
              136.373035,
              34.22242
            ],
            [
              136.356795,
              34.240287
            ],
            [
              136.343036,
              34.244386
            ],
            [
              136.311149,
              34.243312
            ],
            [
              136.295767,
              34.257164
            ],
            [
              136.288351,
              34.271699
            ],
            [
              136.269796,
              34.274266
            ],
            [
              136.254215,
              34.262804
            ],
            [
              136.242963,
              34.261431
            ],
            [
              136.240388,
              34.247578
            ],
            [
              136.217778,
              34.246082
            ],
            [
              136.207409,
              34.220706
            ],
            [
              136.189691,
              34.212041
            ],
            [
              136.192442,
              34.193693
            ],
            [
              136.158985,
              34.184866
            ],
            [
              136.135939,
              34.165585
            ],
            [
              136.120351,
              34.165658
            ],
            [
              136.105686,
              34.152517
            ],
            [
              136.101949,
              34.141329
            ],
            [
              136.108427,
              34.12686
            ],
            [
              136.104505,
              34.114158
            ],
            [
              136.145645,
              34.120226
            ],
            [
              136.164479,
              34.108509
            ],
            [
              136.167817,
              34.092251
            ],
            [
              136.189762,
              34.090001
            ],
            [
              136.215616,
              34.093181
            ],
            [
              136.23643,
              34.086784
            ],
            [
              136.228212,
              34.100542
            ],
            [
              136.243983,
              34.105226
            ],
            [
              136.26798,
              34.129019
            ],
            [
              136.266701,
              34.112694
            ],
            [
              136.248073,
              34.102957
            ],
            [
              136.254685,
              34.088507
            ],
            [
              136.258353,
              34.103065
            ],
            [
              136.277274,
              34.112145
            ],
            [
              136.302496,
              34.098915
            ]
          ]
        ]
      },
      "properties": {
        "N03_001": "三重県",
        "N03_002": null,
        "N03_003": "北牟婁郡",
        "N03_004": "紀北町",
        "N03_005": null,
        "N03_007": "24543"
      }
    },
    {
      "type": "Feature",
      "geometry": {
        "type": "Polygon",
        "coordinates": [
          [
            [
              135.946357,
              33.827959
            ],
            [
              135.964722,
              33.817049
            ],
            [
              135.980491,
              33.818601
            ],
            [
              135.995072,
              33.810839
            ],
            [
              135.999183,
              33.795216
            ],
            [
              136.006479,
              33.791363
            ],
            [
              136.005815,
              33.777191
            ],
            [
              136.018574,
              33.778438
            ],
            [
              136.031515,
              33.772288
            ],
            [
              136.066059,
              33.840476
            ],
            [
              136.067579,
              33.853542
            ],
            [
              136.045652,
              33.863244
            ],
            [
              136.035285,
              33.876908
            ],
            [
              136.035088,
              33.892645
            ],
            [
              136.010368,
              33.892106
            ],
            [
              135.991442,
              33.887117
            ],
            [
              135.981524,
              33.89032
            ],
            [
              135.967779,
              33.879744
            ],
            [
              135.970533,
              33.86292
            ],
            [
              135.961726,
              33.846718
            ],
            [
              135.938795,
              33.844749
            ],
            [
              135.935993,
              33.836279
            ],
            [
              135.946357,
              33.827959
            ]
          ]
        ]
      },
      "properties": {
        "N03_001": "三重県",
        "N03_002": null,
        "N03_003": "南牟婁郡",
        "N03_004": "御浜町",
        "N03_005": null,
        "N03_007": "24561"
      }
    },
    {
      "type": "Feature",
      "geometry": {
        "type": "Polygon",
        "coordinates": [
          [
            [
              135.901398,
              33.780824
            ],
            [
              135.906913,
              33.7671
            ],
            [
              135.916905,
              33.766618
            ],
            [
              135.928371,
              33.75402
            ],
            [
              135.938427,
              33.757091
            ],
            [
              135.942228,
              33.734556
            ],
            [
              135.963523,
              33.724314
            ],
            [
              135.9795,
              33.736879
            ],
            [
              136.007656,
              33.72731
            ],
            [
              136.018264,
              33.732304
            ],
            [
              136.031515,
              33.772288
            ],
            [
              136.018574,
              33.778438
            ],
            [
              136.005815,
              33.777191
            ],
            [
              136.006479,
              33.791363
            ],
            [
              135.999183,
              33.795216
            ],
            [
              135.995072,
              33.810839
            ],
            [
              135.980491,
              33.818601
            ],
            [
              135.964722,
              33.817049
            ],
            [
              135.946357,
              33.827959
            ],
            [
              135.946046,
              33.815727
            ],
            [
              135.926734,
              33.802809
            ],
            [
              135.920296,
              33.790646
            ],
            [
              135.901398,
              33.780824
            ]
          ]
        ]
      },
      "properties": {
        "N03_001": "三重県",
        "N03_002": null,
        "N03_003": "南牟婁郡",
        "N03_004": "紀宝町",
        "N03_005": null,
        "N03_007": "24562"
      }
    }
  ]
}