{"type": "FeatureCollection", "features": [{"type": "Feature", "properties": {"name": "京都府"}, "geometry": {"type": "MultiLineString", "coordinates": [[[135.717758, 34.832457], [135.705304, 34.85099], [135.694914, 34.848282], [135.690651, 34.856519], [135.691118, 34.868889], [135.682411, 34.872253], [135.679922, 34.881341], [135.683819, 34.888453], [135.667103, 34.904226], [135.676892, 34.914011], [135.663712, 34.905146], [135.648502, 34.909547], [135.653492, 34.917731], [135.643967, 34.93004], [135.623888, 34.934962], [135.615199, 34.927625], [135.599452, 34.928154], [135.613149, 34.941704], [135.618706, 34.958136], [135.613264, 34.971195], [135.61682, 34.97243], [135.594761, 34.969711], [135.584769, 34.976088], [135.570927, 34.969788], [135.578578, 34.955885], [135.563131, 34.953664], [135.562383, 34.943756], [135.557187, 34.938692], [135.5628, 34.933418], [135.5718, 34.939064], [135.581053, 34.937036], [135.581258, 34.922452], [135.572291, 34.916383], [135.54947, 34.918554], [135.540214, 34.916341], [135.538146, 34.9254], [135.517271, 34.93348], [135.514594, 34.94412], [135.504198, 34.946398], [135.494355, 34.940855], [135.481138, 34.949739], [135.487329, 34.957168], [135.481166, 34.962399], [135.488263, 34.967294], [135.483163, 34.981868], [135.493056, 34.989068], [135.481886, 34.995146], [135.471222, 34.994805], [135.440184, 35.007693], [135.433487, 35.00792], [135.421013, 35.002156], [135.409767, 35.011526], [135.403247, 35.006692], [135.397474, 35.010642], [135.381693, 35.010248], [135.37765, 35.020337], [135.385847, 35.028141], [135.376221, 35.043979], [135.371246, 35.045289], [135.370451, 35.057693], [135.376614, 35.066024], [135.399686, 35.076163], [135.400109, 35.085958], [135.404347, 35.08885], [135.391614, 35.098028], [135.401992, 35.105296], [135.388237, 35.096881], [135.389173, 35.108334], [135.393366, 35.111508], [135.385915, 35.120311], [135.391204, 35.126484], [135.360029, 35.132081], [135.354712, 35.136655], [135.342209, 35.135993], [135.337421, 35.144015], [135.340458, 35.150093], [135.293978, 35.14157], [135.27993, 35.146967], [135.292228, 35.161079], [135.287732, 35.172157], [135.273874, 35.177277], [135.232189, 35.177504], [135.22801, 35.165334], [135.20663, 35.160614], [135.194861, 35.171293], [135.186867, 35.173166], [135.19014, 35.183186], [135.186713, 35.190224], [135.199104, 35.193582], [135.197058, 35.203018], [135.188835, 35.206829], [135.182312, 35.215924], [135.175131, 35.214601], [135.170967, 35.220267], [135.163067, 35.220091], [135.154778, 35.226502], [135.161981, 35.231241], [135.166858, 35.240345], [135.161979, 35.257818], [135.15753, 35.261093], [135.137764, 35.26525], [135.128674, 35.260717], [135.10877, 35.26628], [135.098904, 35.25882], [135.091558, 35.25848], [135.0829, 35.24638], [135.067875, 35.237351], [135.055822, 35.259211], [135.042291, 35.26413], [135.03747, 35.260689], [135.018292, 35.269265], [135.010851, 35.269582], [135.011727, 35.28112], [134.999878, 35.287331], [134.960053, 35.297913], [134.943318, 35.308312], [134.934671, 35.307669], [134.9247, 35.31166], [134.921248, 35.317217], [134.926319, 35.322014], [134.925583, 35.336678], [134.917092, 35.340722], [134.918867, 35.350125], [134.923449, 35.354004], [134.918977, 35.36474], [134.927207, 35.379766], [134.923408, 35.394283], [134.932421, 35.406172], [134.946412, 35.413316], [134.961146, 35.408206], [134.970947, 35.398951], [134.985478, 35.396214], [134.990554, 35.385713], [135.001966, 35.38705], [135.00558, 35.390788], [135.019445, 35.394256], [135.029721, 35.405581], [135.030034, 35.4101], [135.049167, 35.407743], [135.050184, 35.419836], [135.046911, 35.427487], [135.051835, 35.442539], [135.050197, 35.450772], [135.045695, 35.454606], [135.040213, 35.481856], [135.04221, 35.493934], [135.032164, 35.497158], [135.045156, 35.508693], [135.042961, 35.520009], [135.036191, 35.53061], [135.037104, 35.537264], [135.053457, 35.531463], [135.030032, 35.540268], [135.008008, 35.533633], [134.996409, 35.53523], [134.971718, 35.524191], [134.960548, 35.512928], [134.953912, 35.516158], [134.930064, 35.511677], [134.915129, 35.527708], [134.919292, 35.538121], [134.914569, 35.545309], [134.903054, 35.549443], [134.900876, 35.556063], [134.881052, 35.564034], [134.880032, 35.569503], [134.855237, 35.593272], [134.865357, 35.599013], [134.866379, 35.613434], [134.873877, 35.620929], [134.871259, 35.636446], [134.865844, 35.638069], [134.870093, 35.659805], [134.879285, 35.661015], [134.885623, 35.656742], [134.884372, 35.646184], [134.900547, 35.649358], [134.9093, 35.645265], [134.931389, 35.648328], [134.963367, 35.662428], [134.972179, 35.675774], [134.97911, 35.681932], [134.985745, 35.692784], [134.993252, 35.689823], [135.015417, 35.694317], [135.025568, 35.68951], [135.032557, 35.70094], [135.042523, 35.699645], [135.061712, 35.707876], [135.068092, 35.718243], [135.07551, 35.718513], [135.085328, 35.72585], [135.085758, 35.739873], [135.094424, 35.742951], [135.102989, 35.741811], [135.124354, 35.745687], [135.138586, 35.757652], [135.146257, 35.749784], [135.170312, 35.75708], [135.175364, 35.761852], [135.183365, 35.760518], [135.197181, 35.764556], [135.206914, 35.763883], [135.22201, 35.771867], [135.231615, 35.767536], [135.246689, 35.757236], [135.256966, 35.744494], [135.274601, 35.742741], [135.273451, 35.730953], [135.284741, 35.729565], [135.288869, 35.724399], [135.285979, 35.705319], [135.292305, 35.706152], [135.308374, 35.69597], [135.298449, 35.679462], [135.303381, 35.662933], [135.295171, 35.659832], [135.287273, 35.665633], [135.295011, 35.671118], [135.287124, 35.675759], [135.279793, 35.668062], [135.2715, 35.669089], [135.252884, 35.648981], [135.244628, 35.620446], [135.235293, 35.616322], [135.22258, 35.600976], [135.213892, 35.597835], [135.205179, 35.582129], [135.191577, 35.569424], [135.186589, 35.557975], [135.187522, 35.54736], [135.198799, 35.536933], [135.205651, 35.539683], [135.210911, 35.549696], [135.204235, 35.55963], [135.226711, 35.569251], [135.230101, 35.576877], [135.240787, 35.587579], [135.256152, 35.598498], [135.256294, 35.588241], [135.247466, 35.586916], [135.250689, 35.570826], [135.255056, 35.567613], [135.268148, 35.567463], [135.274844, 35.56018], [135.261682, 35.553617], [135.244624, 35.561229], [135.237484, 35.554085], [135.237101, 35.546361], [135.244731, 35.535585], [135.269107, 35.533492], [135.272051, 35.524715], [135.288623, 35.516091], [135.310658, 35.512303], [135.317078, 35.522635], [135.323325, 35.525836], [135.331818, 35.516018], [135.334868, 35.504497], [135.330432, 35.492424], [135.323868, 35.489109], [135.324886, 35.480916], [135.313374, 35.452433], [135.321728, 35.452442], [135.327511, 35.459954], [135.326327, 35.464887], [135.345654, 35.47918], [135.349553, 35.486394], [135.379504, 35.490458], [135.385415, 35.478652], [135.394885, 35.484707], [135.400885, 35.494248], [135.393921, 35.499632], [135.388827, 35.516382], [135.380035, 35.502394], [135.372422, 35.506267], [135.358887, 35.50538], [135.355582, 35.502345], [135.3435, 35.504098], [135.349746, 35.519189], [135.337665, 35.525174], [135.338675, 35.547768], [135.348443, 35.542987], [135.357384, 35.549468], [135.36778, 35.551819], [135.379371, 35.562036], [135.390133, 35.556547], [135.402243, 35.561232], [135.413148, 35.570232], [135.426787, 35.566513], [135.425176, 35.574447], [135.435572, 35.582037], [135.434103, 35.590808], [135.444656, 35.590857], [135.462732, 35.603723], [135.456106, 35.584779], [135.447866, 35.578529], [135.451182, 35.568716], [135.465085, 35.571205], [135.473313, 35.557037], [135.460485, 35.548457], [135.449406, 35.525893], [135.449926, 35.520796], [135.476225, 35.505493], [135.472576, 35.501176], [135.476207, 35.489447], [135.470436, 35.489139], [135.458333, 35.468531], [135.470509, 35.454828], [135.444968, 35.431452], [135.470322, 35.454487], [135.480621, 35.448156], [135.486121, 35.448573], [135.488803, 35.438737], [135.50079, 35.433008], [135.495276, 35.42615], [135.502049, 35.420031], [135.510796, 35.424561], [135.526782, 35.419129], [135.530032, 35.408647], [135.525148, 35.40246], [135.531696, 35.392967], [135.526155, 35.386002], [135.534502, 35.377439], [135.564385, 35.377695], [135.579331, 35.375012], [135.588102, 35.368257], [135.59573, 35.372922], [135.614995, 35.37106], [135.636438, 35.363719], [135.642056, 35.366906], [135.660904, 35.356407], [135.668198, 35.357066], [135.675193, 35.350272], [135.700884, 35.343678], [135.718385, 35.355417], [135.731479, 35.350552], [135.740235, 35.358409], [135.75964, 35.353089], [135.764073, 35.344558], [135.780819, 35.340562], [135.790871, 35.323803], [135.795101, 35.321804], [135.787793, 35.308047], [135.79519, 35.321239], [135.80929, 35.316433], [135.810159, 35.309184], [135.821367, 35.297057], [135.820095, 35.290795], [135.829623, 35.276735], [135.834609, 35.274079], [135.849203, 35.279694], [135.851681, 35.285968], [135.860755, 35.28296], [135.854933, 35.271422], [135.844673, 35.261985], [135.846089, 35.257112], [135.837688, 35.237204], [135.838056, 35.226105], [135.829308, 35.220346], [135.835601, 35.206509], [135.83733, 35.196262], [135.841908, 35.18984], [135.845391, 35.165358], [135.856861, 35.156972], [135.848768, 35.142185], [135.852294, 35.134267], [135.849866, 35.120589], [135.835046, 35.091327], [135.83985, 35.08586], [135.831892, 35.071456], [135.835847, 35.06233], [135.832824, 35.052844], [135.825849, 35.053426], [135.814758, 35.0452], [135.827739, 35.030379], [135.827374, 35.022133], [135.834518, 35.022081], [135.835464, 35.012329], [135.820265, 35.013107], [135.832682, 35.009425], [135.832358, 35.000835], [135.826905, 34.991204], [135.843558, 34.989587], [135.856695, 34.982457], [135.852311, 34.971004], [135.844598, 34.968131], [135.873959, 34.955179], [135.878442, 34.947434], [135.862016, 34.951101], [135.878748, 34.947045], [135.876028, 34.94323], [135.879924, 34.934525], [135.870713, 34.926004], [135.868654, 34.919525], [135.871178, 34.909949], [135.862934, 34.903387], [135.863138, 34.891334], [135.886931, 34.883206], [135.885002, 34.875546], [135.897891, 34.871267], [135.907423, 34.874019], [135.912656, 34.883516], [135.923226, 34.883618], [135.941007, 34.893683], [135.939659, 34.881383], [135.943749, 34.874962], [135.940927, 34.863891], [135.946596, 34.852347], [135.93251, 34.844706], [135.957389, 34.854818], [135.972054, 34.846049], [135.969867, 34.837779], [136.003993, 34.844341], [136.002328, 34.832762], [136.0055, 34.826408], [136.016273, 34.828911], [136.028345, 34.820088], [135.994671, 34.825903], [136.028459, 34.819116], [136.027374, 34.814911], [136.016696, 34.81107], [136.010171, 34.798456], [136.022289, 34.791555], [136.022606, 34.782311], [136.033578, 34.779439], [136.028385, 34.758221], [136.038139, 34.756451], [136.038949, 34.749908], [136.055476, 34.738556], [136.043004, 34.73611], [136.039474, 34.720156], [136.028894, 34.713246], [136.028765, 34.706314], [136.013345, 34.707988], [136.009323, 34.716614], [135.99215, 34.712153], [135.986255, 34.715195], [135.983712, 34.734407], [135.976109, 34.741141], [135.969925, 34.741131], [135.95855, 34.740299], [135.954601, 34.748285], [135.943828, 34.741322], [135.930624, 34.738149], [135.923138, 34.744682], [135.928925, 34.751899], [135.919852, 34.754705], [135.911286, 34.743172], [135.897386, 34.730872], [135.890171, 34.708316], [135.885159, 34.71362], [135.872984, 34.711674], [135.863309, 34.706241], [135.849284, 34.708274], [135.831816, 34.713415], [135.819968, 34.711661], [135.810284, 34.71449], [135.799155, 34.72311], [135.791396, 34.724883], [135.778118, 34.723409], [135.754804, 34.728265], [135.757031, 34.736009], [135.747781, 34.746008], [135.738281, 34.752706], [135.730161, 34.766367], [135.728635, 34.777998], [135.740776, 34.788469], [135.746603, 34.801591], [135.731772, 34.824999], [135.725459, 34.828775], [135.722481, 34.836238], [135.717758, 34.832457]]]}}], "name": "京都府"}