{"type": "FeatureCollection", "features": [{"type": "Feature", "properties": {"name": "佐賀県"}, "geometry": {"type": "MultiLineString", "coordinates": [[[130.126321, 33.106932], [130.140659, 33.094376], [130.145823, 33.086649], [130.144718, 33.072992], [130.169725, 33.05102], [130.171212, 33.035826], [130.182735, 33.024772], [130.181242, 33.015107], [130.187885, 33.011673], [130.191509, 32.989859], [130.205078, 32.990918], [130.223983, 32.973546], [130.224921, 32.960776], [130.212572, 32.958042], [130.150092, 32.962591], [130.144056, 32.971684], [130.131341, 32.968295], [130.103026, 32.97474], [130.088682, 32.974032], [130.076132, 32.987651], [130.061227, 32.985851], [130.046805, 32.998444], [130.04414, 33.005259], [130.028014, 33.012446], [130.027969, 33.020023], [130.014952, 33.017479], [130.000834, 33.025872], [129.993591, 33.038783], [129.994494, 33.047717], [129.982873, 33.057116], [129.939506, 33.072941], [129.933335, 33.088105], [129.922357, 33.090493], [129.925273, 33.1059], [129.938732, 33.112721], [129.956532, 33.109248], [129.956285, 33.128628], [129.948913, 33.133876], [129.937746, 33.165961], [129.928353, 33.173729], [129.934594, 33.163276], [129.905277, 33.15794], [129.885393, 33.161935], [129.858022, 33.170791], [129.851565, 33.177296], [129.837938, 33.173255], [129.817148, 33.184536], [129.816741, 33.197736], [129.810058, 33.201796], [129.806897, 33.211169], [129.81308, 33.220943], [129.809914, 33.230364], [129.814086, 33.236373], [129.809695, 33.242814], [129.778471, 33.269206], [129.76825, 33.285789], [129.758968, 33.290851], [129.776617, 33.332994], [129.789359, 33.340478], [129.808619, 33.326647], [129.81235, 33.314401], [129.821389, 33.31051], [129.835609, 33.291542], [129.844063, 33.293177], [129.846547, 33.301605], [129.831137, 33.304171], [129.83588, 33.311555], [129.836057, 33.322907], [129.827569, 33.337164], [129.847755, 33.343722], [129.845236, 33.354176], [129.858417, 33.367854], [129.870968, 33.388228], [129.865128, 33.393191], [129.866574, 33.404151], [129.853807, 33.403154], [129.837826, 33.407759], [129.833152, 33.413977], [129.823681, 33.411935], [129.823578, 33.420887], [129.802755, 33.436117], [129.797353, 33.443554], [129.789361, 33.442012], [129.782972, 33.451268], [129.790045, 33.459], [129.798784, 33.45723], [129.793722, 33.472044], [129.820167, 33.483832], [129.826462, 33.479448], [129.826032, 33.468417], [129.839266, 33.462214], [129.835094, 33.452767], [129.844613, 33.444139], [129.855316, 33.447746], [129.848705, 33.449632], [129.857218, 33.464794], [129.845499, 33.479618], [129.841624, 33.491272], [129.829637, 33.505209], [129.836459, 33.513673], [129.845423, 33.517245], [129.857388, 33.505654], [129.858904, 33.510998], [129.850329, 33.514433], [129.848571, 33.522145], [129.856426, 33.533299], [129.8466, 33.542456], [129.851378, 33.553793], [129.868941, 33.537307], [129.881702, 33.534315], [129.896533, 33.549527], [129.917861, 33.541765], [129.928304, 33.545832], [129.929511, 33.536837], [129.945941, 33.528373], [129.957612, 33.529408], [129.956562, 33.518227], [129.9693, 33.511408], [129.961301, 33.503837], [129.953356, 33.503512], [129.944041, 33.493315], [129.945536, 33.484396], [129.937342, 33.48008], [129.947712, 33.472441], [129.960022, 33.483533], [129.970967, 33.474858], [129.95997, 33.468715], [129.970725, 33.454776], [129.99413, 33.447884], [130.02036, 33.446389], [130.034984, 33.451103], [130.039026, 33.470014], [130.044925, 33.467437], [130.068069, 33.472504], [130.073555, 33.469154], [130.090561, 33.468561], [130.100924, 33.470867], [130.106926, 33.477829], [130.129559, 33.475626], [130.138966, 33.470398], [130.148583, 33.477397], [130.156767, 33.476722], [130.169737, 33.464301], [130.183154, 33.466768], [130.188789, 33.474892], [130.198666, 33.4812], [130.226802, 33.476695], [130.249918, 33.470497], [130.262634, 33.478005], [130.274969, 33.479682], [130.296833, 33.462901], [130.306051, 33.463349], [130.321227, 33.458256], [130.334846, 33.450495], [130.339021, 33.440503], [130.345428, 33.445021], [130.355267, 33.433466], [130.368811, 33.436281], [130.377947, 33.427026], [130.378002, 33.413526], [130.378219, 33.424959], [130.396484, 33.427551], [130.404766, 33.416241], [130.416809, 33.410449], [130.407556, 33.399002], [130.413955, 33.390395], [130.422591, 33.398461], [130.441701, 33.397484], [130.437036, 33.404852], [130.442214, 33.415634], [130.458081, 33.419781], [130.462433, 33.427969], [130.476593, 33.438464], [130.48025, 33.436117], [130.512293, 33.449421], [130.534976, 33.440506], [130.541064, 33.421223], [130.540687, 33.403542], [130.542004, 33.366828], [130.535978, 33.342962], [130.52609, 33.340108], [130.508836, 33.343293], [130.505864, 33.332387], [130.499456, 33.325576], [130.479558, 33.335941], [130.476992, 33.326004], [130.489491, 33.3163], [130.484091, 33.305351], [130.461667, 33.304421], [130.455366, 33.294697], [130.467976, 33.287283], [130.453381, 33.28321], [130.448725, 33.278408], [130.449746, 33.265098], [130.43623, 33.269794], [130.438495, 33.289377], [130.426746, 33.289846], [130.430946, 33.280532], [130.428102, 33.271601], [130.415139, 33.269017], [130.419509, 33.261603], [130.413388, 33.251331], [130.402096, 33.248651], [130.400018, 33.2591], [130.388857, 33.256236], [130.390308, 33.245304], [130.385279, 33.24048], [130.374282, 33.246148], [130.369811, 33.238418], [130.379048, 33.229179], [130.378386, 33.221306], [130.362329, 33.215349], [130.355956, 33.209545], [130.339586, 33.204471], [130.340555, 33.188446], [130.35312, 33.180462], [130.355784, 33.140357], [130.287815, 33.146919], [130.285734, 33.161686], [130.278584, 33.168889], [130.25999, 33.179994], [130.251333, 33.190185], [130.229816, 33.192878], [130.229584, 33.192962], [130.232426, 33.185256], [130.223485, 33.166662], [130.190073, 33.146079], [130.191727, 33.14042], [130.168791, 33.129664], [130.149356, 33.112391], [130.12951, 33.11783], [130.128474, 33.121921], [130.126321, 33.106932]], [[129.971775, 33.539211], [129.97802, 33.538552], [129.973232, 33.527572], [129.965218, 33.528579], [129.971775, 33.539211]], [[129.882035, 33.567734], [129.893687, 33.554461], [129.880669, 33.547073], [129.873897, 33.559547], [129.882035, 33.567734]], [[129.755666, 33.563712], [129.739712, 33.573402], [129.746353, 33.582169], [129.753964, 33.577811], [129.768854, 33.58209], [129.77343, 33.572777], [129.761037, 33.567335], [129.755666, 33.563712]], [[129.868384, 33.596343], [129.864274, 33.586352], [129.851953, 33.59939], [129.853916, 33.609314], [129.863298, 33.608626], [129.859526, 33.603073], [129.868384, 33.596343]]]}}], "name": "佐賀県"}