{"type": "FeatureCollection", "features": [{"type": "Feature", "geometry": {"type": "Polygon", "coordinates": [[[130.21891, 33.247729], [130.218506, 33.246738], [130.223392, 33.240212], [130.221406, 33.229266], [130.229828, 33.215016], [130.229333, 33.203981], [130.234586, 33.204194], [130.234951, 33.198108], [130.231102, 33.197883], [130.229816, 33.192878], [130.247134, 33.191831], [130.24643, 33.202901], [130.253964, 33.202515], [130.25925, 33.1972], [130.255389, 33.197319], [130.251333, 33.190185], [130.25999, 33.179994], [130.278584, 33.168889], [130.278051, 33.164314], [130.285734, 33.161686], [130.283966, 33.156057], [130.287815, 33.146919], [130.355784, 33.140357], [130.35312, 33.180462], [130.346889, 33.182047], [130.340555, 33.188446], [130.339586, 33.204471], [130.343059, 33.208449], [130.355956, 33.209545], [130.362329, 33.215349], [130.378386, 33.221306], [130.379048, 33.229179], [130.369811, 33.238418], [130.374282, 33.246148], [130.377152, 33.25111], [130.372816, 33.253851], [130.373693, 33.257252], [130.358875, 33.257145], [130.350114, 33.256018], [130.349939, 33.250422], [130.343627, 33.249898], [130.342704, 33.255425], [130.335656, 33.297623], [130.343582, 33.299362], [130.33114, 33.356489], [130.326785, 33.360668], [130.318696, 33.358484], [130.314881, 33.360819], [130.307457, 33.356632], [130.304633, 33.348329], [130.304501, 33.352173], [130.297703, 33.357285], [130.300826, 33.361929], [130.29546, 33.362495], [130.288716, 33.368453], [130.293131, 33.371912], [130.291821, 33.382065], [130.276776, 33.380509], [130.273726, 33.387168], [130.278658, 33.402741], [130.292911, 33.402495], [130.297567, 33.404767], [130.299257, 33.409953], [130.313122, 33.411865], [130.320197, 33.420581], [130.327333, 33.422368], [130.332987, 33.439861], [130.338986, 33.440419], [130.339021, 33.440503], [130.340198, 33.443318], [130.334846, 33.450495], [130.321227, 33.458256], [130.313907, 33.457987], [130.306051, 33.463349], [130.296833, 33.462901], [130.274969, 33.479682], [130.262634, 33.478005], [130.249918, 33.470497], [130.244201, 33.474406], [130.237915, 33.474092], [130.233314, 33.478923], [130.226802, 33.476695], [130.198666, 33.4812], [130.198734, 33.47752], [130.188789, 33.474892], [130.188853, 33.470959], [130.183154, 33.466768], [130.168786, 33.467646], [130.169737, 33.464301], [130.170042, 33.464009], [130.169889, 33.463768], [130.164493, 33.455265], [130.17006, 33.449058], [130.167856, 33.431957], [130.167765, 33.431249], [130.16769, 33.430672], [130.163744, 33.423465], [130.156432, 33.419778], [130.15953, 33.415851], [130.170475, 33.415567], [130.164512, 33.409416], [130.156247, 33.409149], [130.15777, 33.400796], [130.15393, 33.391692], [130.140349, 33.378132], [130.139432, 33.372197], [130.14619, 33.355433], [130.140919, 33.346683], [130.142964, 33.339009], [130.142778, 33.339018], [130.142811, 33.338878], [130.145298, 33.338951], [130.152912, 33.339175], [130.179282, 33.339951], [130.207932, 33.340794], [130.20862, 33.340739], [130.227484, 33.331302], [130.223835, 33.320436], [130.225154, 33.318667], [130.232454, 33.308875], [130.234048, 33.298858], [130.231476, 33.298254], [130.237591, 33.294483], [130.242969, 33.278124], [130.244438, 33.253686], [130.244428, 33.25297], [130.235919, 33.252238], [130.234766, 33.256843], [130.222126, 33.254557], [130.221657, 33.254472], [130.220824, 33.252427], [130.21891, 33.247729]]]}, "properties": {"N03_001": "佐賀県", "N03_002": null, "N03_003": null, "N03_004": "佐賀市", "N03_005": null, "N03_007": "41201"}}, {"type": "Feature", "geometry": {"type": "MultiPolygon", "coordinates": [[[[129.855316, 33.447746], [129.844613, 33.444139], [129.838796, 33.450635], [129.836558, 33.449198], [129.837918, 33.445261], [129.835882, 33.442182], [129.835, 33.442302], [129.835094, 33.452767], [129.840391, 33.457568], [129.839266, 33.462214], [129.826032, 33.468417], [129.823551, 33.474313], [129.826519, 33.474689], [129.826494, 33.47678], [129.826524, 33.476807], [129.826503, 33.476844], [129.826493, 33.476838], [129.826462, 33.479448], [129.820167, 33.483832], [129.815186, 33.483438], [129.813025, 33.479403], [129.806581, 33.48576], [129.804118, 33.477593], [129.793722, 33.472044], [129.798354, 33.463718], [129.806249, 33.461899], [129.808044, 33.458238], [129.803495, 33.45328], [129.798789, 33.452943], [129.798784, 33.45723], [129.790045, 33.459], [129.784492, 33.456034], [129.782972, 33.451268], [129.786171, 33.448174], [129.78968, 33.451355], [129.789361, 33.442012], [129.797353, 33.443554], [129.796223, 33.440899], [129.801323, 33.440937], [129.802755, 33.436117], [129.814596, 33.433075], [129.813898, 33.428543], [129.820028, 33.426958], [129.818945, 33.424261], [129.831612, 33.422045], [129.823578, 33.420887], [129.823681, 33.411935], [129.833152, 33.413977], [129.838303, 33.41117], [129.837826, 33.407759], [129.853807, 33.403154], [129.855432, 33.405972], [129.861403, 33.405933], [129.859007, 33.411468], [129.862807, 33.412354], [129.863888, 33.408222], [129.866675, 33.409512], [129.863861, 33.406136], [129.867789, 33.408257], [129.866655, 33.405081], [129.87065, 33.404822], [129.866574, 33.404151], [129.868676, 33.399873], [129.866286, 33.396197], [129.870712, 33.396684], [129.871825, 33.39363], [129.870591, 33.391464], [129.870107, 33.393707], [129.864824, 33.393321], [129.865128, 33.393191], [129.87139, 33.390507], [129.872165, 33.390175], [129.875843, 33.387509], [129.876277, 33.387194], [129.878096, 33.387933], [129.883133, 33.389978], [129.883637, 33.390183], [129.88353, 33.390448], [129.879631, 33.400076], [129.879654, 33.400152], [129.881886, 33.407379], [129.891062, 33.40629], [129.903456, 33.4115], [129.905562, 33.406908], [129.919789, 33.394854], [129.914738, 33.377261], [129.9193, 33.364408], [129.923118, 33.365597], [129.925896, 33.357547], [129.930062, 33.357319], [129.937962, 33.345875], [129.945122, 33.34529], [129.954609, 33.322795], [129.959797, 33.327787], [129.955241, 33.341578], [129.955537, 33.345581], [129.9596, 33.347778], [129.967803, 33.336165], [129.982086, 33.326414], [129.989032, 33.325486], [129.99096, 33.328264], [130.007844, 33.316827], [130.008883, 33.304853], [130.011498, 33.29992], [130.01286, 33.297354], [130.014388, 33.294471], [130.019493, 33.29296], [130.025417, 33.283031], [130.027311, 33.281161], [130.027507, 33.280864], [130.027627, 33.280826], [130.036504, 33.277958], [130.036646, 33.278096], [130.04496, 33.286115], [130.050737, 33.28618], [130.05921, 33.291671], [130.063318, 33.297215], [130.075664, 33.301481], [130.077718, 33.302191], [130.077902, 33.303782], [130.080438, 33.306391], [130.08235, 33.306669], [130.086114, 33.312228], [130.09778, 33.31444], [130.116773, 33.326901], [130.127467, 33.339758], [130.142778, 33.339018], [130.142964, 33.339009], [130.140919, 33.346683], [130.14619, 33.355433], [130.139432, 33.372197], [130.140349, 33.378132], [130.15393, 33.391692], [130.15777, 33.400796], [130.156247, 33.409149], [130.164512, 33.409416], [130.170475, 33.415567], [130.15953, 33.415851], [130.156432, 33.419778], [130.163744, 33.423465], [130.16769, 33.430672], [130.167765, 33.431249], [130.167856, 33.431957], [130.17006, 33.449058], [130.164493, 33.455265], [130.169889, 33.463768], [130.170042, 33.464009], [130.169737, 33.464301], [130.156767, 33.476722], [130.148583, 33.477397], [130.138966, 33.470398], [130.129559, 33.475626], [130.106926, 33.477829], [130.100924, 33.470867], [130.090561, 33.468561], [130.073555, 33.469154], [130.068069, 33.472504], [130.044925, 33.467437], [130.039026, 33.470014], [130.035532, 33.465847], [130.036044, 33.460529], [130.041167, 33.455963], [130.034984, 33.451103], [130.02036, 33.446389], [129.99413, 33.447884], [129.979791, 33.453382], [129.978823, 33.456374], [129.970725, 33.454776], [129.961782, 33.458399], [129.966389, 33.461457], [129.967586, 33.460244], [129.969258, 33.461394], [129.965613, 33.463348], [129.960739, 33.460692], [129.958617, 33.465035], [129.961301, 33.461444], [129.964408, 33.463308], [129.95997, 33.468715], [129.967045, 33.47], [129.970967, 33.474858], [129.965217, 33.483178], [129.960022, 33.483533], [129.956839, 33.479555], [129.960908, 33.473051], [129.958286, 33.470689], [129.956632, 33.476183], [129.953722, 33.474631], [129.957303, 33.469869], [129.955813, 33.468777], [129.950145, 33.478467], [129.947563, 33.477807], [129.947712, 33.472441], [129.937342, 33.48008], [129.939215, 33.483415], [129.939647, 33.481069], [129.943934, 33.48316], [129.942706, 33.481317], [129.945536, 33.484396], [129.944041, 33.493315], [129.953356, 33.503512], [129.958977, 33.505982], [129.961301, 33.503837], [129.9693, 33.511408], [129.956562, 33.518227], [129.957612, 33.529408], [129.945941, 33.528373], [129.929511, 33.536837], [129.933029, 33.549416], [129.928109, 33.55064], [129.928304, 33.545832], [129.917861, 33.541765], [129.911639, 33.543461], [129.909211, 33.549371], [129.905253, 33.548652], [129.902519, 33.546907], [129.906454, 33.546258], [129.90365, 33.545068], [129.895072, 33.551087], [129.896533, 33.549527], [129.890121, 33.545665], [129.894572, 33.537857], [129.891451, 33.536991], [129.893091, 33.539562], [129.890601, 33.54179], [129.882767, 33.540563], [129.884724, 33.537881], [129.881702, 33.534315], [129.884048, 33.526254], [129.882075, 33.523721], [129.886645, 33.522219], [129.878797, 33.52263], [129.874354, 33.51597], [129.875412, 33.522991], [129.880642, 33.528229], [129.876281, 33.537244], [129.878295, 33.538162], [129.868941, 33.537307], [129.856439, 33.545982], [129.859557, 33.545141], [129.85832, 33.549276], [129.860803, 33.549771], [129.850933, 33.556408], [129.845927, 33.556109], [129.851378, 33.553793], [129.849896, 33.550276], [129.84987, 33.550472], [129.849803, 33.550416], [129.849817, 33.55023], [129.849861, 33.550195], [129.8466, 33.542456], [129.848416, 33.542121], [129.848296, 33.542021], [129.848356, 33.54192], [129.848666, 33.541999], [129.848666, 33.542075], [129.851459, 33.541559], [129.848794, 33.536773], [129.856426, 33.533299], [129.852381, 33.526046], [129.856971, 33.519337], [129.846971, 33.525194], [129.840188, 33.524782], [129.839906, 33.522308], [129.848571, 33.522145], [129.847382, 33.517607], [129.850329, 33.514433], [129.857075, 33.513492], [129.858904, 33.510998], [129.860466, 33.508869], [129.868534, 33.509066], [129.87691, 33.501324], [129.879587, 33.501082], [129.88585, 33.496559], [129.888868, 33.492173], [129.894262, 33.490483], [129.899007, 33.487056], [129.902048, 33.482636], [129.904999, 33.471361], [129.905039, 33.471082], [129.905047, 33.471027], [129.895109, 33.465262], [129.894534, 33.464928], [129.898869, 33.46319], [129.894303, 33.458263], [129.896617, 33.454641], [129.892286, 33.452229], [129.889006, 33.454536], [129.886983, 33.443196], [129.891411, 33.443069], [129.891369, 33.443027], [129.880707, 33.441059], [129.879138, 33.432738], [129.874629, 33.430727], [129.866394, 33.43651], [129.858727, 33.433354], [129.859951, 33.442664], [129.863367, 33.445449], [129.858329, 33.448761], [129.855316, 33.447746]]], [[[129.782038, 33.47705], [129.781373, 33.476356], [129.781756, 33.4763], [129.782341, 33.476655], [129.782038, 33.47705]]], [[[129.775894, 33.484863], [129.776096, 33.484947], [129.775901, 33.48519], [129.775793, 33.485004], [129.775894, 33.484863]]], [[[129.779975, 33.490337], [129.779927, 33.490398], [129.779888, 33.49037], [129.779954, 33.490318], [129.779975, 33.490337]]], [[[129.780631, 33.488806], [129.777669, 33.493995], [129.774428, 33.495224], [129.773379, 33.492687], [129.773944, 33.488223], [129.780631, 33.488806]]], [[[129.779732, 33.492231], [129.779655, 33.492236], [129.779572, 33.492114], [129.779679, 33.492091], [129.779732, 33.492231]]], [[[129.772331, 33.492557], [129.772438, 33.492569], [129.772526, 33.492693], [129.772163, 33.492574], [129.772331, 33.492557]]], [[[129.771773, 33.492739], [129.771826, 33.492752], [129.771874, 33.492796], [129.771758, 33.492825], [129.771773, 33.492739]]], [[[129.772069, 33.492914], [129.772042, 33.492946], [129.771951, 33.492906], [129.772022, 33.492872], [129.772069, 33.492914]]], [[[129.772205, 33.492944], [129.772264, 33.492979], [129.772241, 33.493049], [129.77216, 33.492974], [129.772205, 33.492944]]], [[[129.77205, 33.493074], [129.77193, 33.493038], [129.771922, 33.492999], [129.771999, 33.493015], [129.77205, 33.493074]]], [[[129.77222, 33.493182], [129.772267, 33.493118], [129.77232, 33.49316], [129.772256, 33.493199], [129.77222, 33.493182]]], [[[129.778356, 33.493861], [129.778349, 33.493913], [129.778273, 33.493904], [129.778294, 33.49385], [129.778356, 33.493861]]], [[[129.778567, 33.494116], [129.778509, 33.494196], [129.778442, 33.494103], [129.778495, 33.49408], [129.778567, 33.494116]]], [[[129.778274, 33.494242], [129.778157, 33.494234], [129.77814, 33.49418], [129.778271, 33.494183], [129.778274, 33.494242]]], [[[129.749603, 33.563999], [129.749745, 33.563982], [129.749671, 33.564151], [129.74957, 33.564106], [129.749603, 33.563999]]], [[[129.749388, 33.565601], [129.749563, 33.565634], [129.749563, 33.565747], [129.749496, 33.565736], [129.749388, 33.565601]]], [[[129.750108, 33.566119], [129.749947, 33.565871], [129.751151, 33.56626], [129.750969, 33.56635], [129.750108, 33.566119]]], [[[129.761037, 33.567335], [129.765563, 33.565435], [129.765929, 33.568898], [129.771095, 33.568832], [129.77343, 33.572777], [129.768854, 33.58209], [129.767135, 33.58223], [129.767179, 33.582243], [129.767145, 33.582287], [129.767078, 33.582242], [129.7671, 33.582233], [129.763134, 33.582555], [129.763115, 33.582563], [129.763108, 33.582558], [129.760409, 33.582777], [129.753964, 33.577811], [129.750451, 33.57935], [129.746353, 33.582169], [129.742107, 33.579023], [129.744886, 33.576007], [129.739712, 33.573402], [129.755666, 33.563712], [129.762927, 33.563689], [129.764919, 33.564956], [129.763398, 33.56474], [129.761037, 33.567335]]], [[[129.773646, 33.573966], [129.773713, 33.573927], [129.773753, 33.573972], [129.773666, 33.574006], [129.773646, 33.573966]]], [[[129.737572, 33.575792], [129.736811, 33.575386], [129.736919, 33.575291], [129.737552, 33.575246], [129.737572, 33.575792]]], [[[129.743433, 33.575781], [129.743399, 33.575731], [129.7435, 33.575725], [129.7435, 33.575764], [129.743433, 33.575781]]], [[[129.743715, 33.575753], [129.743763, 33.575742], [129.743803, 33.575764], [129.743742, 33.575793], [129.743715, 33.575753]]], [[[129.744059, 33.575849], [129.744038, 33.575781], [129.744139, 33.575809], [129.744119, 33.575849], [129.744059, 33.575849]]], [[[129.743332, 33.575832], [129.743265, 33.575849], [129.743244, 33.575826], [129.743292, 33.575793], [129.743332, 33.575832]]], [[[129.744435, 33.575877], [129.744368, 33.575883], [129.744348, 33.575832], [129.744402, 33.575804], [129.744435, 33.575877]]], [[[129.743096, 33.575962], [129.743036, 33.575984], [129.742982, 33.575956], [129.743049, 33.575911], [129.743096, 33.575962]]], [[[129.773188, 33.57696], [129.773262, 33.576915], [129.77329, 33.576972], [129.773221, 33.577011], [129.773188, 33.57696]]], [[[129.772932, 33.577682], [129.772932, 33.577625], [129.773026, 33.577653], [129.773013, 33.577693], [129.772932, 33.577682]]], [[[129.771923, 33.57935], [129.771869, 33.579322], [129.771916, 33.579271], [129.77195, 33.579316], [129.771923, 33.57935]]], [[[129.771209, 33.580049], [129.771384, 33.580038], [129.771445, 33.580083], [129.77129, 33.580106], [129.771209, 33.580049]]], [[[129.770173, 33.580929], [129.770234, 33.580991], [129.770139, 33.581013], [129.770113, 33.580957], [129.770173, 33.580929]]], [[[129.766667, 33.582293], [129.766627, 33.582327], [129.766593, 33.582304], [129.766614, 33.582276], [129.766667, 33.582293]]], [[[129.763754, 33.582671], [129.763707, 33.582693], [129.763686, 33.582659], [129.76372, 33.582642], [129.763754, 33.582671]]], [[[129.761937, 33.582856], [129.76187, 33.582789], [129.76191, 33.582738], [129.761978, 33.5828], [129.761937, 33.582856]]], [[[129.760719, 33.582862], [129.760692, 33.582828], [129.760719, 33.582794], [129.760773, 33.582823], [129.760719, 33.582862]]], [[[129.760484, 33.582941], [129.760571, 33.582879], [129.760591, 33.58298], [129.760531, 33.582992], [129.760484, 33.582941]]], [[[129.822251, 33.421295], [129.822172, 33.421284], [129.822326, 33.420561], [129.822405, 33.420574], [129.822251, 33.421295]]], [[[129.823267, 33.421838], [129.823185, 33.421828], [129.823261, 33.421464], [129.823336, 33.421479], [129.823267, 33.421838]]], [[[129.820943, 33.422612], [129.821178, 33.422578], [129.821199, 33.422658], [129.821031, 33.422697], [129.820943, 33.422612]]], [[[129.81022, 33.424731], [129.810151, 33.424889], [129.810031, 33.424772], [129.810113, 33.424709], [129.81022, 33.424731]]], [[[129.813839, 33.425852], [129.813789, 33.425866], [129.813757, 33.425794], [129.813786, 33.425779], [129.813839, 33.425852]]], [[[129.813879, 33.42659], [129.813851, 33.426654], [129.813799, 33.426633], [129.813794, 33.426588], [129.813879, 33.42659]]], [[[129.810966, 33.427178], [129.810704, 33.427398], [129.810456, 33.427342], [129.810832, 33.427015], [129.810966, 33.427178]]], [[[129.810886, 33.427855], [129.810933, 33.428272], [129.810758, 33.428306], [129.810462, 33.427894], [129.810886, 33.427855]]], [[[129.812936, 33.428457], [129.812956, 33.428385], [129.813098, 33.428475], [129.813004, 33.428498], [129.812936, 33.428457]]], [[[129.813554, 33.429709], [129.813615, 33.429625], [129.813716, 33.429721], [129.813655, 33.429766], [129.813554, 33.429709]]], [[[129.8134, 33.430758], [129.813568, 33.430814], [129.813602, 33.430871], [129.813191, 33.430837], [129.8134, 33.430758]]], [[[129.812654, 33.431677], [129.812849, 33.431666], [129.812963, 33.431778], [129.812681, 33.43175], [129.812654, 33.431677]]], [[[129.803975, 33.431987], [129.805911, 33.431288], [129.805636, 33.431919], [129.804822, 33.43219], [129.803975, 33.431987]]], [[[129.807921, 33.432793], [129.807551, 33.433013], [129.807349, 33.432928], [129.807686, 33.432646], [129.807921, 33.432793]]], [[[129.811018, 33.4331], [129.810041, 33.432754], [129.810064, 33.432694], [129.811045, 33.433036], [129.811018, 33.4331]]], [[[129.789255, 33.444441], [129.7893, 33.44446], [129.789257, 33.444522], [129.789212, 33.444453], [129.789255, 33.444441]]], [[[129.789343, 33.445368], [129.789278, 33.445405], [129.789241, 33.445379], [129.789308, 33.445336], [129.789343, 33.445368]]], [[[129.785971, 33.446987], [129.785645, 33.44803], [129.785553, 33.448016], [129.785876, 33.446964], [129.785971, 33.446987]]], [[[129.799429, 33.456345], [129.799476, 33.456226], [129.799658, 33.456283], [129.799584, 33.456379], [129.799429, 33.456345]]], [[[129.793163, 33.465956], [129.793024, 33.465903], [129.793188, 33.46579], [129.793197, 33.465888], [129.793163, 33.465956]]], [[[129.825954, 33.472696], [129.825992, 33.472638], [129.826067, 33.472688], [129.826034, 33.47273], [129.825954, 33.472696]]], [[[129.79449, 33.473656], [129.794407, 33.473561], [129.794528, 33.473504], [129.794562, 33.473623], [129.79449, 33.473656]]], [[[129.82543, 33.473786], [129.825486, 33.473748], [129.82549, 33.473872], [129.825429, 33.47386], [129.82543, 33.473786]]], [[[129.79594, 33.475611], [129.795838, 33.475624], [129.795846, 33.475575], [129.795943, 33.475571], [129.79594, 33.475611]]], [[[129.795634, 33.475695], [129.795621, 33.47574], [129.795516, 33.475732], [129.795591, 33.475648], [129.795634, 33.475695]]], [[[129.796018, 33.476045], [129.796059, 33.476002], [129.796072, 33.476071], [129.796034, 33.476101], [129.796018, 33.476045]]], [[[129.802333, 33.477686], [129.802336, 33.477746], [129.802274, 33.477721], [129.802286, 33.477687], [129.802333, 33.477686]]], [[[129.803001, 33.478906], [129.802932, 33.478955], [129.802894, 33.478882], [129.802946, 33.478882], [129.803001, 33.478906]]], [[[129.791725, 33.480494], [129.791906, 33.480455], [129.791959, 33.480567], [129.791718, 33.480669], [129.791725, 33.480494]]], [[[129.820963, 33.483529], [129.821011, 33.483532], [129.821067, 33.48358], [129.821008, 33.483629], [129.820963, 33.483529]]], [[[129.814736, 33.483719], [129.814924, 33.483703], [129.81483, 33.483951], [129.814702, 33.483844], [129.814736, 33.483719]]], [[[129.820031, 33.484129], [129.820003, 33.484098], [129.820051, 33.484058], [129.820088, 33.484096], [129.820031, 33.484129]]], [[[129.821488, 33.484124], [129.821497, 33.48416], [129.821383, 33.484136], [129.82144, 33.484096], [129.821488, 33.484124]]], [[[129.814581, 33.484419], [129.814561, 33.484447], [129.81448, 33.484402], [129.814547, 33.484357], [129.814581, 33.484419]]], [[[129.822705, 33.485068], [129.822748, 33.485092], [129.822702, 33.485151], [129.822673, 33.485117], [129.822705, 33.485068]]], [[[129.805679, 33.485274], [129.805654, 33.485207], [129.805701, 33.485168], [129.805761, 33.485264], [129.805679, 33.485274]]], [[[129.805385, 33.485473], [129.805358, 33.485428], [129.805425, 33.485376], [129.805456, 33.48548], [129.805385, 33.485473]]], [[[129.806238, 33.485929], [129.806198, 33.485822], [129.806319, 33.485794], [129.806353, 33.485878], [129.806238, 33.485929]]], [[[129.806634, 33.485871], [129.806572, 33.485937], [129.806523, 33.485902], [129.806529, 33.485849], [129.806634, 33.485871]]], [[[129.859684, 33.398954], [129.859919, 33.399134], [129.859395, 33.39923], [129.859456, 33.39901], [129.859684, 33.398954]]], [[[129.8564, 33.400876], [129.856434, 33.401073], [129.856226, 33.400977], [129.856219, 33.400859], [129.8564, 33.400876]]], [[[129.856776, 33.401406], [129.856937, 33.401349], [129.857152, 33.401581], [129.856904, 33.401609], [129.856776, 33.401406]]], [[[129.855756, 33.403374], [129.858744, 33.402088], [129.859294, 33.403553], [129.856803, 33.404895], [129.855756, 33.403374]]], [[[129.847802, 33.451658], [129.847712, 33.451642], [129.847769, 33.451519], [129.847864, 33.451603], [129.847802, 33.451658]]], [[[129.846419, 33.45448], [129.845512, 33.452969], [129.847058, 33.451802], [129.848678, 33.453922], [129.846419, 33.45448]]], [[[129.83812, 33.453655], [129.839533, 33.455913], [129.839462, 33.455947], [129.83812, 33.453655]]], [[[129.844019, 33.455698], [129.844046, 33.455083], [129.842863, 33.454091], [129.845048, 33.455455], [129.844019, 33.455698]]], [[[129.847487, 33.455216], [129.849028, 33.455066], [129.849464, 33.455681], [129.848221, 33.457152], [129.845848, 33.455376], [129.847118, 33.455252], [129.847502, 33.454857], [129.847555, 33.455156], [129.847487, 33.455216]]], [[[129.849996, 33.457586], [129.849881, 33.457671], [129.849781, 33.457626], [129.849928, 33.457456], [129.849996, 33.457586]]], [[[129.84812, 33.458122], [129.848174, 33.45806], [129.848288, 33.45811], [129.848201, 33.458178], [129.84812, 33.458122]]], [[[129.838311, 33.463438], [129.838272, 33.463369], [129.838345, 33.463309], [129.838345, 33.463417], [129.838311, 33.463438]]], [[[129.852239, 33.527252], [129.852327, 33.527156], [129.852374, 33.527241], [129.852313, 33.527286], [129.852239, 33.527252]]], [[[129.846674, 33.539101], [129.846407, 33.540433], [129.846324, 33.540421], [129.846082, 33.538763], [129.846674, 33.539101]]], [[[129.845671, 33.541322], [129.845724, 33.541255], [129.846914, 33.542186], [129.846857, 33.542241], [129.845671, 33.541322]]], [[[129.845537, 33.541458], [129.846136, 33.541739], [129.846446, 33.542117], [129.846035, 33.541999], [129.845537, 33.541458]]], [[[129.850099, 33.552287], [129.850052, 33.552344], [129.849971, 33.552281], [129.850039, 33.552208], [129.850099, 33.552287]]], [[[129.848733, 33.55311], [129.848383, 33.553324], [129.848154, 33.553291], [129.848504, 33.553042], [129.848733, 33.55311]]], [[[129.850611, 33.553736], [129.850631, 33.55368], [129.850698, 33.55368], [129.850691, 33.553759], [129.850611, 33.553736]]], [[[129.844911, 33.554226], [129.845039, 33.55417], [129.844985, 33.554294], [129.844945, 33.554294], [129.844911, 33.554226]]], [[[129.845503, 33.554429], [129.84553, 33.554447], [129.845449, 33.554514], [129.845429, 33.55448], [129.845503, 33.554429]]], [[[129.845348, 33.554581], [129.845342, 33.554644], [129.845268, 33.554649], [129.845308, 33.554576], [129.845348, 33.554581]]], [[[129.845728, 33.55487], [129.845687, 33.554817], [129.845759, 33.554803], [129.845786, 33.554839], [129.845728, 33.55487]]], [[[129.845752, 33.555123], [129.845698, 33.555089], [129.845732, 33.555038], [129.845799, 33.555066], [129.845752, 33.555123]]], [[[129.851869, 33.555873], [129.851916, 33.555788], [129.851997, 33.55585], [129.851963, 33.555934], [129.851869, 33.555873]]], [[[129.844554, 33.556329], [129.844709, 33.556357], [129.844729, 33.556436], [129.84448, 33.556453], [129.844554, 33.556329]]], [[[129.845544, 33.556261], [129.845651, 33.556628], [129.845147, 33.556351], [129.845315, 33.556228], [129.845544, 33.556261]]], [[[129.838464, 33.582604], [129.837987, 33.582891], [129.837536, 33.582728], [129.83796, 33.582361], [129.838464, 33.582604]]], [[[129.835638, 33.582733], [129.835598, 33.582677], [129.835672, 33.582654], [129.835685, 33.582733], [129.835638, 33.582733]]], [[[129.8351, 33.582745], [129.835234, 33.582739], [129.83527, 33.582931], [129.83514, 33.582908], [129.8351, 33.582745]]], [[[129.835611, 33.582993], [129.835537, 33.583043], [129.83549, 33.583043], [129.835531, 33.582953], [129.835611, 33.582993]]], [[[129.833485, 33.583043], [129.833532, 33.582936], [129.833599, 33.582981], [129.833559, 33.583117], [129.833485, 33.583043]]], [[[129.834003, 33.583134], [129.833963, 33.583201], [129.833875, 33.583072], [129.833963, 33.583077], [129.834003, 33.583134]]], [[[129.840888, 33.584334], [129.840573, 33.584437], [129.840832, 33.58427], [129.840888, 33.584334]]], [[[129.835598, 33.588545], [129.836757, 33.583878], [129.840586, 33.585484], [129.844771, 33.585096], [129.847721, 33.590535], [129.835598, 33.588545]]], [[[129.848696, 33.590716], [129.848642, 33.59066], [129.848743, 33.590637], [129.848763, 33.590671], [129.848696, 33.590716]]], [[[129.848669, 33.590818], [129.848676, 33.590851], [129.848615, 33.590868], [129.848615, 33.590818], [129.848669, 33.590818]]], [[[129.848615, 33.590879], [129.848568, 33.590981], [129.848406, 33.59097], [129.84842, 33.590913], [129.848615, 33.590879]]], [[[129.848406, 33.59124], [129.848373, 33.591246], [129.848352, 33.59119], [129.848426, 33.591184], [129.848406, 33.59124]]], [[[129.848292, 33.591426], [129.848251, 33.591438], [129.848251, 33.591359], [129.848292, 33.591376], [129.848292, 33.591426]]], [[[129.855822, 33.592768], [129.855789, 33.592723], [129.855822, 33.592656], [129.855876, 33.592695], [129.855822, 33.592768]]], [[[129.855526, 33.592734], [129.855607, 33.59265], [129.855687, 33.592706], [129.855546, 33.592802], [129.855526, 33.592734]]], [[[129.863298, 33.608626], [129.858877, 33.609289], [129.864901, 33.614686], [129.862705, 33.618954], [129.855936, 33.616738], [129.859701, 33.61282], [129.853916, 33.609314], [129.851953, 33.59939], [129.848965, 33.598563], [129.858596, 33.592178], [129.857449, 33.587767], [129.858348, 33.586978], [129.864274, 33.586352], [129.868384, 33.596343], [129.862308, 33.596771], [129.861812, 33.597896], [129.861864, 33.597893], [129.861857, 33.597932], [129.861794, 33.597935], [129.861131, 33.599437], [129.861177, 33.599573], [129.861116, 33.599595], [129.861087, 33.599537], [129.860977, 33.599786], [129.860969, 33.59989], [129.860926, 33.599902], [129.859526, 33.603073], [129.860098, 33.603914], [129.860106, 33.603885], [129.860153, 33.603908], [129.860144, 33.603982], [129.863298, 33.608626]]], [[[129.849558, 33.604392], [129.850097, 33.603975], [129.850393, 33.604539], [129.850198, 33.604669], [129.849558, 33.604392]]], [[[129.86231, 33.397104], [129.862908, 33.397375], [129.862941, 33.39755], [129.862088, 33.397454], [129.86231, 33.397104]]], [[[129.864096, 33.39826], [129.863109, 33.397482], [129.863378, 33.397178], [129.864681, 33.397719], [129.864096, 33.39826]]], [[[129.862823, 33.400328], [129.862983, 33.400302], [129.863002, 33.400386], [129.862814, 33.400414], [129.862823, 33.400328]]], [[[129.861343, 33.399652], [129.866433, 33.402296], [129.866306, 33.403121], [129.860658, 33.40091], [129.861343, 33.399652]]], [[[129.860517, 33.405177], [129.859947, 33.405218], [129.859786, 33.404852], [129.860671, 33.404422], [129.860517, 33.405177]]], [[[129.861729, 33.407436], [129.861718, 33.407373], [129.862194, 33.4073], [129.862208, 33.407368], [129.861729, 33.407436]]], [[[129.88242, 33.540915], [129.882386, 33.540911], [129.882312, 33.540856], [129.882374, 33.540803], [129.88242, 33.540915]]], [[[129.881936, 33.541403], [129.881903, 33.541634], [129.882015, 33.541996], [129.881461, 33.541526], [129.881936, 33.541403]]], [[[129.881226, 33.541961], [129.8813, 33.542246], [129.880727, 33.542301], [129.880937, 33.541747], [129.881226, 33.541961]]], [[[129.881182, 33.542513], [129.881074, 33.542497], [129.881064, 33.542428], [129.88122, 33.542457], [129.881182, 33.542513]]], [[[129.861283, 33.549825], [129.866384, 33.550064], [129.866371, 33.550265], [129.863307, 33.55], [129.861283, 33.549825]]], [[[129.893768, 33.553222], [129.89443, 33.552856], [129.895598, 33.552716], [129.892968, 33.553627], [129.893768, 33.553222]]], [[[129.880669, 33.547073], [129.893687, 33.554461], [129.888266, 33.556067], [129.890065, 33.559053], [129.882035, 33.567734], [129.873897, 33.559547], [129.876397, 33.549737], [129.868342, 33.546727], [129.874768, 33.543995], [129.881212, 33.544216], [129.880669, 33.547073]]], [[[129.890969, 33.557946], [129.891799, 33.557368], [129.89184, 33.557409], [129.89101, 33.557988], [129.890969, 33.557946]]], [[[129.874828, 33.561393], [129.874781, 33.561404], [129.874728, 33.561342], [129.874768, 33.56132], [129.874828, 33.561393]]], [[[129.885682, 33.563817], [129.885763, 33.563761], [129.885816, 33.563834], [129.885749, 33.563851], [129.885682, 33.563817]]], [[[129.896487, 33.564093], [129.89725, 33.564414], [129.897064, 33.564787], [129.896114, 33.564649], [129.896487, 33.564093]]], [[[129.880966, 33.567666], [129.880996, 33.567593], [129.881099, 33.567647], [129.880945, 33.567708], [129.880966, 33.567666]]], [[[129.881028, 33.567702], [129.881032, 33.567687], [129.881114, 33.567651], [129.881077, 33.567721], [129.881028, 33.567702]]], [[[129.881208, 33.567763], [129.881155, 33.567741], [129.881171, 33.567698], [129.88123, 33.567694], [129.881208, 33.567763]]], [[[129.868381, 33.585508], [129.868126, 33.585525], [129.868604, 33.585164], [129.868637, 33.585271], [129.868381, 33.585508]]], [[[129.869111, 33.590638], [129.868499, 33.590824], [129.86831, 33.590654], [129.868957, 33.589905], [129.869111, 33.590638]]], [[[129.891493, 33.593716], [129.891631, 33.59313], [129.892119, 33.593941], [129.891607, 33.59417], [129.891493, 33.593716]]], [[[129.891414, 33.594236], [129.89152, 33.594249], [129.891463, 33.594361], [129.8913, 33.594275], [129.891414, 33.594236]]], [[[129.893712, 33.59501], [129.893681, 33.594957], [129.893813, 33.594986], [129.893768, 33.595036], [129.893712, 33.59501]]], [[[129.894384, 33.595193], [129.894421, 33.595125], [129.894472, 33.595168], [129.894437, 33.595203], [129.894384, 33.595193]]], [[[129.864087, 33.597076], [129.864067, 33.596963], [129.864269, 33.597087], [129.864208, 33.597132], [129.864087, 33.597076]]], [[[129.863723, 33.596991], [129.863804, 33.596974], [129.863918, 33.597143], [129.863777, 33.597154], [129.863723, 33.596991]]], [[[129.862969, 33.597272], [129.862915, 33.597216], [129.862935, 33.597115], [129.86311, 33.597216], [129.862969, 33.597272]]], [[[129.862834, 33.597272], [129.862787, 33.597301], [129.862693, 33.597244], [129.862746, 33.597194], [129.862834, 33.597272]]], [[[129.863474, 33.59738], [129.863427, 33.59738], [129.863433, 33.597295], [129.863494, 33.597329], [129.863474, 33.59738]]], [[[129.863016, 33.597487], [129.862874, 33.597408], [129.862894, 33.597363], [129.863023, 33.597402], [129.863016, 33.597487]]], [[[129.893022, 33.597779], [129.892991, 33.597781], [129.892994, 33.59775], [129.893011, 33.597745], [129.893022, 33.597779]]], [[[129.894842, 33.593006], [129.898912, 33.593068], [129.897699, 33.594166], [129.898838, 33.595485], [129.901499, 33.591923], [129.903266, 33.602563], [129.898344, 33.604179], [129.893955, 33.601252], [129.894587, 33.595212], [129.893384, 33.592943], [129.898771, 33.592633], [129.894842, 33.593006]]], [[[129.861769, 33.59822], [129.861742, 33.598231], [129.861696, 33.59818], [129.861756, 33.598152], [129.861769, 33.59822]]], [[[129.861547, 33.598733], [129.861547, 33.598761], [129.861473, 33.598801], [129.861507, 33.598716], [129.861547, 33.598733]]], [[[129.893656, 33.601026], [129.893727, 33.601074], [129.89352, 33.601119], [129.893575, 33.60102], [129.893656, 33.601026]]], [[[129.894195, 33.601557], [129.894394, 33.601695], [129.894397, 33.601716], [129.894072, 33.601543], [129.894195, 33.601557]]], [[[129.895407, 33.602918], [129.895561, 33.602911], [129.895584, 33.603007], [129.895327, 33.602916], [129.895407, 33.602918]]], [[[129.896063, 33.603021], [129.896004, 33.603167], [129.895842, 33.602963], [129.895958, 33.602965], [129.896063, 33.603021]]], [[[129.90018, 33.603631], [129.900146, 33.603789], [129.899998, 33.603755], [129.900079, 33.603642], [129.90018, 33.603631]]], [[[129.860672, 33.604635], [129.860658, 33.604573], [129.860685, 33.604511], [129.860778, 33.604648], [129.860672, 33.604635]]], [[[129.863251, 33.607465], [129.863224, 33.607465], [129.863191, 33.60742], [129.863224, 33.607414], [129.863251, 33.607465]]], [[[129.863089, 33.607617], [129.863029, 33.607583], [129.862995, 33.607482], [129.863103, 33.607538], [129.863089, 33.607617]]], [[[129.980953, 33.454948], [129.980834, 33.454656], [129.981461, 33.454617], [129.981292, 33.454664], [129.980953, 33.454948]]], [[[129.978689, 33.457059], [129.978305, 33.45726], [129.976154, 33.457779], [129.978904, 33.456609], [129.978689, 33.457059]]], [[[129.975398, 33.45805], [129.974451, 33.458144], [129.972217, 33.457895], [129.972718, 33.457915], [129.97453, 33.458107], [129.975398, 33.45805]]], [[[129.975982, 33.464947], [129.977285, 33.464085], [129.978533, 33.464492], [129.978159, 33.46773], [129.975982, 33.464947]]], [[[129.976188, 33.466968], [129.976237, 33.467002], [129.974609, 33.46867], [129.97589, 33.46728], [129.976188, 33.466968]]], [[[129.969819, 33.472214], [129.97322, 33.470151], [129.973257, 33.470191], [129.969822, 33.472336], [129.969819, 33.472214]]], [[[129.991001, 33.471388], [129.989902, 33.471345], [129.989904, 33.4713], [129.991003, 33.471343], [129.991001, 33.471388]]], [[[129.990833, 33.471869], [129.993075, 33.47178], [129.993788, 33.47236], [129.994239, 33.472852], [129.994457, 33.473393], [129.99177, 33.480295], [129.985695, 33.47892], [129.98558, 33.47178], [129.993709, 33.47234], [129.990833, 33.471869]]], [[[129.993581, 33.478633], [129.993485, 33.47859], [129.993531, 33.478537], [129.993609, 33.478556], [129.993581, 33.478633]]], [[[129.99328, 33.478978], [129.993239, 33.479024], [129.993184, 33.479024], [129.993262, 33.478886], [129.99328, 33.478978]]], [[[129.992322, 33.480089], [129.992308, 33.480169], [129.992126, 33.4801], [129.992217, 33.480027], [129.992322, 33.480089]]], [[[129.959513, 33.485938], [129.956978, 33.488221], [129.956862, 33.488148], [129.960679, 33.484902], [129.959513, 33.485938]]], [[[129.964486, 33.504349], [129.964431, 33.504277], [129.964546, 33.504219], [129.964522, 33.504324], [129.964486, 33.504349]]], [[[129.96415, 33.529764], [129.964083, 33.529798], [129.964048, 33.529744], [129.964096, 33.529705], [129.96415, 33.529764]]], [[[129.965405, 33.531294], [129.965424, 33.531232], [129.965541, 33.531297], [129.965475, 33.531344], [129.965405, 33.531294]]], [[[129.965664, 33.531572], [129.965634, 33.531464], [129.96577, 33.531472], [129.965771, 33.531531], [129.965664, 33.531572]]], [[[129.97802, 33.538552], [129.975331, 33.542984], [129.968476, 33.542045], [129.963876, 33.538342], [129.970201, 33.540969], [129.971775, 33.539211], [129.966956, 33.537774], [129.970132, 33.536154], [129.965218, 33.528579], [129.973232, 33.527572], [129.976511, 33.531066], [129.97802, 33.538552]]], [[[129.903399, 33.557922], [129.904085, 33.559393], [129.902715, 33.558896], [129.902482, 33.557818], [129.903399, 33.557922]]], [[[129.903946, 33.55874], [129.903885, 33.558717], [129.903892, 33.558682], [129.903913, 33.558685], [129.903946, 33.55874]]], [[[129.903816, 33.579037], [129.90383, 33.579229], [129.90352, 33.579189], [129.903641, 33.579026], [129.903816, 33.579037]]], [[[129.904173, 33.57906], [129.904395, 33.579139], [129.904421, 33.57924], [129.90424, 33.579341], [129.904173, 33.57906]]], [[[129.909683, 33.581179], [129.90971, 33.581253], [129.90965, 33.581258], [129.909623, 33.581213], [129.909683, 33.581179]]], [[[129.90422, 33.581286], [129.904179, 33.581162], [129.904361, 33.581123], [129.904374, 33.581326], [129.90422, 33.581286]]], [[[129.909394, 33.581337], [129.909354, 33.581275], [129.909428, 33.581236], [129.909441, 33.58132], [129.909394, 33.581337]]], [[[129.909659, 33.581412], [129.909717, 33.581343], [129.909758, 33.581348], [129.909764, 33.581416], [129.909659, 33.581412]]], [[[129.911521, 33.581484], [129.911184, 33.581765], [129.910996, 33.581653], [129.911238, 33.581416], [129.911521, 33.581484]]], [[[129.910436, 33.582032], [129.910258, 33.581789], [129.910264, 33.581755], [129.910644, 33.581961], [129.910436, 33.582032]]], [[[129.911655, 33.582098], [129.911554, 33.582019], [129.911675, 33.58185], [129.911743, 33.582025], [129.911655, 33.582098]]], [[[129.910889, 33.582489], [129.910893, 33.582357], [129.911088, 33.582466], [129.911025, 33.582519], [129.910889, 33.582489]]], [[[129.910675, 33.58269], [129.910891, 33.582552], [129.911049, 33.582782], [129.910542, 33.582929], [129.910675, 33.58269]]], [[[129.909744, 33.583073], [129.909731, 33.582988], [129.909831, 33.583], [129.909825, 33.583096], [129.909744, 33.583073]]], [[[129.909865, 33.583191], [129.910141, 33.583186], [129.910188, 33.583321], [129.909906, 33.583321], [129.909865, 33.583191]]], [[[129.910935, 33.583558], [129.910828, 33.583772], [129.910498, 33.583648], [129.910713, 33.583451], [129.910935, 33.583558]]], [[[129.910161, 33.583671], [129.910081, 33.584105], [129.909751, 33.584048], [129.909731, 33.583592], [129.910161, 33.583671]]], [[[129.90889, 33.583834], [129.909098, 33.583783], [129.909125, 33.583969], [129.90895, 33.583952], [129.90889, 33.583834]]], [[[129.910804, 33.583972], [129.910729, 33.583955], [129.910706, 33.583913], [129.910841, 33.583879], [129.910804, 33.583972]]], [[[129.908839, 33.585377], [129.908733, 33.585351], [129.908697, 33.585287], [129.90884, 33.585313], [129.908839, 33.585377]]], [[[129.908373, 33.58579], [129.908667, 33.585433], [129.908778, 33.585451], [129.908737, 33.585842], [129.908373, 33.58579]]], [[[129.903173, 33.599396], [129.903099, 33.599418], [129.903077, 33.599328], [129.903209, 33.599327], [129.903173, 33.599396]]], [[[129.903188, 33.599706], [129.903039, 33.599623], [129.903419, 33.599682], [129.90322, 33.599658], [129.903188, 33.599706]]], [[[129.902987, 33.600254], [129.903038, 33.600235], [129.903047, 33.600263], [129.902972, 33.600292], [129.902987, 33.600254]]], [[[129.903576, 33.601069], [129.903642, 33.601095], [129.903663, 33.601135], [129.903542, 33.601111], [129.903576, 33.601069]]], [[[129.903308, 33.601271], [129.903256, 33.601235], [129.90334, 33.60119], [129.903382, 33.601237], [129.903308, 33.601271]]], [[[129.903332, 33.60129], [129.90339, 33.601258], [129.903409, 33.601291], [129.90337, 33.601326], [129.903332, 33.60129]]], [[[129.903354, 33.601875], [129.903433, 33.601781], [129.90365, 33.602049], [129.903499, 33.602105], [129.903354, 33.601875]]], [[[129.903269, 33.602631], [129.903392, 33.602518], [129.903456, 33.602578], [129.903433, 33.602664], [129.903269, 33.602631]]], [[[129.902702, 33.602825], [129.90268, 33.602835], [129.902655, 33.602834], [129.902682, 33.60279], [129.902702, 33.602825]]], [[[129.902494, 33.602869], [129.902463, 33.602865], [129.902489, 33.602827], [129.902504, 33.602847], [129.902494, 33.602869]]]]}, "properties": {"N03_001": "佐賀県", "N03_002": null, "N03_003": null, "N03_004": "唐津市", "N03_005": null, "N03_007": "41202"}}, {"type": "Feature", "geometry": {"type": "Polygon", "coordinates": [[[130.472672, 33.338176], [130.479533, 33.336268], [130.479558, 33.335941], [130.479945, 33.330873], [130.487051, 33.33271], [130.499456, 33.325576], [130.505864, 33.332387], [130.508836, 33.343293], [130.52609, 33.340108], [130.532803, 33.346131], [130.535978, 33.342962], [130.542004, 33.366828], [130.540687, 33.403542], [130.527201, 33.403275], [130.526888, 33.411195], [130.526647, 33.411224], [130.523833, 33.411561], [130.518055, 33.412252], [130.517756, 33.412143], [130.517267, 33.411964], [130.505545, 33.407686], [130.50519, 33.407613], [130.499615, 33.406453], [130.477895, 33.423907], [130.462433, 33.427969], [130.461413, 33.428237], [130.458081, 33.419781], [130.442214, 33.415634], [130.437036, 33.404852], [130.441701, 33.397484], [130.439802, 33.392564], [130.44198, 33.385545], [130.456074, 33.366415], [130.457414, 33.347316], [130.467051, 33.350069], [130.472672, 33.338176]]]}, "properties": {"N03_001": "佐賀県", "N03_002": null, "N03_003": null, "N03_004": "鳥栖市", "N03_005": null, "N03_007": "41203"}}, {"type": "Feature", "geometry": {"type": "Polygon", "coordinates": [[[130.027627, 33.280826], [130.02221, 33.261905], [130.028451, 33.253403], [130.027452, 33.249833], [130.043908, 33.250694], [130.055493, 33.238669], [130.064137, 33.243946], [130.079074, 33.237097], [130.095726, 33.238757], [130.103493, 33.23508], [130.103719, 33.235196], [130.104005, 33.235068], [130.111718, 33.239284], [130.125558, 33.234258], [130.126293, 33.234688], [130.128172, 33.23579], [130.127025, 33.238907], [130.132602, 33.240494], [130.134877, 33.247507], [130.137598, 33.244077], [130.141115, 33.247316], [130.141421, 33.244596], [130.141422, 33.244588], [130.14448, 33.246519], [130.149675, 33.244012], [130.149399, 33.248365], [130.158808, 33.254112], [130.165706, 33.243716], [130.166575, 33.24386], [130.166667, 33.243947], [130.181281, 33.246499], [130.179041, 33.248304], [130.182798, 33.250452], [130.174671, 33.262304], [130.169897, 33.266889], [130.163154, 33.2791], [130.171834, 33.283201], [130.168864, 33.287803], [130.157251, 33.292979], [130.155579, 33.299508], [130.158193, 33.302039], [130.15008, 33.308407], [130.145612, 33.309496], [130.143019, 33.30866], [130.137291, 33.311524], [130.138463, 33.333827], [130.138512, 33.334753], [130.140113, 33.335744], [130.142811, 33.338878], [130.142778, 33.339018], [130.127467, 33.339758], [130.116773, 33.326901], [130.09778, 33.31444], [130.086114, 33.312228], [130.08235, 33.306669], [130.080438, 33.306391], [130.077902, 33.303782], [130.077718, 33.302191], [130.075664, 33.301481], [130.063318, 33.297215], [130.05921, 33.291671], [130.050737, 33.28618], [130.04496, 33.286115], [130.036646, 33.278096], [130.036504, 33.277958], [130.027627, 33.280826]]]}, "properties": {"N03_001": "佐賀県", "N03_002": null, "N03_003": null, "N03_004": "多久市", "N03_005": null, "N03_007": "41204"}}, {"type": "Feature", "geometry": {"type": "MultiPolygon", "coordinates": [[[[129.865128, 33.393191], [129.865017, 33.393187], [129.870968, 33.388228], [129.870354, 33.386796], [129.869937, 33.386329], [129.86942, 33.386074], [129.86555, 33.388637], [129.864743, 33.384992], [129.867557, 33.383399], [129.864639, 33.377742], [129.868902, 33.372888], [129.863016, 33.376161], [129.858541, 33.372639], [129.858417, 33.367854], [129.846794, 33.362602], [129.85091, 33.360207], [129.84873, 33.357829], [129.850905, 33.354361], [129.847942, 33.356881], [129.845236, 33.354176], [129.85099, 33.351712], [129.850521, 33.348073], [129.845075, 33.348237], [129.843873, 33.351659], [129.842221, 33.346937], [129.847755, 33.343722], [129.843949, 33.342189], [129.848642, 33.336666], [129.842701, 33.341311], [129.836997, 33.338836], [129.838564, 33.335617], [129.835697, 33.334443], [129.832842, 33.339423], [129.827569, 33.337164], [129.833531, 33.32851], [129.837984, 33.327848], [129.836504, 33.330324], [129.841032, 33.332376], [129.845847, 33.328442], [129.849243, 33.329538], [129.841802, 33.323397], [129.842236, 33.317214], [129.836057, 33.322907], [129.835812, 33.317178], [129.839384, 33.317487], [129.83588, 33.311555], [129.829428, 33.312736], [129.827772, 33.311953], [129.831137, 33.304171], [129.846547, 33.301605], [129.85362, 33.29159], [129.850942, 33.289786], [129.844063, 33.293177], [129.842379, 33.286738], [129.836817, 33.286719], [129.835609, 33.291542], [129.828397, 33.295659], [129.831455, 33.296462], [129.821389, 33.31051], [129.813701, 33.308728], [129.813175, 33.311574], [129.817871, 33.312102], [129.820477, 33.31604], [129.817561, 33.321302], [129.815727, 33.321913], [129.818815, 33.316302], [129.81235, 33.314401], [129.810615, 33.32016], [129.815613, 33.32203], [129.818305, 33.321159], [129.814289, 33.322982], [129.807654, 33.322848], [129.808619, 33.326647], [129.802749, 33.331305], [129.807185, 33.335772], [129.810977, 33.332708], [129.80876, 33.330034], [129.811139, 33.332728], [129.804147, 33.338361], [129.794199, 33.33725], [129.799776, 33.334372], [129.796556, 33.334079], [129.789359, 33.340478], [129.776617, 33.332994], [129.758968, 33.290851], [129.76825, 33.285789], [129.778471, 33.269206], [129.790492, 33.257732], [129.809695, 33.242814], [129.81435, 33.242433], [129.814086, 33.236373], [129.836589, 33.235123], [129.848971, 33.238102], [129.851227, 33.241801], [129.854454, 33.238693], [129.869465, 33.241084], [129.874601, 33.230495], [129.879257, 33.225556], [129.887524, 33.224355], [129.894401, 33.223859], [129.897359, 33.223646], [129.897896, 33.223979], [129.903996, 33.227757], [129.920952, 33.225926], [129.924308, 33.229719], [129.931201, 33.229924], [129.95065, 33.25702], [129.961136, 33.254793], [129.965352, 33.260468], [129.971062, 33.261662], [129.972445, 33.26858], [129.980349, 33.274166], [130.002143, 33.280839], [130.025417, 33.283031], [130.019493, 33.29296], [130.014388, 33.294471], [130.01286, 33.297354], [130.011498, 33.29992], [130.008883, 33.304853], [130.007844, 33.316827], [129.99096, 33.328264], [129.989032, 33.325486], [129.982086, 33.326414], [129.967803, 33.336165], [129.9596, 33.347778], [129.955537, 33.345581], [129.955241, 33.341578], [129.959797, 33.327787], [129.954609, 33.322795], [129.945122, 33.34529], [129.937962, 33.345875], [129.930062, 33.357319], [129.925896, 33.357547], [129.923118, 33.365597], [129.9193, 33.364408], [129.914738, 33.377261], [129.919789, 33.394854], [129.905562, 33.406908], [129.903456, 33.4115], [129.891062, 33.40629], [129.881886, 33.407379], [129.879654, 33.400152], [129.879631, 33.400076], [129.88353, 33.390448], [129.883637, 33.390183], [129.883133, 33.389978], [129.878096, 33.387933], [129.876277, 33.387194], [129.875843, 33.387509], [129.872165, 33.390175], [129.87139, 33.390507], [129.865128, 33.393191]]], [[[129.841858, 33.292693], [129.841842, 33.292115], [129.842305, 33.292176], [129.84235, 33.292382], [129.841858, 33.292693]]], [[[129.839363, 33.293048], [129.839524, 33.292951], [129.839745, 33.292952], [129.839311, 33.293216], [129.839363, 33.293048]]], [[[129.839664, 33.295152], [129.839622, 33.29649], [129.838046, 33.295963], [129.838853, 33.294847], [129.839664, 33.295152]]], [[[129.83794, 33.329809], [129.837815, 33.329774], [129.837757, 33.329549], [129.83811, 33.329765], [129.83794, 33.329809]]], [[[129.840612, 33.331517], [129.840769, 33.331489], [129.840759, 33.331662], [129.840619, 33.331633], [129.840612, 33.331517]]], [[[129.843097, 33.341889], [129.843471, 33.341765], [129.843893, 33.342062], [129.84309, 33.342073], [129.843097, 33.341889]]], [[[129.842587, 33.343475], [129.841969, 33.343186], [129.84402, 33.34315], [129.843385, 33.34344], [129.842587, 33.343475]]], [[[129.841244, 33.353201], [129.841318, 33.353212], [129.841352, 33.353302], [129.841238, 33.353308], [129.841244, 33.353201]]], [[[129.840707, 33.353381], [129.840781, 33.353348], [129.840808, 33.353426], [129.840747, 33.353443], [129.840707, 33.353381]]], [[[129.845665, 33.34352], [129.845224, 33.343541], [129.845056, 33.343429], [129.845553, 33.343326], [129.845665, 33.34352]]], [[[129.844126, 33.35444], [129.843707, 33.354179], [129.844878, 33.353276], [129.84513, 33.354523], [129.844126, 33.35444]]], [[[129.845094, 33.356499], [129.845331, 33.356468], [129.84542, 33.356621], [129.845114, 33.356721], [129.845094, 33.356499]]], [[[129.846087, 33.358185], [129.845853, 33.357322], [129.846454, 33.357038], [129.84652, 33.357796], [129.846087, 33.358185]]], [[[129.849948, 33.359526], [129.849915, 33.359386], [129.850029, 33.359312], [129.850083, 33.359487], [129.849948, 33.359526]]], [[[129.849223, 33.359651], [129.848666, 33.360011], [129.848088, 33.3604], [129.848076, 33.359164], [129.849223, 33.359651]]]]}, "properties": {"N03_001": "佐賀県", "N03_002": null, "N03_003": null, "N03_004": "伊万里市", "N03_005": null, "N03_007": "41205"}}, {"type": "Feature", "geometry": {"type": "Polygon", "coordinates": [[[129.928353, 33.173729], [129.928534, 33.17377], [129.937746, 33.165961], [129.943357, 33.164444], [129.941488, 33.157826], [129.948913, 33.133876], [129.956285, 33.128628], [129.956665, 33.118043], [129.951285, 33.109964], [129.956532, 33.109248], [129.958361, 33.108998], [129.964412, 33.11535], [129.976025, 33.110331], [129.986836, 33.117406], [129.991878, 33.115438], [129.995315, 33.125339], [129.988246, 33.134211], [130.004487, 33.138777], [130.0058, 33.146539], [130.019557, 33.151538], [130.028534, 33.148416], [130.028609, 33.148495], [130.02881, 33.148705], [130.033581, 33.153708], [130.033397, 33.157774], [130.055598, 33.161421], [130.056024, 33.161491], [130.056103, 33.161609], [130.056797, 33.162649], [130.058867, 33.165756], [130.059722, 33.167037], [130.059918, 33.167331], [130.059999, 33.167452], [130.071737, 33.167011], [130.072219, 33.166993], [130.073616, 33.168768], [130.077038, 33.173117], [130.077348, 33.17351], [130.070282, 33.181631], [130.073374, 33.184242], [130.08403, 33.18411], [130.090337, 33.200443], [130.097571, 33.205095], [130.099296, 33.204609], [130.099289, 33.206199], [130.099602, 33.2064], [130.099287, 33.206621], [130.089203, 33.213688], [130.088805, 33.213966], [130.093338, 33.214652], [130.099928, 33.223592], [130.103493, 33.23508], [130.095726, 33.238757], [130.079074, 33.237097], [130.064137, 33.243946], [130.055493, 33.238669], [130.043908, 33.250694], [130.027452, 33.249833], [130.028451, 33.253403], [130.02221, 33.261905], [130.027627, 33.280826], [130.027507, 33.280864], [130.027311, 33.281161], [130.025417, 33.283031], [130.002143, 33.280839], [129.980349, 33.274166], [129.972445, 33.26858], [129.971062, 33.261662], [129.965352, 33.260468], [129.961136, 33.254793], [129.95065, 33.25702], [129.931201, 33.229924], [129.924308, 33.229719], [129.920952, 33.225926], [129.903996, 33.227757], [129.897896, 33.223979], [129.897393, 33.223656], [129.898623, 33.221351], [129.906288, 33.206995], [129.906419, 33.206701], [129.905591, 33.200129], [129.912637, 33.197076], [129.912002, 33.186268], [129.918106, 33.181211], [129.917251, 33.171239], [129.928353, 33.173729]]]}, "properties": {"N03_001": "佐賀県", "N03_002": null, "N03_003": null, "N03_004": "武雄市", "N03_005": null, "N03_007": "41206"}}, {"type": "Feature", "geometry": {"type": "MultiPolygon", "coordinates": [[[[130.039937, 33.025548], [130.044595, 33.024678], [130.044554, 33.024452], [130.04438, 33.023506], [130.043047, 33.016238], [130.047404, 33.007716], [130.047372, 33.007696], [130.047414, 33.007634], [130.04414, 33.005259], [130.046805, 32.998444], [130.061227, 32.985851], [130.076132, 32.987651], [130.076435, 32.987688], [130.078704, 32.990913], [130.080327, 32.99297], [130.088113, 32.993878], [130.090652, 32.996608], [130.092906, 32.999032], [130.096893, 33.014241], [130.113296, 33.023411], [130.114099, 33.026799], [130.115283, 33.022693], [130.121403, 33.024294], [130.153591, 33.040131], [130.164398, 33.046388], [130.169725, 33.05102], [130.170803, 33.051957], [130.161121, 33.055159], [130.161909, 33.058387], [130.158084, 33.057194], [130.158942, 33.060863], [130.144718, 33.072992], [130.146179, 33.076868], [130.142649, 33.080713], [130.143632, 33.082551], [130.143591, 33.082306], [130.143634, 33.082317], [130.143679, 33.082504], [130.143638, 33.082562], [130.145823, 33.086649], [130.140659, 33.094376], [130.135892, 33.095468], [130.129106, 33.091848], [130.137707, 33.096779], [130.126321, 33.106932], [130.128474, 33.121921], [130.128692, 33.12344], [130.128093, 33.123426], [130.122703, 33.123302], [130.120772, 33.128538], [130.11265, 33.128446], [130.110516, 33.131542], [130.110476, 33.1316], [130.082369, 33.130768], [130.081702, 33.129437], [130.080806, 33.12765], [130.083998, 33.122901], [130.078501, 33.117275], [130.084334, 33.111307], [130.084616, 33.111018], [130.075919, 33.103328], [130.070855, 33.104036], [130.075377, 33.098044], [130.061571, 33.099109], [130.062897, 33.093901], [130.039397, 33.079226], [130.041507, 33.069409], [130.047976, 33.062556], [130.048038, 33.06249], [130.044979, 33.043225], [130.037948, 33.029943], [130.039937, 33.025548]]], [[[130.143401, 33.080344], [130.143441, 33.080339], [130.143441, 33.080922], [130.143388, 33.080921], [130.143401, 33.080344]]], [[[130.143677, 33.081372], [130.143683, 33.08093], [130.143712, 33.080931], [130.143702, 33.081371], [130.143677, 33.081372]]], [[[130.143571, 33.082087], [130.143539, 33.082081], [130.143331, 33.081164], [130.143371, 33.081193], [130.143571, 33.082087]]], [[[130.144063, 33.08246], [130.143962, 33.082014], [130.144097, 33.082459], [130.144063, 33.08246]]]]}, "properties": {"N03_001": "佐賀県", "N03_002": null, "N03_003": null, "N03_004": "鹿島市", "N03_005": null, "N03_007": "41207"}}, {"type": "Feature", "geometry": {"type": "Polygon", "coordinates": [[[130.21891, 33.247729], [130.220824, 33.252427], [130.221657, 33.254472], [130.222126, 33.254557], [130.234766, 33.256843], [130.235919, 33.252238], [130.244428, 33.25297], [130.244438, 33.253686], [130.242969, 33.278124], [130.237591, 33.294483], [130.231476, 33.298254], [130.234048, 33.298858], [130.232454, 33.308875], [130.225154, 33.318667], [130.223835, 33.320436], [130.227484, 33.331302], [130.20862, 33.340739], [130.207932, 33.340794], [130.179282, 33.339951], [130.152912, 33.339175], [130.145298, 33.338951], [130.142811, 33.338878], [130.140113, 33.335744], [130.138512, 33.334753], [130.138463, 33.333827], [130.137291, 33.311524], [130.143019, 33.30866], [130.145612, 33.309496], [130.15008, 33.308407], [130.158193, 33.302039], [130.155579, 33.299508], [130.157251, 33.292979], [130.168864, 33.287803], [130.171834, 33.283201], [130.163154, 33.2791], [130.169897, 33.266889], [130.174671, 33.262304], [130.182798, 33.250452], [130.179041, 33.248304], [130.181281, 33.246499], [130.166667, 33.243947], [130.166575, 33.24386], [130.165706, 33.243716], [130.159811, 33.237439], [130.159954, 33.231087], [130.161749, 33.229508], [130.162317, 33.229009], [130.162905, 33.228491], [130.178958, 33.227778], [130.184573, 33.219889], [130.190149, 33.221653], [130.192496, 33.215691], [130.192871, 33.214738], [130.199182, 33.214297], [130.2015, 33.210224], [130.200669, 33.208349], [130.199539, 33.206094], [130.193807, 33.208177], [130.193547, 33.207999], [130.193297, 33.208092], [130.189587, 33.205487], [130.197842, 33.198182], [130.201467, 33.194975], [130.202444, 33.194111], [130.222005, 33.195707], [130.223852, 33.195858], [130.229584, 33.192962], [130.229816, 33.192878], [130.231102, 33.197883], [130.234951, 33.198108], [130.234586, 33.204194], [130.229333, 33.203981], [130.229828, 33.215016], [130.221406, 33.229266], [130.223392, 33.240212], [130.218506, 33.246738], [130.21891, 33.247729]]]}, "properties": {"N03_001": "佐賀県", "N03_002": null, "N03_003": null, "N03_004": "小城市", "N03_005": null, "N03_007": "41208"}}, {"type": "Feature", "geometry": {"type": "Polygon", "coordinates": [[[129.956532, 33.109248], [129.955192, 33.108211], [129.938732, 33.112721], [129.925273, 33.1059], [129.92633, 33.098107], [129.922357, 33.090493], [129.933335, 33.088105], [129.939506, 33.072941], [129.982873, 33.057116], [129.994494, 33.047717], [129.996394, 33.044506], [129.993591, 33.038783], [130.000834, 33.025872], [130.006192, 33.024395], [130.008348, 33.019679], [130.014952, 33.017479], [130.027969, 33.020023], [130.028014, 33.012446], [130.042366, 33.003972], [130.04414, 33.005259], [130.047414, 33.007634], [130.047372, 33.007696], [130.047404, 33.007716], [130.043047, 33.016238], [130.04438, 33.023506], [130.044554, 33.024452], [130.044595, 33.024678], [130.039937, 33.025548], [130.037948, 33.029943], [130.044979, 33.043225], [130.048038, 33.06249], [130.047976, 33.062556], [130.041507, 33.069409], [130.039397, 33.079226], [130.062897, 33.093901], [130.061571, 33.099109], [130.075377, 33.098044], [130.070855, 33.104036], [130.075919, 33.103328], [130.084616, 33.111018], [130.084334, 33.111307], [130.078501, 33.117275], [130.083998, 33.122901], [130.080806, 33.12765], [130.081702, 33.129437], [130.082369, 33.130768], [130.077855, 33.129156], [130.070408, 33.134673], [130.083839, 33.141598], [130.088215, 33.152027], [130.080463, 33.161269], [130.079811, 33.162422], [130.079413, 33.163772], [130.079517, 33.169993], [130.077038, 33.173117], [130.073616, 33.168768], [130.072219, 33.166993], [130.071737, 33.167011], [130.059999, 33.167452], [130.059918, 33.167331], [130.059722, 33.167037], [130.058867, 33.165756], [130.056797, 33.162649], [130.056103, 33.161609], [130.056024, 33.161491], [130.055598, 33.161421], [130.033397, 33.157774], [130.033581, 33.153708], [130.02881, 33.148705], [130.028609, 33.148495], [130.028534, 33.148416], [130.019557, 33.151538], [130.0058, 33.146539], [130.004487, 33.138777], [129.988246, 33.134211], [129.995315, 33.125339], [129.991878, 33.115438], [129.986836, 33.117406], [129.976025, 33.110331], [129.964412, 33.11535], [129.958361, 33.108998], [129.956532, 33.109248]]]}, "properties": {"N03_001": "佐賀県", "N03_002": null, "N03_003": null, "N03_004": "嬉野市", "N03_005": null, "N03_007": "41209"}}, {"type": "Feature", "geometry": {"type": "Polygon", "coordinates": [[[130.374282, 33.246148], [130.37394, 33.244361], [130.385279, 33.24048], [130.390308, 33.245304], [130.388857, 33.256236], [130.391068, 33.259762], [130.400018, 33.2591], [130.402096, 33.248651], [130.413388, 33.251331], [130.419509, 33.261603], [130.417462, 33.268345], [130.415139, 33.269017], [130.408839, 33.270839], [130.408037, 33.271726], [130.406847, 33.281913], [130.404242, 33.281678], [130.406174, 33.285026], [130.401431, 33.285865], [130.400851, 33.285968], [130.400474, 33.285666], [130.396946, 33.282842], [130.387254, 33.317783], [130.383099, 33.319333], [130.382984, 33.319768], [130.38362, 33.323608], [130.384404, 33.323741], [130.385589, 33.335513], [130.377446, 33.362081], [130.379244, 33.365067], [130.375366, 33.370707], [130.377164, 33.377812], [130.372319, 33.378214], [130.36505, 33.3897], [130.366844, 33.393739], [130.377508, 33.395149], [130.383711, 33.404639], [130.383303, 33.409872], [130.378002, 33.413526], [130.377947, 33.427026], [130.368811, 33.436281], [130.355267, 33.433466], [130.345428, 33.445021], [130.34107, 33.445407], [130.339135, 33.440515], [130.339021, 33.440503], [130.338986, 33.440419], [130.332987, 33.439861], [130.327333, 33.422368], [130.320197, 33.420581], [130.313122, 33.411865], [130.299257, 33.409953], [130.297567, 33.404767], [130.292911, 33.402495], [130.278658, 33.402741], [130.273726, 33.387168], [130.276776, 33.380509], [130.291821, 33.382065], [130.293131, 33.371912], [130.288716, 33.368453], [130.29546, 33.362495], [130.300826, 33.361929], [130.297703, 33.357285], [130.304501, 33.352173], [130.304633, 33.348329], [130.307457, 33.356632], [130.314881, 33.360819], [130.318696, 33.358484], [130.326785, 33.360668], [130.33114, 33.356489], [130.343582, 33.299362], [130.335656, 33.297623], [130.342704, 33.255425], [130.343627, 33.249898], [130.349939, 33.250422], [130.350114, 33.256018], [130.358875, 33.257145], [130.373693, 33.257252], [130.372816, 33.253851], [130.377152, 33.25111], [130.374282, 33.246148]]]}, "properties": {"N03_001": "佐賀県", "N03_002": null, "N03_003": null, "N03_004": "神埼市", "N03_005": null, "N03_007": "41210"}}, {"type": "Feature", "geometry": {"type": "Polygon", "coordinates": [[[130.401431, 33.285865], [130.400374, 33.289555], [130.40035, 33.289637], [130.400371, 33.28964], [130.405404, 33.290313], [130.405794, 33.302905], [130.413356, 33.314883], [130.415484, 33.335572], [130.418816, 33.335874], [130.410895, 33.359495], [130.417796, 33.367456], [130.417826, 33.367606], [130.417923, 33.368086], [130.420146, 33.379103], [130.419453, 33.381587], [130.418499, 33.385008], [130.417446, 33.388784], [130.413955, 33.390395], [130.411789, 33.391395], [130.407556, 33.399002], [130.416809, 33.410449], [130.404766, 33.416241], [130.396484, 33.427551], [130.386853, 33.428236], [130.378219, 33.424959], [130.378002, 33.413526], [130.383303, 33.409872], [130.383711, 33.404639], [130.377508, 33.395149], [130.366844, 33.393739], [130.36505, 33.3897], [130.372319, 33.378214], [130.377164, 33.377812], [130.375366, 33.370707], [130.379244, 33.365067], [130.377446, 33.362081], [130.385589, 33.335513], [130.384404, 33.323741], [130.38362, 33.323608], [130.382984, 33.319768], [130.383099, 33.319333], [130.387254, 33.317783], [130.396946, 33.282842], [130.400474, 33.285666], [130.400851, 33.285968], [130.401431, 33.285865]]]}, "properties": {"N03_001": "佐賀県", "N03_002": null, "N03_003": "神埼郡", "N03_004": "吉野ヶ里町", "N03_005": null, "N03_007": "41327"}}, {"type": "Feature", "geometry": {"type": "Polygon", "coordinates": [[[130.540687, 33.403542], [130.541821, 33.394253], [130.541064, 33.421223], [130.537501, 33.425833], [130.534976, 33.440506], [130.512293, 33.449421], [130.509384, 33.443667], [130.503536, 33.446926], [130.48025, 33.436117], [130.476593, 33.438464], [130.462433, 33.427969], [130.477895, 33.423907], [130.499615, 33.406453], [130.50519, 33.407613], [130.505545, 33.407686], [130.517267, 33.411964], [130.517756, 33.412143], [130.518055, 33.412252], [130.523833, 33.411561], [130.526647, 33.411224], [130.526888, 33.411195], [130.527201, 33.403275], [130.540687, 33.403542]]]}, "properties": {"N03_001": "佐賀県", "N03_002": null, "N03_003": "三養基郡", "N03_004": "基山町", "N03_005": null, "N03_007": "41341"}}, {"type": "Feature", "geometry": {"type": "Polygon", "coordinates": [[[130.405794, 33.302905], [130.406149, 33.296627], [130.416304, 33.296632], [130.418564, 33.303561], [130.422892, 33.302565], [130.424783, 33.297854], [130.431687, 33.298905], [130.433746, 33.30717], [130.442582, 33.311385], [130.434757, 33.31787], [130.432777, 33.317521], [130.432218, 33.319975], [130.43072, 33.321216], [130.428255, 33.320801], [130.427537, 33.323854], [130.426853, 33.326761], [130.425248, 33.333581], [130.425477, 33.33549], [130.4256, 33.336514], [130.425665, 33.337055], [130.433683, 33.340019], [130.429585, 33.343834], [130.430693, 33.347876], [130.427158, 33.348419], [130.429676, 33.354844], [130.422591, 33.398461], [130.419006, 33.40112], [130.410554, 33.394428], [130.413955, 33.390395], [130.417446, 33.388784], [130.418499, 33.385008], [130.419453, 33.381587], [130.420146, 33.379103], [130.417923, 33.368086], [130.417826, 33.367606], [130.417796, 33.367456], [130.410895, 33.359495], [130.418816, 33.335874], [130.415484, 33.335572], [130.413356, 33.314883], [130.405794, 33.302905]]]}, "properties": {"N03_001": "佐賀県", "N03_002": null, "N03_003": "三養基郡", "N03_004": "上峰町", "N03_005": null, "N03_007": "41345"}}, {"type": "Feature", "geometry": {"type": "Polygon", "coordinates": [[[130.441701, 33.397484], [130.438555, 33.400556], [130.428757, 33.396876], [130.422591, 33.398461], [130.429676, 33.354844], [130.427158, 33.348419], [130.430693, 33.347876], [130.429585, 33.343834], [130.433683, 33.340019], [130.425665, 33.337055], [130.4256, 33.336514], [130.425477, 33.33549], [130.425248, 33.333581], [130.426853, 33.326761], [130.427537, 33.323854], [130.428255, 33.320801], [130.43072, 33.321216], [130.432218, 33.319975], [130.432777, 33.317521], [130.434757, 33.31787], [130.442582, 33.311385], [130.433746, 33.30717], [130.431687, 33.298905], [130.424783, 33.297854], [130.422892, 33.302565], [130.418564, 33.303561], [130.416304, 33.296632], [130.406149, 33.296627], [130.405794, 33.302905], [130.405404, 33.290313], [130.400371, 33.28964], [130.40035, 33.289637], [130.400374, 33.289555], [130.401431, 33.285865], [130.406174, 33.285026], [130.404242, 33.281678], [130.406847, 33.281913], [130.408037, 33.271726], [130.408839, 33.270839], [130.415139, 33.269017], [130.428102, 33.271601], [130.430946, 33.280532], [130.426746, 33.289846], [130.43378, 33.29245], [130.438495, 33.289377], [130.435094, 33.278766], [130.43623, 33.269794], [130.442458, 33.264027], [130.449746, 33.265098], [130.448725, 33.278408], [130.453381, 33.28321], [130.467976, 33.287283], [130.455366, 33.294697], [130.456023, 33.301423], [130.461667, 33.304421], [130.484091, 33.305351], [130.489491, 33.3163], [130.476992, 33.326004], [130.479558, 33.335941], [130.479533, 33.336268], [130.472672, 33.338176], [130.467051, 33.350069], [130.457414, 33.347316], [130.456074, 33.366415], [130.44198, 33.385545], [130.439802, 33.392564], [130.441701, 33.397484]]]}, "properties": {"N03_001": "佐賀県", "N03_002": null, "N03_003": "三養基郡", "N03_004": "みやき町", "N03_005": null, "N03_007": "41346"}}, {"type": "Feature", "geometry": {"type": "MultiPolygon", "coordinates": [[[[129.858904, 33.510998], [129.856855, 33.511409], [129.857388, 33.505654], [129.850934, 33.506473], [129.851101, 33.511389], [129.845423, 33.517245], [129.83066, 33.519782], [129.828097, 33.518181], [129.830506, 33.5149], [129.836459, 33.513673], [129.829637, 33.505209], [129.841624, 33.491272], [129.836469, 33.492131], [129.834647, 33.489414], [129.845499, 33.479618], [129.831784, 33.474858], [129.840644, 33.469813], [129.849723, 33.475416], [129.852913, 33.469853], [129.85736, 33.469066], [129.852567, 33.468632], [129.857218, 33.464794], [129.858958, 33.454083], [129.854721, 33.45731], [129.848705, 33.449632], [129.855316, 33.447746], [129.858329, 33.448761], [129.863367, 33.445449], [129.859951, 33.442664], [129.858727, 33.433354], [129.866394, 33.43651], [129.874629, 33.430727], [129.879138, 33.432738], [129.880707, 33.441059], [129.891369, 33.443027], [129.891411, 33.443069], [129.886983, 33.443196], [129.889006, 33.454536], [129.892286, 33.452229], [129.896617, 33.454641], [129.894303, 33.458263], [129.898869, 33.46319], [129.894534, 33.464928], [129.895109, 33.465262], [129.905047, 33.471027], [129.905039, 33.471082], [129.904999, 33.471361], [129.902048, 33.482636], [129.899007, 33.487056], [129.894262, 33.490483], [129.888868, 33.492173], [129.88585, 33.496559], [129.879587, 33.501082], [129.87691, 33.501324], [129.868534, 33.509066], [129.860466, 33.508869], [129.858904, 33.510998]]], [[[129.831041, 33.47455], [129.831086, 33.474526], [129.831129, 33.474593], [129.831093, 33.474626], [129.831041, 33.47455]]], [[[129.831121, 33.474756], [129.831097, 33.474796], [129.831039, 33.474735], [129.831073, 33.474699], [129.831121, 33.474756]]], [[[129.831225, 33.475112], [129.831285, 33.475169], [129.83121, 33.475212], [129.831178, 33.47515], [129.831225, 33.475112]]], [[[129.832209, 33.486302], [129.832301, 33.486291], [129.832308, 33.486381], [129.832174, 33.486381], [129.832209, 33.486302]]], [[[129.832436, 33.48642], [129.832471, 33.486345], [129.83255, 33.486324], [129.832489, 33.486477], [129.832436, 33.48642]]], [[[129.836402, 33.487531], [129.836496, 33.487446], [129.836563, 33.487503], [129.836536, 33.487576], [129.836402, 33.487531]]], [[[129.832967, 33.488461], [129.833464, 33.488991], [129.833135, 33.489386], [129.832772, 33.489093], [129.832967, 33.488461]]], [[[129.838454, 33.492932], [129.838388, 33.492929], [129.838432, 33.492873], [129.838473, 33.4929], [129.838454, 33.492932]]], [[[129.838269, 33.492967], [129.838249, 33.492922], [129.838308, 33.4929], [129.838323, 33.492923], [129.838269, 33.492967]]], [[[129.838326, 33.49309], [129.838268, 33.493096], [129.838259, 33.493054], [129.838316, 33.493039], [129.838326, 33.49309]]], [[[129.83823, 33.494561], [129.838425, 33.494668], [129.838291, 33.494871], [129.838136, 33.494877], [129.83823, 33.494561]]], [[[129.856321, 33.458753], [129.856409, 33.458719], [129.856452, 33.458866], [129.856376, 33.458841], [129.856321, 33.458753]]], [[[129.856354, 33.460523], [129.856318, 33.460597], [129.856275, 33.460511], [129.856307, 33.460479], [129.856354, 33.460523]]], [[[129.854782, 33.460546], [129.85493, 33.460906], [129.854641, 33.461098], [129.854439, 33.460562], [129.854782, 33.460546]]], [[[129.855844, 33.461481], [129.855609, 33.4616], [129.855817, 33.461087], [129.855918, 33.461166], [129.855844, 33.461481]]], [[[129.856759, 33.463295], [129.856729, 33.463239], [129.856801, 33.463207], [129.856805, 33.463314], [129.856759, 33.463295]]], [[[129.847058, 33.46837], [129.847535, 33.468996], [129.846479, 33.469047], [129.846096, 33.468759], [129.847058, 33.46837]]], [[[129.848588, 33.471692], [129.850204, 33.47071], [129.848758, 33.46837], [129.850782, 33.471099], [129.848588, 33.471692]]], [[[129.839429, 33.492719], [129.839527, 33.492676], [129.839567, 33.492751], [129.839487, 33.49279], [129.839429, 33.492719]]], [[[129.855819, 33.51091], [129.856082, 33.511349], [129.855712, 33.511597], [129.85545, 33.511237], [129.855819, 33.51091]]]]}, "properties": {"N03_001": "佐賀県", "N03_002": null, "N03_003": "東松浦郡", "N03_004": "玄海町", "N03_005": null, "N03_007": "41387"}}, {"type": "Feature", "geometry": {"type": "Polygon", "coordinates": [[[129.814086, 33.236373], [129.809914, 33.230364], [129.81308, 33.220943], [129.806897, 33.211169], [129.810058, 33.201796], [129.816741, 33.197736], [129.817148, 33.184536], [129.834338, 33.174799], [129.837938, 33.173255], [129.842868, 33.176847], [129.851565, 33.177296], [129.858022, 33.170791], [129.885393, 33.161935], [129.887983, 33.156167], [129.895387, 33.159825], [129.905277, 33.15794], [129.91209, 33.162336], [129.917445, 33.160015], [129.934594, 33.163276], [129.938615, 33.165375], [129.936518, 33.16661], [129.928353, 33.173729], [129.917251, 33.171239], [129.918106, 33.181211], [129.912002, 33.186268], [129.912637, 33.197076], [129.905591, 33.200129], [129.906419, 33.206701], [129.906288, 33.206995], [129.898623, 33.221351], [129.897393, 33.223656], [129.897896, 33.223979], [129.897359, 33.223646], [129.894401, 33.223859], [129.887524, 33.224355], [129.879257, 33.225556], [129.874601, 33.230495], [129.869465, 33.241084], [129.854454, 33.238693], [129.851227, 33.241801], [129.848971, 33.238102], [129.836589, 33.235123], [129.814086, 33.236373]]]}, "properties": {"N03_001": "佐賀県", "N03_002": null, "N03_003": "西松浦郡", "N03_004": "有田町", "N03_005": null, "N03_007": "41401"}}, {"type": "Feature", "geometry": {"type": "Polygon", "coordinates": [[[130.103493, 33.23508], [130.099928, 33.223592], [130.093338, 33.214652], [130.088805, 33.213966], [130.089203, 33.213688], [130.099287, 33.206621], [130.099602, 33.2064], [130.099289, 33.206199], [130.099296, 33.204609], [130.105331, 33.202908], [130.105683, 33.202921], [130.105851, 33.203274], [130.109138, 33.210204], [130.109311, 33.210568], [130.109345, 33.210333], [130.11037, 33.203262], [130.110898, 33.203033], [130.12642, 33.196292], [130.128116, 33.197689], [130.130108, 33.200003], [130.126039, 33.204122], [130.134945, 33.208653], [130.134138, 33.213735], [130.137751, 33.215823], [130.124888, 33.226586], [130.125558, 33.234258], [130.111718, 33.239284], [130.104005, 33.235068], [130.103719, 33.235196], [130.103493, 33.23508]]]}, "properties": {"N03_001": "佐賀県", "N03_002": null, "N03_003": "杵島郡", "N03_004": "大町町", "N03_005": null, "N03_007": "41423"}}, {"type": "Feature", "geometry": {"type": "Polygon", "coordinates": [[[130.125558, 33.234258], [130.124888, 33.226586], [130.137751, 33.215823], [130.134138, 33.213735], [130.134945, 33.208653], [130.142029, 33.204815], [130.135817, 33.200207], [130.136788, 33.196628], [130.153706, 33.193011], [130.160506, 33.188505], [130.16744, 33.192175], [130.168099, 33.202507], [130.181735, 33.199973], [130.188906, 33.206089], [130.189587, 33.205487], [130.193297, 33.208092], [130.193547, 33.207999], [130.193807, 33.208177], [130.199539, 33.206094], [130.200669, 33.208349], [130.2015, 33.210224], [130.199182, 33.214297], [130.192871, 33.214738], [130.192496, 33.215691], [130.190149, 33.221653], [130.184573, 33.219889], [130.178958, 33.227778], [130.162905, 33.228491], [130.162317, 33.229009], [130.161749, 33.229508], [130.159954, 33.231087], [130.159811, 33.237439], [130.165706, 33.243716], [130.158808, 33.254112], [130.149399, 33.248365], [130.149675, 33.244012], [130.14448, 33.246519], [130.141422, 33.244588], [130.141421, 33.244596], [130.141115, 33.247316], [130.137598, 33.244077], [130.134877, 33.247507], [130.132602, 33.240494], [130.127025, 33.238907], [130.128172, 33.23579], [130.126293, 33.234688], [130.125558, 33.234258]]]}, "properties": {"N03_001": "佐賀県", "N03_002": null, "N03_003": "杵島郡", "N03_004": "江北町", "N03_005": null, "N03_007": "41424"}}, {"type": "Feature", "geometry": {"type": "MultiPolygon", "coordinates": [[[[130.077038, 33.173117], [130.079517, 33.169993], [130.079413, 33.163772], [130.079811, 33.162422], [130.080463, 33.161269], [130.088215, 33.152027], [130.083839, 33.141598], [130.070408, 33.134673], [130.077855, 33.129156], [130.082369, 33.130768], [130.110476, 33.1316], [130.110516, 33.131542], [130.11265, 33.128446], [130.120772, 33.128538], [130.122703, 33.123302], [130.128093, 33.123426], [130.128692, 33.12344], [130.128474, 33.121921], [130.12951, 33.11783], [130.149356, 33.112391], [130.168791, 33.129664], [130.169264, 33.128318], [130.170301, 33.128272], [130.168821, 33.129736], [130.17127, 33.12803], [130.169958, 33.130236], [130.191727, 33.14042], [130.190073, 33.146079], [130.223485, 33.166662], [130.232426, 33.185256], [130.231206, 33.192142], [130.229584, 33.192962], [130.223852, 33.195858], [130.222005, 33.195707], [130.202444, 33.194111], [130.201467, 33.194975], [130.197842, 33.198182], [130.189587, 33.205487], [130.188906, 33.206089], [130.181735, 33.199973], [130.168099, 33.202507], [130.16744, 33.192175], [130.160506, 33.188505], [130.153706, 33.193011], [130.136788, 33.196628], [130.135817, 33.200207], [130.142029, 33.204815], [130.134945, 33.208653], [130.126039, 33.204122], [130.130108, 33.200003], [130.128116, 33.197689], [130.12642, 33.196292], [130.110898, 33.203033], [130.11037, 33.203262], [130.109345, 33.210333], [130.109311, 33.210568], [130.109138, 33.210204], [130.105851, 33.203274], [130.105683, 33.202921], [130.105331, 33.202908], [130.099296, 33.204609], [130.097571, 33.205095], [130.090337, 33.200443], [130.08403, 33.18411], [130.073374, 33.184242], [130.070282, 33.181631], [130.077348, 33.17351], [130.077038, 33.173117]]], [[[130.156142, 33.117243], [130.155876, 33.117421], [130.155784, 33.117335], [130.156011, 33.117126], [130.156142, 33.117243]]]]}, "properties": {"N03_001": "佐賀県", "N03_002": null, "N03_003": "杵島郡", "N03_004": "白石町", "N03_005": null, "N03_007": "41425"}}, {"type": "Feature", "geometry": {"type": "MultiPolygon", "coordinates": [[[[130.076132, 32.987651], [130.076061, 32.987561], [130.088682, 32.974032], [130.103026, 32.97474], [130.131341, 32.968295], [130.144056, 32.971684], [130.150092, 32.962591], [130.212572, 32.958042], [130.212327, 32.957444], [130.211287, 32.957292], [130.210172, 32.956465], [130.210246, 32.956242], [130.211871, 32.955132], [130.210256, 32.956444], [130.212533, 32.957356], [130.213876, 32.959318], [130.220811, 32.959662], [130.219205, 32.961834], [130.221931, 32.963264], [130.224921, 32.960776], [130.223983, 32.973546], [130.214487, 32.982514], [130.21516, 32.979926], [130.209283, 32.97905], [130.207326, 32.981794], [130.210946, 32.985455], [130.205078, 32.990918], [130.191509, 32.989859], [130.192522, 32.999443], [130.186821, 32.999943], [130.1899, 33.000398], [130.187885, 33.011673], [130.181242, 33.015107], [130.181195, 33.016104], [130.184547, 33.018402], [130.185263, 33.019701], [130.181677, 33.016791], [130.179186, 33.017897], [130.18229, 33.017821], [130.1794, 33.021116], [130.181103, 33.023848], [130.178945, 33.02339], [130.182735, 33.024772], [130.177676, 33.030186], [130.182259, 33.030502], [130.17582, 33.032445], [130.17642, 33.030232], [130.171212, 33.035826], [130.172711, 33.042546], [130.1689, 33.044605], [130.169725, 33.05102], [130.164398, 33.046388], [130.153591, 33.040131], [130.121403, 33.024294], [130.115283, 33.022693], [130.114099, 33.026799], [130.113296, 33.023411], [130.096893, 33.014241], [130.092906, 32.999032], [130.090652, 32.996608], [130.088113, 32.993878], [130.080327, 32.99297], [130.078704, 32.990913], [130.076435, 32.987688], [130.076132, 32.987651]]], [[[130.221614, 32.953008], [130.220752, 32.952483], [130.220791, 32.952444], [130.221614, 32.953008]]], [[[130.224964, 32.95575], [130.223065, 32.960134], [130.212558, 32.954697], [130.216148, 32.952187], [130.218107, 32.950524], [130.219345, 32.955022], [130.224964, 32.95575]]], [[[130.204523, 32.990986], [130.204717, 32.990952], [130.204751, 32.991161], [130.204677, 32.991251], [130.204523, 32.990986]]], [[[130.226108, 33.065206], [130.225692, 33.065109], [130.225824, 33.064875], [130.226091, 33.064921], [130.226108, 33.065206]]]]}, "properties": {"N03_001": "佐賀県", "N03_002": null, "N03_003": "藤津郡", "N03_004": "太良町", "N03_005": null, "N03_007": "41441"}}]}