{"type": "FeatureCollection", "features": [{"type": "Feature", "properties": {}, "geometry": {"type": "MultiLineString", "coordinates": [[[134.846349, 34.231026], [134.829273, 34.221615], [134.824706, 34.215722], [134.815074, 34.208142], [134.803296, 34.203788], [134.800445, 34.199991], [134.784569, 34.199165], [134.775238, 34.200473], [134.766846, 34.198947], [134.755157, 34.194575], [134.746184, 34.192825], [134.734091, 34.18872], [134.729322, 34.190196], [134.732485, 34.198875], [134.730679, 34.206625], [134.718861, 34.214855], [134.710872, 34.216791], [134.703453, 34.216738], [134.699778, 34.222199], [134.703077, 34.229066], [134.706777, 34.231802], [134.710174, 34.238916], [134.714741, 34.240366], [134.720834, 34.244918], [134.721784, 34.250342], [134.718071, 34.256748], [134.713388, 34.254704], [134.700182, 34.244417], [134.695085, 34.247843], [134.685813, 34.246956], [134.681769, 34.24837], [134.674437, 34.244941], [134.671903, 34.249868], [134.675928, 34.256184], [134.672665, 34.259873], [134.671783, 34.268568], [134.66683, 34.271619], [134.659427, 34.272383], [134.661525, 34.277033], [134.66273, 34.289222], [134.658415, 34.294589], [134.662175, 34.296928], [134.667942, 34.305644], [134.673966, 34.317548], [134.681743, 34.320094], [134.68989, 34.329339], [134.693498, 34.324478], [134.702872, 34.324301], [134.706097, 34.321122], [134.713468, 34.322297], [134.725112, 34.329271], [134.730869, 34.334564], [134.740615, 34.352451], [134.75495, 34.384771], [134.759504, 34.384524], [134.763767, 34.386946], [134.766729, 34.39136], [134.775594, 34.411411], [134.783187, 34.416955], [134.78795, 34.427237], [134.789644, 34.428433], [134.7962, 34.445525], [134.79851, 34.448682], [134.803949, 34.450355], [134.809873, 34.459116], [134.816445, 34.463559], [134.81857, 34.468315], [134.831134, 34.466217], [134.835965, 34.466738], [134.84322, 34.474442], [134.847032, 34.476925], [134.854761, 34.488866], [134.863629, 34.504761], [134.869319, 34.513151], [134.873823, 34.515374], [134.879147, 34.524295], [134.882344, 34.524517], [134.887748, 34.530308], [134.896832, 34.528898], [134.910375, 34.535524], [134.913454, 34.536033], [134.919723, 34.544319], [134.926059, 34.548548], [134.930507, 34.547225], [134.935068, 34.549424], [134.940801, 34.556797], [134.947221, 34.56086], [134.95759, 34.573643], [134.960259, 34.575717], [134.966049, 34.586296], [134.969778, 34.589213], [134.976559, 34.598054], [134.984072, 34.603574], [134.992316, 34.607065], [135.002193, 34.609168], [135.010271, 34.601796], [135.012149, 34.596252], [135.016963, 34.590778], [135.023211, 34.587608], [135.023072, 34.582832], [135.0257, 34.576583], [135.017608, 34.564465], [135.013379, 34.560079], [135.007025, 34.556238], [134.997205, 34.545509], [134.995462, 34.545574], [134.992651, 34.522549], [134.985986, 34.512683], [134.981507, 34.508398], [134.979575, 34.503634], [134.9726, 34.497002], [134.958447, 34.488848], [134.952983, 34.482711], [134.9451, 34.471416], [134.942995, 34.465884], [134.934309, 34.454779], [134.92593, 34.44653], [134.9159, 34.434743], [134.911609, 34.437411], [134.906538, 34.433468], [134.911233, 34.42972], [134.901101, 34.418616], [134.89888, 34.409288], [134.894703, 34.398979], [134.896447, 34.376824], [134.898013, 34.369136], [134.896068, 34.366402], [134.89588, 34.356983], [134.893714, 34.353205], [134.903589, 34.341178], [134.911788, 34.34079], [134.914904, 34.336539], [134.91773, 34.323903], [134.918157, 34.317337], [134.920971, 34.311437], [134.928539, 34.305233], [134.93437, 34.303387], [134.943957, 34.297122], [134.949085, 34.286807], [134.94752, 34.280596], [134.948958, 34.274339], [134.954011, 34.274208], [134.951642, 34.266527], [134.936949, 34.262787], [134.924071, 34.257981], [134.898442, 34.252153], [134.890741, 34.247337], [134.879679, 34.242279], [134.871497, 34.23991], [134.86088, 34.235466], [134.846349, 34.231026]], [[134.512269, 34.647039], [134.517888, 34.644041], [134.514555, 34.636519], [134.507727, 34.64058], [134.502151, 34.643346], [134.502458, 34.649394], [134.516538, 34.655505], [134.518236, 34.650207], [134.51266, 34.650364], [134.512269, 34.647039]], [[134.439882, 34.653913], [134.441347, 34.648819], [134.433217, 34.649038], [134.434641, 34.651935], [134.439882, 34.653913]], [[134.460913, 34.646241], [134.460299, 34.650864], [134.467069, 34.661601], [134.480414, 34.658904], [134.486174, 34.661353], [134.486004, 34.67097], [134.496016, 34.667936], [134.490431, 34.661118], [134.495088, 34.659443], [134.494764, 34.654155], [134.497523, 34.653161], [134.500057, 34.644038], [134.492519, 34.645089], [134.488373, 34.64939], [134.480839, 34.649902], [134.473806, 34.646108], [134.467647, 34.640362], [134.460913, 34.646241]], [[134.58593, 34.67098], [134.590413, 34.66807], [134.590827, 34.662029], [134.58544, 34.65782], [134.577996, 34.655771], [134.576014, 34.650888], [134.571001, 34.652373], [134.566231, 34.660856], [134.562418, 34.663765], [134.562555, 34.667342], [134.565706, 34.671535], [134.570401, 34.673066], [134.57387, 34.676908], [134.579546, 34.674189], [134.580605, 34.670843], [134.58593, 34.67098]], [[134.523974, 34.681391], [134.529714, 34.68574], [134.532839, 34.68064], [134.545384, 34.674114], [134.542949, 34.670044], [134.545553, 34.664529], [134.541897, 34.658195], [134.536131, 34.658382], [134.526038, 34.666667], [134.517449, 34.668161], [134.51357, 34.670727], [134.514054, 34.674599], [134.51053, 34.6767], [134.516292, 34.681571], [134.523974, 34.681391]], [[134.701349, 34.770691], [134.69794, 34.759965], [134.690859, 34.760247], [134.692672, 34.768266], [134.701349, 34.770691]], [[134.593092, 34.769453], [134.590029, 34.768354], [134.591601, 34.769183], [134.604367, 34.772172], [134.606266, 34.766401], [134.600324, 34.765065], [134.596317, 34.759736], [134.593092, 34.769453]], [[134.667449, 34.770167], [134.662355, 34.764315], [134.655524, 34.764467], [134.661835, 34.772359], [134.667449, 34.770167]], [[134.797147, 34.732487], [134.787676, 34.740106], [134.768909, 34.750289], [134.763321, 34.748495], [134.757229, 34.751841], [134.761194, 34.758468], [134.761306, 34.762151], [134.746309, 34.768801], [134.740802, 34.768159], [134.725448, 34.771166], [134.711508, 34.776559], [134.699437, 34.776113], [134.701926, 34.772093], [134.69284, 34.770177], [134.687743, 34.771233], [134.689104, 34.777492], [134.685315, 34.778159], [134.68334, 34.772066], [134.676837, 34.773456], [134.673692, 34.776493], [134.667867, 34.770602], [134.659738, 34.773822], [134.661709, 34.776985], [134.666368, 34.776481], [134.670277, 34.780018], [134.6635, 34.784739], [134.660765, 34.783813], [134.652577, 34.770588], [134.650102, 34.774432], [134.653853, 34.779509], [134.646152, 34.77945], [134.645726, 34.767325], [134.633396, 34.767309], [134.631947, 34.777518], [134.63431, 34.779515], [134.643926, 34.780278], [134.64231, 34.783766], [134.622436, 34.78376], [134.623492, 34.779716], [134.628695, 34.778431], [134.628626, 34.773142], [134.623951, 34.773165], [134.611537, 34.767805], [134.608777, 34.77499], [134.603528, 34.774661], [134.584845, 34.768729], [134.586436, 34.761864], [134.573012, 34.758004], [134.569879, 34.758035], [134.5583, 34.764341], [134.5595, 34.769464], [134.547863, 34.773225], [134.539702, 34.77101], [134.537368, 34.774952], [134.53217, 34.776654], [134.530137, 34.782173], [134.526822, 34.782749], [134.522946, 34.779238], [134.519075, 34.772742], [134.508566, 34.765713], [134.504679, 34.761227], [134.500667, 34.768977], [134.499743, 34.774477], [134.494414, 34.771731], [134.49065, 34.766751], [134.486221, 34.769135], [134.481198, 34.765893], [134.481198, 34.759937], [134.474257, 34.75521], [134.470572, 34.765771], [134.469975, 34.771677], [134.472222, 34.777029], [134.469674, 34.778422], [134.469682, 34.784303], [134.475955, 34.784543], [134.46803, 34.792721], [134.46467, 34.788019], [134.457278, 34.785795], [134.456815, 34.778893], [134.460731, 34.768875], [134.464316, 34.764275], [134.457976, 34.760011], [134.456928, 34.756094], [134.450798, 34.753717], [134.449521, 34.757736], [134.453325, 34.761234], [134.455393, 34.767123], [134.449709, 34.768911], [134.437165, 34.766016], [134.433088, 34.766171], [134.432329, 34.760657], [134.42608, 34.75519], [134.434339, 34.747602], [134.427944, 34.745355], [134.423088, 34.737289], [134.416257, 34.731246], [134.406547, 34.726907], [134.405098, 34.729646], [134.392896, 34.729012], [134.387516, 34.730561], [134.385279, 34.726117], [134.375641, 34.731538], [134.373896, 34.736564], [134.368506, 34.744776], [134.363116, 34.746149], [134.36382, 34.740846], [134.35493, 34.739252], [134.352418, 34.736614], [134.344983, 34.735472], [134.339667, 34.738886], [134.328799, 34.730692], [134.32386, 34.724787], [134.321046, 34.729179], [134.323651, 34.731044], [134.320819, 34.735365], [134.313027, 34.738397], [134.31662, 34.744129], [134.318449, 34.756261], [134.321531, 34.761709], [134.333066, 34.765737], [134.334789, 34.768888], [134.3296, 34.774238], [134.323268, 34.774256], [134.315828, 34.781041], [134.319209, 34.788188], [134.316465, 34.79721], [134.316361, 34.802574], [134.311285, 34.802552], [134.306341, 34.808616], [134.307351, 34.810923], [134.301537, 34.814627], [134.298142, 34.813621], [134.295607, 34.818056], [134.287931, 34.821559], [134.288419, 34.82693], [134.283347, 34.829745], [134.266295, 34.825641], [134.26173, 34.831149], [134.264611, 34.837313], [134.260964, 34.846967], [134.254557, 34.849262], [134.254001, 34.856958], [134.258455, 34.862554], [134.260163, 34.867314], [134.267075, 34.875478], [134.262354, 34.881983], [134.267488, 34.883301], [134.269293, 34.889091], [134.277791, 34.895141], [134.289148, 34.897691], [134.294106, 34.902802], [134.295015, 34.907462], [134.287356, 34.91283], [134.284019, 34.916966], [134.284492, 34.921035], [134.278237, 34.921679], [134.274799, 34.92428], [134.276096, 34.92968], [134.273087, 34.932551], [134.262884, 34.937657], [134.259944, 34.934439], [134.253727, 34.939087], [134.254326, 34.946218], [134.257768, 34.947777], [134.25999, 34.952306], [134.266699, 34.954431], [134.267341, 34.957456], [134.276956, 34.96333], [134.274296, 34.965751], [134.274575, 34.971223], [134.277075, 34.975789], [134.271931, 34.978936], [134.271089, 34.983902], [134.277837, 34.987107], [134.282365, 34.996593], [134.278971, 35.001015], [134.265762, 35.004967], [134.264438, 35.016692], [134.267598, 35.021538], [134.275208, 35.02331], [134.281588, 35.033616], [134.292667, 35.039001], [134.297787, 35.043107], [134.305305, 35.040169], [134.307736, 35.045502], [134.316332, 35.0432], [134.317174, 35.046818], [134.314335, 35.050792], [134.31454, 35.060904], [134.317177, 35.065647], [134.321159, 35.067497], [134.319083, 35.083443], [134.336539, 35.088751], [134.349551, 35.090223], [134.350001, 35.094252], [134.355031, 35.099428], [134.353329, 35.102055], [134.352284, 35.1111], [134.353457, 35.114347], [134.36073, 35.120349], [134.35643, 35.124824], [134.36052, 35.129305], [134.363294, 35.135526], [134.362476, 35.140093], [134.367393, 35.146961], [134.374716, 35.150869], [134.377564, 35.14912], [134.383085, 35.15249], [134.388257, 35.151263], [134.397472, 35.152141], [134.408686, 35.14787], [134.411632, 35.151963], [134.413161, 35.158619], [134.41083, 35.162911], [134.406184, 35.165777], [134.407133, 35.169853], [134.412633, 35.17765], [134.411083, 35.186967], [134.399674, 35.187625], [134.39475, 35.191354], [134.383691, 35.193934], [134.381316, 35.206347], [134.381152, 35.21789], [134.382517, 35.221724], [134.396998, 35.227618], [134.402814, 35.241024], [134.415301, 35.239101], [134.435319, 35.229173], [134.440345, 35.231661], [134.444193, 35.236845], [134.448022, 35.237936], [134.463821, 35.237403], [134.461769, 35.243101], [134.471415, 35.248303], [134.476524, 35.249092], [134.482343, 35.254649], [134.483588, 35.260278], [134.489908, 35.261392], [134.495087, 35.266851], [134.501983, 35.268734], [134.504787, 35.2718], [134.515241, 35.277232], [134.5131, 35.286527], [134.509284, 35.293776], [134.511591, 35.299896], [134.511629, 35.305291], [134.514802, 35.307672], [134.505048, 35.316303], [134.501921, 35.326543], [134.50455, 35.337269], [134.506839, 35.338521], [134.509396, 35.342131], [134.510279, 35.350849], [134.513498, 35.354094], [134.504595, 35.359434], [134.502868, 35.365961], [134.486556, 35.369189], [134.482839, 35.373084], [134.474749, 35.374708], [134.471385, 35.380032], [134.474404, 35.386189], [134.474417, 35.392026], [134.477265, 35.39522], [134.477436, 35.400086], [134.481434, 35.410498], [134.476703, 35.414563], [134.479866, 35.424963], [134.477354, 35.429019], [134.472334, 35.429815], [134.462735, 35.436799], [134.452258, 35.436451], [134.445979, 35.442021], [134.43962, 35.443974], [134.437506, 35.457624], [134.438182, 35.461229], [134.434575, 35.463634], [134.434207, 35.469644], [134.437914, 35.474276], [134.430219, 35.492277], [134.427433, 35.496565], [134.430876, 35.502469], [134.427632, 35.508655], [134.424426, 35.50875], [134.418873, 35.513946], [134.413779, 35.51383], [134.413103, 35.5176], [134.420675, 35.528572], [134.42019, 35.53344], [134.423329, 35.534908], [134.424014, 35.542004], [134.421017, 35.544887], [134.42506, 35.552031], [134.422284, 35.556566], [134.421499, 35.562911], [134.414112, 35.564064], [134.409954, 35.562897], [134.405074, 35.570709], [134.407135, 35.579303], [134.405615, 35.584431], [134.408259, 35.587318], [134.401637, 35.595027], [134.393104, 35.598274], [134.39309, 35.60137], [134.387287, 35.603721], [134.381635, 35.603339], [134.370493, 35.610601], [134.37483, 35.613331], [134.387429, 35.613738], [134.388448, 35.617772], [134.395305, 35.61971], [134.402611, 35.616628], [134.417871, 35.619925], [134.420624, 35.624343], [134.424936, 35.621548], [134.433951, 35.620994], [134.435798, 35.6234], [134.431959, 35.62982], [134.434822, 35.633314], [134.446571, 35.629105], [134.453053, 35.629], [134.456691, 35.635004], [134.459934, 35.634971], [134.462762, 35.639974], [134.471877, 35.638754], [134.477614, 35.642381], [134.480463, 35.646647], [134.489914, 35.653043], [134.500763, 35.657795], [134.505546, 35.661367], [134.512435, 35.658125], [134.518907, 35.661296], [134.517296, 35.666216], [134.52319, 35.666964], [134.529479, 35.66577], [134.538956, 35.670201], [134.546006, 35.665435], [134.550682, 35.658262], [134.556845, 35.655534], [134.558213, 35.651118], [134.563362, 35.651756], [134.563389, 35.655355], [134.576141, 35.658576], [134.578599, 35.660179], [134.58521, 35.65896], [134.592686, 35.655159], [134.600728, 35.658035], [134.608642, 35.648595], [134.613427, 35.648681], [134.614443, 35.640451], [134.621588, 35.639553], [134.629507, 35.642051], [134.62976, 35.649808], [134.641366, 35.649902], [134.645204, 35.654195], [134.64711, 35.660025], [134.65415, 35.663973], [134.664016, 35.666794], [134.666832, 35.662601], [134.659789, 35.650472], [134.663206, 35.648146], [134.667682, 35.655743], [134.672631, 35.65945], [134.680545, 35.655015], [134.686997, 35.656444], [134.692144, 35.659594], [134.696619, 35.653964], [134.70257, 35.655478], [134.707635, 35.653541], [134.709257, 35.65771], [134.708254, 35.663878], [134.711454, 35.665481], [134.724981, 35.666998], [134.733024, 35.658333], [134.736799, 35.659905], [134.743895, 35.659546], [134.744986, 35.661913], [134.75744, 35.661188], [134.761049, 35.66416], [134.770569, 35.658871], [134.78095, 35.662134], [134.784378, 35.666631], [134.79266, 35.666718], [134.795398, 35.669636], [134.804536, 35.663958], [134.814442, 35.663617], [134.826332, 35.655367], [134.836279, 35.656682], [134.837344, 35.651267], [134.833559, 35.648786], [134.839391, 35.642906], [134.842399, 35.642691], [134.845422, 35.649306], [134.850763, 35.655777], [134.857181, 35.659492], [134.867345, 35.656085], [134.864169, 35.651807], [134.867689, 35.649679], [134.865844, 35.644971], [134.867196, 35.636291], [134.870314, 35.631586], [134.873897, 35.621156], [134.870677, 35.614832], [134.866481, 35.613523], [134.867413, 35.608429], [134.865518, 35.599373], [134.854035, 35.589283], [134.856117, 35.586551], [134.862729, 35.586916], [134.866063, 35.581059], [134.875763, 35.573952], [134.881213, 35.567384], [134.881052, 35.564034], [134.888286, 35.560161], [134.900876, 35.556063], [134.903126, 35.549398], [134.914807, 35.54494], [134.919292, 35.538121], [134.917202, 35.529476], [134.915129, 35.527708], [134.923151, 35.52169], [134.923356, 35.516315], [134.930064, 35.511677], [134.94211, 35.514201], [134.952648, 35.514543], [134.958214, 35.512973], [134.963436, 35.514525], [134.96527, 35.519819], [134.974057, 35.525051], [134.979257, 35.523966], [134.98204, 35.528451], [134.988248, 35.52954], [134.993415, 35.534308], [135.008008, 35.533633], [135.01751, 35.537955], [135.027187, 35.54003], [135.036947, 35.538569], [135.036191, 35.53061], [135.039361, 35.528477], [135.040843, 35.521656], [135.042961, 35.520009], [135.04288, 35.51139], [135.045156, 35.508693], [135.041287, 35.503743], [135.032417, 35.49759], [135.042163, 35.494061], [135.040133, 35.481661], [135.035124, 35.477028], [135.041036, 35.473304], [135.043747, 35.465982], [135.045365, 35.455073], [135.049799, 35.451071], [135.051818, 35.442491], [135.049381, 35.440137], [135.047097, 35.429923], [135.04703, 35.423899], [135.049441, 35.420316], [135.050254, 35.413659], [135.048743, 35.407361], [135.038398, 35.409754], [135.030034, 35.4101], [135.029721, 35.405581], [135.023592, 35.401041], [135.019241, 35.394123], [135.005376, 35.390652], [135.001966, 35.38705], [134.990554, 35.385713], [134.987074, 35.388878], [134.988611, 35.392832], [134.980756, 35.398368], [134.970947, 35.398951], [134.958934, 35.409111], [134.954934, 35.408476], [134.946149, 35.41331], [134.934354, 35.407405], [134.931539, 35.4014], [134.927712, 35.399554], [134.922981, 35.391062], [134.926509, 35.38573], [134.926826, 35.377461], [134.918942, 35.364437], [134.923466, 35.354238], [134.918867, 35.350125], [134.917206, 35.340158], [134.925583, 35.336678], [134.928061, 35.330239], [134.924802, 35.326093], [134.925932, 35.321772], [134.921319, 35.317409], [134.9247, 35.31166], [134.934243, 35.307753], [134.937614, 35.307611], [134.946007, 35.307151], [134.947123, 35.303933], [134.960053, 35.297913], [134.976451, 35.295082], [134.986443, 35.292586], [134.992859, 35.289054], [134.99677, 35.289671], [135.004136, 35.285566], [135.007323, 35.285583], [135.011914, 35.280506], [135.01048, 35.269737], [135.019389, 35.26789], [135.035768, 35.262568], [135.042109, 35.264082], [135.049491, 35.261963], [135.056942, 35.264483], [135.058025, 35.254936], [135.064337, 35.246436], [135.064476, 35.241844], [135.067875, 35.237351], [135.072871, 35.23955], [135.074739, 35.243254], [135.0829, 35.24638], [135.085423, 35.253191], [135.089605, 35.254467], [135.094648, 35.260024], [135.100331, 35.259728], [135.109316, 35.266292], [135.119296, 35.262631], [135.122836, 35.263246], [135.128929, 35.260717], [135.134792, 35.264993], [135.14198, 35.26228], [135.147014, 35.263997], [135.157254, 35.26123], [135.160618, 35.258349], [135.161215, 35.253703], [135.167026, 35.242745], [135.166421, 35.239059], [135.16182, 35.23123], [135.156472, 35.229828], [135.154692, 35.226699], [135.163067, 35.220091], [135.170967, 35.220267], [135.175131, 35.214601], [135.182065, 35.215984], [135.188104, 35.210014], [135.188835, 35.206829], [135.197058, 35.203018], [135.200132, 35.19552], [135.192894, 35.194071], [135.186713, 35.190224], [135.19014, 35.183186], [135.187252, 35.171943], [135.193374, 35.172104], [135.203243, 35.164908], [135.20663, 35.160614], [135.216461, 35.161633], [135.224941, 35.163758], [135.228571, 35.165781], [135.23203, 35.177457], [135.237531, 35.176329], [135.250064, 35.178035], [135.253564, 35.176436], [135.267436, 35.175711], [135.274095, 35.177229], [135.280802, 35.17452], [135.284723, 35.171186], [135.289226, 35.172408], [135.290187, 35.16495], [135.292206, 35.161306], [135.288104, 35.158353], [135.285614, 35.152658], [135.278543, 35.151083], [135.27993, 35.146967], [135.287618, 35.142733], [135.293746, 35.14157], [135.298748, 35.143598], [135.303481, 35.142756], [135.315327, 35.146258], [135.324032, 35.146603], [135.326842, 35.149216], [135.340959, 35.149658], [135.337436, 35.144087], [135.339761, 35.1378], [135.343221, 35.135641], [135.354712, 35.136655], [135.359876, 35.132158], [135.368154, 35.131102], [135.372736, 35.128958], [135.38222, 35.129798], [135.38981, 35.128765], [135.391204, 35.126484], [135.386074, 35.120736], [135.387222, 35.116487], [135.393315, 35.110508], [135.389173, 35.108334], [135.387685, 35.099153], [135.400682, 35.093821], [135.404281, 35.088993], [135.400109, 35.085958], [135.398689, 35.081707], [135.399535, 35.076099], [135.393693, 35.073196], [135.387074, 35.072544], [135.376614, 35.066024], [135.377153, 35.060868], [135.371311, 35.058606], [135.368729, 35.05489], [135.369298, 35.048704], [135.367627, 35.043992], [135.359478, 35.050112], [135.349484, 35.050869], [135.349086, 35.046199], [135.337895, 35.04265], [135.333743, 35.039649], [135.33358, 35.035158], [135.338019, 35.030476], [135.339803, 35.025877], [135.346559, 35.026671], [135.354719, 35.024611], [135.355764, 35.016518], [135.353708, 35.013201], [135.35469, 35.006598], [135.35151, 35.004278], [135.353552, 35.000803], [135.352563, 34.990389], [135.359533, 34.982516], [135.352244, 34.979527], [135.348524, 34.975775], [135.348749, 34.97197], [135.345069, 34.966846], [135.354248, 34.962617], [135.360725, 34.954422], [135.363924, 34.956235], [135.375327, 34.955133], [135.381886, 34.95623], [135.387537, 34.950984], [135.387171, 34.946607], [135.392352, 34.941366], [135.395957, 34.944439], [135.407291, 34.943666], [135.410413, 34.939925], [135.415756, 34.940794], [135.418485, 34.933894], [135.425346, 34.936427], [135.438548, 34.936942], [135.441593, 34.939379], [135.452819, 34.929719], [135.461012, 34.926275], [135.467153, 34.928787], [135.465407, 34.919588], [135.45671, 34.917906], [135.451449, 34.919897], [135.439303, 34.920504], [135.434525, 34.916768], [135.430299, 34.916347], [135.4191, 34.909753], [135.419969, 34.906478], [135.425683, 34.906741], [135.431082, 34.897242], [135.430503, 34.893516], [135.439469, 34.896016], [135.445818, 34.89652], [135.443943, 34.89139], [135.440938, 34.890457], [135.437431, 34.879919], [135.437518, 34.876814], [135.430057, 34.861056], [135.431358, 34.856415], [135.418637, 34.849469], [135.424229, 34.83822], [135.423799, 34.829947], [135.416186, 34.820457], [135.415991, 34.817693], [135.42374, 34.802053], [135.429107, 34.801523], [135.441696, 34.788863], [135.446179, 34.775287], [135.444697, 34.768529], [135.450409, 34.766322], [135.450069, 34.760033], [135.459352, 34.752032], [135.460168, 34.747885], [135.459334, 34.733487], [135.448987, 34.734097], [135.445636, 34.730034], [135.448106, 34.721689], [135.445813, 34.718086], [135.429579, 34.711347], [135.424566, 34.705897], [135.412865, 34.701997], [135.406353, 34.697598], [135.391966, 34.680061], [135.376212, 34.676661], [135.375705, 34.67998], [135.381994, 34.682267], [135.392662, 34.688207], [135.401232, 34.69922], [135.396028, 34.70032], [135.389307, 34.691916], [135.381141, 34.691314], [135.377608, 34.692661], [135.376721, 34.68568], [135.371284, 34.680866], [135.368561, 34.683218], [135.372434, 34.693606], [135.363236, 34.688462], [135.353905, 34.696816], [135.363915, 34.705068], [135.360884, 34.705831], [135.350319, 34.715215], [135.348961, 34.714666], [135.338922, 34.722302], [135.324345, 34.725844], [135.32395, 34.718098], [135.306023, 34.714487], [135.303457, 34.719095], [135.29427, 34.719456], [135.291668, 34.715417], [135.287266, 34.714609], [135.288101, 34.70395], [135.254325, 34.700342], [135.245409, 34.699362], [135.239756, 34.701406], [135.234954, 34.698542], [135.238311, 34.69327], [135.22402, 34.691697], [135.218903, 34.695493], [135.21625, 34.694139], [135.218185, 34.690018], [135.207499, 34.684286], [135.203928, 34.68692], [135.201027, 34.6829], [135.190314, 34.681321], [135.184378, 34.682043], [135.18939, 34.67233], [135.183112, 34.670199], [135.187378, 34.666883], [135.185999, 34.66325], [135.179811, 34.662407], [135.180549, 34.655567], [135.187008, 34.65265], [135.183312, 34.649598], [135.167148, 34.64794], [135.147547, 34.64581], [135.13964, 34.642568], [135.122852, 34.642359], [135.10637, 34.639975], [135.102259, 34.637062], [135.093149, 34.634723], [135.085358, 34.633703], [135.074266, 34.630761], [135.074519, 34.628321], [135.06008, 34.625576], [135.051254, 34.626789], [135.045602, 34.624766], [135.031874, 34.631287], [135.032298, 34.633181], [135.022356, 34.641457], [135.018708, 34.643191], [135.011763, 34.642129], [134.994573, 34.641988], [134.990336, 34.645303], [134.987846, 34.641666], [134.972627, 34.643824], [134.957216, 34.652081], [134.94468, 34.661737], [134.929673, 34.671033], [134.9163, 34.675306], [134.907622, 34.676486], [134.895588, 34.689008], [134.876803, 34.699955], [134.870542, 34.702845], [134.86638, 34.707519], [134.850148, 34.715995], [134.847257, 34.715327], [134.848205, 34.719593], [134.843617, 34.720583], [134.836582, 34.707368], [134.828539, 34.710159], [134.826578, 34.706352], [134.808804, 34.718478], [134.812937, 34.730715], [134.808676, 34.732086], [134.797147, 34.732487]], [[134.821341, 34.15683], [134.811202, 34.157109], [134.812776, 34.166821], [134.819141, 34.167682], [134.820761, 34.17955], [134.825913, 34.177294], [134.830657, 34.172055], [134.830562, 34.164576], [134.821341, 34.15683]], [[134.862894, 34.689923], [134.85733, 34.692092], [134.861765, 34.697118], [134.866611, 34.696362], [134.86834, 34.699185], [134.869698, 34.701414], [134.881045, 34.694797], [134.883991, 34.691873], [134.8776, 34.684415], [134.862894, 34.689923]], [[134.858283, 34.699836], [134.853233, 34.694144], [134.837096, 34.697182], [134.840023, 34.696714], [134.845917, 34.708251], [134.853146, 34.705733], [134.856971, 34.709782], [134.862116, 34.707442], [134.858283, 34.699836]], [[135.213516, 34.64], [135.2357, 34.641728], [135.238711, 34.632397], [135.209277, 34.630139], [135.208863, 34.633762], [135.213516, 34.64]], [[135.282847, 34.65141], [135.276808, 34.651301], [135.274535, 34.665417], [135.280458, 34.666076], [135.282847, 34.65141]], [[135.216314, 34.675055], [135.217775, 34.672678], [135.228022, 34.675812], [135.231886, 34.673434], [135.219566, 34.669657], [135.221122, 34.667309], [135.233402, 34.671049], [135.236448, 34.665288], [135.225723, 34.661996], [135.228148, 34.657969], [135.238893, 34.661247], [135.245114, 34.650815], [135.21716, 34.650082], [135.202359, 34.659236], [135.201722, 34.669127], [135.201442, 34.673629], [135.210703, 34.678939], [135.210292, 34.681289], [135.219999, 34.682779], [135.225523, 34.677888], [135.216314, 34.675055]], [[135.278333, 34.692445], [135.27877, 34.689669], [135.28947, 34.68803], [135.290505, 34.681704], [135.254463, 34.677761], [135.252206, 34.693301], [135.264161, 34.697781], [135.272769, 34.698754], [135.288158, 34.696668], [135.289104, 34.690872], [135.278333, 34.692445]], [[135.345006, 34.704784], [135.342411, 34.713656], [135.347688, 34.712697], [135.353113, 34.707333], [135.347831, 34.703395], [135.345006, 34.704784]], [[135.306634, 34.708333], [135.306226, 34.713297], [135.321941, 34.716407], [135.320165, 34.708351], [135.320951, 34.70485], [135.311833, 34.70564], [135.306634, 34.708333]], [[135.298842, 34.705125], [135.293352, 34.704728], [135.292208, 34.712033], [135.293869, 34.717614], [135.303288, 34.716877], [135.304294, 34.705922], [135.298842, 34.705125]], [[135.325, 34.709499], [135.324808, 34.716986], [135.330239, 34.721717], [135.334667, 34.72127], [135.341163, 34.715791], [135.338814, 34.710917], [135.325, 34.709499]]]}}]}