{"type": "FeatureCollection", "features": [{"type": "Feature", "properties": {"name": "千葉県"}, "geometry": {"type": "MultiLineString", "coordinates": [[[139.751619, 34.969089], [139.751695, 34.969047], [139.753085, 34.96932], [139.753454, 34.969124], [139.754256, 34.970412], [139.753835, 34.971538], [139.752912, 34.971335], [139.753274, 34.971767], [139.752241, 34.971759], [139.753542, 34.975007], [139.751664, 34.973267], [139.751649, 34.973315], [139.751364, 34.973649], [139.751408, 34.973797], [139.751028, 34.97452], [139.751144, 34.974616], [139.751662, 34.975043], [139.752242, 34.975522], [139.75206, 34.975766], [139.752396, 34.975753], [139.752398, 34.975801], [139.753744, 34.975552], [139.755352, 34.978282], [139.757212, 34.976677], [139.757212, 34.976677], [139.758332, 34.975709], [139.759666, 34.974558], [139.761027, 34.974859], [139.761204, 34.974485], [139.761264, 34.974912], [139.761967, 34.975067], [139.761432, 34.976105], [139.76157, 34.977089], [139.761634, 34.977072], [139.761497, 34.976228], [139.762317, 34.975145], [139.770991, 34.977064], [139.771026, 34.977103], [139.771098, 34.97709], [139.772471, 34.977392], [139.77249, 34.977616], [139.772853, 34.977479], [139.772916, 34.977712], [139.773244, 34.977564], [139.773344, 34.977678], [139.773385, 34.977655], [139.77408, 34.977787], [139.77419, 34.977541], [139.774511, 34.977455], [139.774561, 34.977427], [139.774345, 34.977365], [139.776723, 34.975094], [139.779594, 34.975487], [139.779213, 34.97622], [139.779368, 34.976195], [139.77949, 34.976128], [139.779501, 34.976174], [139.779655, 34.976149], [139.779645, 34.976223], [139.779929, 34.975997], [139.780944, 34.975672], [139.784977, 34.976225], [139.782486, 34.974377], [139.786201, 34.972811], [139.796979, 34.97382], [139.806801, 34.978881], [139.817344, 34.980314], [139.81862, 34.977976], [139.82724, 34.988484], [139.824076, 34.991604], [139.842118, 34.992048], [139.845509, 34.989546], [139.844363, 34.988492], [139.843595, 34.987784], [139.842576, 34.986847], [139.841773, 34.986108], [139.849679, 34.985407], [139.851983, 34.986989], [139.847982, 34.987778], [139.850705, 34.988247], [139.852513, 34.987257], [139.853551, 34.988737], [139.854661, 34.988928], [139.854663, 34.9891], [139.853907, 34.989244], [139.853199, 34.98938], [139.854051, 34.989451], [139.857234, 34.993989], [139.855161, 34.994613], [139.857863, 34.996549], [139.857895, 34.999276], [139.856973, 34.999237], [139.856469, 35.003432], [139.857931, 35.002293], [139.858035, 35.011021], [139.850919, 35.024298], [139.845809, 35.022668], [139.849149, 35.025345], [139.844839, 35.025548], [139.843747, 35.02505], [139.844893, 35.022376], [139.844876, 35.02237], [139.844926, 35.022299], [139.844987, 35.022159], [139.844317, 35.023191], [139.843472, 35.023873], [139.842314, 35.02439], [139.842244, 35.024113], [139.841593, 35.024461], [139.840663, 35.023952], [139.840348, 35.024089], [139.840907, 35.024336], [139.841175, 35.025406], [139.840726, 35.026089], [139.834041, 35.031484], [139.825149, 35.031192], [139.823985, 35.03149], [139.823943, 35.031586], [139.823509, 35.031871], [139.82271, 35.032218], [139.822635, 35.03225], [139.82197, 35.032536], [139.821175, 35.032536], [139.821034, 35.032771], [139.820038, 35.033018], [139.820011, 35.032986], [139.819612, 35.033295], [139.819541, 35.033141], [139.81942, 35.033171], [139.819287, 35.033365], [139.818658, 35.033473], [139.818914, 35.033917], [139.818754, 35.03392], [139.812995, 35.036398], [139.810408, 35.03455], [139.811967, 35.036889], [139.8104, 35.037211], [139.810128, 35.036975], [139.810026, 35.037003], [139.809686, 35.037525], [139.809526, 35.037618], [139.811954, 35.037977], [139.809807, 35.038975], [139.809807, 35.039267], [139.810279, 35.039204], [139.81089, 35.038804], [139.81082, 35.039553], [139.811028, 35.039525], [139.811045, 35.03967], [139.811614, 35.040721], [139.811595, 35.040799], [139.813048, 35.041283], [139.812636, 35.0418], [139.813224, 35.042472], [139.81337, 35.042452], [139.813429, 35.043053], [139.813459, 35.043357], [139.813672, 35.043039], [139.815421, 35.043461], [139.815534, 35.043293], [139.815978, 35.042946], [139.816207, 35.042976], [139.816407, 35.041994], [139.818665, 35.038637], [139.821981, 35.041013], [139.820271, 35.038835], [139.824873, 35.038057], [139.832528, 35.04516], [139.831248, 35.048048], [139.830645, 35.048222], [139.831131, 35.048312], [139.829361, 35.052305], [139.828753, 35.051665], [139.828715, 35.051898], [139.827864, 35.052144], [139.828039, 35.052681], [139.827054, 35.052309], [139.826895, 35.053156], [139.826636, 35.053213], [139.826722, 35.053364], [139.826452, 35.053457], [139.826709, 35.053728], [139.826842, 35.053347], [139.828622, 35.053973], [139.828087, 35.055181], [139.828213, 35.055314], [139.828011, 35.055352], [139.827355, 35.055477], [139.827229, 35.055501], [139.827482, 35.056104], [139.827468, 35.056577], [139.824949, 35.062261], [139.819388, 35.06565], [139.819326, 35.065583], [139.820095, 35.064559], [139.819387, 35.064976], [139.819517, 35.065304], [139.81879, 35.065507], [139.81886, 35.065736], [139.818447, 35.06564], [139.818621, 35.065764], [139.818279, 35.065849], [139.818611, 35.066181], [139.818738, 35.066075], [139.819552, 35.067272], [139.821023, 35.072254], [139.826661, 35.075143], [139.827149, 35.076422], [139.826622, 35.076633], [139.827635, 35.076764], [139.82774, 35.076634], [139.82769, 35.076489], [139.829828, 35.076765], [139.836881, 35.080379], [139.83786, 35.078766], [139.839226, 35.082997], [139.841877, 35.082906], [139.837168, 35.100149], [139.834965, 35.099986], [139.828006, 35.100539], [139.828006, 35.100539], [139.827303, 35.100595], [139.824532, 35.100815], [139.824445, 35.100534], [139.823159, 35.100961], [139.823259, 35.101061], [139.82357, 35.100885], [139.82772, 35.105209], [139.823951, 35.107822], [139.828215, 35.110134], [139.823305, 35.114295], [139.823206, 35.113935], [139.822801, 35.114256], [139.822378, 35.114318], [139.822192, 35.114345], [139.822109, 35.114357], [139.82229, 35.114709], [139.822289, 35.114715], [139.822293, 35.114715], [139.822695, 35.114756], [139.822695, 35.114756], [139.824326, 35.113938], [139.829561, 35.119098], [139.828882, 35.120243], [139.829332, 35.120731], [139.830163, 35.119692], [139.832929, 35.122418], [139.834243, 35.123713], [139.836247, 35.125688], [139.835037, 35.130698], [139.836172, 35.130326], [139.835734, 35.133083], [139.836347, 35.135269], [139.836033, 35.135806], [139.835912, 35.136013], [139.835964, 35.136015], [139.836097, 35.136204], [139.837187, 35.135935], [139.836721, 35.138048], [139.828158, 35.151385], [139.816648, 35.15482], [139.817721, 35.155089], [139.818622, 35.160238], [139.818622, 35.160238], [139.818645, 35.160365], [139.819339, 35.164332], [139.82238, 35.164707], [139.815977, 35.170609], [139.818566, 35.169889], [139.815841, 35.172409], [139.818388, 35.173842], [139.816689, 35.184695], [139.815994, 35.184587], [139.816004, 35.184615], [139.81566, 35.185116], [139.815685, 35.185257], [139.816421, 35.184794], [139.823394, 35.197214], [139.833656, 35.203727], [139.835035, 35.204603], [139.838692, 35.206924], [139.838943, 35.207257], [139.839121, 35.207196], [139.848078, 35.212881], [139.86671, 35.219384], [139.870739, 35.228592], [139.864366, 35.254174], [139.846613, 35.271725], [139.848946, 35.274604], [139.847066, 35.276918], [139.846597, 35.277496], [139.846213, 35.277969], [139.847617, 35.279385], [139.848669, 35.278255], [139.848731, 35.278189], [139.850403, 35.276393], [139.85242, 35.27963], [139.848955, 35.27836], [139.850515, 35.279551], [139.852369, 35.279668], [139.851801, 35.286507], [139.837364, 35.296727], [139.822854, 35.300635], [139.822603, 35.299898], [139.818407, 35.301205], [139.817669, 35.30105], [139.819227, 35.301536], [139.82421, 35.301424], [139.824302, 35.302072], [139.783913, 35.31284], [139.809557, 35.315191], [139.814726, 35.318741], [139.813767, 35.315157], [139.819736, 35.316475], [139.816111, 35.319692], [139.815747, 35.320015], [139.818909, 35.320911], [139.816502, 35.324032], [139.821909, 35.327152], [139.818739, 35.331265], [139.81999, 35.333784], [139.821209, 35.334412], [139.82125, 35.33436], [139.818779, 35.331286], [139.823243, 35.326081], [139.821271, 35.323311], [139.840276, 35.334416], [139.837092, 35.337803], [139.824999, 35.336297], [139.824961, 35.336346], [139.827905, 35.337867], [139.821674, 35.346344], [139.824051, 35.345514], [139.825421, 35.346855], [139.825436, 35.34687], [139.837766, 35.358939], [139.84709, 35.346801], [139.852158, 35.349313], [139.854691, 35.35061], [139.854798, 35.346783], [139.85757, 35.34728], [139.855061, 35.350799], [139.85506, 35.350801], [139.858095, 35.349318], [139.858355, 35.349701], [139.839132, 35.367288], [139.845931, 35.375341], [139.850176, 35.373293], [139.852356, 35.37255], [139.852435, 35.372468], [139.852649, 35.372395], [139.852772, 35.372335], [139.852466, 35.372362], [139.852423, 35.372208], [139.863082, 35.367065], [139.88752, 35.36149], [139.891322, 35.361486], [139.894082, 35.357143], [139.8979, 35.358373], [139.887815, 35.370888], [139.889611, 35.371071], [139.894291, 35.371547], [139.899496, 35.372077], [139.897669, 35.374947], [139.895898, 35.374188], [139.8959, 35.374185], [139.894903, 35.373764], [139.894277, 35.373491], [139.894199, 35.373456], [139.894045, 35.373389], [139.894045, 35.373389], [139.893287, 35.37307], [139.893256, 35.373117], [139.893852, 35.373374], [139.893832, 35.373405], [139.895103, 35.373941], [139.895099, 35.373948], [139.895849, 35.374267], [139.895863, 35.374245], [139.896771, 35.37467], [139.910951, 35.380707], [139.91424, 35.379419], [139.913107, 35.383032], [139.917986, 35.381687], [139.914764, 35.386802], [139.914764, 35.386802], [139.914592, 35.387223], [139.91875, 35.385999], [139.918387, 35.389394], [139.918771, 35.389478], [139.913285, 35.391381], [139.906773, 35.38843], [139.906773, 35.38843], [139.905736, 35.389289], [139.906316, 35.390017], [139.90221, 35.399459], [139.903915, 35.400617], [139.900782, 35.401458], [139.902195, 35.404107], [139.897857, 35.409239], [139.898643, 35.41496], [139.898643, 35.41496], [139.899011, 35.417639], [139.899037, 35.41783], [139.89915, 35.418649], [139.896961, 35.423291], [139.901787, 35.425128], [139.902324, 35.42742], [139.90109, 35.427525], [139.901099, 35.427632], [139.902346, 35.427515], [139.903274, 35.431481], [139.911885, 35.435067], [139.91377, 35.435852], [139.917744, 35.437507], [139.918299, 35.440541], [139.918383, 35.437764], [139.92196, 35.43924], [139.919035, 35.440975], [139.935319, 35.441262], [139.936869, 35.443662], [139.939985, 35.444587], [139.939891, 35.444928], [139.940319, 35.444686], [139.950152, 35.439127], [139.951092, 35.456138], [139.962701, 35.458758], [139.964728, 35.452983], [139.964529, 35.449926], [139.957285, 35.448093], [139.952145, 35.452968], [139.955143, 35.443803], [139.974461, 35.448472], [139.96569, 35.468514], [139.982026, 35.474792], [139.992303, 35.457354], [139.989188, 35.454287], [139.993368, 35.453239], [139.998051, 35.457309], [139.988766, 35.469896], [139.992528, 35.474277], [139.998376, 35.467072], [139.998423, 35.4671], [139.998549, 35.466947], [139.99933, 35.465995], [140.003322, 35.468282], [139.996689, 35.476169], [140.005464, 35.478802], [140.00254, 35.482552], [140.018459, 35.470872], [140.017852, 35.480517], [140.009763, 35.486243], [140.015449, 35.489127], [140.021925, 35.496793], [140.025937, 35.494544], [140.029644, 35.49705], [140.027934, 35.494563], [140.033041, 35.491674], [140.036226, 35.495293], [140.03127, 35.498149], [140.030647, 35.498508], [140.025219, 35.501636], [140.029841, 35.507087], [140.02937, 35.507858], [140.030436, 35.507789], [140.033892, 35.511865], [140.033903, 35.511859], [140.034239, 35.512251], [140.036546, 35.510944], [140.036022, 35.510707], [140.042234, 35.507327], [140.045914, 35.511404], [140.040667, 35.513116], [140.040708, 35.513133], [140.03878, 35.513776], [140.040774, 35.514554], [140.03692, 35.51754], [140.050076, 35.530937], [140.057722, 35.526577], [140.060678, 35.530065], [140.053944, 35.535085], [140.061127, 35.543562], [140.060772, 35.543956], [140.059052, 35.542783], [140.060752, 35.544633], [140.064485, 35.542807], [140.070151, 35.54846], [140.066399, 35.553424], [140.070463, 35.548607], [140.0776, 35.548208], [140.096089, 35.535402], [140.101059, 35.538462], [140.090541, 35.542343], [140.090081, 35.542851], [140.094308, 35.545486], [140.091637, 35.548428], [140.088054, 35.545933], [140.085773, 35.548827], [140.092331, 35.554485], [140.098043, 35.555011], [140.113722, 35.548126], [140.11723, 35.549842], [140.091207, 35.561181], [140.091023, 35.564488], [140.125046, 35.567504], [140.125071, 35.568012], [140.112164, 35.57045], [140.112116, 35.570448], [140.114158, 35.572516], [140.110574, 35.589541], [140.115295, 35.593114], [140.117999, 35.591712], [140.118258, 35.595615], [140.115287, 35.596899], [140.107335, 35.592148], [140.105517, 35.593448], [140.107885, 35.597996], [140.108868, 35.599884], [140.109745, 35.601569], [140.109404, 35.601817], [140.108173, 35.600564], [140.106039, 35.602653], [140.103931, 35.601213], [140.106642, 35.599007], [140.101651, 35.59393], [140.088799, 35.594815], [140.096646, 35.598742], [140.098444, 35.606782], [140.093351, 35.603742], [140.083002, 35.61388], [140.077922, 35.610415], [140.08121, 35.607196], [140.081499, 35.607384], [140.082621, 35.606276], [140.082345, 35.606086], [140.086628, 35.601894], [140.083907, 35.596797], [140.055576, 35.622332], [140.052558, 35.620586], [140.049959, 35.621188], [140.054683, 35.621872], [140.046522, 35.62626], [140.047433, 35.628745], [140.0444, 35.630024], [140.043597, 35.62641], [140.043185, 35.626912], [140.042971, 35.627412], [140.042908, 35.627997], [140.043009, 35.628517], [140.043256, 35.62901], [140.043558, 35.629362], [140.045283, 35.630772], [140.018268, 35.650665], [140.019794, 35.6524], [140.007999, 35.65887], [139.99167, 35.654943], [139.987461, 35.654468], [139.986498, 35.660109], [140.002949, 35.659778], [140.001943, 35.665596], [139.985869, 35.663836], [139.984581, 35.67145], [139.992007, 35.672288], [139.991544, 35.674945], [139.98382, 35.677134], [139.988184, 35.689848], [139.984505, 35.690901], [139.982968, 35.68161], [139.967625, 35.68372], [139.963024, 35.681333], [139.963033, 35.681353], [139.959285, 35.679447], [139.954325, 35.689421], [139.952397, 35.687484], [139.958102, 35.677397], [139.953204, 35.671762], [139.946743, 35.680982], [139.936648, 35.673299], [139.933082, 35.675734], [139.92895, 35.670285], [139.933727, 35.671076], [139.93647, 35.67153], [139.938698, 35.671899], [139.945093, 35.672958], [139.947636, 35.669549], [139.939517, 35.668065], [139.939609, 35.667191], [139.935483, 35.666657], [139.932719, 35.665883], [139.932515, 35.667082], [139.920802, 35.660529], [139.91861, 35.65612], [139.939509, 35.641081], [139.910182, 35.624234], [139.904733, 35.6286], [139.905303, 35.632806], [139.901834, 35.629908], [139.900085, 35.631679], [139.897387, 35.629428], [139.906852, 35.623145], [139.897569, 35.616672], [139.893026, 35.625354], [139.88834, 35.62186], [139.874778, 35.625], [139.872443, 35.633026], [139.874997, 35.637246], [139.871461, 35.638642], [139.883778, 35.645634], [139.888155, 35.671568], [139.886071, 35.671136], [139.88694, 35.67926], [139.907154, 35.684384], [139.918908, 35.698274], [139.916211, 35.708001], [139.897982, 35.724289], [139.900683, 35.741351], [139.890444, 35.750276], [139.87939, 35.768013], [139.881752, 35.772858], [139.894543, 35.780326], [139.888282, 35.794583], [139.891661, 35.818329], [139.888041, 35.823212], [139.888515, 35.830198], [139.890036, 35.844002], [139.900339, 35.864175], [139.88992, 35.892561], [139.874654, 35.913077], [139.874626, 35.913075], [139.874626, 35.913075], [139.874531, 35.913221], [139.874418, 35.913395], [139.874418, 35.913395], [139.863176, 35.930645], [139.846458, 35.940989], [139.837773, 35.953906], [139.833877, 35.968305], [139.825658, 35.972762], [139.826397, 35.983956], [139.814259, 35.997061], [139.816966, 36.003196], [139.813422, 36.023425], [139.817282, 36.032505], [139.782761, 36.070218], [139.776305, 36.090355], [139.776769, 36.097057], [139.786776, 36.1041], [139.801192, 36.091965], [139.813671, 36.062425], [139.841328, 36.037744], [139.857568, 36.029047], [139.876418, 36.010619], [139.884164, 35.988828], [139.912894, 35.97144], [139.934599, 35.967995], [139.93807, 35.962121], [139.931655, 35.950767], [139.933586, 35.946438], [139.938639, 35.940571], [139.9519, 35.935847], [139.977459, 35.922708], [139.9931, 35.910276], [140.016925, 35.910579], [140.031107, 35.900612], [140.06027, 35.88856], [140.073673, 35.876718], [140.092823, 35.883865], [140.124597, 35.872509], [140.129823, 35.86554], [140.14647, 35.845718], [140.15563, 35.842672], [140.167779, 35.845457], [140.204411, 35.861113], [140.214421, 35.861894], [140.230373, 35.854503], [140.240564, 35.854384], [140.27359, 35.872655], [140.281145, 35.874112], [140.289363, 35.871426], [140.306928, 35.86472], [140.320251, 35.864939], [140.348388, 35.883209], [140.3592, 35.897158], [140.375885, 35.902368], [140.396477, 35.909008], [140.421131, 35.906448], [140.434803, 35.911754], [140.448466, 35.915019], [140.458438, 35.92654], [140.483774, 35.909971], [140.502803, 35.90552], [140.490778, 35.914957], [140.487176, 35.928592], [140.489815, 35.931993], [140.49553, 35.931223], [140.499696, 35.944398], [140.511245, 35.958735], [140.534935, 35.940038], [140.570627, 35.924064], [140.580454, 35.917337], [140.585173, 35.909179], [140.58791, 35.910464], [140.588201, 35.906215], [140.598519, 35.903382], [140.607993, 35.895812], [140.630686, 35.859124], [140.647833, 35.855713], [140.675843, 35.851269], [140.697178, 35.842379], [140.713054, 35.829418], [140.720702, 35.813473], [140.726781, 35.79946], [140.741669, 35.785147], [140.815352, 35.741515], [140.846003, 35.739895], [140.856602, 35.746207], [140.856744, 35.747422], [140.857059, 35.747491], [140.857635, 35.746823], [140.859598, 35.747992], [140.859391, 35.747802], [140.859585, 35.747471], [140.85864, 35.747111], [140.858533, 35.747013], [140.858533, 35.747013], [140.857763, 35.746304], [140.854632, 35.743424], [140.860821, 35.742984], [140.860418, 35.745157], [140.862669, 35.744458], [140.867117, 35.73884], [140.86859, 35.739488], [140.867543, 35.738095], [140.872073, 35.739952], [140.871013, 35.740554], [140.869877, 35.7412], [140.864542, 35.744231], [140.861325, 35.749021], [140.861093, 35.749367], [140.860819, 35.749775], [140.861611, 35.748701], [140.864749, 35.744446], [140.87185, 35.740918], [140.88162, 35.73088], [140.87785, 35.733149], [140.875704, 35.73444], [140.875398, 35.734624], [140.871558, 35.736934], [140.872383, 35.739869], [140.867624, 35.737975], [140.869863, 35.732046], [140.873626, 35.733588], [140.870376, 35.731689], [140.8713, 35.731482], [140.871616, 35.73134], [140.872989, 35.730342], [140.875343, 35.731701], [140.872017, 35.729645], [140.871819, 35.729654], [140.869878, 35.728446], [140.870652, 35.728259], [140.871352, 35.728091], [140.868328, 35.726725], [140.869958, 35.726642], [140.869616, 35.726283], [140.870629, 35.726407], [140.870516, 35.726137], [140.871158, 35.725555], [140.87073, 35.725228], [140.869862, 35.724279], [140.870959, 35.723215], [140.870849, 35.722929], [140.871187, 35.720463], [140.871486, 35.720876], [140.87139, 35.720687], [140.871046, 35.719137], [140.872712, 35.719326], [140.872809, 35.719281], [140.874516, 35.718479], [140.87441, 35.717811], [140.87441, 35.717811], [140.873671, 35.717802], [140.872894, 35.717792], [140.872679, 35.717761], [140.872338, 35.717896], [140.872287, 35.717803], [140.87222, 35.717696], [140.872, 35.717665], [140.872042, 35.717423], [140.872011, 35.717441], [140.871891, 35.71765], [140.871695, 35.717622], [140.871558, 35.717701], [140.871418, 35.717583], [140.870104, 35.717396], [140.86604, 35.713181], [140.867992, 35.708948], [140.868871, 35.708825], [140.869031, 35.708897], [140.86921, 35.708777], [140.86952, 35.708734], [140.869101, 35.70828], [140.869972, 35.708442], [140.870532, 35.707829], [140.870604, 35.708203], [140.870933, 35.707532], [140.871272, 35.707089], [140.869527, 35.706362], [140.869544, 35.706258], [140.864274, 35.706289], [140.865328, 35.704986], [140.865141, 35.704772], [140.864395, 35.7043], [140.865567, 35.703592], [140.864898, 35.70311], [140.864918, 35.702995], [140.861606, 35.703657], [140.86158, 35.703594], [140.864055, 35.701962], [140.863625, 35.701645], [140.863642, 35.701578], [140.863052, 35.701608], [140.863994, 35.698033], [140.864363, 35.697719], [140.864432, 35.69766], [140.864363, 35.697617], [140.864363, 35.696633], [140.864455, 35.696285], [140.864648, 35.695552], [140.864662, 35.6955], [140.864851, 35.694781], [140.865043, 35.694054], [140.863865, 35.692582], [140.859805, 35.693313], [140.860137, 35.692419], [140.860006, 35.692413], [140.858382, 35.693569], [140.85713, 35.693794], [140.85707, 35.693783], [140.857079, 35.693803], [140.855443, 35.694098], [140.855363, 35.694286], [140.855144, 35.694152], [140.852465, 35.694634], [140.852945, 35.694245], [140.852147, 35.694692], [140.851755, 35.694762], [140.849707, 35.694003], [140.84967, 35.694074], [140.851826, 35.694871], [140.851258, 35.695189], [140.853071, 35.696974], [140.85054, 35.697929], [140.848486, 35.696829], [140.850524, 35.695599], [140.849372, 35.696243], [140.848058, 35.695989], [140.848043, 35.69603], [140.848946, 35.696481], [140.847603, 35.697232], [140.8476, 35.69724], [140.847591, 35.697239], [140.844406, 35.69902], [140.845152, 35.699251], [140.845195, 35.699927], [140.847632, 35.698326], [140.848066, 35.698844], [140.843829, 35.70333], [140.838207, 35.700923], [140.835265, 35.705108], [140.835929, 35.704799], [140.838198, 35.701044], [140.841033, 35.702523], [140.836517, 35.705023], [140.839273, 35.707172], [140.83804, 35.710857], [140.836034, 35.70949], [140.830994, 35.713601], [140.816903, 35.713331], [140.816193, 35.713255], [140.813634, 35.7128], [140.813633, 35.712782], [140.813573, 35.712789], [140.808805, 35.71194], [140.807798, 35.711921], [140.806385, 35.711572], [140.80309, 35.710285], [140.799675, 35.709266], [140.783285, 35.704719], [140.78171, 35.704334], [140.781367, 35.704393], [140.78121, 35.704197], [140.780024, 35.703796], [140.77923, 35.703105], [140.7789, 35.702927], [140.769417, 35.700007], [140.769521, 35.699463], [140.762641, 35.697913], [140.761043, 35.697894], [140.761005, 35.697821], [140.738951, 35.692305], [140.728423, 35.684162], [140.729228, 35.68687], [140.72844, 35.687635], [140.728532, 35.68763], [140.728737, 35.68914], [140.717395, 35.699941], [140.693124, 35.699998], [140.660423, 35.690163], [140.631556, 35.676737], [140.630569, 35.673916], [140.623608, 35.67235], [140.624336, 35.670166], [140.612123, 35.665262], [140.559442, 35.627905], [140.525625, 35.60212], [140.494947, 35.575962], [140.47009, 35.547213], [140.464829, 35.538244], [140.466889, 35.537164], [140.467407, 35.534515], [140.46749, 35.534091], [140.467776, 35.532628], [140.467043, 35.534483], [140.458673, 35.533754], [140.464438, 35.53106], [140.462509, 35.530012], [140.457671, 35.53268], [140.431165, 35.498532], [140.430759, 35.498644], [140.41592, 35.471623], [140.405644, 35.449043], [140.396913, 35.418346], [140.398068, 35.418059], [140.39276, 35.40031], [140.392341, 35.383175], [140.393977, 35.382308], [140.391318, 35.378829], [140.393443, 35.374825], [140.39129, 35.362326], [140.397671, 35.330404], [140.403202, 35.330082], [140.403366, 35.331255], [140.410474, 35.319894], [140.415055, 35.305599], [140.405447, 35.289029], [140.399811, 35.265606], [140.401168, 35.258159], [140.406965, 35.255435], [140.407108, 35.256167], [140.407092, 35.255821], [140.407084, 35.25564], [140.407075, 35.255448], [140.407021, 35.255408], [140.407072, 35.255384], [140.406805, 35.249545], [140.403651, 35.246239], [140.405849, 35.239947], [140.399554, 35.23158], [140.400424, 35.227239], [140.392233, 35.210641], [140.393887, 35.203697], [140.394226, 35.203052], [140.394074, 35.202912], [140.394126, 35.202693], [140.392452, 35.200839], [140.392645, 35.200788], [140.392343, 35.200509], [140.392629, 35.199728], [140.392413, 35.19946], [140.391973, 35.199692], [140.391261, 35.199175], [140.390987, 35.199216], [140.384777, 35.192339], [140.384363, 35.187493], [140.376352, 35.181139], [140.377487, 35.180984], [140.377421, 35.180905], [140.376915, 35.180728], [140.376556, 35.180532], [140.376441, 35.180326], [140.375577, 35.18026], [140.37562, 35.179932], [140.375584, 35.179922], [140.375477, 35.180199], [140.374484, 35.179537], [140.373836, 35.179304], [140.373583, 35.179752], [140.366156, 35.178268], [140.362066, 35.181965], [140.352939, 35.181941], [140.346375, 35.175771], [140.346636, 35.175399], [140.346286, 35.174896], [140.346198, 35.174893], [140.346103, 35.174751], [140.345976, 35.174771], [140.345556, 35.174836], [140.332831, 35.163832], [140.332756, 35.156323], [140.32653, 35.14937], [140.326392, 35.146282], [140.328038, 35.14531], [140.328018, 35.145279], [140.326326, 35.144829], [140.326064, 35.138971], [140.324272, 35.138918], [140.322355, 35.138862], [140.31528, 35.138655], [140.310202, 35.134714], [140.311083, 35.137282], [140.312486, 35.141372], [140.312654, 35.141862], [140.310546, 35.143017], [140.310467, 35.14306], [140.309527, 35.143575], [140.310413, 35.143571], [140.310455, 35.143571], [140.313361, 35.143559], [140.312477, 35.147153], [140.309914, 35.148252], [140.310334, 35.14431], [140.309561, 35.149021], [140.299091, 35.151124], [140.2951, 35.145537], [140.289915, 35.145081], [140.292017, 35.141894], [140.289644, 35.139754], [140.293137, 35.138143], [140.291966, 35.137948], [140.291675, 35.136547], [140.290983, 35.13665], [140.29111, 35.136258], [140.290897, 35.136253], [140.290409, 35.137689], [140.287091, 35.137137], [140.286181, 35.134302], [140.283346, 35.134376], [140.283468, 35.132751], [140.283536, 35.13273], [140.283496, 35.132636], [140.283361, 35.132654], [140.282969, 35.134386], [140.282476, 35.13656], [140.282169, 35.136541], [140.28195, 35.134412], [140.279366, 35.13448], [140.278634, 35.134499], [140.278016, 35.134515], [140.277933, 35.133695], [140.275199, 35.130558], [140.276789, 35.134395], [140.274156, 35.137267], [140.262667, 35.133812], [140.262918, 35.137122], [140.26015, 35.137574], [140.259122, 35.136622], [140.259588, 35.136275], [140.259483, 35.136179], [140.25913, 35.136337], [140.258695, 35.136156], [140.257796, 35.137707], [140.256792, 35.13447], [140.248011, 35.134058], [140.247185, 35.130412], [140.250096, 35.129209], [140.249125, 35.128755], [140.234348, 35.121849], [140.237646, 35.11829], [140.232513, 35.115135], [140.211805, 35.114466], [140.205619, 35.110794], [140.205479, 35.110644], [140.205425, 35.110679], [140.203382, 35.109467], [140.202683, 35.110206], [140.202667, 35.110223], [140.200819, 35.112178], [140.199834, 35.113219], [140.199369, 35.113711], [140.193353, 35.120075], [140.197079, 35.118713], [140.19427, 35.121374], [140.1955, 35.12181], [140.194737, 35.122922], [140.194567, 35.123021], [140.194596, 35.123126], [140.191791, 35.127215], [140.186103, 35.125198], [140.185784, 35.12129], [140.185881, 35.121204], [140.185599, 35.119996], [140.184469, 35.11898], [140.18565, 35.118931], [140.185483, 35.11883], [140.184772, 35.118741], [140.18402, 35.117616], [140.184195, 35.117413], [140.184173, 35.117321], [140.184032, 35.117393], [140.183962, 35.117079], [140.183198, 35.117107], [140.183101, 35.117397], [140.182438, 35.117461], [140.182481, 35.11756], [140.181167, 35.117055], [140.181421, 35.117758], [140.18071, 35.118499], [140.181301, 35.118384], [140.178159, 35.121503], [140.172926, 35.120029], [140.171168, 35.121128], [140.170991, 35.121148], [140.171008, 35.121229], [140.167534, 35.123403], [140.167376, 35.12306], [140.166075, 35.123428], [140.165498, 35.122786], [140.16548, 35.122688], [140.165394, 35.12268], [140.165362, 35.12281], [140.163313, 35.123017], [140.1581, 35.121882], [140.160744, 35.119513], [140.160478, 35.119397], [140.16037, 35.119458], [140.160191, 35.119566], [140.159042, 35.119831], [140.159042, 35.119831], [140.159033, 35.119833], [140.157071, 35.120285], [140.157465, 35.120499], [140.153608, 35.121422], [140.150054, 35.116645], [140.144978, 35.118259], [140.134271, 35.121664], [140.119583, 35.114874], [140.105286, 35.102303], [140.105235, 35.098812], [140.108745, 35.098636], [140.108996, 35.09878], [140.108903, 35.098628], [140.108451, 35.097888], [140.106661, 35.097584], [140.109085, 35.092513], [140.110188, 35.092877], [140.109522, 35.092376], [140.109682, 35.092281], [140.108549, 35.091778], [140.110471, 35.090897], [140.110501, 35.090556], [140.107879, 35.090909], [140.108397, 35.089831], [140.108397, 35.089831], [140.108687, 35.089227], [140.108727, 35.089143], [140.108351, 35.088976], [140.106043, 35.089745], [140.106251, 35.089339], [140.105012, 35.089827], [140.105676, 35.088518], [140.105592, 35.08844], [140.105493, 35.088459], [140.105006, 35.089703], [140.104552, 35.089324], [140.104056, 35.089894], [140.103162, 35.088051], [140.103052, 35.088157], [140.103429, 35.088797], [140.099813, 35.089476], [140.101654, 35.086993], [140.098216, 35.084109], [140.099946, 35.08089], [140.100232, 35.082928], [140.100558, 35.082816], [140.101166, 35.082744], [140.101314, 35.082364], [140.100869, 35.082316], [140.100915, 35.079343], [140.102136, 35.079377], [140.102252, 35.079157], [140.100773, 35.079349], [140.102287, 35.076532], [140.100904, 35.076321], [140.100465, 35.076411], [140.100473, 35.076255], [140.100509, 35.075593], [140.099764, 35.076077], [140.099047, 35.075437], [140.098487, 35.075953], [140.091576, 35.074899], [140.092145, 35.073714], [140.091945, 35.072136], [140.091095, 35.072213], [140.091161, 35.072274], [140.091438, 35.074878], [140.087545, 35.074284], [140.087895, 35.072884], [140.087785, 35.072867], [140.086748, 35.074163], [140.08536, 35.073951], [140.085502, 35.072176], [140.084903, 35.072252], [140.085527, 35.071854], [140.085536, 35.071749], [140.085644, 35.071779], [140.086244, 35.071396], [140.085279, 35.071267], [140.087411, 35.069911], [140.08721, 35.069243], [140.086135, 35.069601], [140.086066, 35.068527], [140.085977, 35.068499], [140.085876, 35.068903], [140.085679, 35.069691], [140.083289, 35.068949], [140.084011, 35.068347], [140.083844, 35.068297], [140.083476, 35.067975], [140.08289, 35.068825], [140.078301, 35.067401], [140.080487, 35.065404], [140.080487, 35.065404], [140.080903, 35.065025], [140.083242, 35.062889], [140.080708, 35.062818], [140.078905, 35.062767], [140.078636, 35.062759], [140.075866, 35.062681], [140.074318, 35.058938], [140.074565, 35.058962], [140.074069, 35.058337], [140.073015, 35.055786], [140.071224, 35.057395], [140.071169, 35.057522], [140.071111, 35.057496], [140.069995, 35.056977], [140.069522, 35.058998], [140.069493, 35.058997], [140.069337, 35.058063], [140.067695, 35.056995], [140.067515, 35.056878], [140.067442, 35.056831], [140.067419, 35.056852], [140.068939, 35.057931], [140.066462, 35.057737], [140.065761, 35.058385], [140.065738, 35.05836], [140.065677, 35.05847], [140.06568, 35.05897], [140.06413, 35.059081], [140.063922, 35.059476], [140.063212, 35.059146], [140.060416, 35.059346], [140.060206, 35.059361], [140.057918, 35.059525], [140.058575, 35.057959], [140.05877, 35.057722], [140.059261, 35.057492], [140.059918, 35.057609], [140.059862, 35.057386], [140.059553, 35.057486], [140.059634, 35.057282], [140.059758, 35.056973], [140.059758, 35.056973], [140.059758, 35.056973], [140.059676, 35.056647], [140.059676, 35.056647], [140.059513, 35.056], [140.058806, 35.056207], [140.05876, 35.056279], [140.058677, 35.056245], [140.058677, 35.056245], [140.058353, 35.056114], [140.058353, 35.056114], [140.057599, 35.05581], [140.057639, 35.056085], [140.057391, 35.056133], [140.057374, 35.056383], [140.056821, 35.056534], [140.056821, 35.056534], [140.056778, 35.05669], [140.056719, 35.0569], [140.056715, 35.056917], [140.056701, 35.056968], [140.056685, 35.057024], [140.056479, 35.057767], [140.056479, 35.057767], [140.056401, 35.058047], [140.055593, 35.058418], [140.052941, 35.05747], [140.053099, 35.057378], [140.052871, 35.057307], [140.052662, 35.057371], [140.048685, 35.055951], [140.049564, 35.055357], [140.04996, 35.055089], [140.050109, 35.054988], [140.049731, 35.054816], [140.049355, 35.054907], [140.04925, 35.055094], [140.048852, 35.054862], [140.048536, 35.055269], [140.048031, 35.055075], [140.047631, 35.055575], [140.045511, 35.054817], [140.045513, 35.054815], [140.04252, 35.053747], [140.0427, 35.053525], [140.042309, 35.053388], [140.042577, 35.053139], [140.042576, 35.053139], [140.042094, 35.053189], [140.042063, 35.053313], [140.041228, 35.053286], [140.037677, 35.052019], [140.035483, 35.050665], [140.03584, 35.049695], [140.035628, 35.049504], [140.034951, 35.050336], [140.030048, 35.047311], [140.030055, 35.047243], [140.029894, 35.047215], [140.024656, 35.043983], [140.021486, 35.039919], [140.02176, 35.039489], [140.020578, 35.039391], [140.021205, 35.038945], [140.019987, 35.039], [140.020503, 35.038437], [140.02034, 35.038449], [140.019368, 35.037204], [140.019556, 35.0367], [140.01981, 35.036017], [140.01989, 35.035802], [140.019874, 35.035796], [140.018435, 35.036852], [140.018301, 35.036725], [140.018674, 35.036157], [140.013066, 35.036433], [140.014022, 35.034521], [140.018897, 35.035645], [140.018879, 35.035845], [140.019108, 35.035497], [140.018743, 35.035355], [140.01857, 35.035176], [140.018474, 35.035264], [140.017848, 35.034448], [140.017515, 35.034014], [140.017405, 35.034151], [140.016021, 35.033886], [140.01613, 35.034677], [140.015578, 35.034483], [140.015583, 35.034537], [140.01251, 35.033438], [140.012442, 35.032972], [140.011807, 35.033187], [140.011807, 35.033187], [140.011729, 35.033213], [140.01056, 35.035792], [140.009624, 35.033581], [140.009452, 35.033667], [140.008536, 35.033362], [140.008047, 35.033199], [140.00766, 35.03307], [140.007831, 35.032899], [140.007392, 35.032842], [140.00743, 35.032733], [140.007013, 35.03274], [140.006119, 35.032265], [140.006125, 35.032252], [140.006102, 35.032248], [140.006099, 35.032001], [140.006099, 35.031988], [140.006014, 35.031986], [140.005753, 35.031528], [140.005531, 35.032141], [140.004075, 35.031869], [140.000711, 35.029918], [139.978796, 35.008367], [139.972839, 34.996064], [139.972395, 34.987492], [139.973218, 34.987449], [139.973511, 34.986255], [139.973022, 34.98613], [139.972857, 34.985974], [139.972048, 34.98581], [139.972815, 34.984321], [139.97305, 34.984204], [139.972994, 34.984131], [139.972612, 34.984501], [139.972358, 34.983917], [139.971431, 34.984501], [139.971621, 34.983531], [139.971242, 34.983438], [139.971116, 34.983521], [139.971016, 34.983443], [139.970623, 34.985897], [139.970279, 34.985897], [139.969721, 34.982388], [139.968937, 34.982436], [139.968891, 34.982071], [139.968403, 34.982071], [139.968416, 34.982033], [139.96735, 34.982033], [139.967517, 34.981639], [139.967056, 34.981766], [139.968025, 34.977018], [139.969277, 34.978571], [139.969327, 34.978536], [139.969306, 34.978224], [139.970214, 34.978583], [139.970734, 34.978372], [139.970415, 34.978117], [139.970665, 34.97791], [139.970143, 34.977508], [139.970363, 34.97743], [139.969679, 34.976976], [139.969903, 34.976792], [139.969877, 34.976781], [139.969722, 34.976715], [139.969329, 34.976318], [139.968799, 34.976318], [139.968596, 34.975969], [139.968361, 34.976234], [139.968154, 34.976467], [139.960742, 34.967675], [139.960826, 34.962875], [139.961887, 34.962458], [139.962415, 34.962785], [139.962595, 34.962309], [139.963162, 34.961957], [139.964466, 34.961445], [139.963411, 34.958887], [139.962187, 34.96059], [139.962702, 34.955208], [139.964988, 34.952395], [139.964902, 34.95705], [139.966548, 34.95341], [139.966786, 34.953475], [139.967043, 34.952926], [139.96654, 34.952629], [139.966411, 34.952008], [139.966791, 34.950947], [139.967778, 34.95136], [139.968193, 34.950476], [139.96818, 34.950472], [139.967766, 34.948847], [139.966852, 34.948254], [139.967038, 34.948254], [139.966543, 34.948044], [139.965138, 34.94787], [139.965136, 34.947842], [139.9684, 34.946931], [139.968353, 34.946424], [139.967691, 34.946059], [139.967765, 34.945896], [139.966393, 34.944948], [139.967689, 34.944279], [139.967504, 34.943975], [139.967473, 34.943924], [139.967198, 34.943472], [139.96601, 34.943089], [139.966049, 34.942999], [139.964704, 34.942571], [139.965123, 34.942287], [139.964828, 34.941974], [139.964538, 34.941913], [139.964399, 34.941883], [139.963714, 34.941355], [139.963255, 34.940654], [139.96234, 34.942284], [139.961529, 34.939967], [139.962199, 34.939602], [139.959618, 34.938097], [139.958692, 34.938931], [139.957977, 34.938251], [139.959913, 34.935872], [139.959852, 34.935879], [139.959654, 34.935903], [139.959507, 34.935462], [139.959023, 34.935409], [139.959115, 34.935051], [139.958913, 34.934969], [139.958808, 34.934758], [139.958482, 34.934762], [139.958418, 34.934053], [139.958415, 34.934023], [139.957975, 34.934109], [139.958007, 34.933904], [139.957127, 34.934046], [139.957244, 34.933461], [139.955121, 34.933745], [139.956837, 34.932331], [139.956325, 34.930998], [139.956167, 34.931185], [139.955994, 34.930913], [139.952158, 34.931144], [139.952095, 34.930872], [139.955161, 34.929601], [139.954933, 34.929243], [139.954996, 34.929097], [139.953769, 34.92843], [139.95406, 34.928264], [139.953917, 34.928197], [139.953917, 34.928197], [139.953357, 34.927937], [139.953353, 34.927935], [139.952964, 34.927754], [139.9528, 34.927678], [139.952748, 34.92768], [139.952741, 34.927651], [139.950791, 34.926744], [139.951389, 34.926425], [139.951313, 34.9264], [139.951245, 34.926377], [139.951241, 34.926404], [139.95051, 34.92645], [139.950265, 34.926465], [139.950265, 34.926465], [139.949633, 34.927256], [139.948703, 34.926388], [139.948516, 34.925822], [139.948249, 34.925758], [139.948079, 34.925806], [139.94657, 34.924397], [139.945505, 34.923915], [139.946079, 34.923792], [139.945233, 34.923342], [139.946974, 34.923256], [139.946685, 34.922924], [139.946717, 34.922906], [139.946708, 34.922897], [139.946708, 34.922897], [139.946457, 34.922845], [139.946457, 34.922652], [139.946405, 34.922601], [139.946055, 34.922658], [139.945905, 34.922916], [139.945939, 34.923038], [139.945844, 34.923022], [139.94576, 34.923166], [139.945535, 34.922969], [139.944833, 34.922849], [139.944025, 34.923677], [139.939891, 34.922996], [139.942652, 34.921825], [139.942657, 34.921644], [139.9429, 34.921036], [139.942801, 34.92097], [139.943403, 34.919882], [139.943355, 34.919859], [139.943438, 34.91982], [139.943566, 34.919759], [139.943566, 34.919759], [139.943558, 34.919751], [139.943558, 34.919751], [139.943313, 34.919509], [139.943303, 34.919499], [139.943227, 34.919463], [139.943178, 34.919376], [139.942977, 34.919177], [139.94303, 34.919112], [139.942928, 34.918931], [139.942928, 34.918931], [139.942009, 34.918128], [139.942411, 34.917847], [139.941674, 34.917559], [139.942543, 34.916866], [139.941213, 34.916834], [139.941361, 34.916413], [139.939192, 34.915347], [139.939266, 34.915204], [139.939261, 34.915203], [139.93902, 34.914892], [139.938497, 34.915005], [139.938169, 34.914844], [139.938119, 34.91488], [139.937721, 34.915173], [139.937721, 34.915173], [139.937346, 34.915449], [139.937132, 34.915336], [139.937086, 34.915431], [139.936641, 34.915075], [139.936241, 34.914754], [139.935206, 34.913923], [139.93461, 34.913444], [139.933893, 34.912869], [139.933481, 34.912959], [139.933578, 34.912615], [139.93336, 34.912441], [139.933579, 34.912294], [139.933277, 34.912166], [139.93273, 34.911935], [139.930387, 34.910945], [139.932395, 34.910511], [139.932406, 34.910434], [139.931262, 34.910176], [139.929529, 34.910692], [139.929837, 34.909522], [139.929477, 34.909182], [139.929087, 34.908814], [139.928825, 34.908566], [139.929341, 34.909199], [139.927449, 34.90944], [139.926825, 34.909472], [139.926562, 34.909535], [139.926161, 34.909338], [139.926195, 34.9096], [139.924244, 34.909848], [139.923938, 34.909624], [139.923901, 34.909627], [139.923735, 34.90974], [139.922549, 34.909494], [139.920926, 34.908214], [139.922196, 34.907823], [139.922169, 34.907775], [139.92108, 34.907966], [139.92168, 34.906783], [139.921713, 34.906719], [139.921589, 34.906636], [139.9214, 34.906333], [139.921119, 34.905882], [139.920846, 34.905866], [139.920236, 34.906476], [139.918764, 34.907948], [139.919025, 34.90619], [139.919049, 34.906026], [139.918207, 34.905999], [139.918378, 34.905415], [139.918045, 34.90529], [139.917845, 34.905004], [139.91751, 34.905127], [139.917282, 34.90521], [139.916739, 34.905409], [139.91647, 34.905203], [139.915982, 34.905346], [139.9159, 34.90509], [139.91506, 34.905037], [139.914259, 34.903564], [139.914034, 34.90297], [139.913821, 34.903022], [139.91367, 34.903217], [139.913807, 34.903286], [139.913836, 34.903551], [139.914193, 34.9035], [139.913994, 34.904987], [139.913996, 34.905], [139.913992, 34.904999], [139.913882, 34.905821], [139.913051, 34.905987], [139.91269, 34.905823], [139.912295, 34.906068], [139.912159, 34.906068], [139.912037, 34.906068], [139.912489, 34.906762], [139.909294, 34.905324], [139.909116, 34.90525], [139.909114, 34.905243], [139.908475, 34.904956], [139.906699, 34.904959], [139.907458, 34.904326], [139.905976, 34.904338], [139.907213, 34.903334], [139.90601, 34.903704], [139.905975, 34.903698], [139.90598, 34.903713], [139.905054, 34.903998], [139.904511, 34.904001], [139.904468, 34.903988], [139.904104, 34.903984], [139.904026, 34.90386], [139.903806, 34.903974], [139.903489, 34.903652], [139.903286, 34.903785], [139.902725, 34.903829], [139.902728, 34.903834], [139.902688, 34.903832], [139.902139, 34.903875], [139.902058, 34.903899], [139.902059, 34.903881], [139.901791, 34.903902], [139.901832, 34.90378], [139.90065, 34.903709], [139.900185, 34.903305], [139.89964, 34.903742], [139.895958, 34.903106], [139.900405, 34.901554], [139.90013, 34.901463], [139.900005, 34.900866], [139.899095, 34.900543], [139.899994, 34.89998], [139.899826, 34.899963], [139.899492, 34.899929], [139.898829, 34.900353], [139.898781, 34.900357], [139.898791, 34.900676], [139.898332, 34.900671], [139.897288, 34.901339], [139.897269, 34.901316], [139.896819, 34.901589], [139.896203, 34.90167], [139.89619, 34.901672], [139.896098, 34.901684], [139.895995, 34.901754], [139.894211, 34.902473], [139.894211, 34.901962], [139.893942, 34.90192], [139.892738, 34.902735], [139.891734, 34.902896], [139.891665, 34.902931], [139.891627, 34.902913], [139.890974, 34.903017], [139.891053, 34.902598], [139.890829, 34.902385], [139.890829, 34.902384], [139.890622, 34.902187], [139.890678, 34.902028], [139.890495, 34.901593], [139.890486, 34.901405], [139.890484, 34.901353], [139.890288, 34.901272], [139.890205, 34.900923], [139.889206, 34.900958], [139.889801, 34.899908], [139.889653, 34.899919], [139.88949, 34.899932], [139.889042, 34.900047], [139.888952, 34.899367], [139.88828, 34.898465], [139.888227, 34.898394], [139.8881, 34.898224], [139.887795, 34.898299], [139.887653, 34.898251], [139.887422, 34.898559], [139.887646, 34.899245], [139.886829, 34.898964], [139.887038, 34.899422], [139.887163, 34.899458], [139.887084, 34.899524], [139.887325, 34.900054], [139.886792, 34.899764], [139.88644, 34.900054], [139.887023, 34.900079], [139.887103, 34.901138], [139.886669, 34.901685], [139.888136, 34.902062], [139.888136, 34.902067], [139.88376, 34.902727], [139.883725, 34.902709], [139.884356, 34.903161], [139.880965, 34.902976], [139.880353, 34.903102], [139.880248, 34.902937], [139.88011, 34.90293], [139.879854, 34.903274], [139.877889, 34.903213], [139.877845, 34.90316], [139.877702, 34.9033], [139.877036, 34.903082], [139.876728, 34.905005], [139.875854, 34.902985], [139.875234, 34.903104], [139.875112, 34.903014], [139.874854, 34.903026], [139.874749, 34.903115], [139.87425, 34.903099], [139.874, 34.903044], [139.87402, 34.903988], [139.872915, 34.903025], [139.872514, 34.903826], [139.872068, 34.902592], [139.87186, 34.902212], [139.871303, 34.902144], [139.870864, 34.902089], [139.870745, 34.902075], [139.8705, 34.902032], [139.870087, 34.902513], [139.869592, 34.903088], [139.86953, 34.90316], [139.869342, 34.903315], [139.870903, 34.903582], [139.865215, 34.906992], [139.856462, 34.905943], [139.853561, 34.905596], [139.851503, 34.905349], [139.848651, 34.905007], [139.847641, 34.904312], [139.847989, 34.903848], [139.846923, 34.903305], [139.846913, 34.9033], [139.845593, 34.902626], [139.845534, 34.902448], [139.844635, 34.903187], [139.84461, 34.902276], [139.844235, 34.902328], [139.844132, 34.90215], [139.843854, 34.902986], [139.843789, 34.902902], [139.843771, 34.903479], [139.841919, 34.903549], [139.841919, 34.903549], [139.840494, 34.903603], [139.840619, 34.904045], [139.837606, 34.903684], [139.829268, 34.908149], [139.828756, 34.907725], [139.828877, 34.908359], [139.826097, 34.909848], [139.825598, 34.909968], [139.825343, 34.910324], [139.825106, 34.910057], [139.82444, 34.910558], [139.824411, 34.910056], [139.824048, 34.910028], [139.824311, 34.910271], [139.823234, 34.91021], [139.823927, 34.910876], [139.824587, 34.911025], [139.822483, 34.914351], [139.823314, 34.915683], [139.822837, 34.915642], [139.823036, 34.915774], [139.823322, 34.915695], [139.825769, 34.919615], [139.822678, 34.920643], [139.825015, 34.923869], [139.826072, 34.925329], [139.827236, 34.926936], [139.826015, 34.927033], [139.826548, 34.927269], [139.827259, 34.927518], [139.820043, 34.937822], [139.793519, 34.95125], [139.788591, 34.952989], [139.788956, 34.952368], [139.788087, 34.952437], [139.788664, 34.952776], [139.787964, 34.952785], [139.788028, 34.952824], [139.787763, 34.952944], [139.788163, 34.95314], [139.785392, 34.954117], [139.784716, 34.953639], [139.784514, 34.953705], [139.781405, 34.954005], [139.781344, 34.954514], [139.780736, 34.954069], [139.780684, 34.954074], [139.780698, 34.954042], [139.779554, 34.953204], [139.779836, 34.953913], [139.779463, 34.954659], [139.778484, 34.9548], [139.77817, 34.954845], [139.778125, 34.954851], [139.777408, 34.954954], [139.776961, 34.955019], [139.77701, 34.95529], [139.775622, 34.954849], [139.774834, 34.954911], [139.774713, 34.954339], [139.774175, 34.954177], [139.774175, 34.954177], [139.773565, 34.953993], [139.773096, 34.954019], [139.772637, 34.953736], [139.772351, 34.954059], [139.772351, 34.954059], [139.772196, 34.954233], [139.771673, 34.954185], [139.771188, 34.954063], [139.770649, 34.954372], [139.770505, 34.953891], [139.770389, 34.953862], [139.770388, 34.953826], [139.769928, 34.953632], [139.769493, 34.954067], [139.769539, 34.954335], [139.768532, 34.954415], [139.768408, 34.954711], [139.768207, 34.954543], [139.768278, 34.955039], [139.768094, 34.954981], [139.768137, 34.955153], [139.767985, 34.955139], [139.767992, 34.955201], [139.768581, 34.955188], [139.765589, 34.956832], [139.764862, 34.956952], [139.764817, 34.956875], [139.763783, 34.957301], [139.764361, 34.956112], [139.764623, 34.955573], [139.764415, 34.955544], [139.764399, 34.955542], [139.763839, 34.955462], [139.763153, 34.956344], [139.762966, 34.957815], [139.76229, 34.957503], [139.762226, 34.957635], [139.762037, 34.957594], [139.761189, 34.957927], [139.760946, 34.958022], [139.760806, 34.958077], [139.760758, 34.958049], [139.759008, 34.958304], [139.759239, 34.958484], [139.757747, 34.958723], [139.757734, 34.958841], [139.759012, 34.959286], [139.757054, 34.959486], [139.757047, 34.959491], [139.758193, 34.959464], [139.758378, 34.959397], [139.758312, 34.959461], [139.758369, 34.95946], [139.75826, 34.959512], [139.755505, 34.962184], [139.755695, 34.962559], [139.754193, 34.962433], [139.753609, 34.963756], [139.753127, 34.964174], [139.752116, 34.964241], [139.752152, 34.964435], [139.75235, 34.965501], [139.751616, 34.965424], [139.751279, 34.965671], [139.751262, 34.965683], [139.751439, 34.966011], [139.751943, 34.966084], [139.754358, 34.964707], [139.754631, 34.965056], [139.752767, 34.967013], [139.756845, 34.967186], [139.756892, 34.967643], [139.751759, 34.968926], [139.751619, 34.969089]], [[139.913115, 35.385502], [139.912274, 35.384194], [139.911233, 35.384738], [139.908201, 35.387248], [139.91006, 35.385823], [139.913115, 35.385502]], [[140.111731, 35.570433], [140.086102, 35.569446], [140.081591, 35.588288], [140.102962, 35.58738], [140.103807, 35.583025], [140.111731, 35.570433]], [[139.962746, 35.680734], [139.962965, 35.678782], [139.977664, 35.679504], [139.978269, 35.67591], [139.971233, 35.677083], [139.97168, 35.67441], [139.978717, 35.673241], [139.979452, 35.669822], [139.972026, 35.670972], [139.970764, 35.667987], [139.973305, 35.667553], [139.973554, 35.668346], [139.979845, 35.666436], [139.979845, 35.666436], [139.980121, 35.666352], [139.980786, 35.661096], [139.979847, 35.666368], [139.979038, 35.66663], [139.970668, 35.667889], [139.969289, 35.670889], [139.958333, 35.67096], [139.958528, 35.673112], [139.958473, 35.673121], [139.958536, 35.673194], [139.960087, 35.675], [139.962746, 35.680734]], [[140.844922, 35.698049], [140.840024, 35.696632], [140.840014, 35.696654], [140.839752, 35.697239], [140.843148, 35.698081], [140.843008, 35.698587], [140.844216, 35.698961], [140.844922, 35.698049]], [[140.104219, 35.077591], [140.104672, 35.07739], [140.105445, 35.077047], [140.105529, 35.076902], [140.106274, 35.076479], [140.106559, 35.075541], [140.107714, 35.076011], [140.107714, 35.076011], [140.110471, 35.074306], [140.110755, 35.07246], [140.11113, 35.072579], [140.111192, 35.072483], [140.110696, 35.072269], [140.11072, 35.072128], [140.110414, 35.072074], [140.110176, 35.072865], [140.108093, 35.072645], [140.106719, 35.073475], [140.103927, 35.075361], [140.103705, 35.07542], [140.103629, 35.075562], [140.103208, 35.075847], [140.102749, 35.075941], [140.103431, 35.076706], [140.103431, 35.076706], [140.103502, 35.076786], [140.104219, 35.077591]], [[140.073103, 35.055707], [140.074932, 35.05701], [140.075291, 35.056661], [140.075137, 35.056531], [140.074621, 35.055891], [140.074647, 35.055856], [140.074477, 35.055848], [140.07498, 35.055264], [140.074848, 35.055023], [140.074396, 35.055084], [140.07391, 35.054588], [140.073865, 35.055665], [140.072913, 35.055006], [140.072278, 35.054967], [140.072034, 35.055529], [140.073455, 35.055391], [140.073103, 35.055707]], [[139.843392, 34.902388], [139.842895, 34.901745], [139.842111, 34.901924], [139.841539, 34.900839], [139.841439, 34.900218], [139.841239, 34.900188], [139.84118, 34.901187], [139.8408, 34.901034], [139.840773, 34.901269], [139.839368, 34.900717], [139.839351, 34.900786], [139.839451, 34.900834], [139.839451, 34.901787], [139.83979, 34.90169], [139.840223, 34.902069], [139.843392, 34.902388]], [[139.837738, 34.902277], [139.837481, 34.902082], [139.837223, 34.901888], [139.837066, 34.901875], [139.836956, 34.901686], [139.836436, 34.901293], [139.835336, 34.901517], [139.834427, 34.900678], [139.834473, 34.900505], [139.834221, 34.900539], [139.834148, 34.9009], [139.834507, 34.900985], [139.834667, 34.900909], [139.835615, 34.901808], [139.836028, 34.90178], [139.836758, 34.902204], [139.836744, 34.902651], [139.836734, 34.90296], [139.837499, 34.903299], [139.837765, 34.903127], [139.837386, 34.90294], [139.838017, 34.902488], [139.837738, 34.902277]], [[139.882602, 35.376873], [139.886082, 35.376871], [139.89171, 35.377657], [139.892594, 35.378028], [139.89682, 35.379829], [139.896855, 35.379774], [139.894932, 35.378985], [139.89494, 35.378958], [139.889895, 35.376809], [139.889638, 35.376811], [139.889303, 35.376674], [139.889244, 35.376815], [139.882602, 35.376873]], [[139.872204, 35.465383], [139.875041, 35.464578], [139.875549, 35.464173], [139.879077, 35.461756], [139.872204, 35.465383]], [[139.815129, 35.10787], [139.815409, 35.108602], [139.813429, 35.108795], [139.813388, 35.110768], [139.816137, 35.111033], [139.815194, 35.107847], [139.815129, 35.10787]], [[139.767177, 35.315518], [139.770389, 35.315442], [139.770808, 35.314355], [139.767922, 35.314394], [139.767177, 35.315518]], [[139.740573, 35.31146], [139.739577, 35.312081], [139.744476, 35.312659], [139.742966, 35.310862], [139.740573, 35.31146]]]}}], "name": "千葉県"}