{"type": "FeatureCollection", "features": [{"type": "Feature", "properties": {"name": "埼玉県"}, "geometry": {"type": "MultiLineString", "coordinates": [[[139.377565, 35.779961], [139.370268, 35.778288], [139.373008, 35.779716], [139.367194, 35.785602], [139.369921, 35.791727], [139.350658, 35.793275], [139.346859, 35.796413], [139.332783, 35.79189], [139.325729, 35.795212], [139.315025, 35.814269], [139.316106, 35.818766], [139.316434, 35.819012], [139.314922, 35.825245], [139.30244, 35.824206], [139.301378, 35.834853], [139.295604, 35.833845], [139.290911, 35.837957], [139.284941, 35.836008], [139.280329, 35.84068], [139.260426, 35.835992], [139.24278, 35.8366], [139.239038, 35.840525], [139.231272, 35.83664], [139.212649, 35.846611], [139.206326, 35.845907], [139.203138, 35.841199], [139.192442, 35.840272], [139.163247, 35.85097], [139.159401, 35.857065], [139.147647, 35.862682], [139.101301, 35.865716], [139.104002, 35.869821], [139.100282, 35.867189], [139.082272, 35.87494], [139.072055, 35.87158], [139.061632, 35.873629], [139.024007, 35.897294], [139.013379, 35.898256], [139.000931, 35.884008], [138.985564, 35.881166], [138.978928, 35.885011], [138.954459, 35.87491], [138.945144, 35.867929], [138.946584, 35.864472], [138.942015, 35.853443], [138.92663, 35.848918], [138.910946, 35.852727], [138.892611, 35.839777], [138.885648, 35.847133], [138.877488, 35.848048], [138.869432, 35.857249], [138.858938, 35.857487], [138.856628, 35.864616], [138.849729, 35.866659], [138.834446, 35.862279], [138.827831, 35.865795], [138.813605, 35.862368], [138.808405, 35.87002], [138.792004, 35.875451], [138.79062, 35.891879], [138.77935, 35.899908], [138.765667, 35.899108], [138.738862, 35.905887], [138.734642, 35.903968], [138.729451, 35.908515], [138.730653, 35.914883], [138.728106, 35.917832], [138.737627, 35.927294], [138.739254, 35.939108], [138.731136, 35.945145], [138.726765, 35.956706], [138.714184, 35.965515], [138.71136, 35.971872], [138.71255, 35.985333], [138.716809, 35.992904], [138.726585, 35.994769], [138.735698, 36.001621], [138.736686, 36.006466], [138.74377, 36.0101], [138.749185, 36.016722], [138.754411, 36.034526], [138.773548, 36.038793], [138.790976, 36.0294], [138.825713, 36.037458], [138.831161, 36.035893], [138.828395, 36.037303], [138.832091, 36.047643], [138.842939, 36.055958], [138.846037, 36.066625], [138.859177, 36.069919], [138.864806, 36.077347], [138.897859, 36.090655], [138.910745, 36.090752], [138.916314, 36.093749], [138.931076, 36.08812], [138.945069, 36.094596], [138.956553, 36.105702], [138.958452, 36.12409], [138.964245, 36.125905], [138.973783, 36.121306], [138.977009, 36.109759], [138.976493, 36.117211], [138.985691, 36.115571], [138.993539, 36.124878], [139.001385, 36.125026], [139.006434, 36.129238], [139.004857, 36.133412], [139.015409, 36.134112], [139.019856, 36.131045], [139.02471, 36.1341], [139.02605, 36.130148], [139.033301, 36.126847], [139.042177, 36.128218], [139.042722, 36.148027], [139.048178, 36.152286], [139.062159, 36.152937], [139.063765, 36.15908], [139.058333, 36.164736], [139.056386, 36.18052], [139.064528, 36.18722], [139.063419, 36.196286], [139.080741, 36.213593], [139.096515, 36.238248], [139.095879, 36.234631], [139.111195, 36.258497], [139.107804, 36.261705], [139.118264, 36.269174], [139.129439, 36.283344], [139.135665, 36.278443], [139.163903, 36.278912], [139.16947, 36.274753], [139.198002, 36.262248], [139.210766, 36.261525], [139.211635, 36.256248], [139.224004, 36.258302], [139.235295, 36.247564], [139.243749, 36.244511], [139.254218, 36.245833], [139.267011, 36.242622], [139.266921, 36.250552], [139.298482, 36.243275], [139.297025, 36.24187], [139.310998, 36.237118], [139.325005, 36.236872], [139.32788, 36.239876], [139.335773, 36.230838], [139.327873, 36.240183], [139.340249, 36.243864], [139.347402, 36.253707], [139.359289, 36.253229], [139.376673, 36.244505], [139.390075, 36.229214], [139.4087, 36.223423], [139.419011, 36.216609], [139.419455, 36.211209], [139.428854, 36.208561], [139.444205, 36.19679], [139.463654, 36.189342], [139.495517, 36.192579], [139.531072, 36.192003], [139.587772, 36.210369], [139.600198, 36.206003], [139.609884, 36.196808], [139.624889, 36.186572], [139.62872, 36.195079], [139.650984, 36.197511], [139.64914, 36.210797], [139.659278, 36.214889], [139.663903, 36.211908], [139.662621, 36.207122], [139.674173, 36.209075], [139.680284, 36.200519], [139.68644, 36.2035], [139.688372, 36.195388], [139.694247, 36.190762], [139.691202, 36.172481], [139.703031, 36.145101], [139.713585, 36.126249], [139.726665, 36.111627], [139.727061, 36.107539], [139.728305, 36.090139], [139.731383, 36.086638], [139.746758, 36.087079], [139.767596, 36.080457], [139.77186, 36.082238], [139.772451, 36.08798], [139.776217, 36.090767], [139.782761, 36.070218], [139.789512, 36.061829], [139.806949, 36.043168], [139.814672, 36.037706], [139.817595, 36.031374], [139.813422, 36.023425], [139.816966, 36.003196], [139.814259, 35.997061], [139.826645, 35.983431], [139.825764, 35.972582], [139.833331, 35.968967], [139.837773, 35.953906], [139.849291, 35.938348], [139.866379, 35.927081], [139.88992, 35.892561], [139.899209, 35.866857], [139.899968, 35.862418], [139.889745, 35.843049], [139.887992, 35.824333], [139.891661, 35.818329], [139.888282, 35.794583], [139.893778, 35.782746], [139.877249, 35.781166], [139.873105, 35.783333], [139.871194, 35.786634], [139.876577, 35.793196], [139.874748, 35.79654], [139.858799, 35.794439], [139.856485, 35.790959], [139.838681, 35.800785], [139.82605, 35.79336], [139.819624, 35.799335], [139.824685, 35.812325], [139.821075, 35.813422], [139.821098, 35.811438], [139.794001, 35.805198], [139.781137, 35.80723], [139.767615, 35.817684], [139.787713, 35.82439], [139.787727, 35.824523], [139.76776, 35.819153], [139.761274, 35.812888], [139.750773, 35.810171], [139.750656, 35.806669], [139.760601, 35.797883], [139.75997, 35.794338], [139.755001, 35.786896], [139.746768, 35.78685], [139.74582, 35.783283], [139.738049, 35.780221], [139.738537, 35.787404], [139.735326, 35.789571], [139.724462, 35.787274], [139.720736, 35.791428], [139.705258, 35.793408], [139.697897, 35.799192], [139.697672, 35.798445], [139.689814, 35.800854], [139.657777, 35.800502], [139.647609, 35.79748], [139.640515, 35.802851], [139.646302, 35.797869], [139.640857, 35.797943], [139.637918, 35.7912], [139.627875, 35.784658], [139.624527, 35.780811], [139.625135, 35.773749], [139.622992, 35.766872], [139.617729, 35.766648], [139.615424, 35.770874], [139.598207, 35.76914], [139.59844, 35.772142], [139.604471, 35.774653], [139.596938, 35.776412], [139.597353, 35.778668], [139.597201, 35.778366], [139.591879, 35.779716], [139.593706, 35.777203], [139.588761, 35.778529], [139.582243, 35.771207], [139.57004, 35.765587], [139.571076, 35.763343], [139.563585, 35.762838], [139.547158, 35.753384], [139.54435, 35.755483], [139.547663, 35.774228], [139.516375, 35.765573], [139.522816, 35.771893], [139.53432, 35.774187], [139.543491, 35.781102], [139.543793, 35.788194], [139.537331, 35.791502], [139.546222, 35.799234], [139.546994, 35.80328], [139.541662, 35.807467], [139.544465, 35.811153], [139.522558, 35.78923], [139.51404, 35.788501], [139.496923, 35.778726], [139.495762, 35.781668], [139.489579, 35.779147], [139.48252, 35.78109], [139.475348, 35.776847], [139.476714, 35.775332], [139.461338, 35.773435], [139.458058, 35.769308], [139.444968, 35.76666], [139.438656, 35.769589], [139.419561, 35.765905], [139.40459, 35.769144], [139.392152, 35.763285], [139.391661, 35.767409], [139.380223, 35.766375], [139.380683, 35.773663], [139.392719, 35.774566], [139.383025, 35.774022], [139.377565, 35.779961]], [[139.261724, 36.244279], [139.262793, 36.245141], [139.263671, 36.244745], [139.263584, 36.243881], [139.261724, 36.244279]]]}}], "name": "埼玉県"}