{"type": "FeatureCollection", "features": [{"type": "Feature", "properties": {"name": "大分県"}, "geometry": {"type": "MultiLineString", "coordinates": [[[131.46451, 32.831023], [131.43697, 32.828626], [131.431271, 32.818369], [131.421209, 32.811916], [131.400223, 32.813488], [131.378285, 32.809471], [131.36636, 32.803578], [131.357746, 32.804385], [131.348635, 32.810682], [131.350628, 32.816913], [131.347199, 32.828216], [131.340269, 32.83344], [131.32761, 32.833271], [131.326446, 32.838939], [131.31404, 32.851072], [131.294241, 32.85712], [131.286832, 32.865598], [131.273437, 32.870996], [131.273392, 32.881677], [131.264942, 32.878965], [131.261372, 32.882143], [131.253403, 32.896784], [131.253703, 32.91962], [131.245802, 32.939675], [131.248408, 32.947926], [131.246395, 32.961712], [131.256115, 32.963502], [131.263715, 32.975998], [131.247124, 32.98253], [131.247302, 32.995871], [131.23483, 33.008964], [131.227972, 33.010425], [131.226538, 33.01906], [131.221126, 33.030031], [131.216724, 33.053458], [131.204268, 33.061594], [131.193524, 33.077349], [131.186042, 33.073833], [131.175698, 33.081597], [131.17229, 33.089301], [131.174797, 33.096789], [131.173184, 33.104843], [131.166959, 33.109056], [131.163586, 33.11649], [131.166929, 33.128738], [131.163107, 33.137988], [131.145299, 33.150685], [131.147841, 33.155029], [131.133871, 33.160061], [131.130853, 33.166118], [131.119513, 33.169008], [131.117072, 33.178634], [131.111917, 33.184938], [131.100788, 33.187813], [131.095051, 33.185127], [131.082033, 33.188534], [131.088726, 33.21547], [131.081996, 33.188795], [131.06002, 33.195175], [131.042219, 33.19459], [131.015543, 33.177454], [131.006359, 33.177535], [131.003771, 33.181095], [130.991943, 33.184563], [130.979994, 33.155192], [130.982176, 33.150577], [130.978332, 33.140902], [130.994609, 33.129297], [130.993513, 33.120158], [131.008982, 33.108588], [131.024051, 33.087544], [131.014498, 33.079758], [131.010783, 33.070951], [131.017744, 33.063694], [131.012645, 33.054387], [131.014537, 33.04757], [131.004865, 33.039805], [131.003295, 33.032824], [130.991287, 33.023967], [130.970273, 33.023766], [130.959686, 33.035864], [130.959006, 33.044378], [130.94682, 33.052837], [130.928305, 33.052126], [130.915851, 33.053489], [130.908002, 33.064178], [130.897191, 33.065422], [130.896794, 33.072921], [130.890642, 33.075775], [130.886196, 33.087458], [130.876735, 33.091928], [130.867309, 33.090296], [130.863364, 33.095315], [130.845745, 33.092179], [130.839808, 33.100231], [130.841063, 33.105394], [130.853322, 33.109141], [130.861647, 33.117528], [130.859458, 33.121367], [130.866225, 33.126847], [130.870727, 33.146584], [130.879646, 33.152987], [130.873592, 33.168428], [130.877967, 33.174346], [130.885718, 33.176293], [130.887497, 33.186481], [130.874865, 33.18927], [130.869599, 33.193868], [130.863677, 33.193062], [130.836489, 33.2106], [130.844897, 33.222817], [130.858017, 33.225715], [130.859404, 33.229521], [130.826261, 33.236763], [130.824851, 33.253422], [130.828703, 33.257459], [130.844529, 33.25735], [130.848739, 33.261029], [130.863806, 33.261128], [130.856489, 33.275349], [130.852074, 33.27747], [130.866348, 33.292112], [130.86149, 33.302046], [130.862149, 33.309569], [130.854288, 33.32339], [130.857299, 33.326902], [130.849484, 33.33759], [130.843983, 33.333455], [130.835348, 33.343546], [130.861158, 33.361658], [130.859719, 33.372962], [130.862681, 33.376894], [130.87858, 33.376314], [130.88635, 33.379696], [130.886673, 33.40212], [130.892012, 33.406521], [130.889412, 33.413685], [130.892641, 33.420216], [130.89107, 33.427876], [130.897653, 33.438837], [130.894921, 33.446156], [130.926286, 33.457625], [130.942418, 33.485642], [130.961587, 33.493582], [130.972891, 33.505519], [131.001438, 33.512176], [131.015343, 33.50911], [131.025663, 33.512885], [131.029586, 33.518859], [131.035813, 33.519082], [131.044138, 33.51003], [131.053224, 33.507892], [131.065159, 33.509989], [131.075701, 33.505297], [131.09357, 33.507392], [131.099423, 33.504636], [131.10759, 33.507628], [131.117649, 33.502316], [131.128014, 33.501583], [131.133625, 33.505773], [131.176855, 33.506938], [131.168385, 33.515226], [131.169806, 33.522991], [131.166275, 33.527357], [131.188516, 33.547787], [131.189801, 33.562257], [131.174551, 33.576046], [131.173332, 33.590932], [131.17838, 33.596818], [131.177916, 33.604825], [131.185572, 33.616849], [131.190874, 33.619936], [131.204554, 33.617079], [131.221183, 33.606372], [131.238532, 33.601158], [131.239376, 33.606316], [131.246679, 33.611481], [131.258645, 33.60347], [131.255735, 33.598953], [131.268073, 33.592643], [131.273452, 33.583407], [131.278915, 33.58083], [131.290856, 33.579049], [131.301123, 33.582812], [131.329618, 33.582161], [131.34079, 33.57105], [131.364567, 33.579053], [131.377875, 33.579435], [131.379292, 33.576294], [131.403428, 33.572792], [131.420129, 33.573548], [131.427538, 33.567908], [131.434527, 33.570346], [131.424639, 33.579001], [131.424005, 33.593064], [131.462252, 33.619192], [131.471923, 33.617974], [131.475092, 33.63058], [131.484306, 33.636991], [131.485898, 33.644134], [131.497793, 33.645576], [131.495123, 33.654501], [131.504976, 33.656538], [131.496879, 33.663789], [131.499892, 33.67128], [131.516829, 33.669484], [131.521527, 33.67576], [131.529346, 33.673096], [131.537553, 33.67994], [131.544505, 33.677333], [131.547108, 33.671915], [131.54554, 33.680361], [131.555479, 33.681082], [131.560695, 33.686862], [131.56783, 33.679103], [131.57551, 33.675067], [131.573551, 33.686754], [131.585584, 33.692608], [131.593875, 33.68692], [131.607516, 33.686903], [131.607235, 33.678635], [131.616212, 33.67497], [131.630198, 33.67432], [131.630442, 33.682153], [131.649563, 33.672514], [131.654234, 33.666292], [131.66577, 33.668427], [131.666524, 33.660056], [131.671362, 33.658011], [131.6794, 33.643908], [131.684028, 33.639618], [131.693112, 33.639975], [131.703872, 33.608687], [131.716169, 33.601735], [131.724066, 33.5903], [131.733778, 33.582799], [131.734361, 33.567054], [131.739062, 33.567185], [131.742188, 33.554533], [131.740853, 33.546396], [131.745048, 33.542004], [131.732501, 33.517177], [131.729573, 33.499185], [131.73893, 33.493944], [131.738642, 33.464952], [131.727436, 33.464586], [131.723718, 33.459148], [131.720607, 33.447558], [131.706258, 33.45259], [131.718752, 33.447984], [131.709834, 33.435422], [131.701496, 33.405991], [131.691758, 33.404727], [131.677209, 33.410964], [131.673688, 33.417368], [131.657057, 33.423304], [131.646677, 33.4187], [131.635576, 33.423394], [131.634624, 33.415813], [131.627119, 33.411013], [131.637197, 33.40603], [131.635708, 33.4], [131.645931, 33.393336], [131.64973, 33.38585], [131.643442, 33.374961], [131.622871, 33.374654], [131.61699, 33.372091], [131.605324, 33.369437], [131.596925, 33.371444], [131.595707, 33.363538], [131.598927, 33.359512], [131.596861, 33.349776], [131.586823, 33.345566], [131.556012, 33.353288], [131.549722, 33.350159], [131.543389, 33.354755], [131.538949, 33.365462], [131.529857, 33.367279], [131.502335, 33.361845], [131.49676, 33.347303], [131.496088, 33.32638], [131.504246, 33.310136], [131.503427, 33.297883], [131.51045, 33.270542], [131.517811, 33.265351], [131.52569, 33.265134], [131.53927, 33.257532], [131.551747, 33.258676], [131.58927, 33.24565], [131.599202, 33.256572], [131.614303, 33.262092], [131.658697, 33.273242], [131.661073, 33.27308], [131.666469, 33.258031], [131.672378, 33.260191], [131.66861, 33.275448], [131.676876, 33.279506], [131.679557, 33.268095], [131.686599, 33.267957], [131.679424, 33.280055], [131.691915, 33.279428], [131.715492, 33.268868], [131.734443, 33.256689], [131.734706, 33.250964], [131.746574, 33.248412], [131.746771, 33.243836], [131.754503, 33.241514], [131.754589, 33.252347], [131.769595, 33.250183], [131.77872, 33.253132], [131.779238, 33.247027], [131.805988, 33.242003], [131.821992, 33.24705], [131.840823, 33.248447], [131.842179, 33.251829], [131.856379, 33.255694], [131.874418, 33.249528], [131.867777, 33.259477], [131.891977, 33.26865], [131.903097, 33.267438], [131.903832, 33.262637], [131.893461, 33.252327], [131.892016, 33.245299], [131.87885, 33.243083], [131.871117, 33.232985], [131.877108, 33.229845], [131.876795, 33.223934], [131.860713, 33.204543], [131.869343, 33.201839], [131.86211, 33.194249], [131.857498, 33.195938], [131.848737, 33.188963], [131.840126, 33.187169], [131.832932, 33.181279], [131.82865, 33.169793], [131.823377, 33.166261], [131.820999, 33.15784], [131.82856, 33.150115], [131.821504, 33.148632], [131.812557, 33.141228], [131.807626, 33.13029], [131.815004, 33.122704], [131.82599, 33.121061], [131.831204, 33.126587], [131.838868, 33.12369], [131.83556, 33.118565], [131.843323, 33.114344], [131.856465, 33.120451], [131.861681, 33.128029], [131.869894, 33.13141], [131.877956, 33.130688], [131.876077, 33.122481], [131.892831, 33.124608], [131.899327, 33.132157], [131.904887, 33.12311], [131.897614, 33.116389], [131.900995, 33.110152], [131.893466, 33.106984], [131.885106, 33.110723], [131.880679, 33.103306], [131.860782, 33.091829], [131.852607, 33.088766], [131.861581, 33.082956], [131.85891, 33.077446], [131.881235, 33.07799], [131.885009, 33.084343], [131.894654, 33.076722], [131.901828, 33.07533], [131.910133, 33.082609], [131.913786, 33.073709], [131.925016, 33.065811], [131.929477, 33.068797], [131.934929, 33.083188], [131.942968, 33.069456], [131.954962, 33.069762], [131.966286, 33.073398], [131.965928, 33.065374], [131.971129, 33.061453], [131.988959, 33.068354], [131.984796, 33.079275], [131.989221, 33.085295], [131.986677, 33.089155], [132.002835, 33.096282], [131.995415, 33.081392], [132.001398, 33.076575], [132.002906, 33.070181], [131.987712, 33.064034], [131.987287, 33.061534], [132.002569, 33.069923], [132.006724, 33.060761], [132.002578, 33.054319], [131.996151, 33.056554], [131.988011, 33.053677], [131.984619, 33.047925], [131.975817, 33.046165], [131.959212, 33.051602], [131.950129, 33.049746], [131.943553, 33.053891], [131.937233, 33.048432], [131.927787, 33.051449], [131.927427, 33.044222], [131.920833, 33.043523], [131.92281, 33.026325], [131.9011, 33.010161], [131.908194, 32.999196], [131.889608, 32.993033], [131.895543, 32.981191], [131.910227, 32.975604], [131.918165, 32.976036], [131.926605, 32.972898], [131.923798, 32.96481], [131.935584, 32.961906], [131.938199, 32.952228], [131.94928, 32.959227], [131.959596, 32.945597], [131.968684, 32.953006], [131.971853, 32.946529], [131.982031, 32.939309], [131.997362, 32.949103], [132.000539, 32.94427], [131.996864, 32.938409], [132.016828, 32.935592], [132.022739, 32.940332], [132.033993, 32.939564], [132.033335, 32.954041], [132.044043, 32.947109], [132.050473, 32.948636], [132.066919, 32.944968], [132.070342, 32.94866], [132.078821, 32.945427], [132.085322, 32.932876], [132.076399, 32.931293], [132.063351, 32.934461], [132.054228, 32.939899], [132.044813, 32.926172], [132.038601, 32.928234], [132.038468, 32.935674], [132.027035, 32.935781], [132.023693, 32.93108], [132.016552, 32.930048], [132.017466, 32.923481], [132.008632, 32.925133], [132.009709, 32.905817], [131.995945, 32.911665], [131.990159, 32.920947], [131.984016, 32.916143], [131.984078, 32.900664], [132.008088, 32.890283], [132.00103, 32.885788], [132.001004, 32.878522], [131.995359, 32.877801], [131.986645, 32.870284], [131.978854, 32.867229], [131.975371, 32.856865], [131.961621, 32.846845], [131.953499, 32.855948], [131.949621, 32.850342], [131.956468, 32.841003], [131.962811, 32.818779], [131.967894, 32.822064], [131.967241, 32.832792], [131.977526, 32.824965], [131.987508, 32.83161], [131.975998, 32.840734], [131.986059, 32.846289], [131.997943, 32.838127], [132.010441, 32.834742], [132.007974, 32.826631], [131.973853, 32.806938], [131.971795, 32.802586], [131.976767, 32.79538], [131.971196, 32.791705], [131.963203, 32.794312], [131.966569, 32.800225], [131.96333, 32.80561], [131.95459, 32.808122], [131.947218, 32.806263], [131.948683, 32.796875], [131.936663, 32.784473], [131.92974, 32.785228], [131.92748, 32.792661], [131.917452, 32.796374], [131.920198, 32.785255], [131.907414, 32.793875], [131.902712, 32.784933], [131.894692, 32.788809], [131.900514, 32.794239], [131.899654, 32.802222], [131.889916, 32.804764], [131.884886, 32.791093], [131.897038, 32.779558], [131.892406, 32.773318], [131.880268, 32.790983], [131.872922, 32.786209], [131.8772, 32.779887], [131.868517, 32.774825], [131.871687, 32.769365], [131.879853, 32.765522], [131.872873, 32.754978], [131.874559, 32.749019], [131.884652, 32.750379], [131.885832, 32.746072], [131.873544, 32.740448], [131.847009, 32.73593], [131.844124, 32.747656], [131.849805, 32.755958], [131.849449, 32.762734], [131.844209, 32.776641], [131.849351, 32.790687], [131.860078, 32.806071], [131.858975, 32.820963], [131.847971, 32.817772], [131.8345, 32.819698], [131.824187, 32.829927], [131.815111, 32.82835], [131.806661, 32.82215], [131.798152, 32.824891], [131.793901, 32.821945], [131.787799, 32.827931], [131.787272, 32.833645], [131.767017, 32.83894], [131.747361, 32.8331], [131.735728, 32.831102], [131.736096, 32.821601], [131.731091, 32.815935], [131.728977, 32.79869], [131.715891, 32.788063], [131.711142, 32.772378], [131.695599, 32.774762], [131.668859, 32.766593], [131.624513, 32.774631], [131.601088, 32.772178], [131.592512, 32.775314], [131.568361, 32.754081], [131.536617, 32.758703], [131.532611, 32.762864], [131.511286, 32.770331], [131.508422, 32.77433], [131.508745, 32.784113], [131.517466, 32.800804], [131.493164, 32.815934], [131.486, 32.821627], [131.475869, 32.836187], [131.46451, 32.831023]], [[131.908291, 32.780982], [131.924564, 32.773562], [131.914258, 32.768813], [131.908291, 32.780982]], [[132.07355, 32.967959], [132.077307, 32.961461], [132.073078, 32.957456], [132.067139, 32.96301], [132.07355, 32.967959]], [[131.931023, 32.990283], [131.924394, 32.979958], [131.910263, 32.985205], [131.911241, 32.990827], [131.919351, 32.994883], [131.924781, 32.999823], [131.924749, 33.006641], [131.929918, 33.016648], [131.937422, 33.012282], [131.934801, 33.004718], [131.944917, 32.993932], [131.931023, 32.990283]], [[132.010963, 33.111549], [132.016663, 33.106723], [132.006608, 33.101116], [132.004147, 33.109121], [132.010963, 33.111549]], [[131.937636, 33.277964], [131.956557, 33.279243], [131.956616, 33.275393], [131.944975, 33.27136], [131.937636, 33.277964]], [[131.69017, 33.732378], [131.665722, 33.716827], [131.657669, 33.721395], [131.643986, 33.720852], [131.640507, 33.724956], [131.64272, 33.733012], [131.654927, 33.730165], [131.667815, 33.740278], [131.68103, 33.737545], [131.69017, 33.732378]]]}}], "name": "大分県"}