{"type": "FeatureCollection", "features": [{"type": "Feature", "properties": {"name": "大阪府"}, "geometry": {"type": "MultiLineString", "coordinates": [[[135.102063, 34.31978], [135.193124, 34.338132], [135.223671, 34.347816], [135.240418, 34.368925], [135.25359, 34.374541], [135.280038, 34.394932], [135.288818, 34.403624], [135.329311, 34.434522], [135.359418, 34.459799], [135.369748, 34.490021], [135.384527, 34.493785], [135.37783, 34.507845], [135.367161, 34.517045], [135.378991, 34.532938], [135.392694, 34.512217], [135.410364, 34.522912], [135.426818, 34.512737], [135.418876, 34.519482], [135.437697, 34.54106], [135.444786, 34.557221], [135.410539, 34.560747], [135.441496, 34.582958], [135.452157, 34.566563], [135.449291, 34.587078], [135.425549, 34.593345], [135.439052, 34.608197], [135.449591, 34.626268], [135.452639, 34.646721], [135.440554, 34.663169], [135.423097, 34.657373], [135.416667, 34.67321], [135.442724, 34.690976], [135.420365, 34.682847], [135.407294, 34.697096], [135.456778, 34.725381], [135.469879, 34.730974], [135.444487, 34.769132], [135.441155, 34.793238], [135.423691, 34.802074], [135.416186, 34.820457], [135.42433, 34.837123], [135.416878, 34.852225], [135.438181, 34.876793], [135.445851, 34.895559], [135.432609, 34.891739], [135.422835, 34.911636], [135.467419, 34.928031], [135.441657, 34.939395], [135.387351, 34.945908], [135.359711, 34.954691], [135.345069, 34.966846], [135.352563, 34.990389], [135.354698, 35.02479], [135.339803, 35.025877], [135.338087, 35.043604], [135.359478, 35.050112], [135.380044, 35.039106], [135.381693, 35.010248], [135.409767, 35.011526], [135.421013, 35.002156], [135.440184, 35.007693], [135.481886, 34.995146], [135.488263, 34.967294], [135.484157, 34.947146], [135.514594, 34.94412], [135.525329, 34.927981], [135.541314, 34.915226], [135.573116, 34.916831], [135.58172, 34.935807], [135.566017, 34.940128], [135.570927, 34.969788], [135.613264, 34.971195], [135.613149, 34.941704], [135.628301, 34.926229], [135.649289, 34.925348], [135.648502, 34.909547], [135.671384, 34.902385], [135.682694, 34.887842], [135.672756, 34.870031], [135.664746, 34.855192], [135.682411, 34.872253], [135.694914, 34.848282], [135.707721, 34.849273], [135.724168, 34.823284], [135.746603, 34.801591], [135.740776, 34.788469], [135.716711, 34.785987], [135.710296, 34.754289], [135.684379, 34.74205], [135.696828, 34.743882], [135.704136, 34.723781], [135.673583, 34.702286], [135.672889, 34.70005], [135.678705, 34.677759], [135.663055, 34.643331], [135.659098, 34.614818], [135.649387, 34.60234], [135.675694, 34.601739], [135.681233, 34.583245], [135.656923, 34.56228], [135.652324, 34.547758], [135.660143, 34.541071], [135.677043, 34.52537], [135.664407, 34.503846], [135.678301, 34.4995], [135.682168, 34.465245], [135.686736, 34.448758], [135.664285, 34.423227], [135.680093, 34.409199], [135.656127, 34.395966], [135.653831, 34.383347], [135.619911, 34.384483], [135.577121, 34.376049], [135.554672, 34.359531], [135.539705, 34.357505], [135.507821, 34.336497], [135.48545, 34.362692], [135.465705, 34.347335], [135.454945, 34.351461], [135.434129, 34.348812], [135.409221, 34.341938], [135.380345, 34.328444], [135.338928, 34.335782], [135.324199, 34.319132], [135.287883, 34.304902], [135.279512, 34.326449], [135.272283, 34.311984], [135.248959, 34.314373], [135.225006, 34.300861], [135.207896, 34.307692], [135.205181, 34.288346], [135.184322, 34.278829], [135.139644, 34.281893], [135.110328, 34.272731], [135.096764, 34.296642], [135.102063, 34.31978]], [[135.230447, 34.429819], [135.228881, 34.430915], [135.218049, 34.438496], [135.229325, 34.446049], [135.251486, 34.430219], [135.24034, 34.422895], [135.230447, 34.429819]], [[135.397702, 34.638749], [135.416466, 34.644815], [135.4393, 34.641213], [135.441862, 34.628396], [135.422129, 34.621907], [135.397702, 34.638749]]]}}], "name": "大阪府"}