{"type": "FeatureCollection", "features": [{"type": "Feature", "geometry": {"type": "Polygon", "coordinates": [[[135.526034, 34.733155], [135.524879, 34.732986], [135.521547, 34.731528], [135.514818, 34.72056], [135.516712, 34.718885], [135.519106, 34.718887], [135.520552, 34.715491], [135.521167, 34.714048], [135.521566, 34.713111], [135.517983, 34.706794], [135.520776, 34.701367], [135.522607, 34.698363], [135.522532, 34.697956], [135.522167, 34.695989], [135.521644, 34.693164], [135.520607, 34.692952], [135.520082, 34.691929], [135.534816, 34.695469], [135.536171, 34.708331], [135.540616, 34.711765], [135.526034, 34.733155]]]}, "properties": {"N03_001": "大阪府", "N03_002": null, "N03_003": null, "N03_004": "大阪市", "N03_005": "都島区", "N03_007": "27102"}}, {"type": "Feature", "geometry": {"type": "Polygon", "coordinates": [[[135.464329, 34.696746], [135.462483, 34.687389], [135.470951, 34.681393], [135.483607, 34.686868], [135.491003, 34.693673], [135.490678, 34.702573], [135.484036, 34.699692], [135.474437, 34.706972], [135.461884, 34.699653], [135.464329, 34.696746]]]}, "properties": {"N03_001": "大阪府", "N03_002": null, "N03_003": null, "N03_004": "大阪市", "N03_005": "福島区", "N03_007": "27103"}}, {"type": "Feature", "geometry": {"type": "MultiPolygon", "coordinates": [[[[135.461884, 34.699653], [135.455006, 34.696538], [135.442724, 34.690976], [135.407167, 34.674875], [135.409971, 34.670727], [135.416667, 34.67321], [135.417282, 34.663712], [135.426268, 34.667823], [135.423873, 34.663575], [135.416457, 34.66143], [135.414314, 34.651667], [135.418083, 34.659522], [135.420462, 34.6602], [135.419384, 34.65324], [135.423097, 34.657373], [135.429242, 34.657551], [135.440554, 34.663169], [135.450048, 34.673404], [135.462018, 34.677323], [135.462031, 34.677328], [135.472057, 34.68061], [135.470932, 34.681385], [135.470951, 34.681393], [135.462483, 34.687389], [135.464329, 34.696746], [135.461884, 34.699653]]], [[[135.358568, 34.62764], [135.353441, 34.632356], [135.355838, 34.635106], [135.343588, 34.621122], [135.345674, 34.617282], [135.350364, 34.619343], [135.365092, 34.632486], [135.358568, 34.62764]]], [[[135.39275, 34.641391], [135.404523, 34.653718], [135.399728, 34.656944], [135.379126, 34.659804], [135.3729, 34.652076], [135.378939, 34.643189], [135.39275, 34.641391]]], [[[135.398838, 34.65724], [135.398292, 34.657353], [135.398375, 34.657316], [135.39877, 34.657138], [135.398838, 34.65724]]], [[[135.398713, 34.658022], [135.398437, 34.657608], [135.398948, 34.657377], [135.399183, 34.657837], [135.398713, 34.658022]]], [[[135.400415, 34.659594], [135.400688, 34.660013], [135.400177, 34.660237], [135.399942, 34.659778], [135.400415, 34.659594]]], [[[135.386851, 34.662676], [135.400382, 34.660536], [135.400281, 34.660382], [135.400779, 34.660158], [135.400917, 34.660363], [135.400615, 34.660499], [135.409784, 34.659049], [135.409553, 34.665817], [135.402621, 34.67318], [135.388257, 34.668855], [135.386851, 34.662676]]], [[[135.405792, 34.673422], [135.407477, 34.672328], [135.407513, 34.672366], [135.405799, 34.67435], [135.405792, 34.673422]]]]}, "properties": {"N03_001": "大阪府", "N03_002": null, "N03_003": null, "N03_004": "大阪市", "N03_005": "此花区", "N03_007": "27104"}}, {"type": "Feature", "geometry": {"type": "Polygon", "coordinates": [[[135.481239, 34.68467], [135.481192, 34.684646], [135.483607, 34.686868], [135.470951, 34.681393], [135.470932, 34.681385], [135.472057, 34.68061], [135.462031, 34.677328], [135.474181, 34.666898], [135.474171, 34.666888], [135.473101, 34.66588], [135.480537, 34.668138], [135.496775, 34.668952], [135.496733, 34.669009], [135.497468, 34.692787], [135.497333, 34.692807], [135.496144, 34.692293], [135.481239, 34.68467]]]}, "properties": {"N03_001": "大阪府", "N03_002": null, "N03_003": null, "N03_004": "大阪市", "N03_005": "西区", "N03_007": "27106"}}, {"type": "Feature", "geometry": {"type": "MultiPolygon", "coordinates": [[[[135.440554, 34.663169], [135.426305, 34.655745], [135.428764, 34.652324], [135.426117, 34.64992], [135.437594, 34.650871], [135.440622, 34.649454], [135.435409, 34.648048], [135.446828, 34.646783], [135.442119, 34.645416], [135.444122, 34.64446], [135.452639, 34.646721], [135.452854, 34.646798], [135.464468, 34.657744], [135.470734, 34.665161], [135.473101, 34.66588], [135.474171, 34.666888], [135.474181, 34.666898], [135.462031, 34.677328], [135.462018, 34.677323], [135.450048, 34.673404], [135.440554, 34.663169]]], [[[135.431262, 34.649265], [135.430057, 34.64978], [135.429147, 34.650145], [135.431335, 34.649214], [135.431262, 34.649265]]], [[[135.428024, 34.652407], [135.428049, 34.652432], [135.427501, 34.653878], [135.427335, 34.654312], [135.428024, 34.652407]]]]}, "properties": {"N03_001": "大阪府", "N03_002": null, "N03_003": null, "N03_004": "大阪市", "N03_005": "港区", "N03_007": "27107"}}, {"type": "Feature", "geometry": {"type": "MultiPolygon", "coordinates": [[[[135.473101, 34.66588], [135.470734, 34.665161], [135.464468, 34.657744], [135.452854, 34.646798], [135.452639, 34.646721], [135.450412, 34.645918], [135.451238, 34.642527], [135.447096, 34.641263], [135.448245, 34.634877], [135.452666, 34.634938], [135.453574, 34.629225], [135.448326, 34.630993], [135.449591, 34.626268], [135.450971, 34.626017], [135.461776, 34.62597], [135.468134, 34.627833], [135.473683, 34.629459], [135.474397, 34.63075], [135.475247, 34.631146], [135.475738, 34.633176], [135.481071, 34.655213], [135.48192, 34.658723], [135.480537, 34.668138], [135.473101, 34.66588]]], [[[135.450271, 34.642451], [135.450303, 34.642456], [135.450058, 34.64384], [135.450046, 34.643847], [135.450271, 34.642451]]]]}, "properties": {"N03_001": "大阪府", "N03_002": null, "N03_003": null, "N03_004": "大阪市", "N03_005": "大正区", "N03_007": "27108"}}, {"type": "Feature", "geometry": {"type": "Polygon", "coordinates": [[[135.50739, 34.651048], [135.506563, 34.648215], [135.506603, 34.648201], [135.507572, 34.647871], [135.508361, 34.647602], [135.518344, 34.64513], [135.520204, 34.64613], [135.523526, 34.647916], [135.524534, 34.648458], [135.524757, 34.649074], [135.52928, 34.661576], [135.531111, 34.667255], [135.532763, 34.674888], [135.521513, 34.676075], [135.519067, 34.666386], [135.511504, 34.666499], [135.510732, 34.662497], [135.510561, 34.662511], [135.50739, 34.651048]]]}, "properties": {"N03_001": "大阪府", "N03_002": null, "N03_003": null, "N03_004": "大阪市", "N03_005": "天王寺区", "N03_007": "27109"}}, {"type": "Feature", "geometry": {"type": "Polygon", "coordinates": [[[135.481071, 34.655213], [135.481079, 34.655018], [135.481111, 34.655034], [135.481112, 34.655036], [135.48507, 34.65703], [135.485251, 34.652105], [135.490606, 34.653653], [135.506563, 34.648215], [135.50739, 34.651048], [135.510561, 34.662511], [135.501026, 34.663278], [135.496775, 34.668952], [135.480537, 34.668138], [135.48192, 34.658723], [135.481071, 34.655213]]]}, "properties": {"N03_001": "大阪府", "N03_002": null, "N03_003": null, "N03_004": "大阪市", "N03_005": "浪速区", "N03_007": "27111"}}, {"type": "Feature", "geometry": {"type": "Polygon", "coordinates": [[[135.455006, 34.696538], [135.473929, 34.706683], [135.456778, 34.725381], [135.445556, 34.729082], [135.448106, 34.721689], [135.44617, 34.71834], [135.407294, 34.697096], [135.420365, 34.682847], [135.442724, 34.690976], [135.455006, 34.696538]]]}, "properties": {"N03_001": "大阪府", "N03_002": null, "N03_003": null, "N03_004": "大阪市", "N03_005": "西淀川区", "N03_007": "27113"}}, {"type": "Feature", "geometry": {"type": "Polygon", "coordinates": [[[135.514818, 34.72056], [135.521547, 34.731528], [135.524879, 34.732986], [135.526034, 34.733155], [135.527516, 34.733372], [135.550715, 34.736767], [135.551747, 34.736918], [135.556449, 34.74606], [135.556461, 34.746084], [135.560333, 34.753612], [135.560529, 34.753992], [135.558254, 34.756904], [135.550764, 34.757152], [135.549937, 34.76467], [135.549057, 34.767529], [135.546082, 34.768549], [135.544936, 34.768496], [135.539436, 34.761342], [135.532455, 34.759442], [135.528993, 34.754567], [135.531608, 34.752339], [135.527801, 34.748596], [135.517122, 34.749992], [135.507797, 34.744572], [135.507367, 34.744866], [135.506966, 34.744656], [135.50207, 34.731712], [135.503927, 34.71941], [135.514677, 34.72033], [135.514818, 34.72056]], [[135.553673, 34.756102], [135.553699, 34.756115], [135.555527, 34.755332], [135.554158, 34.755554], [135.553623, 34.7559], [135.553468, 34.755999], [135.553579, 34.756055], [135.553673, 34.756102]]]}, "properties": {"N03_001": "大阪府", "N03_002": null, "N03_003": null, "N03_004": "大阪市", "N03_005": "東淀川区", "N03_007": "27114"}}, {"type": "Feature", "geometry": {"type": "Polygon", "coordinates": [[[135.533545, 34.674805], [135.532763, 34.674888], [135.531111, 34.667255], [135.530812, 34.665874], [135.543226, 34.665117], [135.55, 34.664926], [135.551488, 34.664612], [135.557928, 34.663255], [135.557058, 34.663991], [135.557418, 34.668063], [135.562203, 34.667914], [135.565635, 34.687735], [135.565633, 34.687735], [135.563439, 34.67936], [135.540324, 34.683292], [135.534245, 34.681738], [135.533863, 34.679971], [135.533545, 34.674805]]]}, "properties": {"N03_001": "大阪府", "N03_002": null, "N03_003": null, "N03_004": "大阪市", "N03_005": "東成区", "N03_007": "27115"}}, {"type": "Feature", "geometry": {"type": "Polygon", "coordinates": [[[135.531111, 34.667255], [135.52928, 34.661576], [135.524757, 34.649074], [135.524534, 34.648458], [135.529361, 34.644218], [135.529478, 34.644459], [135.535053, 34.639219], [135.544686, 34.640454], [135.554371, 34.633296], [135.554068, 34.644045], [135.561143, 34.643551], [135.561965, 34.652793], [135.558559, 34.655829], [135.563899, 34.658209], [135.557928, 34.663255], [135.551488, 34.664612], [135.55, 34.664926], [135.543226, 34.665117], [135.530812, 34.665874], [135.531111, 34.667255]]]}, "properties": {"N03_001": "大阪府", "N03_002": null, "N03_003": null, "N03_004": "大阪市", "N03_005": "生野区", "N03_007": "27116"}}, {"type": "Feature", "geometry": {"type": "Polygon", "coordinates": [[[135.540616, 34.711765], [135.543697, 34.714146], [135.545122, 34.714216], [135.560246, 34.714953], [135.56025, 34.71504], [135.560368, 34.715084], [135.566558, 34.717382], [135.563641, 34.724783], [135.555118, 34.724813], [135.553401, 34.733095], [135.561037, 34.738969], [135.556449, 34.74606], [135.551747, 34.736918], [135.550715, 34.736767], [135.527516, 34.733372], [135.526034, 34.733155], [135.540616, 34.711765]]]}, "properties": {"N03_001": "大阪府", "N03_002": null, "N03_003": null, "N03_004": "大阪市", "N03_005": "旭区", "N03_007": "27117"}}, {"type": "Feature", "geometry": {"type": "Polygon", "coordinates": [[[135.540616, 34.711765], [135.536171, 34.708331], [135.534816, 34.695469], [135.533863, 34.679971], [135.534245, 34.681738], [135.540324, 34.683292], [135.563439, 34.67936], [135.565633, 34.687735], [135.565638, 34.687752], [135.558858, 34.687693], [135.560312, 34.714956], [135.560246, 34.714953], [135.545122, 34.714216], [135.543697, 34.714146], [135.540616, 34.711765]]]}, "properties": {"N03_001": "大阪府", "N03_002": null, "N03_003": null, "N03_004": "大阪市", "N03_005": "城東区", "N03_007": "27118"}}, {"type": "Feature", "geometry": {"type": "Polygon", "coordinates": [[[135.508361, 34.647602], [135.497321, 34.624435], [135.499489, 34.624912], [135.508949, 34.622348], [135.508697, 34.616687], [135.515804, 34.616156], [135.529361, 34.644218], [135.524534, 34.648458], [135.523526, 34.647916], [135.520204, 34.64613], [135.518344, 34.64513], [135.508361, 34.647602]]]}, "properties": {"N03_001": "大阪府", "N03_002": null, "N03_003": null, "N03_004": "大阪市", "N03_005": "阿倍野区", "N03_007": "27119"}}, {"type": "Feature", "geometry": {"type": "Polygon", "coordinates": [[[135.497321, 34.624435], [135.496419, 34.624236], [135.49284, 34.623448], [135.492764, 34.623093], [135.487074, 34.596539], [135.495823, 34.593994], [135.501893, 34.587157], [135.502778, 34.586161], [135.52199, 34.594335], [135.522483, 34.594568], [135.522503, 34.594577], [135.523639, 34.609469], [135.51399, 34.609526], [135.5144, 34.61325], [135.515804, 34.616156], [135.508697, 34.616687], [135.508949, 34.622348], [135.499489, 34.624912], [135.497321, 34.624435]]]}, "properties": {"N03_001": "大阪府", "N03_002": null, "N03_003": null, "N03_004": "大阪市", "N03_005": "住吉区", "N03_007": "27120"}}, {"type": "Feature", "geometry": {"type": "Polygon", "coordinates": [[[135.529361, 34.644218], [135.515804, 34.616156], [135.5144, 34.61325], [135.51399, 34.609526], [135.523639, 34.609469], [135.522503, 34.594577], [135.526368, 34.5964], [135.530525, 34.590918], [135.531968, 34.598679], [135.543437, 34.599423], [135.540739, 34.625255], [135.543683, 34.625273], [135.54382, 34.632473], [135.547681, 34.636971], [135.544686, 34.640454], [135.535053, 34.639219], [135.529478, 34.644459], [135.529361, 34.644218]]]}, "properties": {"N03_001": "大阪府", "N03_002": null, "N03_003": null, "N03_004": "大阪市", "N03_005": "東住吉区", "N03_007": "27121"}}, {"type": "Feature", "geometry": {"type": "Polygon", "coordinates": [[[135.481071, 34.655213], [135.475738, 34.633176], [135.475247, 34.631146], [135.474397, 34.63075], [135.473683, 34.629459], [135.482314, 34.62164], [135.49284, 34.623448], [135.496419, 34.624236], [135.497321, 34.624435], [135.508361, 34.647602], [135.507572, 34.647871], [135.506603, 34.648201], [135.506563, 34.648215], [135.490606, 34.653653], [135.485251, 34.652105], [135.48507, 34.65703], [135.481112, 34.655036], [135.481111, 34.655034], [135.481079, 34.655018], [135.481071, 34.655213]]]}, "properties": {"N03_001": "大阪府", "N03_002": null, "N03_003": null, "N03_004": "大阪市", "N03_005": "西成区", "N03_007": "27122"}}, {"type": "Feature", "geometry": {"type": "Polygon", "coordinates": [[[135.455006, 34.696538], [135.461884, 34.699653], [135.474437, 34.706972], [135.494037, 34.718262], [135.49926, 34.718868], [135.503927, 34.71941], [135.50207, 34.731712], [135.506966, 34.744656], [135.507367, 34.744866], [135.499965, 34.749928], [135.49013, 34.751052], [135.487967, 34.751299], [135.487912, 34.74981], [135.487685, 34.749407], [135.481657, 34.738726], [135.481415, 34.738567], [135.469879, 34.730974], [135.451775, 34.734321], [135.445636, 34.730034], [135.456778, 34.725381], [135.473929, 34.706683], [135.455006, 34.696538]]]}, "properties": {"N03_001": "大阪府", "N03_002": null, "N03_003": null, "N03_004": "大阪市", "N03_005": "淀川区", "N03_007": "27123"}}, {"type": "Feature", "geometry": {"type": "MultiPolygon", "coordinates": [[[[135.56665, 34.71715], [135.566558, 34.717382], [135.560368, 34.715084], [135.56025, 34.71504], [135.560246, 34.714953], [135.560312, 34.714956], [135.558858, 34.687693], [135.565638, 34.687752], [135.569544, 34.688172], [135.578928, 34.689576], [135.581962, 34.696806], [135.594397, 34.703193], [135.590308, 34.707695], [135.597039, 34.706932], [135.599626, 34.714751], [135.601418, 34.716162], [135.590485, 34.711977], [135.587292, 34.710754], [135.58729, 34.710998], [135.587235, 34.718254], [135.582231, 34.723338], [135.582291, 34.71833], [135.582306, 34.717031], [135.575052, 34.717406], [135.577612, 34.712764], [135.574817, 34.712948], [135.574006, 34.708928], [135.573998, 34.708888], [135.569901, 34.708902], [135.56665, 34.71715]]], [[[135.565633, 34.687735], [135.565635, 34.687735], [135.565638, 34.687752], [135.565633, 34.687735]]]]}, "properties": {"N03_001": "大阪府", "N03_002": null, "N03_003": null, "N03_004": "大阪市", "N03_005": "鶴見区", "N03_007": "27124"}}, {"type": "Feature", "geometry": {"type": "MultiPolygon", "coordinates": [[[[135.449591, 34.626268], [135.448502, 34.626466], [135.447565, 34.61788], [135.442914, 34.618121], [135.441299, 34.626176], [135.430988, 34.622578], [135.430187, 34.616039], [135.432961, 34.613025], [135.426618, 34.613027], [135.423425, 34.618984], [135.423405, 34.610771], [135.437504, 34.610765], [135.439005, 34.608209], [135.439052, 34.608197], [135.446539, 34.608329], [135.487074, 34.596539], [135.492764, 34.623093], [135.49284, 34.623448], [135.482314, 34.62164], [135.473683, 34.629459], [135.468134, 34.627833], [135.461776, 34.62597], [135.450971, 34.626017], [135.449591, 34.626268]]], [[[135.41843, 34.619546], [135.399531, 34.620674], [135.389554, 34.628427], [135.389465, 34.62835], [135.399442, 34.620655], [135.401143, 34.618421], [135.401282, 34.61073], [135.420685, 34.610781], [135.41843, 34.619546]]], [[[135.443865, 34.625208], [135.443388, 34.625255], [135.443465, 34.625201], [135.443859, 34.625165], [135.443865, 34.625208]]], [[[135.4393, 34.641213], [135.416466, 34.644815], [135.397702, 34.638749], [135.396673, 34.628776], [135.412283, 34.637202], [135.414803, 34.634823], [135.407471, 34.629426], [135.41043, 34.625866], [135.420569, 34.625854], [135.422129, 34.621907], [135.441862, 34.628396], [135.4393, 34.641213]]]]}, "properties": {"N03_001": "大阪府", "N03_002": null, "N03_003": null, "N03_004": "大阪市", "N03_005": "住之江区", "N03_007": "27125"}}, {"type": "Feature", "geometry": {"type": "Polygon", "coordinates": [[[135.543463, 34.599424], [135.543472, 34.599094], [135.543578, 34.595195], [135.56716, 34.595536], [135.570085, 34.589069], [135.571689, 34.593792], [135.571751, 34.593974], [135.571771, 34.594033], [135.571965, 34.593977], [135.579916, 34.594091], [135.581178, 34.601511], [135.581381, 34.602704], [135.587319, 34.604738], [135.58693, 34.60914], [135.576286, 34.611955], [135.573525, 34.617323], [135.572519, 34.613756], [135.561955, 34.616995], [135.562258, 34.622858], [135.575182, 34.618236], [135.574684, 34.632181], [135.568579, 34.634364], [135.566238, 34.638982], [135.561291, 34.640842], [135.561143, 34.643551], [135.554068, 34.644045], [135.554371, 34.633296], [135.544686, 34.640454], [135.547681, 34.636971], [135.54382, 34.632473], [135.543683, 34.625273], [135.540739, 34.625255], [135.543437, 34.599423], [135.543463, 34.599424]]]}, "properties": {"N03_001": "大阪府", "N03_002": null, "N03_003": null, "N03_004": "大阪市", "N03_005": "平野区", "N03_007": "27126"}}, {"type": "Feature", "geometry": {"type": "Polygon", "coordinates": [[[135.483607, 34.686868], [135.481192, 34.684646], [135.481239, 34.68467], [135.496144, 34.692293], [135.497333, 34.692807], [135.497468, 34.692787], [135.510502, 34.690885], [135.514192, 34.691639], [135.520607, 34.692952], [135.521644, 34.693164], [135.522167, 34.695989], [135.522532, 34.697956], [135.522607, 34.698363], [135.520776, 34.701367], [135.517983, 34.706794], [135.521566, 34.713111], [135.521167, 34.714048], [135.520552, 34.715491], [135.519106, 34.718887], [135.516712, 34.718885], [135.514818, 34.72056], [135.514677, 34.72033], [135.503927, 34.71941], [135.49926, 34.718868], [135.494037, 34.718262], [135.474437, 34.706972], [135.484036, 34.699692], [135.490678, 34.702573], [135.491003, 34.693673], [135.483607, 34.686868]]]}, "properties": {"N03_001": "大阪府", "N03_002": null, "N03_003": null, "N03_004": "大阪市", "N03_005": "北区", "N03_007": "27127"}}, {"type": "Feature", "geometry": {"type": "Polygon", "coordinates": [[[135.496775, 34.668952], [135.501026, 34.663278], [135.510561, 34.662511], [135.510732, 34.662497], [135.511504, 34.666499], [135.519067, 34.666386], [135.521513, 34.676075], [135.532763, 34.674888], [135.533545, 34.674805], [135.533863, 34.679971], [135.534816, 34.695469], [135.520082, 34.691929], [135.520607, 34.692952], [135.514192, 34.691639], [135.510502, 34.690885], [135.497468, 34.692787], [135.496733, 34.669009], [135.496775, 34.668952]]]}, "properties": {"N03_001": "大阪府", "N03_002": null, "N03_003": null, "N03_004": "大阪市", "N03_005": "中央区", "N03_007": "27128"}}, {"type": "Feature", "geometry": {"type": "MultiPolygon", "coordinates": [[[[135.487074, 34.596539], [135.446539, 34.608329], [135.439052, 34.608197], [135.437555, 34.608171], [135.436974, 34.60471], [135.446566, 34.601861], [135.444683, 34.597502], [135.423554, 34.604994], [135.425549, 34.593345], [135.437704, 34.588656], [135.451775, 34.591903], [135.459056, 34.590058], [135.460597, 34.594861], [135.462332, 34.587377], [135.452496, 34.589975], [135.449291, 34.587078], [135.466186, 34.584548], [135.463638, 34.581411], [135.458579, 34.583453], [135.450112, 34.583735], [135.451752, 34.57714], [135.456689, 34.576407], [135.457567, 34.57404], [135.451768, 34.575363], [135.449425, 34.568047], [135.452157, 34.566563], [135.453331, 34.56649], [135.463544, 34.560378], [135.459895, 34.55447], [135.463686, 34.545671], [135.468815, 34.547683], [135.466625, 34.551611], [135.473501, 34.551461], [135.476996, 34.556209], [135.477126, 34.556212], [135.481561, 34.556305], [135.483217, 34.553588], [135.492582, 34.565077], [135.500113, 34.559276], [135.50172, 34.561224], [135.495346, 34.571005], [135.502778, 34.586161], [135.501893, 34.587157], [135.495823, 34.593994], [135.487074, 34.596539]]], [[[135.458898, 34.583531], [135.4589, 34.583449], [135.458967, 34.583426], [135.459028, 34.58351], [135.458898, 34.583531]]], [[[135.422583, 34.604111], [135.420801, 34.602875], [135.421752, 34.60086], [135.421006, 34.602842], [135.422583, 34.604111]]], [[[135.438921, 34.603993], [135.438901, 34.603949], [135.441593, 34.60313], [135.443027, 34.602776], [135.438921, 34.603993]]]]}, "properties": {"N03_001": "大阪府", "N03_002": null, "N03_003": null, "N03_004": "堺市", "N03_005": "堺区", "N03_007": "27141"}}, {"type": "Feature", "geometry": {"type": "Polygon", "coordinates": [[[135.505833, 34.550136], [135.495028, 34.544472], [135.489965, 34.542521], [135.490084, 34.542326], [135.49002, 34.542303], [135.480207, 34.538762], [135.48237, 34.534801], [135.483484, 34.53276], [135.484135, 34.531569], [135.482301, 34.530791], [135.481596, 34.530492], [135.479605, 34.529648], [135.467908, 34.533222], [135.471095, 34.522821], [135.487859, 34.513938], [135.488542, 34.514136], [135.502864, 34.505987], [135.516429, 34.505992], [135.525226, 34.502938], [135.535482, 34.50154], [135.533788, 34.50825], [135.539444, 34.500517], [135.539706, 34.501087], [135.532644, 34.514611], [135.533569, 34.514194], [135.53077, 34.517932], [135.530327, 34.519473], [135.516364, 34.540159], [135.508652, 34.547466], [135.505833, 34.550136]]]}, "properties": {"N03_001": "大阪府", "N03_002": null, "N03_003": null, "N03_004": "堺市", "N03_005": "中区", "N03_007": "27142"}}, {"type": "Feature", "geometry": {"type": "Polygon", "coordinates": [[[135.533569, 34.514194], [135.542851, 34.510012], [135.546384, 34.518008], [135.55502, 34.517991], [135.55486, 34.528645], [135.554723, 34.528775], [135.552943, 34.528646], [135.550614, 34.532638], [135.542276, 34.530632], [135.541453, 34.544752], [135.540783, 34.545621], [135.539437, 34.547365], [135.538764, 34.548237], [135.542009, 34.551192], [135.541069, 34.555731], [135.546762, 34.554762], [135.548001, 34.558333], [135.548111, 34.558279], [135.548099, 34.559574], [135.546665, 34.558698], [135.528264, 34.559062], [135.52856, 34.553121], [135.519358, 34.550347], [135.518274, 34.547575], [135.518018, 34.54692], [135.509962, 34.549047], [135.508154, 34.54813], [135.508652, 34.547466], [135.516364, 34.540159], [135.530327, 34.519473], [135.53077, 34.517932], [135.533569, 34.514194]]]}, "properties": {"N03_001": "大阪府", "N03_002": null, "N03_003": null, "N03_004": "堺市", "N03_005": "東区", "N03_007": "27143"}}, {"type": "Feature", "geometry": {"type": "MultiPolygon", "coordinates": [[[[135.452157, 34.566563], [135.444966, 34.56701], [135.441496, 34.582958], [135.434393, 34.582662], [135.433759, 34.586683], [135.42619, 34.589624], [135.427114, 34.584256], [135.429429, 34.570704], [135.420817, 34.569679], [135.415748, 34.593759], [135.402096, 34.599962], [135.409239, 34.557818], [135.410539, 34.560747], [135.43111, 34.560764], [135.444786, 34.557221], [135.437697, 34.54106], [135.446089, 34.536879], [135.446309, 34.530897], [135.451319, 34.530406], [135.445739, 34.526003], [135.456086, 34.524444], [135.457074, 34.523117], [135.459495, 34.519522], [135.456566, 34.517419], [135.454289, 34.515784], [135.455127, 34.514766], [135.456473, 34.515401], [135.459474, 34.511529], [135.463301, 34.506592], [135.46113, 34.496869], [135.461318, 34.496973], [135.46417, 34.500799], [135.464782, 34.50162], [135.466015, 34.503275], [135.466032, 34.500455], [135.470612, 34.503685], [135.482749, 34.503933], [135.488078, 34.510442], [135.485782, 34.513335], [135.487859, 34.513938], [135.471095, 34.522821], [135.467908, 34.533222], [135.479605, 34.529648], [135.481596, 34.530492], [135.482301, 34.530791], [135.484135, 34.531569], [135.483484, 34.53276], [135.48237, 34.534801], [135.480207, 34.538762], [135.49002, 34.542303], [135.490084, 34.542326], [135.489965, 34.542521], [135.483346, 34.553377], [135.483217, 34.553588], [135.481561, 34.556305], [135.477126, 34.556212], [135.476996, 34.556209], [135.473501, 34.551461], [135.466625, 34.551611], [135.468815, 34.547683], [135.463686, 34.545671], [135.459895, 34.55447], [135.463544, 34.560378], [135.453331, 34.56649], [135.452157, 34.566563]]], [[[135.426403, 34.547021], [135.426402, 34.54702], [135.436364, 34.542583], [135.440959, 34.554259], [135.430663, 34.553816], [135.426403, 34.547021]]], [[[135.412199, 34.543534], [135.415877, 34.549987], [135.409275, 34.555044], [135.406886, 34.546618], [135.412199, 34.543534]]], [[[135.438983, 34.55529], [135.438992, 34.555317], [135.438954, 34.555322], [135.438947, 34.555295], [135.438983, 34.55529]]], [[[135.438656, 34.555369], [135.438667, 34.555398], [135.438635, 34.555404], [135.438622, 34.555375], [135.438656, 34.555369]]], [[[135.437382, 34.555674], [135.43739, 34.555697], [135.437362, 34.555705], [135.437351, 34.555682], [135.437382, 34.555674]]], [[[135.412962, 34.560606], [135.412961, 34.560567], [135.413122, 34.56056], [135.41308, 34.5606], [135.412962, 34.560606]]], [[[135.396417, 34.595573], [135.396568, 34.595589], [135.395188, 34.601741], [135.388183, 34.605089], [135.387929, 34.605068], [135.395112, 34.601686], [135.396417, 34.595573]]]]}, "properties": {"N03_001": "大阪府", "N03_002": null, "N03_003": null, "N03_004": "堺市", "N03_005": "西区", "N03_007": "27144"}}, {"type": "Feature", "geometry": {"type": "Polygon", "coordinates": [[[135.539444, 34.500517], [135.533788, 34.50825], [135.535482, 34.50154], [135.525226, 34.502938], [135.516429, 34.505992], [135.502864, 34.505987], [135.488542, 34.514136], [135.487859, 34.513938], [135.485782, 34.513335], [135.488078, 34.510442], [135.482749, 34.503933], [135.470612, 34.503685], [135.466032, 34.500455], [135.466137, 34.483072], [135.471768, 34.480999], [135.471913, 34.476334], [135.478201, 34.470904], [135.475712, 34.469321], [135.478072, 34.465596], [135.494516, 34.455918], [135.500511, 34.43378], [135.51898, 34.430409], [135.519322, 34.4315], [135.518874, 34.431896], [135.519817, 34.437001], [135.521595, 34.438742], [135.545313, 34.461963], [135.538561, 34.469352], [135.537701, 34.472519], [135.533572, 34.487719], [135.539853, 34.499958], [135.539444, 34.500517]]]}, "properties": {"N03_001": "大阪府", "N03_002": null, "N03_003": null, "N03_004": "堺市", "N03_005": "南区", "N03_007": "27145"}}, {"type": "Feature", "geometry": {"type": "Polygon", "coordinates": [[[135.483217, 34.553588], [135.483346, 34.553377], [135.489965, 34.542521], [135.495028, 34.544472], [135.505833, 34.550136], [135.508652, 34.547466], [135.508154, 34.54813], [135.509962, 34.549047], [135.518018, 34.54692], [135.518274, 34.547575], [135.519358, 34.550347], [135.52856, 34.553121], [135.528264, 34.559062], [135.546665, 34.558698], [135.548099, 34.559574], [135.548047, 34.564919], [135.537261, 34.565588], [135.53176, 34.576641], [135.522425, 34.576656], [135.521007, 34.589839], [135.52199, 34.594335], [135.502778, 34.586161], [135.495346, 34.571005], [135.50172, 34.561224], [135.500113, 34.559276], [135.492582, 34.565077], [135.483217, 34.553588]]]}, "properties": {"N03_001": "大阪府", "N03_002": null, "N03_003": null, "N03_004": "堺市", "N03_005": "北区", "N03_007": "27146"}}, {"type": "Feature", "geometry": {"type": "Polygon", "coordinates": [[[135.554723, 34.528775], [135.557493, 34.528975], [135.558748, 34.529066], [135.565321, 34.516187], [135.566406, 34.513826], [135.566537, 34.513542], [135.566568, 34.513536], [135.566609, 34.513548], [135.582058, 34.510554], [135.580768, 34.51736], [135.585475, 34.519126], [135.584343, 34.526513], [135.587077, 34.531575], [135.581534, 34.533885], [135.582009, 34.537718], [135.5747, 34.543184], [135.575572, 34.545042], [135.574942, 34.545759], [135.567404, 34.548709], [135.568172, 34.558459], [135.567975, 34.558817], [135.567258, 34.560117], [135.567202, 34.560009], [135.561058, 34.560029], [135.561548, 34.554422], [135.556514, 34.554106], [135.553186, 34.553898], [135.548118, 34.557572], [135.548111, 34.558279], [135.548001, 34.558333], [135.546762, 34.554762], [135.541069, 34.555731], [135.542009, 34.551192], [135.538764, 34.548237], [135.539437, 34.547365], [135.540783, 34.545621], [135.541453, 34.544752], [135.542276, 34.530632], [135.550614, 34.532638], [135.552943, 34.528646], [135.554723, 34.528775]], [[135.578009, 34.534371], [135.57772, 34.534312], [135.579378, 34.535284], [135.580005, 34.538347], [135.580503, 34.534884], [135.578009, 34.534371]]]}, "properties": {"N03_001": "大阪府", "N03_002": null, "N03_003": null, "N03_004": "堺市", "N03_005": "美原区", "N03_007": "27147"}}, {"type": "Feature", "geometry": {"type": "MultiPolygon", "coordinates": [[[[135.440151, 34.450854], [135.441926, 34.460674], [135.433775, 34.467077], [135.429516, 34.470301], [135.424341, 34.466298], [135.424291, 34.466336], [135.418274, 34.470904], [135.415081, 34.473541], [135.415199, 34.473685], [135.410858, 34.47653], [135.394725, 34.488844], [135.384527, 34.493785], [135.370873, 34.5004], [135.372443, 34.494364], [135.369748, 34.490021], [135.377372, 34.486512], [135.371798, 34.481284], [135.376879, 34.478631], [135.377064, 34.475222], [135.375883, 34.473208], [135.366144, 34.480702], [135.363804, 34.477615], [135.367784, 34.471064], [135.372224, 34.471673], [135.370169, 34.467753], [135.366798, 34.46789], [135.367096, 34.470693], [135.366661, 34.471263], [135.366645, 34.468051], [135.362092, 34.466581], [135.364953, 34.470167], [135.36266, 34.472336], [135.352911, 34.462434], [135.360805, 34.461547], [135.359418, 34.459799], [135.363728, 34.455915], [135.381213, 34.4454], [135.377795, 34.438135], [135.387856, 34.417656], [135.392229, 34.419916], [135.394747, 34.41635], [135.39698, 34.419082], [135.400643, 34.411127], [135.409259, 34.413552], [135.410992, 34.408876], [135.405215, 34.404852], [135.40527, 34.40434], [135.405325, 34.403816], [135.405577, 34.401455], [135.406907, 34.398762], [135.416464, 34.379413], [135.427093, 34.374362], [135.433331, 34.348963], [135.434129, 34.348812], [135.441752, 34.347378], [135.454945, 34.351461], [135.456341, 34.35269], [135.456337, 34.354348], [135.454342, 34.358506], [135.45631, 34.367166], [135.463551, 34.377934], [135.463364, 34.378375], [135.457591, 34.385922], [135.450239, 34.390887], [135.449859, 34.391144], [135.449776, 34.3912], [135.455478, 34.405691], [135.449609, 34.414916], [135.451572, 34.423796], [135.448811, 34.432357], [135.443824, 34.435412], [135.440151, 34.450854]]], [[[135.36379, 34.468215], [135.364031, 34.468514], [135.364005, 34.468528], [135.36379, 34.468215]]], [[[135.367369, 34.470843], [135.367519, 34.470919], [135.367079, 34.471488], [135.36693, 34.471409], [135.367369, 34.470843]]], [[[135.345551, 34.471196], [135.352536, 34.479687], [135.351633, 34.468951], [135.347803, 34.469519], [135.351064, 34.465631], [135.354867, 34.467421], [135.360306, 34.474186], [135.361123, 34.4756], [135.361279, 34.476434], [135.361149, 34.480424], [135.360574, 34.482933], [135.359799, 34.484612], [135.358954, 34.48575], [135.358129, 34.486414], [135.361022, 34.480387], [135.35963, 34.473686], [135.352945, 34.480166], [135.355942, 34.482634], [135.354857, 34.489003], [135.354743, 34.482712], [135.345551, 34.471196]]], [[[135.369003, 34.479327], [135.368987, 34.479306], [135.369518, 34.479051], [135.369003, 34.479327]]], [[[135.373019, 34.485309], [135.372514, 34.483637], [135.372558, 34.483627], [135.373019, 34.485309]]], [[[135.364696, 34.480149], [135.366977, 34.492328], [135.36682, 34.492243], [135.364291, 34.483333], [135.364696, 34.480149]]], [[[135.37361, 34.487109], [135.373639, 34.487203], [135.373591, 34.487212], [135.373141, 34.485559], [135.37361, 34.487109]]]]}, "properties": {"N03_001": "大阪府", "N03_002": null, "N03_003": null, "N03_004": "岸和田市", "N03_005": null, "N03_007": "27202"}}, {"type": "Feature", "geometry": {"type": "MultiPolygon", "coordinates": [[[[135.441155, 34.793238], [135.440995, 34.792606], [135.446201, 34.777068], [135.444487, 34.769132], [135.450409, 34.766322], [135.451921, 34.758184], [135.456447, 34.760149], [135.456665, 34.751668], [135.459937, 34.751], [135.460207, 34.733333], [135.469879, 34.730974], [135.481415, 34.738567], [135.481657, 34.738726], [135.487685, 34.749407], [135.487912, 34.74981], [135.487967, 34.751299], [135.488564, 34.767374], [135.49994, 34.776564], [135.492045, 34.781449], [135.493664, 34.788048], [135.491415, 34.789335], [135.496716, 34.792497], [135.496448, 34.796447], [135.504897, 34.800259], [135.503795, 34.807535], [135.508294, 34.810629], [135.497739, 34.82477], [135.497654, 34.824884], [135.494182, 34.820972], [135.491398, 34.816783], [135.490647, 34.816989], [135.479062, 34.820169], [135.475881, 34.821042], [135.475397, 34.820838], [135.454898, 34.808116], [135.45347, 34.80723], [135.453424, 34.807201], [135.448107, 34.808427], [135.451206, 34.806047], [135.451553, 34.805781], [135.446541, 34.804282], [135.447975, 34.799561], [135.44286, 34.799945], [135.441155, 34.793238]]], [[[135.447027, 34.809864], [135.448172, 34.80981], [135.448203, 34.810455], [135.447027, 34.809864]]]]}, "properties": {"N03_001": "大阪府", "N03_002": null, "N03_003": null, "N03_004": "豊中市", "N03_005": null, "N03_007": "27203"}}, {"type": "Feature", "geometry": {"type": "Polygon", "coordinates": [[[135.448107, 34.808427], [135.448172, 34.80981], [135.447027, 34.809864], [135.448203, 34.810455], [135.448218, 34.810767], [135.448398, 34.814575], [135.448484, 34.816403], [135.4485, 34.816741], [135.451987, 34.81898], [135.450331, 34.824711], [135.453734, 34.842777], [135.459936, 34.844459], [135.459368, 34.860327], [135.453682, 34.865365], [135.441506, 34.874342], [135.438371, 34.874332], [135.438181, 34.876793], [135.437756, 34.877106], [135.430094, 34.861282], [135.431358, 34.856415], [135.42397, 34.852174], [135.416878, 34.852225], [135.42433, 34.837123], [135.42359, 34.82919], [135.416186, 34.820457], [135.416475, 34.816426], [135.423691, 34.802074], [135.428637, 34.803181], [135.438695, 34.791893], [135.441155, 34.793238], [135.44286, 34.799945], [135.447975, 34.799561], [135.446541, 34.804282], [135.451553, 34.805781], [135.451206, 34.806047], [135.448107, 34.808427]]]}, "properties": {"N03_001": "大阪府", "N03_002": null, "N03_003": null, "N03_004": "池田市", "N03_005": null, "N03_007": "27204"}}, {"type": "Feature", "geometry": {"type": "Polygon", "coordinates": [[[135.549057, 34.767529], [135.548773, 34.768453], [135.550279, 34.768742], [135.551309, 34.768789], [135.5512, 34.768918], [135.551309, 34.768939], [135.538374, 34.786903], [135.551934, 34.793562], [135.554481, 34.806441], [135.549955, 34.809121], [135.529994, 34.816344], [135.522751, 34.82458], [135.523461, 34.826574], [135.523435, 34.826616], [135.522802, 34.826717], [135.522088, 34.825896], [135.500435, 34.830223], [135.497739, 34.82477], [135.508294, 34.810629], [135.503795, 34.807535], [135.504897, 34.800259], [135.496448, 34.796447], [135.496716, 34.792497], [135.491415, 34.789335], [135.493664, 34.788048], [135.492045, 34.781449], [135.49994, 34.776564], [135.488564, 34.767374], [135.487967, 34.751299], [135.49013, 34.751052], [135.499965, 34.749928], [135.507367, 34.744866], [135.507797, 34.744572], [135.517122, 34.749992], [135.527801, 34.748596], [135.531608, 34.752339], [135.528993, 34.754567], [135.532455, 34.759442], [135.539436, 34.761342], [135.544936, 34.768496], [135.546082, 34.768549], [135.549057, 34.767529]], [[135.543526, 34.807118], [135.543531, 34.807311], [135.545858, 34.807776], [135.546043, 34.805437], [135.546078, 34.804999], [135.545746, 34.805197], [135.544625, 34.805864], [135.543511, 34.806528], [135.543522, 34.806968], [135.543526, 34.807118]]]}, "properties": {"N03_001": "大阪府", "N03_002": null, "N03_003": null, "N03_004": "吹田市", "N03_005": null, "N03_007": "27205"}}, {"type": "Feature", "geometry": {"type": "MultiPolygon", "coordinates": [[[[135.415463, 34.482546], [135.416331, 34.488048], [135.428869, 34.491401], [135.425561, 34.499555], [135.423937, 34.500678], [135.435067, 34.508942], [135.431988, 34.511224], [135.433118, 34.513461], [135.43338, 34.513979], [135.431742, 34.516652], [135.426818, 34.512737], [135.410364, 34.522912], [135.406475, 34.516986], [135.409915, 34.51362], [135.405271, 34.510353], [135.405648, 34.515056], [135.401409, 34.514141], [135.402041, 34.518566], [135.397313, 34.513937], [135.400494, 34.510819], [135.397016, 34.509029], [135.396076, 34.509723], [135.397378, 34.51181], [135.396467, 34.512718], [135.393147, 34.512058], [135.39588, 34.513277], [135.392694, 34.512217], [135.390089, 34.505483], [135.386216, 34.508364], [135.389063, 34.513234], [135.384182, 34.509872], [135.381743, 34.511681], [135.38602, 34.517465], [135.378991, 34.532938], [135.367161, 34.517045], [135.378647, 34.510885], [135.37783, 34.507845], [135.387398, 34.500288], [135.388389, 34.499943], [135.389746, 34.498928], [135.404226, 34.494142], [135.404783, 34.493209], [135.4099, 34.484627], [135.411405, 34.482103], [135.413027, 34.48228], [135.415463, 34.482546]], [[135.431386, 34.511063], [135.431388, 34.511058], [135.430332, 34.510156], [135.429729, 34.510619], [135.430858, 34.511603], [135.431093, 34.511807], [135.431215, 34.511497], [135.431386, 34.511063]]], [[[135.40039, 34.527091], [135.393845, 34.531429], [135.38708, 34.524834], [135.389492, 34.52284], [135.392716, 34.525082], [135.390651, 34.521646], [135.396502, 34.521347], [135.393246, 34.519101], [135.395043, 34.517323], [135.40043, 34.519326], [135.402695, 34.525563], [135.40039, 34.527091]]]]}, "properties": {"N03_001": "大阪府", "N03_002": null, "N03_003": null, "N03_004": "泉大津市", "N03_005": null, "N03_007": "27206"}}, {"type": "Feature", "geometry": {"type": "Polygon", "coordinates": [[[135.582972, 34.835924], [135.586516, 34.825], [135.588558, 34.823132], [135.590178, 34.82165], [135.606203, 34.818464], [135.606303, 34.818444], [135.59857, 34.81264], [135.598412, 34.812521], [135.598377, 34.809796], [135.598225, 34.797938], [135.598068, 34.785784], [135.602063, 34.780774], [135.602275, 34.780508], [135.611924, 34.787614], [135.613354, 34.790711], [135.614466, 34.793118], [135.620584, 34.806361], [135.640326, 34.816128], [135.650093, 34.847599], [135.664402, 34.854554], [135.664746, 34.855192], [135.672756, 34.870031], [135.661066, 34.875178], [135.655071, 34.872476], [135.650272, 34.880898], [135.644836, 34.882657], [135.646378, 34.887143], [135.634667, 34.892308], [135.633534, 34.901857], [135.636501, 34.910249], [135.630096, 34.906915], [135.629075, 34.917931], [135.632844, 34.923754], [135.628301, 34.926229], [135.628108, 34.933733], [135.62375, 34.934908], [135.615199, 34.927625], [135.599322, 34.928292], [135.603439, 34.936034], [135.6062, 34.935043], [135.613149, 34.941704], [135.611523, 34.943898], [135.618706, 34.958136], [135.613264, 34.971195], [135.594761, 34.969711], [135.592365, 34.96604], [135.582552, 34.976756], [135.570927, 34.969788], [135.57134, 34.963647], [135.578288, 34.960587], [135.578578, 34.955885], [135.563131, 34.953664], [135.562383, 34.943756], [135.557187, 34.938692], [135.558371, 34.932771], [135.563083, 34.942192], [135.566017, 34.940128], [135.5628, 34.933418], [135.571916, 34.939082], [135.58172, 34.935807], [135.581258, 34.922452], [135.573116, 34.916831], [135.576562, 34.912608], [135.575259, 34.905707], [135.565781, 34.900034], [135.570993, 34.897839], [135.566444, 34.885474], [135.573769, 34.880905], [135.565463, 34.877058], [135.567027, 34.874899], [135.562648, 34.871863], [135.568691, 34.868558], [135.569278, 34.85954], [135.566701, 34.85676], [135.569719, 34.851344], [135.581868, 34.84717], [135.585639, 34.841492], [135.582972, 34.835924]]]}, "properties": {"N03_001": "大阪府", "N03_002": null, "N03_003": null, "N03_004": "高槻市", "N03_005": null, "N03_007": "27207"}}, {"type": "Feature", "geometry": {"type": "MultiPolygon", "coordinates": [[[[135.359418, 34.459799], [135.353444, 34.450844], [135.351364, 34.462779], [135.350218, 34.451885], [135.337155, 34.445764], [135.338123, 34.441963], [135.334066, 34.442295], [135.334462, 34.440361], [135.33418, 34.439792], [135.334477, 34.440285], [135.334815, 34.438632], [135.329311, 34.434522], [135.330203, 34.434033], [135.346892, 34.424893], [135.356406, 34.419683], [135.356189, 34.418582], [135.358197, 34.418325], [135.367504, 34.417137], [135.368067, 34.415079], [135.36644, 34.416543], [135.362363, 34.415561], [135.36886, 34.414275], [135.366658, 34.411619], [135.373924, 34.405552], [135.378641, 34.400169], [135.379391, 34.391113], [135.383808, 34.389069], [135.383929, 34.385207], [135.387974, 34.385566], [135.385117, 34.375065], [135.386968, 34.369571], [135.381992, 34.367149], [135.38761, 34.361598], [135.386509, 34.355715], [135.388314, 34.355428], [135.391196, 34.349492], [135.392057, 34.347719], [135.392273, 34.347276], [135.405469, 34.347134], [135.407544, 34.347112], [135.409221, 34.341938], [135.426823, 34.340932], [135.428697, 34.345563], [135.43429, 34.348226], [135.434129, 34.348812], [135.433331, 34.348963], [135.427093, 34.374362], [135.416464, 34.379413], [135.406907, 34.398762], [135.405577, 34.401455], [135.405325, 34.403816], [135.40527, 34.40434], [135.405215, 34.404852], [135.410992, 34.408876], [135.409259, 34.413552], [135.400643, 34.411127], [135.39698, 34.419082], [135.394747, 34.41635], [135.392229, 34.419916], [135.387856, 34.417656], [135.377795, 34.438135], [135.381213, 34.4454], [135.363728, 34.455915], [135.359418, 34.459799]]], [[[135.375175, 34.399214], [135.377448, 34.397969], [135.376417, 34.39903], [135.376122, 34.399334], [135.375066, 34.402174], [135.374821, 34.402835], [135.371702, 34.406225], [135.375175, 34.399214]]], [[[135.364865, 34.408485], [135.36505, 34.408362], [135.36544, 34.408798], [135.365354, 34.408898], [135.364865, 34.408485]]], [[[135.334002, 34.441985], [135.333965, 34.441998], [135.333913, 34.441895], [135.33395, 34.441882], [135.334002, 34.441985]]], [[[135.338975, 34.469275], [135.340787, 34.466929], [135.327073, 34.448426], [135.328618, 34.447411], [135.328281, 34.449937], [135.333009, 34.444727], [135.345969, 34.454686], [135.347208, 34.458686], [135.339075, 34.469298], [135.339012, 34.475594], [135.338975, 34.469275]]]]}, "properties": {"N03_001": "大阪府", "N03_002": null, "N03_003": null, "N03_004": "貝塚市", "N03_005": null, "N03_007": "27208"}}, {"type": "Feature", "geometry": {"type": "Polygon", "coordinates": [[[135.556449, 34.74606], [135.561037, 34.738969], [135.553401, 34.733095], [135.555118, 34.724813], [135.563641, 34.724783], [135.566558, 34.717382], [135.56665, 34.71715], [135.569901, 34.708902], [135.573998, 34.708888], [135.574006, 34.708928], [135.574817, 34.712948], [135.577612, 34.712764], [135.575052, 34.717406], [135.582306, 34.717031], [135.582291, 34.71833], [135.582231, 34.723338], [135.58426, 34.722371], [135.572723, 34.738903], [135.571814, 34.740207], [135.57548, 34.740178], [135.581321, 34.74777], [135.582816, 34.74761], [135.598667, 34.744751], [135.604501, 34.745294], [135.606647, 34.748753], [135.606062, 34.749465], [135.603861, 34.752141], [135.604503, 34.755805], [135.596962, 34.757021], [135.597189, 34.763069], [135.587006, 34.767522], [135.582937, 34.764278], [135.576911, 34.75922], [135.576381, 34.759051], [135.560529, 34.753992], [135.560333, 34.753612], [135.556461, 34.746084], [135.556449, 34.74606]]]}, "properties": {"N03_001": "大阪府", "N03_002": null, "N03_003": null, "N03_004": "守口市", "N03_005": null, "N03_007": "27209"}}, {"type": "Feature", "geometry": {"type": "Polygon", "coordinates": [[[135.613354, 34.790711], [135.614258, 34.791507], [135.629954, 34.790356], [135.631863, 34.785417], [135.648019, 34.783783], [135.652875, 34.773998], [135.65333, 34.773083], [135.659215, 34.774835], [135.65955, 34.774935], [135.671764, 34.778572], [135.671768, 34.778705], [135.671974, 34.785706], [135.66423, 34.795386], [135.665987, 34.797384], [135.676308, 34.80342], [135.685862, 34.799808], [135.687128, 34.799329], [135.688927, 34.799596], [135.707359, 34.798321], [135.708219, 34.798153], [135.714596, 34.793723], [135.716711, 34.785987], [135.711969, 34.781332], [135.721531, 34.774437], [135.740776, 34.788469], [135.739561, 34.791391], [135.746603, 34.801591], [135.732493, 34.822419], [135.724168, 34.823284], [135.707721, 34.849273], [135.702257, 34.85173], [135.694914, 34.848282], [135.690651, 34.856519], [135.694653, 34.861339], [135.691382, 34.861381], [135.691118, 34.868889], [135.682411, 34.872253], [135.683519, 34.877633], [135.679922, 34.881341], [135.665231, 34.855443], [135.664746, 34.855192], [135.664402, 34.854554], [135.650093, 34.847599], [135.640326, 34.816128], [135.620584, 34.806361], [135.614466, 34.793118], [135.613354, 34.790711]]]}, "properties": {"N03_001": "大阪府", "N03_002": null, "N03_003": null, "N03_004": "枚方市", "N03_005": null, "N03_007": "27210"}}, {"type": "Feature", "geometry": {"type": "MultiPolygon", "coordinates": [[[[135.526088, 34.834364], [135.526098, 34.833976], [135.524005, 34.8281], [135.523461, 34.826574], [135.522751, 34.82458], [135.529994, 34.816344], [135.549955, 34.809121], [135.554481, 34.806441], [135.551934, 34.793562], [135.56285, 34.792802], [135.562694, 34.783322], [135.56828, 34.785613], [135.56688, 34.775444], [135.598225, 34.797938], [135.598377, 34.809796], [135.598412, 34.812521], [135.59857, 34.81264], [135.606303, 34.818444], [135.606203, 34.818464], [135.590178, 34.82165], [135.588558, 34.823132], [135.586516, 34.825], [135.582972, 34.835924], [135.585639, 34.841492], [135.581868, 34.84717], [135.569719, 34.851344], [135.566701, 34.85676], [135.569278, 34.85954], [135.568691, 34.868558], [135.562648, 34.871863], [135.567027, 34.874899], [135.565463, 34.877058], [135.573769, 34.880905], [135.566444, 34.885474], [135.570993, 34.897839], [135.565781, 34.900034], [135.575259, 34.905707], [135.576562, 34.912608], [135.573116, 34.916831], [135.553408, 34.915536], [135.54947, 34.918554], [135.541314, 34.915226], [135.536065, 34.920469], [135.538146, 34.9254], [135.525377, 34.928802], [135.525329, 34.927981], [135.524871, 34.920136], [135.516804, 34.911229], [135.518085, 34.904618], [135.512483, 34.901917], [135.511791, 34.898249], [135.500598, 34.895958], [135.500627, 34.887929], [135.496185, 34.881556], [135.495901, 34.881148], [135.497912, 34.878108], [135.497951, 34.878049], [135.503254, 34.870032], [135.503327, 34.870103], [135.508534, 34.875186], [135.511726, 34.874362], [135.511805, 34.867867], [135.515888, 34.864056], [135.514386, 34.860167], [135.525286, 34.847608], [135.524939, 34.840859], [135.518574, 34.838921], [135.526088, 34.834364]]], [[[135.543526, 34.807118], [135.543522, 34.806968], [135.543511, 34.806528], [135.544625, 34.805864], [135.545746, 34.805197], [135.546078, 34.804999], [135.546043, 34.805437], [135.545858, 34.807776], [135.543531, 34.807311], [135.543526, 34.807118]]]]}, "properties": {"N03_001": "大阪府", "N03_002": null, "N03_003": null, "N03_004": "茨木市", "N03_005": null, "N03_007": "27211"}}, {"type": "Feature", "geometry": {"type": "Polygon", "coordinates": [[[135.575093, 34.632189], [135.574684, 34.632181], [135.575182, 34.618236], [135.562258, 34.622858], [135.561955, 34.616995], [135.572519, 34.613756], [135.573525, 34.617323], [135.576286, 34.611955], [135.58693, 34.60914], [135.587319, 34.604738], [135.581381, 34.602704], [135.581178, 34.601511], [135.579916, 34.594091], [135.576834, 34.593073], [135.585756, 34.590019], [135.585974, 34.589468], [135.587348, 34.585996], [135.598767, 34.586524], [135.605024, 34.583332], [135.610588, 34.58838], [135.60764, 34.588704], [135.607676, 34.591192], [135.618969, 34.592922], [135.622445, 34.595393], [135.620668, 34.59869], [135.637527, 34.599439], [135.648078, 34.599907], [135.648949, 34.599946], [135.649387, 34.60234], [135.650735, 34.609715], [135.659098, 34.614818], [135.664287, 34.643276], [135.663055, 34.643331], [135.66014, 34.642525], [135.634964, 34.644594], [135.631356, 34.640458], [135.631803, 34.644362], [135.625482, 34.644657], [135.625532, 34.650306], [135.617961, 34.650282], [135.617925, 34.647925], [135.616793, 34.650239], [135.594495, 34.650621], [135.595917, 34.641721], [135.585208, 34.639347], [135.588874, 34.632434], [135.575093, 34.632189]]]}, "properties": {"N03_001": "大阪府", "N03_002": null, "N03_003": null, "N03_004": "八尾市", "N03_005": null, "N03_007": "27212"}}, {"type": "Feature", "geometry": {"type": "MultiPolygon", "coordinates": [[[[135.338928, 34.335782], [135.338894, 34.334962], [135.3459, 34.330525], [135.35758, 34.333366], [135.362535, 34.328939], [135.374985, 34.331069], [135.380345, 34.328444], [135.39082, 34.33296], [135.396709, 34.330369], [135.40228, 34.332984], [135.40571, 34.334028], [135.409221, 34.341938], [135.407544, 34.347112], [135.405469, 34.347134], [135.392273, 34.347276], [135.392057, 34.347719], [135.391196, 34.349492], [135.388314, 34.355428], [135.386509, 34.355715], [135.380631, 34.356652], [135.381141, 34.363338], [135.370382, 34.364419], [135.355601, 34.37271], [135.354794, 34.379037], [135.348135, 34.38111], [135.347462, 34.381967], [135.336897, 34.396984], [135.33789, 34.406702], [135.347211, 34.410396], [135.353711, 34.406004], [135.355828, 34.416752], [135.356189, 34.418582], [135.356406, 34.419683], [135.346892, 34.424893], [135.330203, 34.434033], [135.329311, 34.434522], [135.3249, 34.436937], [135.321025, 34.433004], [135.328393, 34.429876], [135.325457, 34.426747], [135.322797, 34.424401], [135.320632, 34.425795], [135.323419, 34.428635], [135.31842, 34.431002], [135.313766, 34.426647], [135.319654, 34.420936], [135.317567, 34.422135], [135.318385, 34.420586], [135.31675, 34.419407], [135.314864, 34.422298], [135.309542, 34.417069], [135.306441, 34.419472], [135.31031, 34.423038], [135.302103, 34.415817], [135.293384, 34.414052], [135.292955, 34.407099], [135.288818, 34.403624], [135.296663, 34.39914], [135.297094, 34.392276], [135.300381, 34.390014], [135.297204, 34.389246], [135.297069, 34.385099], [135.296625, 34.384999], [135.295113, 34.386489], [135.289351, 34.384216], [135.289392, 34.383432], [135.289419, 34.38292], [135.289627, 34.37895], [135.305647, 34.382087], [135.313576, 34.376507], [135.325157, 34.363495], [135.32198, 34.355372], [135.326775, 34.350255], [135.329703, 34.339894], [135.329716, 34.339849], [135.339143, 34.341024], [135.338928, 34.335782]]], [[[135.313571, 34.421245], [135.313007, 34.421954], [135.311982, 34.421238], [135.312727, 34.421597], [135.312871, 34.421698], [135.313571, 34.421245]]], [[[135.314513, 34.423295], [135.313617, 34.422516], [135.31367, 34.422475], [135.314565, 34.423256], [135.314513, 34.423295]]], [[[135.325181, 34.430187], [135.325267, 34.430212], [135.325243, 34.430274], [135.325161, 34.430258], [135.325181, 34.430187]]], [[[135.3154, 34.433406], [135.317783, 34.435945], [135.315281, 34.433412], [135.316869, 34.431204], [135.3154, 34.433406]]], [[[135.257864, 34.44521], [135.255744, 34.446262], [135.254332, 34.445872], [135.241667, 34.437342], [135.252, 34.429855], [135.265161, 34.437508], [135.259594, 34.443453], [135.251833, 34.444147], [135.257864, 34.44521]]], [[[135.258904, 34.444153], [135.258892, 34.444078], [135.259563, 34.443476], [135.258904, 34.444153]]], [[[135.229325, 34.446049], [135.241667, 34.439671], [135.252415, 34.446927], [135.250641, 34.448744], [135.254214, 34.45114], [135.245459, 34.451269], [135.241583, 34.455224], [135.229325, 34.446049]]]]}, "properties": {"N03_001": "大阪府", "N03_002": null, "N03_003": null, "N03_004": "泉佐野市", "N03_005": null, "N03_007": "27213"}}, {"type": "Feature", "geometry": {"type": "Polygon", "coordinates": [[[135.566568, 34.513536], [135.560918, 34.511897], [135.560338, 34.511729], [135.560218, 34.509428], [135.559879, 34.50297], [135.559584, 34.497344], [135.559978, 34.496963], [135.560002, 34.495496], [135.562827, 34.492389], [135.558362, 34.489736], [135.558359, 34.489688], [135.558353, 34.489571], [135.558109, 34.484929], [135.55952, 34.481821], [135.559868, 34.479512], [135.559415, 34.479301], [135.561519, 34.47742], [135.562179, 34.47683], [135.574651, 34.476146], [135.582434, 34.46873], [135.582424, 34.468698], [135.582196, 34.468002], [135.577884, 34.454817], [135.583159, 34.453334], [135.583389, 34.449104], [135.595477, 34.440707], [135.603457, 34.439637], [135.603754, 34.439598], [135.609611, 34.445487], [135.616111, 34.452023], [135.615944, 34.458995], [135.617852, 34.462291], [135.61573, 34.467966], [135.615624, 34.472393], [135.615817, 34.472931], [135.617226, 34.476843], [135.617414, 34.477365], [135.617319, 34.477467], [135.612636, 34.482506], [135.612981, 34.490339], [135.617933, 34.490065], [135.617988, 34.490128], [135.618096, 34.490248], [135.620249, 34.492664], [135.62707, 34.48624], [135.627703, 34.497942], [135.621933, 34.500129], [135.618194, 34.508565], [135.62019, 34.514229], [135.62058, 34.514806], [135.621959, 34.516845], [135.621383, 34.522554], [135.627245, 34.521997], [135.627137, 34.525451], [135.626543, 34.525546], [135.58907, 34.5315], [135.587198, 34.531798], [135.587077, 34.531575], [135.584343, 34.526513], [135.585475, 34.519126], [135.580768, 34.51736], [135.582058, 34.510554], [135.566609, 34.513548], [135.566568, 34.513536]]]}, "properties": {"N03_001": "大阪府", "N03_002": null, "N03_003": null, "N03_004": "富田林市", "N03_005": null, "N03_007": "27214"}}, {"type": "Feature", "geometry": {"type": "MultiPolygon", "coordinates": [[[[135.620765, 34.729108], [135.622704, 34.728982], [135.633581, 34.728274], [135.633693, 34.728267], [135.633139, 34.729333], [135.631955, 34.732162], [135.631662, 34.732174], [135.630646, 34.734128], [135.625506, 34.734211], [135.625196, 34.734323], [135.625596, 34.737279], [135.630515, 34.749656], [135.650834, 34.749761], [135.657384, 34.746444], [135.657462, 34.746404], [135.657497, 34.746605], [135.658846, 34.754248], [135.658013, 34.757738], [135.660388, 34.762993], [135.661422, 34.768852], [135.659947, 34.773647], [135.65955, 34.774935], [135.659215, 34.774835], [135.65333, 34.773083], [135.652875, 34.773998], [135.648019, 34.783783], [135.631863, 34.785417], [135.629954, 34.790356], [135.614258, 34.791507], [135.613354, 34.790711], [135.611924, 34.787614], [135.602275, 34.780508], [135.602063, 34.780774], [135.591196, 34.77121], [135.587006, 34.767522], [135.597189, 34.763069], [135.596962, 34.757021], [135.604503, 34.755805], [135.603861, 34.752141], [135.606062, 34.749465], [135.606647, 34.748753], [135.608418, 34.746599], [135.610575, 34.745931], [135.620382, 34.742894], [135.622082, 34.732707], [135.620765, 34.729108]], [[135.626791, 34.733747], [135.626405, 34.733886], [135.626344, 34.73389], [135.626229, 34.734094], [135.629484, 34.733992], [135.62953, 34.733687], [135.626791, 34.733747]]], [[[135.662338, 34.751603], [135.661991, 34.751292], [135.662477, 34.751141], [135.662538, 34.751173], [135.662464, 34.751449], [135.662391, 34.751586], [135.662338, 34.751603]]], [[[135.661184, 34.75257], [135.661063, 34.752505], [135.66111, 34.752366], [135.661226, 34.752029], [135.661442, 34.752013], [135.661977, 34.752252], [135.662018, 34.75242], [135.661695, 34.752571], [135.661238, 34.752599], [135.661184, 34.75257]]]]}, "properties": {"N03_001": "大阪府", "N03_002": null, "N03_003": null, "N03_004": "寝屋川市", "N03_005": null, "N03_007": "27215"}}, {"type": "Feature", "geometry": {"type": "Polygon", "coordinates": [[[135.48545, 34.362692], [135.487983, 34.357879], [135.501745, 34.350202], [135.504895, 34.341217], [135.502351, 34.338091], [135.507821, 34.336497], [135.539705, 34.357505], [135.554672, 34.359531], [135.563403, 34.369329], [135.577121, 34.376049], [135.593139, 34.374834], [135.597678, 34.380397], [135.613703, 34.376631], [135.619911, 34.384483], [135.636358, 34.381485], [135.653831, 34.383347], [135.663382, 34.396541], [135.656127, 34.395966], [135.655655, 34.395929], [135.656209, 34.399169], [135.651541, 34.400859], [135.637088, 34.420067], [135.626094, 34.421028], [135.61547, 34.430671], [135.611304, 34.431264], [135.605407, 34.435345], [135.602844, 34.438632], [135.603457, 34.439637], [135.595477, 34.440707], [135.583389, 34.449104], [135.583159, 34.453334], [135.577884, 34.454817], [135.582196, 34.468002], [135.582424, 34.468698], [135.582434, 34.46873], [135.574651, 34.476146], [135.562179, 34.47683], [135.561519, 34.47742], [135.559415, 34.479301], [135.558925, 34.479738], [135.554092, 34.476825], [135.553085, 34.471928], [135.542061, 34.466504], [135.545313, 34.461963], [135.521595, 34.438742], [135.519817, 34.437001], [135.518874, 34.431896], [135.519322, 34.4315], [135.51898, 34.430409], [135.52096, 34.430048], [135.524889, 34.426568], [135.526957, 34.413929], [135.519312, 34.396593], [135.519486, 34.392776], [135.517135, 34.38612], [135.514802, 34.384151], [135.50409, 34.381857], [135.503934, 34.381586], [135.503669, 34.381585], [135.500343, 34.375376], [135.491013, 34.373136], [135.489392, 34.365619], [135.485376, 34.362832], [135.48545, 34.362692]]]}, "properties": {"N03_001": "大阪府", "N03_002": null, "N03_003": null, "N03_004": "河内長野市", "N03_005": null, "N03_007": "27216"}}, {"type": "Feature", "geometry": {"type": "Polygon", "coordinates": [[[135.522503, 34.594577], [135.522483, 34.594568], [135.52199, 34.594335], [135.521007, 34.589839], [135.522425, 34.576656], [135.53176, 34.576641], [135.537261, 34.565588], [135.548047, 34.564919], [135.548099, 34.559574], [135.548111, 34.558279], [135.548118, 34.557572], [135.553186, 34.553898], [135.556514, 34.554106], [135.561548, 34.554422], [135.561058, 34.560029], [135.567202, 34.560009], [135.567258, 34.560117], [135.566532, 34.561435], [135.569776, 34.56496], [135.567194, 34.576687], [135.576504, 34.577411], [135.579128, 34.582013], [135.580805, 34.581836], [135.581614, 34.582669], [135.582158, 34.583229], [135.584185, 34.587054], [135.585974, 34.589468], [135.585756, 34.590019], [135.576834, 34.593073], [135.579916, 34.594091], [135.571965, 34.593977], [135.571771, 34.594033], [135.571751, 34.593974], [135.571689, 34.593792], [135.570085, 34.589069], [135.56716, 34.595536], [135.543578, 34.595195], [135.543472, 34.599094], [135.543463, 34.599424], [135.543437, 34.599423], [135.531968, 34.598679], [135.530525, 34.590918], [135.526368, 34.5964], [135.522503, 34.594577]]]}, "properties": {"N03_001": "大阪府", "N03_002": null, "N03_003": null, "N03_004": "松原市", "N03_005": null, "N03_007": "27217"}}, {"type": "Feature", "geometry": {"type": "Polygon", "coordinates": [[[135.601418, 34.716162], [135.599626, 34.714751], [135.597039, 34.706932], [135.590308, 34.707695], [135.594397, 34.703193], [135.594994, 34.703499], [135.59677, 34.70058], [135.605596, 34.701506], [135.607869, 34.698201], [135.618786, 34.695964], [135.617836, 34.700984], [135.62655, 34.701133], [135.627041, 34.704445], [135.633855, 34.698723], [135.638805, 34.699449], [135.639052, 34.702028], [135.652199, 34.702561], [135.652791, 34.702585], [135.663373, 34.698878], [135.672866, 34.701148], [135.672889, 34.70005], [135.673136, 34.700081], [135.673583, 34.702286], [135.673082, 34.701771], [135.673553, 34.713984], [135.67268, 34.715319], [135.65718, 34.722169], [135.656767, 34.727887], [135.653401, 34.726924], [135.646864, 34.731549], [135.631955, 34.732162], [135.633139, 34.729333], [135.633693, 34.728267], [135.633581, 34.728274], [135.622704, 34.728982], [135.622705, 34.728973], [135.620765, 34.729108], [135.623923, 34.721678], [135.619645, 34.71889], [135.608943, 34.722086], [135.601418, 34.716162]]]}, "properties": {"N03_001": "大阪府", "N03_002": null, "N03_003": null, "N03_004": "大東市", "N03_005": null, "N03_007": "27218"}}, {"type": "Feature", "geometry": {"type": "MultiPolygon", "coordinates": [[[[135.454945, 34.351461], [135.453128, 34.349861], [135.465705, 34.347335], [135.477663, 34.353435], [135.479288, 34.358116], [135.48545, 34.362692], [135.485376, 34.362832], [135.489392, 34.365619], [135.491013, 34.373136], [135.500343, 34.375376], [135.503669, 34.381585], [135.503934, 34.381586], [135.50409, 34.381857], [135.514802, 34.384151], [135.517135, 34.38612], [135.519486, 34.392776], [135.519312, 34.396593], [135.526957, 34.413929], [135.524889, 34.426568], [135.52096, 34.430048], [135.51898, 34.430409], [135.500511, 34.43378], [135.494516, 34.455918], [135.478072, 34.465596], [135.475712, 34.469321], [135.478201, 34.470904], [135.471913, 34.476334], [135.471768, 34.480999], [135.466137, 34.483072], [135.466032, 34.500455], [135.466015, 34.503275], [135.464782, 34.50162], [135.46417, 34.500799], [135.461318, 34.496973], [135.46113, 34.496869], [135.463301, 34.506592], [135.459474, 34.511529], [135.456473, 34.515401], [135.455127, 34.514766], [135.454075, 34.51427], [135.447753, 34.511287], [135.43338, 34.513979], [135.433118, 34.513461], [135.431988, 34.511224], [135.435067, 34.508942], [135.423937, 34.500678], [135.425561, 34.499555], [135.428869, 34.491401], [135.416331, 34.488048], [135.415463, 34.482546], [135.415305, 34.48154], [135.418377, 34.478265], [135.418624, 34.478002], [135.416705, 34.475526], [135.415199, 34.473685], [135.415081, 34.473541], [135.418274, 34.470904], [135.424291, 34.466336], [135.424341, 34.466298], [135.429516, 34.470301], [135.433775, 34.467077], [135.441926, 34.460674], [135.440151, 34.450854], [135.443824, 34.435412], [135.448811, 34.432357], [135.451572, 34.423796], [135.449609, 34.414916], [135.455478, 34.405691], [135.449776, 34.3912], [135.449859, 34.391144], [135.450239, 34.390887], [135.457591, 34.385922], [135.463364, 34.378375], [135.463551, 34.377934], [135.45631, 34.367166], [135.454342, 34.358506], [135.456337, 34.354348], [135.456341, 34.35269], [135.454945, 34.351461]]], [[[135.431386, 34.511063], [135.431215, 34.511497], [135.431093, 34.511807], [135.430858, 34.511603], [135.429729, 34.510619], [135.430332, 34.510156], [135.431388, 34.511058], [135.431386, 34.511063]]]]}, "properties": {"N03_001": "大阪府", "N03_002": null, "N03_003": null, "N03_004": "和泉市", "N03_005": null, "N03_007": "27219"}}, {"type": "Feature", "geometry": {"type": "Polygon", "coordinates": [[[135.448203, 34.810455], [135.448172, 34.80981], [135.448107, 34.808427], [135.453424, 34.807201], [135.45347, 34.80723], [135.454898, 34.808116], [135.475397, 34.820838], [135.475881, 34.821042], [135.479062, 34.820169], [135.490647, 34.816989], [135.491398, 34.816783], [135.494182, 34.820972], [135.497654, 34.824884], [135.497739, 34.82477], [135.500435, 34.830223], [135.522088, 34.825896], [135.522802, 34.826717], [135.523435, 34.826616], [135.523461, 34.826574], [135.524005, 34.8281], [135.526098, 34.833976], [135.526088, 34.834364], [135.518574, 34.838921], [135.524939, 34.840859], [135.525286, 34.847608], [135.514386, 34.860167], [135.515888, 34.864056], [135.511805, 34.867867], [135.511726, 34.874362], [135.508534, 34.875186], [135.503327, 34.870103], [135.503254, 34.870032], [135.497951, 34.878049], [135.497912, 34.878108], [135.494046, 34.879523], [135.493912, 34.879413], [135.493799, 34.879451], [135.486426, 34.873885], [135.481985, 34.874789], [135.477702, 34.889955], [135.487226, 34.895785], [135.486929, 34.898416], [135.475801, 34.903322], [135.472278, 34.910335], [135.472012, 34.910866], [135.46571, 34.909521], [135.463763, 34.903179], [135.458256, 34.901802], [135.457731, 34.897036], [135.445851, 34.895559], [135.444754, 34.895423], [135.4378, 34.88173], [135.438181, 34.876793], [135.438371, 34.874332], [135.441506, 34.874342], [135.453682, 34.865365], [135.459368, 34.860327], [135.459936, 34.844459], [135.453734, 34.842777], [135.450331, 34.824711], [135.451987, 34.81898], [135.4485, 34.816741], [135.448484, 34.816403], [135.448398, 34.814575], [135.448218, 34.810767], [135.448203, 34.810455]]]}, "properties": {"N03_001": "大阪府", "N03_002": null, "N03_003": null, "N03_004": "箕面市", "N03_005": null, "N03_007": "27220"}}, {"type": "Feature", "geometry": {"type": "Polygon", "coordinates": [[[135.610588, 34.58838], [135.611604, 34.588268], [135.614403, 34.586368], [135.614343, 34.584886], [135.625599, 34.578769], [135.627465, 34.577502], [135.62441, 34.573143], [135.622068, 34.569801], [135.621992, 34.569693], [135.621995, 34.568868], [135.621639, 34.564278], [135.622039, 34.558364], [135.622363, 34.553577], [135.629587, 34.551725], [135.629725, 34.551728], [135.636553, 34.557437], [135.636167, 34.550833], [135.636275, 34.55077], [135.651396, 34.548585], [135.652324, 34.547758], [135.654393, 34.547506], [135.656923, 34.56228], [135.672994, 34.57063], [135.671545, 34.579911], [135.681233, 34.583245], [135.67708, 34.589201], [135.679151, 34.591166], [135.675694, 34.601739], [135.654054, 34.603076], [135.651793, 34.60681], [135.649387, 34.60234], [135.648949, 34.599946], [135.648078, 34.599907], [135.637527, 34.599439], [135.620668, 34.59869], [135.622445, 34.595393], [135.618969, 34.592922], [135.607676, 34.591192], [135.60764, 34.588704], [135.610588, 34.58838]]]}, "properties": {"N03_001": "大阪府", "N03_002": null, "N03_003": null, "N03_004": "柏原市", "N03_005": null, "N03_007": "27221"}}, {"type": "Feature", "geometry": {"type": "MultiPolygon", "coordinates": [[[[135.587077, 34.531575], [135.587198, 34.531798], [135.58907, 34.5315], [135.626543, 34.525546], [135.627137, 34.525451], [135.643024, 34.530234], [135.647104, 34.534641], [135.651822, 34.533939], [135.651991, 34.533914], [135.660143, 34.541071], [135.659497, 34.543891], [135.653355, 34.541469], [135.650314, 34.543987], [135.653187, 34.54699], [135.652324, 34.547758], [135.651396, 34.548585], [135.636275, 34.55077], [135.636167, 34.550833], [135.636553, 34.557437], [135.629725, 34.551728], [135.629587, 34.551725], [135.622363, 34.553577], [135.622039, 34.558364], [135.621639, 34.564278], [135.61518, 34.562853], [135.604215, 34.565945], [135.604992, 34.55902], [135.601193, 34.553631], [135.600923, 34.553692], [135.59658, 34.557921], [135.595637, 34.560946], [135.592444, 34.56195], [135.595976, 34.561443], [135.596372, 34.563805], [135.590865, 34.563116], [135.588857, 34.569498], [135.587274, 34.574533], [135.586087, 34.578306], [135.585119, 34.581384], [135.582668, 34.581641], [135.581614, 34.582669], [135.580805, 34.581836], [135.579128, 34.582013], [135.576504, 34.577411], [135.567194, 34.576687], [135.569776, 34.56496], [135.566532, 34.561435], [135.567258, 34.560117], [135.567975, 34.558817], [135.568172, 34.558459], [135.567404, 34.548709], [135.574942, 34.545759], [135.575572, 34.545042], [135.5747, 34.543184], [135.582009, 34.537718], [135.581534, 34.533885], [135.587077, 34.531575]]], [[[135.578009, 34.534371], [135.580503, 34.534884], [135.580005, 34.538347], [135.579378, 34.535284], [135.57772, 34.534312], [135.578009, 34.534371]]]]}, "properties": {"N03_001": "大阪府", "N03_002": null, "N03_003": null, "N03_004": "羽曳野市", "N03_005": null, "N03_007": "27222"}}, {"type": "Feature", "geometry": {"type": "MultiPolygon", "coordinates": [[[[135.601418, 34.716162], [135.608943, 34.722086], [135.619645, 34.71889], [135.623923, 34.721678], [135.620765, 34.729108], [135.622082, 34.732707], [135.620382, 34.742894], [135.610575, 34.745931], [135.608418, 34.746599], [135.606647, 34.748753], [135.604501, 34.745294], [135.598667, 34.744751], [135.582816, 34.74761], [135.581321, 34.74777], [135.57548, 34.740178], [135.571814, 34.740207], [135.572723, 34.738903], [135.58426, 34.722371], [135.582231, 34.723338], [135.587235, 34.718254], [135.58729, 34.710998], [135.587292, 34.710754], [135.590485, 34.711977], [135.601418, 34.716162]]], [[[135.620765, 34.729108], [135.622705, 34.728973], [135.622704, 34.728982], [135.620765, 34.729108]]]]}, "properties": {"N03_001": "大阪府", "N03_002": null, "N03_003": null, "N03_004": "門真市", "N03_005": null, "N03_007": "27223"}}, {"type": "Feature", "geometry": {"type": "MultiPolygon", "coordinates": [[[[135.549057, 34.767529], [135.549937, 34.76467], [135.550764, 34.757152], [135.558254, 34.756904], [135.560529, 34.753992], [135.576381, 34.759051], [135.576911, 34.75922], [135.582937, 34.764278], [135.587006, 34.767522], [135.591196, 34.77121], [135.602063, 34.780774], [135.598068, 34.785784], [135.598225, 34.797938], [135.56688, 34.775444], [135.56828, 34.785613], [135.562694, 34.783322], [135.56285, 34.792802], [135.551934, 34.793562], [135.538374, 34.786903], [135.551309, 34.768939], [135.5512, 34.768918], [135.551309, 34.768789], [135.550279, 34.768742], [135.548773, 34.768453], [135.549057, 34.767529]]], [[[135.553673, 34.756102], [135.553579, 34.756055], [135.553468, 34.755999], [135.553623, 34.7559], [135.554158, 34.755554], [135.555527, 34.755332], [135.553699, 34.756115], [135.553673, 34.756102]]]]}, "properties": {"N03_001": "大阪府", "N03_002": null, "N03_003": null, "N03_004": "摂津市", "N03_005": null, "N03_007": "27224"}}, {"type": "Feature", "geometry": {"type": "MultiPolygon", "coordinates": [[[[135.437697, 34.54106], [135.431753, 34.530854], [135.418876, 34.519482], [135.423945, 34.514959], [135.426818, 34.512737], [135.431742, 34.516652], [135.43338, 34.513979], [135.447753, 34.511287], [135.454075, 34.51427], [135.455127, 34.514766], [135.454289, 34.515784], [135.456566, 34.517419], [135.459495, 34.519522], [135.457074, 34.523117], [135.456086, 34.524444], [135.445739, 34.526003], [135.451319, 34.530406], [135.446309, 34.530897], [135.446089, 34.536879], [135.437697, 34.54106]]], [[[135.426403, 34.547021], [135.426248, 34.54709], [135.420232, 34.537978], [135.405262, 34.547234], [135.4, 34.537959], [135.401094, 34.534258], [135.407386, 34.535038], [135.404599, 34.530136], [135.417715, 34.524242], [135.42191, 34.525123], [135.436364, 34.542583], [135.426402, 34.54702], [135.426403, 34.547021]]], [[[135.40039, 34.527091], [135.401109, 34.52742], [135.394642, 34.532491], [135.393845, 34.531429], [135.40039, 34.527091]]]]}, "properties": {"N03_001": "大阪府", "N03_002": null, "N03_003": null, "N03_004": "高石市", "N03_005": null, "N03_007": "27225"}}, {"type": "Feature", "geometry": {"type": "Polygon", "coordinates": [[[135.585974, 34.589468], [135.584185, 34.587054], [135.582158, 34.583229], [135.581614, 34.582669], [135.582668, 34.581641], [135.585119, 34.581384], [135.586087, 34.578306], [135.587274, 34.574533], [135.588857, 34.569498], [135.590865, 34.563116], [135.596372, 34.563805], [135.595976, 34.561443], [135.592444, 34.56195], [135.595637, 34.560946], [135.59658, 34.557921], [135.600923, 34.553692], [135.601193, 34.553631], [135.604992, 34.55902], [135.604215, 34.565945], [135.61518, 34.562853], [135.621639, 34.564278], [135.621995, 34.568868], [135.621992, 34.569693], [135.622068, 34.569801], [135.62441, 34.573143], [135.627465, 34.577502], [135.625599, 34.578769], [135.614343, 34.584886], [135.614403, 34.586368], [135.611604, 34.588268], [135.610588, 34.58838], [135.605024, 34.583332], [135.598767, 34.586524], [135.587348, 34.585996], [135.585974, 34.589468]]]}, "properties": {"N03_001": "大阪府", "N03_002": null, "N03_003": null, "N03_004": "藤井寺市", "N03_005": null, "N03_007": "27226"}}, {"type": "Feature", "geometry": {"type": "Polygon", "coordinates": [[[135.557928, 34.663255], [135.563899, 34.658209], [135.558559, 34.655829], [135.561965, 34.652793], [135.561143, 34.643551], [135.561291, 34.640842], [135.566238, 34.638982], [135.568579, 34.634364], [135.574684, 34.632181], [135.575093, 34.632189], [135.588874, 34.632434], [135.585208, 34.639347], [135.595917, 34.641721], [135.594495, 34.650621], [135.616793, 34.650239], [135.617925, 34.647925], [135.617961, 34.650282], [135.625532, 34.650306], [135.625482, 34.644657], [135.631803, 34.644362], [135.631356, 34.640458], [135.634964, 34.644594], [135.66014, 34.642525], [135.663055, 34.643331], [135.665375, 34.643973], [135.664321, 34.651295], [135.678705, 34.677759], [135.678378, 34.683169], [135.673098, 34.690146], [135.672889, 34.70005], [135.672866, 34.701148], [135.663373, 34.698878], [135.652791, 34.702585], [135.652199, 34.702561], [135.639052, 34.702028], [135.638805, 34.699449], [135.633855, 34.698723], [135.627041, 34.704445], [135.62655, 34.701133], [135.617836, 34.700984], [135.618786, 34.695964], [135.607869, 34.698201], [135.605596, 34.701506], [135.59677, 34.70058], [135.594994, 34.703499], [135.594397, 34.703193], [135.581962, 34.696806], [135.578928, 34.689576], [135.569544, 34.688172], [135.565638, 34.687752], [135.565635, 34.687735], [135.562203, 34.667914], [135.557418, 34.668063], [135.557058, 34.663991], [135.557928, 34.663255]]]}, "properties": {"N03_001": "大阪府", "N03_002": null, "N03_003": null, "N03_004": "東大阪市", "N03_005": null, "N03_007": "27227"}}, {"type": "Feature", "geometry": {"type": "MultiPolygon", "coordinates": [[[[135.2729, 34.333212], [135.279512, 34.326449], [135.287883, 34.304902], [135.292914, 34.299244], [135.302537, 34.304664], [135.303968, 34.313715], [135.311354, 34.313576], [135.324199, 34.319132], [135.330507, 34.316746], [135.328028, 34.324029], [135.339136, 34.32943], [135.337529, 34.334971], [135.338928, 34.335782], [135.339143, 34.341024], [135.329716, 34.339849], [135.329703, 34.339894], [135.326775, 34.350255], [135.32198, 34.355372], [135.325157, 34.363495], [135.313576, 34.376507], [135.305647, 34.382087], [135.289627, 34.37895], [135.289419, 34.38292], [135.289392, 34.383432], [135.285248, 34.383819], [135.28255, 34.390044], [135.282542, 34.390059], [135.284121, 34.390656], [135.280038, 34.394932], [135.279247, 34.395761], [135.26379, 34.381079], [135.256936, 34.381032], [135.259894, 34.382967], [135.259327, 34.383161], [135.250704, 34.376963], [135.25359, 34.374541], [135.250324, 34.3743], [135.249291, 34.36815], [135.250222, 34.363747], [135.250436, 34.362735], [135.250492, 34.362468], [135.259694, 34.356953], [135.272782, 34.333333], [135.2729, 34.333212]]], [[[135.230447, 34.429819], [135.219123, 34.422224], [135.227687, 34.413476], [135.231341, 34.415948], [135.24034, 34.422895], [135.230462, 34.429829], [135.230447, 34.429819]]], [[[135.228881, 34.430915], [135.228891, 34.430926], [135.221773, 34.435904], [135.218049, 34.438496], [135.201165, 34.428092], [135.209013, 34.420082], [135.206171, 34.423107], [135.221626, 34.433487], [135.22675, 34.428588], [135.228881, 34.430915]]]]}, "properties": {"N03_001": "大阪府", "N03_002": null, "N03_003": null, "N03_004": "泉南市", "N03_005": null, "N03_007": "27228"}}, {"type": "Feature", "geometry": {"type": "MultiPolygon", "coordinates": [[[[135.631955, 34.732162], [135.646864, 34.731549], [135.653401, 34.726924], [135.656767, 34.727887], [135.65718, 34.722169], [135.67268, 34.715319], [135.673553, 34.713984], [135.673082, 34.701771], [135.673583, 34.702286], [135.681543, 34.710457], [135.687606, 34.711383], [135.704136, 34.723781], [135.696828, 34.743882], [135.684379, 34.74205], [135.682586, 34.745474], [135.67561, 34.745], [135.668547, 34.74452], [135.659872, 34.749978], [135.657497, 34.746605], [135.657462, 34.746404], [135.657384, 34.746444], [135.650834, 34.749761], [135.630515, 34.749656], [135.625596, 34.737279], [135.625196, 34.734323], [135.625506, 34.734211], [135.630646, 34.734128], [135.631662, 34.732174], [135.631955, 34.732162]]], [[[135.626791, 34.733747], [135.62953, 34.733687], [135.629484, 34.733992], [135.626229, 34.734094], [135.626344, 34.73389], [135.626405, 34.733886], [135.626791, 34.733747]]]]}, "properties": {"N03_001": "大阪府", "N03_002": null, "N03_003": null, "N03_004": "四條畷市", "N03_005": null, "N03_007": "27229"}}, {"type": "Feature", "geometry": {"type": "Polygon", "coordinates": [[[135.65955, 34.774935], [135.659947, 34.773647], [135.661422, 34.768852], [135.660388, 34.762993], [135.658013, 34.757738], [135.658846, 34.754248], [135.657497, 34.746605], [135.659872, 34.749978], [135.668547, 34.74452], [135.67561, 34.745], [135.682586, 34.745474], [135.684379, 34.74205], [135.698336, 34.744541], [135.697828, 34.749474], [135.700842, 34.750803], [135.706802, 34.748646], [135.710296, 34.754289], [135.710042, 34.771514], [135.706593, 34.772451], [135.709749, 34.780372], [135.716711, 34.785987], [135.714596, 34.793723], [135.708219, 34.798153], [135.707359, 34.798321], [135.688927, 34.799596], [135.687128, 34.799329], [135.685862, 34.799808], [135.676308, 34.80342], [135.665987, 34.797384], [135.66423, 34.795386], [135.671974, 34.785706], [135.671768, 34.778705], [135.671764, 34.778572], [135.65955, 34.774935]], [[135.662338, 34.751603], [135.662391, 34.751586], [135.662464, 34.751449], [135.662538, 34.751173], [135.662477, 34.751141], [135.661991, 34.751292], [135.662338, 34.751603]], [[135.661184, 34.75257], [135.661238, 34.752599], [135.661695, 34.752571], [135.662018, 34.75242], [135.661977, 34.752252], [135.661442, 34.752013], [135.661226, 34.752029], [135.66111, 34.752366], [135.661063, 34.752505], [135.661184, 34.75257]]]}, "properties": {"N03_001": "大阪府", "N03_002": null, "N03_003": null, "N03_004": "交野市", "N03_005": null, "N03_007": "27230"}}, {"type": "Feature", "geometry": {"type": "Polygon", "coordinates": [[[135.533569, 34.514194], [135.532644, 34.514611], [135.539706, 34.501087], [135.539444, 34.500517], [135.539853, 34.499958], [135.533572, 34.487719], [135.537701, 34.472519], [135.538561, 34.469352], [135.545313, 34.461963], [135.542061, 34.466504], [135.553085, 34.471928], [135.554092, 34.476825], [135.558925, 34.479738], [135.559415, 34.479301], [135.559868, 34.479512], [135.55952, 34.481821], [135.558109, 34.484929], [135.558353, 34.489571], [135.558359, 34.489688], [135.558362, 34.489736], [135.562827, 34.492389], [135.560002, 34.495496], [135.559978, 34.496963], [135.559584, 34.497344], [135.559879, 34.50297], [135.560218, 34.509428], [135.560338, 34.511729], [135.560918, 34.511897], [135.566568, 34.513536], [135.566537, 34.513542], [135.566406, 34.513826], [135.565321, 34.516187], [135.558748, 34.529066], [135.557493, 34.528975], [135.554723, 34.528775], [135.55486, 34.528645], [135.55502, 34.517991], [135.546384, 34.518008], [135.542851, 34.510012], [135.533569, 34.514194]]]}, "properties": {"N03_001": "大阪府", "N03_002": null, "N03_003": null, "N03_004": "大阪狭山市", "N03_005": null, "N03_007": "27231"}}, {"type": "Feature", "geometry": {"type": "MultiPolygon", "coordinates": [[[[135.25359, 34.374541], [135.248832, 34.376999], [135.241023, 34.368482], [135.243086, 34.366689], [135.23923, 34.366416], [135.240257, 34.367401], [135.241084, 34.369411], [135.240418, 34.368925], [135.223671, 34.347816], [135.193124, 34.338132], [135.188132, 34.331889], [135.192793, 34.328924], [135.194228, 34.322384], [135.188481, 34.319325], [135.192669, 34.311771], [135.201798, 34.312379], [135.203609, 34.308688], [135.207679, 34.309201], [135.207896, 34.307692], [135.219661, 34.304957], [135.225006, 34.300861], [135.235523, 34.303636], [135.248959, 34.314373], [135.257924, 34.315679], [135.261666, 34.312541], [135.272283, 34.311984], [135.281906, 34.317045], [135.279512, 34.326449], [135.2729, 34.333212], [135.272782, 34.333333], [135.259694, 34.356953], [135.250492, 34.362468], [135.250436, 34.362735], [135.250222, 34.363747], [135.249291, 34.36815], [135.250324, 34.3743], [135.25359, 34.374541]]], [[[135.194054, 34.338544], [135.194002, 34.339179], [135.193812, 34.338629], [135.193619, 34.338544], [135.193336, 34.33898], [135.192862, 34.338626], [135.193289, 34.338444], [135.194054, 34.338544]]], [[[135.227243, 34.353278], [135.227218, 34.353293], [135.22704, 34.353054], [135.227243, 34.353278]]]]}, "properties": {"N03_001": "大阪府", "N03_002": null, "N03_003": null, "N03_004": "阪南市", "N03_005": null, "N03_007": "27232"}}, {"type": "Feature", "geometry": {"type": "Polygon", "coordinates": [[[135.672756, 34.870031], [135.682694, 34.887842], [135.671384, 34.902385], [135.665616, 34.904425], [135.663908, 34.902176], [135.663712, 34.905146], [135.648502, 34.909547], [135.648162, 34.916401], [135.653485, 34.916836], [135.649289, 34.925348], [135.629028, 34.935004], [135.628301, 34.926229], [135.632844, 34.923754], [135.629075, 34.917931], [135.630096, 34.906915], [135.636501, 34.910249], [135.633534, 34.901857], [135.634667, 34.892308], [135.646378, 34.887143], [135.644836, 34.882657], [135.650272, 34.880898], [135.655071, 34.872476], [135.661066, 34.875178], [135.672756, 34.870031]]]}, "properties": {"N03_001": "大阪府", "N03_002": null, "N03_003": "三島郡", "N03_004": "島本町", "N03_005": null, "N03_007": "27301"}}, {"type": "Feature", "geometry": {"type": "Polygon", "coordinates": [[[135.525329, 34.927981], [135.521136, 34.933539], [135.516957, 34.933833], [135.514594, 34.94412], [135.504198, 34.946398], [135.499675, 34.941345], [135.494355, 34.940855], [135.484626, 34.947409], [135.484157, 34.947146], [135.484911, 34.946401], [135.479034, 34.944271], [135.475153, 34.930541], [135.475055, 34.930502], [135.474543, 34.930303], [135.471781, 34.929227], [135.467419, 34.928031], [135.468588, 34.925538], [135.463726, 34.918371], [135.439303, 34.920504], [135.418941, 34.909539], [135.423417, 34.906443], [135.427204, 34.906046], [135.432609, 34.891739], [135.443579, 34.898939], [135.445851, 34.895559], [135.457731, 34.897036], [135.458256, 34.901802], [135.463763, 34.903179], [135.46571, 34.909521], [135.472012, 34.910866], [135.472278, 34.910335], [135.475801, 34.903322], [135.486929, 34.898416], [135.487226, 34.895785], [135.477702, 34.889955], [135.481985, 34.874789], [135.486426, 34.873885], [135.493799, 34.879451], [135.493912, 34.879413], [135.494046, 34.879523], [135.497912, 34.878108], [135.495901, 34.881148], [135.496185, 34.881556], [135.500627, 34.887929], [135.500598, 34.895958], [135.511791, 34.898249], [135.512483, 34.901917], [135.518085, 34.904618], [135.516804, 34.911229], [135.524871, 34.920136], [135.525329, 34.927981]]]}, "properties": {"N03_001": "大阪府", "N03_002": null, "N03_003": "豊能郡", "N03_004": "豊能町", "N03_005": null, "N03_007": "27321"}}, {"type": "Feature", "geometry": {"type": "Polygon", "coordinates": [[[135.484157, 34.947146], [135.480874, 34.950397], [135.487329, 34.957168], [135.481166, 34.962399], [135.481936, 34.96523], [135.487122, 34.966771], [135.486252, 34.963923], [135.490916, 34.968022], [135.488263, 34.967294], [135.483163, 34.981868], [135.493598, 34.988516], [135.481886, 34.995146], [135.471222, 34.994805], [135.440184, 35.007693], [135.433487, 35.00792], [135.421013, 35.002156], [135.409767, 35.011526], [135.403247, 35.006692], [135.397474, 35.010642], [135.381693, 35.010248], [135.37765, 35.020337], [135.382047, 35.02764], [135.380044, 35.039106], [135.375975, 35.044135], [135.367627, 35.043992], [135.359478, 35.050112], [135.350028, 35.051191], [135.348824, 35.045936], [135.338087, 35.043604], [135.330204, 35.035224], [135.336485, 35.032719], [135.339803, 35.025877], [135.354698, 35.02479], [135.352563, 34.990389], [135.359533, 34.982516], [135.350549, 34.980249], [135.345069, 34.966846], [135.354248, 34.962617], [135.359711, 34.954691], [135.376897, 34.955705], [135.385478, 34.954259], [135.387351, 34.945908], [135.392352, 34.941366], [135.395957, 34.944439], [135.41069, 34.942675], [135.408804, 34.945526], [135.411932, 34.943783], [135.410285, 34.939962], [135.417455, 34.941774], [135.418485, 34.933894], [135.441657, 34.939395], [135.461012, 34.926275], [135.467419, 34.928031], [135.471781, 34.929227], [135.474543, 34.930303], [135.475055, 34.930502], [135.475153, 34.930541], [135.479034, 34.944271], [135.484911, 34.946401], [135.484157, 34.947146]]]}, "properties": {"N03_001": "大阪府", "N03_002": null, "N03_003": "豊能郡", "N03_004": "能勢町", "N03_005": null, "N03_007": "27322"}}, {"type": "Feature", "geometry": {"type": "Polygon", "coordinates": [[[135.415199, 34.473685], [135.416705, 34.475526], [135.418624, 34.478002], [135.418377, 34.478265], [135.415305, 34.48154], [135.415463, 34.482546], [135.413027, 34.48228], [135.411405, 34.482103], [135.4099, 34.484627], [135.404783, 34.493209], [135.404226, 34.494142], [135.389746, 34.498928], [135.388389, 34.499943], [135.387398, 34.500288], [135.37783, 34.507845], [135.370843, 34.502752], [135.384527, 34.493785], [135.394725, 34.488844], [135.410858, 34.47653], [135.415199, 34.473685]]]}, "properties": {"N03_001": "大阪府", "N03_002": null, "N03_003": "泉北郡", "N03_004": "忠岡町", "N03_005": null, "N03_007": "27341"}}, {"type": "Feature", "geometry": {"type": "Polygon", "coordinates": [[[135.356189, 34.418582], [135.355828, 34.416752], [135.353711, 34.406004], [135.347211, 34.410396], [135.33789, 34.406702], [135.336897, 34.396984], [135.347462, 34.381967], [135.348135, 34.38111], [135.354794, 34.379037], [135.355601, 34.37271], [135.370382, 34.364419], [135.381141, 34.363338], [135.380631, 34.356652], [135.386509, 34.355715], [135.38761, 34.361598], [135.381992, 34.367149], [135.386968, 34.369571], [135.385117, 34.375065], [135.387974, 34.385566], [135.383929, 34.385207], [135.383808, 34.389069], [135.379391, 34.391113], [135.378641, 34.400169], [135.373924, 34.405552], [135.366658, 34.411619], [135.36886, 34.414275], [135.362363, 34.415561], [135.36644, 34.416543], [135.368067, 34.415079], [135.367504, 34.417137], [135.358197, 34.418325], [135.356189, 34.418582]], [[135.375175, 34.399214], [135.371702, 34.406225], [135.374821, 34.402835], [135.375066, 34.402174], [135.376122, 34.399334], [135.376417, 34.39903], [135.377448, 34.397969], [135.375175, 34.399214]], [[135.364865, 34.408485], [135.365354, 34.408898], [135.36544, 34.408798], [135.36505, 34.408362], [135.364865, 34.408485]]]}, "properties": {"N03_001": "大阪府", "N03_002": null, "N03_003": "泉南郡", "N03_004": "熊取町", "N03_005": null, "N03_007": "27361"}}, {"type": "Feature", "geometry": {"type": "MultiPolygon", "coordinates": [[[[135.288818, 34.403624], [135.285745, 34.401571], [135.288351, 34.397257], [135.28484, 34.399719], [135.287889, 34.395919], [135.282425, 34.398882], [135.279801, 34.395393], [135.280038, 34.394932], [135.284121, 34.390656], [135.282542, 34.390059], [135.28255, 34.390044], [135.285248, 34.383819], [135.289392, 34.383432], [135.289351, 34.384216], [135.295113, 34.386489], [135.296625, 34.384999], [135.297069, 34.385099], [135.297204, 34.389246], [135.300381, 34.390014], [135.297094, 34.392276], [135.296663, 34.39914], [135.288818, 34.403624]]], [[[135.24034, 34.422895], [135.251486, 34.430219], [135.241604, 34.4373], [135.233058, 34.431595], [135.23992, 34.438503], [135.229325, 34.446049], [135.218049, 34.438496], [135.221773, 34.435904], [135.228891, 34.430926], [135.228881, 34.430915], [135.230447, 34.429819], [135.230462, 34.429829], [135.24034, 34.422895]]]]}, "properties": {"N03_001": "大阪府", "N03_002": null, "N03_003": "泉南郡", "N03_004": "田尻町", "N03_005": null, "N03_007": "27362"}}, {"type": "Feature", "geometry": {"type": "MultiPolygon", "coordinates": [[[[135.193124, 34.338132], [135.176703, 34.337572], [135.180374, 34.340678], [135.183378, 34.338779], [135.181866, 34.340115], [135.180135, 34.340789], [135.163818, 34.331513], [135.15925, 34.331444], [135.159255, 34.331513], [135.159194, 34.331486], [135.15919, 34.331443], [135.153423, 34.331357], [135.140154, 34.317699], [135.139368, 34.318739], [135.14132, 34.319618], [135.141464, 34.320407], [135.130139, 34.32048], [135.133187, 34.323003], [135.130557, 34.326174], [135.120552, 34.323733], [135.12266, 34.319924], [135.12013, 34.323352], [135.116041, 34.322824], [135.102063, 34.31978], [135.098159, 34.314563], [135.091925, 34.31506], [135.097083, 34.307945], [135.103535, 34.311139], [135.106073, 34.308599], [135.096764, 34.296642], [135.101387, 34.285813], [135.10864, 34.283987], [135.107357, 34.278464], [135.110328, 34.272731], [135.122426, 34.274741], [135.12583, 34.277452], [135.131202, 34.272491], [135.136616, 34.273506], [135.139644, 34.281893], [135.14338, 34.280412], [135.146765, 34.283808], [135.154803, 34.281038], [135.153598, 34.274257], [135.166853, 34.279928], [135.184322, 34.278829], [135.191795, 34.286596], [135.205181, 34.288346], [135.204314, 34.297942], [135.208559, 34.30309], [135.207896, 34.307692], [135.207679, 34.309201], [135.203609, 34.308688], [135.201798, 34.312379], [135.192669, 34.311771], [135.188481, 34.319325], [135.194228, 34.322384], [135.192793, 34.328924], [135.188132, 34.331889], [135.193124, 34.338132]]], [[[135.091972, 34.313297], [135.091721, 34.313067], [135.091742, 34.312819], [135.091769, 34.31308], [135.09198, 34.313279], [135.091972, 34.313297]]], [[[135.091625, 34.313234], [135.091329, 34.313898], [135.091298, 34.313391], [135.091485, 34.313246], [135.091625, 34.313234]]], [[[135.139088, 34.322111], [135.137901, 34.3216], [135.137932, 34.321138], [135.13802, 34.321527], [135.139088, 34.322111]]], [[[135.144967, 34.322855], [135.145035, 34.322882], [135.144711, 34.325175], [135.144304, 34.32432], [135.144967, 34.322855]]], [[[135.119086, 34.323394], [135.119783, 34.323566], [135.119528, 34.324676], [135.118805, 34.323812], [135.119086, 34.323394]]], [[[135.158692, 34.33174], [135.158534, 34.33165], [135.158547, 34.331579], [135.158793, 34.331602], [135.158692, 34.33174]]], [[[135.171024, 34.337713], [135.170669, 34.338009], [135.169954, 34.337691], [135.171024, 34.337713]]]]}, "properties": {"N03_001": "大阪府", "N03_002": null, "N03_003": "泉南郡", "N03_004": "岬町", "N03_005": null, "N03_007": "27366"}}, {"type": "Feature", "geometry": {"type": "Polygon", "coordinates": [[[135.62058, 34.514806], [135.630536, 34.514182], [135.635816, 34.506995], [135.638152, 34.507913], [135.640184, 34.501937], [135.642724, 34.503958], [135.649476, 34.499414], [135.648701, 34.498185], [135.649289, 34.497617], [135.649603, 34.4976], [135.658592, 34.499546], [135.664407, 34.503846], [135.675994, 34.506087], [135.677526, 34.509743], [135.677043, 34.52537], [135.669989, 34.530649], [135.662287, 34.530041], [135.660143, 34.541071], [135.651991, 34.533914], [135.651822, 34.533939], [135.647104, 34.534641], [135.643024, 34.530234], [135.627137, 34.525451], [135.627245, 34.521997], [135.621383, 34.522554], [135.621959, 34.516845], [135.62058, 34.514806]]]}, "properties": {"N03_001": "大阪府", "N03_002": null, "N03_003": "南河内郡", "N03_004": "太子町", "N03_005": null, "N03_007": "27381"}}, {"type": "Feature", "geometry": {"type": "MultiPolygon", "coordinates": [[[[135.62058, 34.514806], [135.62019, 34.514229], [135.618194, 34.508565], [135.621933, 34.500129], [135.627703, 34.497942], [135.62707, 34.48624], [135.620249, 34.492664], [135.618096, 34.490248], [135.617988, 34.490128], [135.617933, 34.490065], [135.612981, 34.490339], [135.612636, 34.482506], [135.617319, 34.477467], [135.617414, 34.477365], [135.617226, 34.476843], [135.615817, 34.472931], [135.627067, 34.476262], [135.627999, 34.467493], [135.628285, 34.467493], [135.634089, 34.468346], [135.634912, 34.467488], [135.647141, 34.454747], [135.654278, 34.456033], [135.66566, 34.446612], [135.667058, 34.446653], [135.668162, 34.446995], [135.661942, 34.451903], [135.660005, 34.453273], [135.660002, 34.453434], [135.659934, 34.45754], [135.653978, 34.459957], [135.659178, 34.461669], [135.656547, 34.463884], [135.65793, 34.466711], [135.66678, 34.46754], [135.676887, 34.468486], [135.677986, 34.468589], [135.682168, 34.465245], [135.681212, 34.480235], [135.684726, 34.485416], [135.68049, 34.488956], [135.678301, 34.4995], [135.673063, 34.502645], [135.675317, 34.505735], [135.664407, 34.503846], [135.658592, 34.499546], [135.649603, 34.4976], [135.649289, 34.497617], [135.648701, 34.498185], [135.649476, 34.499414], [135.642724, 34.503958], [135.640184, 34.501937], [135.638152, 34.507913], [135.635816, 34.506995], [135.630536, 34.514182], [135.62058, 34.514806]]], [[[135.641024, 34.460655], [135.640811, 34.461221], [135.640677, 34.46128], [135.639879, 34.461068], [135.639699, 34.461021], [135.640187, 34.459971], [135.640293, 34.459743], [135.640763, 34.459552], [135.641298, 34.459473], [135.641024, 34.460655]]], [[[135.633888, 34.465291], [135.634074, 34.466623], [135.63545, 34.466372], [135.634019, 34.466769], [135.633817, 34.466187], [135.633819, 34.465566], [135.633888, 34.465291]]]]}, "properties": {"N03_001": "大阪府", "N03_002": null, "N03_003": "南河内郡", "N03_004": "河南町", "N03_005": null, "N03_007": "27382"}}, {"type": "Feature", "geometry": {"type": "Polygon", "coordinates": [[[135.603457, 34.439637], [135.602844, 34.438632], [135.605407, 34.435345], [135.611304, 34.431264], [135.61547, 34.430671], [135.626094, 34.421028], [135.637088, 34.420067], [135.651541, 34.400859], [135.656209, 34.399169], [135.655655, 34.395929], [135.656127, 34.395966], [135.676105, 34.400018], [135.676044, 34.40558], [135.680093, 34.409199], [135.677305, 34.413828], [135.669422, 34.413675], [135.664285, 34.423227], [135.672314, 34.425928], [135.678979, 34.432761], [135.68102, 34.441997], [135.686736, 34.448758], [135.682365, 34.456183], [135.682168, 34.465245], [135.677986, 34.468589], [135.676887, 34.468486], [135.66678, 34.46754], [135.65793, 34.466711], [135.656547, 34.463884], [135.659178, 34.461669], [135.653978, 34.459957], [135.659934, 34.45754], [135.660002, 34.453434], [135.660005, 34.453273], [135.661942, 34.451903], [135.668162, 34.446995], [135.667058, 34.446653], [135.66566, 34.446612], [135.654278, 34.456033], [135.647141, 34.454747], [135.634912, 34.467488], [135.634089, 34.468346], [135.628285, 34.467493], [135.627999, 34.467493], [135.627067, 34.476262], [135.615817, 34.472931], [135.615624, 34.472393], [135.61573, 34.467966], [135.617852, 34.462291], [135.615944, 34.458995], [135.616111, 34.452023], [135.609611, 34.445487], [135.603754, 34.439598], [135.603457, 34.439637]], [[135.641024, 34.460655], [135.641298, 34.459473], [135.640763, 34.459552], [135.640293, 34.459743], [135.640187, 34.459971], [135.639699, 34.461021], [135.639879, 34.461068], [135.640677, 34.46128], [135.640811, 34.461221], [135.641024, 34.460655]], [[135.633888, 34.465291], [135.633819, 34.465566], [135.633817, 34.466187], [135.634019, 34.466769], [135.63545, 34.466372], [135.634074, 34.466623], [135.633888, 34.465291]]]}, "properties": {"N03_001": "大阪府", "N03_002": null, "N03_003": "南河内郡", "N03_004": "千早赤阪村", "N03_005": null, "N03_007": "27383"}}]}