{"type": "FeatureCollection", "features": [{"type": "Feature", "properties": {"name": "奈良県"}, "geometry": {"type": "MultiLineString", "coordinates": [[[135.916033, 33.967673], [135.906668, 33.963079], [135.904682, 33.955532], [135.897257, 33.954213], [135.892449, 33.945824], [135.899211, 33.925257], [135.909731, 33.922697], [135.909084, 33.918474], [135.894352, 33.920592], [135.89785, 33.912292], [135.892854, 33.906225], [135.88217, 33.907827], [135.880428, 33.917786], [135.865758, 33.921939], [135.868948, 33.914297], [135.858812, 33.901477], [135.859734, 33.889128], [135.871622, 33.888651], [135.882688, 33.878871], [135.873309, 33.870448], [135.873111, 33.859041], [135.862186, 33.862721], [135.862122, 33.876549], [135.857921, 33.873153], [135.853425, 33.876742], [135.852146, 33.882022], [135.855289, 33.887817], [135.851328, 33.894316], [135.842171, 33.897065], [135.836056, 33.895515], [135.816319, 33.905614], [135.808603, 33.906468], [135.803362, 33.902981], [135.80168, 33.895708], [135.777653, 33.888184], [135.766058, 33.890792], [135.756115, 33.885165], [135.751809, 33.889557], [135.742244, 33.890053], [135.72411, 33.903288], [135.685958, 33.903955], [135.678711, 33.898169], [135.670957, 33.900408], [135.660604, 33.897566], [135.662204, 33.889083], [135.647988, 33.876898], [135.638071, 33.877722], [135.623319, 33.873003], [135.61786, 33.872107], [135.626568, 33.883361], [135.622872, 33.897959], [135.606203, 33.899119], [135.601113, 33.902566], [135.599974, 33.908336], [135.61053, 33.913328], [135.614136, 33.925353], [135.609459, 33.932076], [135.611221, 33.936867], [135.617126, 33.937314], [135.616932, 33.953816], [135.62837, 33.949472], [135.637231, 33.950649], [135.635615, 33.958869], [135.64032, 33.96742], [135.638676, 33.985149], [135.636105, 33.990934], [135.630398, 33.991138], [135.629027, 33.997749], [135.624211, 34.000209], [135.625358, 34.007064], [135.622193, 34.009668], [135.612095, 34.010129], [135.608468, 34.013619], [135.593849, 34.012981], [135.591546, 34.019563], [135.59966, 34.032019], [135.594408, 34.044268], [135.587663, 34.046907], [135.58049, 34.05791], [135.567062, 34.057346], [135.563393, 34.063385], [135.553384, 34.064957], [135.551317, 34.068421], [135.553816, 34.069517], [135.548224, 34.068144], [135.539698, 34.07538], [135.543196, 34.081881], [135.549793, 34.084985], [135.547287, 34.100329], [135.558408, 34.103389], [135.557343, 34.108128], [135.565211, 34.112551], [135.578436, 34.115814], [135.585256, 34.141079], [135.590321, 34.148667], [135.621918, 34.158422], [135.620603, 34.168521], [135.628569, 34.176888], [135.637751, 34.179372], [135.644903, 34.188457], [135.634131, 34.198274], [135.634483, 34.204595], [135.641136, 34.209226], [135.641776, 34.214171], [135.648078, 34.218986], [135.655289, 34.216276], [135.662441, 34.218356], [135.671001, 34.224473], [135.683264, 34.221931], [135.687743, 34.217359], [135.693875, 34.217067], [135.697807, 34.211826], [135.711408, 34.207827], [135.709624, 34.208793], [135.713314, 34.214274], [135.727476, 34.220727], [135.730017, 34.231601], [135.723511, 34.239798], [135.718447, 34.26332], [135.708252, 34.268581], [135.7086, 34.271832], [135.703846, 34.271565], [135.692469, 34.278272], [135.689213, 34.271554], [135.680593, 34.270736], [135.672684, 34.281571], [135.675415, 34.29036], [135.667249, 34.300615], [135.668125, 34.325748], [135.660095, 34.326941], [135.663525, 34.355444], [135.655838, 34.366225], [135.651129, 34.383206], [135.654715, 34.383835], [135.663836, 34.397304], [135.675553, 34.399458], [135.676044, 34.40558], [135.680003, 34.408325], [135.683552, 34.406231], [135.67755, 34.413696], [135.669422, 34.413675], [135.664314, 34.42334], [135.672314, 34.425928], [135.678979, 34.432761], [135.68102, 34.441997], [135.686736, 34.448758], [135.682365, 34.456183], [135.682169, 34.464866], [135.681212, 34.480235], [135.684726, 34.485416], [135.68049, 34.488956], [135.678301, 34.4995], [135.67302, 34.502788], [135.677526, 34.509743], [135.677144, 34.525162], [135.667498, 34.530862], [135.666084, 34.535071], [135.666565, 34.529522], [135.66295, 34.529606], [135.659497, 34.543891], [135.656382, 34.541667], [135.650285, 34.544112], [135.655773, 34.549199], [135.65436, 34.553935], [135.658681, 34.563598], [135.68127, 34.57228], [135.681038, 34.573997], [135.673239, 34.57097], [135.671545, 34.579911], [135.675495, 34.579595], [135.696115, 34.592339], [135.681759, 34.584778], [135.67708, 34.589201], [135.679151, 34.591166], [135.675694, 34.601739], [135.654054, 34.603076], [135.651793, 34.60681], [135.650735, 34.609715], [135.658672, 34.614716], [135.659613, 34.614205], [135.658333, 34.615793], [135.663196, 34.629521], [135.661161, 34.635626], [135.665375, 34.643973], [135.664321, 34.651295], [135.671104, 34.661557], [135.670974, 34.666667], [135.678746, 34.678208], [135.678096, 34.684407], [135.673098, 34.690146], [135.673273, 34.702141], [135.681543, 34.710457], [135.687606, 34.711383], [135.704136, 34.723781], [135.696793, 34.743695], [135.697979, 34.749661], [135.706658, 34.748549], [135.710216, 34.753871], [135.710042, 34.771514], [135.706593, 34.772451], [135.709641, 34.780169], [135.715628, 34.779936], [135.720718, 34.774461], [135.728635, 34.777998], [135.73207, 34.757337], [135.736636, 34.755303], [135.736395, 34.749967], [135.747167, 34.746465], [135.749089, 34.741427], [135.757061, 34.735753], [135.753636, 34.725047], [135.756639, 34.728444], [135.777727, 34.723109], [135.791396, 34.724883], [135.795844, 34.720614], [135.799155, 34.72311], [135.805841, 34.717997], [135.812085, 34.717589], [135.810284, 34.71449], [135.819968, 34.711661], [135.831816, 34.713415], [135.849284, 34.708274], [135.849016, 34.705972], [135.863741, 34.706353], [135.876138, 34.713877], [135.885159, 34.71362], [135.890066, 34.708279], [135.897386, 34.730872], [135.903021, 34.732916], [135.916156, 34.753686], [135.920971, 34.752996], [135.925116, 34.757739], [135.928963, 34.756841], [135.928999, 34.752099], [135.923431, 34.742119], [135.930624, 34.738149], [135.936561, 34.740216], [135.942896, 34.737492], [135.943828, 34.741322], [135.954775, 34.748298], [135.958649, 34.740262], [135.965989, 34.743187], [135.976178, 34.741097], [135.983799, 34.734233], [135.986162, 34.715307], [135.992303, 34.714616], [135.991988, 34.712159], [135.999685, 34.712955], [136.005236, 34.717328], [136.013056, 34.713633], [136.013499, 34.707915], [136.028765, 34.706314], [136.028894, 34.713246], [136.039474, 34.720156], [136.042905, 34.735975], [136.050507, 34.738682], [136.057466, 34.737103], [136.062951, 34.726524], [136.068084, 34.723826], [136.07008, 34.712471], [136.054045, 34.706132], [136.054855, 34.702923], [136.051127, 34.700351], [136.056005, 34.703474], [136.059663, 34.699819], [136.075023, 34.697773], [136.082018, 34.67912], [136.086465, 34.675347], [136.077781, 34.658761], [136.070426, 34.657683], [136.064409, 34.651926], [136.04093, 34.663752], [136.03954, 34.66126], [136.050474, 34.652296], [136.064846, 34.651564], [136.073565, 34.634813], [136.068858, 34.622304], [136.062467, 34.619958], [136.046568, 34.600557], [136.052141, 34.593058], [136.050652, 34.586914], [136.046467, 34.585364], [136.049806, 34.580206], [136.058716, 34.577655], [136.060467, 34.569316], [136.073729, 34.566741], [136.083624, 34.559115], [136.106907, 34.556585], [136.097768, 34.540759], [136.106996, 34.556308], [136.110588, 34.556451], [136.114278, 34.545893], [136.123733, 34.548099], [136.13806, 34.560957], [136.150356, 34.555204], [136.150964, 34.559052], [136.155576, 34.559667], [136.161765, 34.548538], [136.159774, 34.546712], [136.171774, 34.534433], [136.167106, 34.519965], [136.167403, 34.520165], [136.182117, 34.516751], [136.189785, 34.523957], [136.209941, 34.529029], [136.216585, 34.528208], [136.219776, 34.515886], [136.214667, 34.501312], [136.218256, 34.497021], [136.229864, 34.492871], [136.22852, 34.489065], [136.21556, 34.481153], [136.20536, 34.448346], [136.188522, 34.450605], [136.17751, 34.445435], [136.158427, 34.449078], [136.151437, 34.441853], [136.129669, 34.445505], [136.118294, 34.442883], [136.111255, 34.435704], [136.095898, 34.435222], [136.09587, 34.43528], [136.088654, 34.428633], [136.090265, 34.416042], [136.077998, 34.407853], [136.069527, 34.390717], [136.086285, 34.379384], [136.09193, 34.368789], [136.090806, 34.362546], [136.068741, 34.364156], [136.094188, 34.361403], [136.102105, 34.336362], [136.109231, 34.329107], [136.121554, 34.326186], [136.129505, 34.316174], [136.111646, 34.305014], [136.10036, 34.305541], [136.094904, 34.301451], [136.097829, 34.288822], [136.111987, 34.280736], [136.120548, 34.270172], [136.121863, 34.266987], [136.118064, 34.260596], [136.131849, 34.251896], [136.130306, 34.242873], [136.1226, 34.239781], [136.115782, 34.229625], [136.109688, 34.228103], [136.10965, 34.224221], [136.117298, 34.22311], [136.118245, 34.21428], [136.115352, 34.210389], [136.108008, 34.210528], [136.093449, 34.195698], [136.092653, 34.190183], [136.095884, 34.18798], [136.109008, 34.184996], [136.104505, 34.173415], [136.112045, 34.167558], [136.114738, 34.159981], [136.105625, 34.152385], [136.106521, 34.14458], [136.101957, 34.141071], [136.108427, 34.12686], [136.099404, 34.118852], [136.104061, 34.115104], [136.103976, 34.106585], [136.107866, 34.103196], [136.102264, 34.09614], [136.118661, 34.082364], [136.09775, 34.086744], [136.093309, 34.082875], [136.096831, 34.078604], [136.093373, 34.065999], [136.097136, 34.057661], [136.092032, 34.048335], [136.101353, 34.039193], [136.104428, 34.027761], [136.096521, 34.022429], [136.085855, 34.028769], [136.078457, 34.028519], [136.072844, 34.033831], [136.056271, 34.034349], [136.055524, 34.035494], [136.052522, 34.032126], [136.044101, 34.035833], [136.043459, 34.040683], [136.038997, 34.036518], [136.037502, 34.040924], [136.031728, 34.031867], [136.019374, 34.036682], [136.014964, 34.024598], [136.003676, 34.013514], [136.002489, 34.006991], [135.990853, 34.003667], [135.985022, 33.991839], [135.974603, 33.985967], [135.947261, 33.980666], [135.941404, 33.97569], [135.939656, 33.980718], [135.926563, 33.981447], [135.915674, 33.972592], [135.916033, 33.967673]]]}}], "name": "奈良県"}