{"type": "FeatureCollection", "features": [{"type": "Feature", "properties": {"name": "宮城県"}, "geometry": {"type": "MultiLineString", "coordinates": [[[140.850546, 37.849314], [140.85509, 37.833776], [140.852342, 37.829734], [140.855977, 37.828813], [140.853657, 37.821014], [140.858242, 37.814943], [140.853943, 37.811686], [140.853716, 37.807029], [140.857967, 37.803102], [140.85475, 37.797336], [140.830684, 37.794747], [140.821617, 37.798887], [140.81018, 37.795535], [140.775054, 37.806358], [140.773061, 37.801217], [140.764839, 37.796311], [140.772748, 37.797276], [140.794923, 37.780906], [140.803231, 37.779775], [140.792087, 37.773273], [140.77522, 37.781817], [140.753988, 37.785375], [140.74515, 37.788463], [140.72697, 37.781479], [140.723002, 37.792535], [140.71224, 37.800295], [140.694373, 37.803265], [140.689777, 37.813224], [140.685387, 37.815556], [140.684377, 37.830523], [140.679234, 37.836338], [140.686889, 37.842046], [140.685607, 37.846886], [140.692007, 37.850863], [140.691441, 37.861354], [140.685818, 37.867938], [140.687457, 37.871388], [140.68187, 37.875924], [140.682883, 37.879512], [140.690889, 37.883674], [140.690081, 37.888213], [140.666976, 37.895058], [140.660348, 37.900896], [140.647292, 37.898796], [140.644672, 37.895449], [140.623706, 37.900752], [140.618623, 37.912516], [140.620555, 37.914137], [140.611849, 37.915257], [140.610208, 37.911094], [140.591306, 37.906173], [140.566379, 37.922791], [140.56261, 37.918125], [140.563695, 37.912183], [140.558946, 37.909938], [140.531666, 37.905216], [140.521887, 37.90883], [140.513773, 37.903083], [140.503134, 37.905515], [140.498206, 37.90035], [140.488349, 37.899605], [140.476129, 37.907479], [140.469531, 37.917869], [140.46743, 37.938169], [140.473426, 37.947419], [140.461617, 37.952591], [140.448195, 37.950956], [140.444651, 37.956983], [140.42923, 37.954379], [140.409121, 37.963814], [140.407452, 37.973673], [140.39857, 37.974421], [140.38567, 37.96501], [140.384491, 37.952217], [140.358874, 37.95897], [140.35498, 37.95771], [140.353975, 37.951078], [140.348591, 37.950157], [140.336038, 37.955108], [140.334175, 37.95139], [140.328508, 37.95837], [140.316452, 37.958111], [140.314206, 37.964412], [140.308527, 37.963589], [140.302261, 37.969095], [140.284131, 37.973116], [140.274889, 37.982026], [140.276879, 37.994179], [140.289615, 38.007206], [140.283266, 38.015826], [140.28138, 38.02571], [140.276068, 38.028719], [140.275921, 38.035977], [140.283393, 38.049973], [140.27709, 38.056161], [140.281926, 38.05952], [140.289085, 38.059339], [140.292569, 38.055615], [140.296608, 38.057152], [140.302712, 38.053566], [140.31576, 38.058422], [140.319912, 38.055373], [140.33468, 38.056165], [140.344419, 38.053355], [140.355644, 38.058476], [140.374981, 38.057439], [140.382332, 38.064093], [140.380164, 38.069471], [140.383015, 38.07151], [140.402769, 38.070345], [140.404308, 38.073851], [140.417674, 38.080335], [140.421312, 38.088454], [140.417464, 38.103478], [140.42561, 38.114916], [140.424351, 38.12052], [140.431836, 38.12721], [140.445685, 38.129855], [140.447374, 38.123078], [140.448093, 38.127852], [140.442744, 38.139004], [140.445912, 38.143605], [140.452949, 38.151674], [140.467658, 38.156976], [140.469594, 38.170558], [140.480097, 38.181859], [140.478348, 38.198376], [140.472677, 38.205216], [140.470957, 38.213837], [140.474288, 38.224479], [140.467071, 38.232751], [140.471066, 38.234784], [140.471241, 38.251173], [140.47496, 38.252486], [140.469498, 38.256745], [140.472788, 38.260783], [140.473006, 38.271819], [140.487879, 38.274505], [140.496948, 38.283144], [140.492144, 38.292963], [140.492594, 38.302688], [140.501984, 38.304827], [140.504341, 38.314327], [140.520283, 38.309515], [140.529742, 38.320698], [140.53071, 38.325081], [140.525109, 38.332685], [140.521581, 38.347331], [140.522752, 38.353182], [140.532356, 38.361522], [140.545529, 38.364117], [140.552211, 38.376213], [140.560325, 38.377769], [140.563472, 38.375636], [140.567571, 38.385331], [140.578244, 38.392851], [140.574531, 38.396681], [140.571301, 38.413114], [140.579397, 38.423176], [140.580393, 38.437269], [140.592358, 38.441721], [140.597765, 38.436529], [140.60823, 38.444535], [140.613436, 38.453603], [140.619679, 38.454692], [140.619955, 38.454272], [140.620794, 38.460919], [140.62004, 38.455198], [140.60821, 38.458403], [140.60797, 38.469813], [140.602716, 38.478856], [140.60423, 38.482282], [140.59457, 38.488647], [140.574141, 38.494661], [140.570565, 38.499396], [140.567339, 38.501607], [140.56915, 38.505963], [140.563461, 38.510641], [140.570302, 38.515304], [140.5678, 38.52023], [140.571956, 38.525638], [140.555739, 38.529955], [140.554085, 38.540759], [140.56464, 38.545724], [140.569917, 38.555579], [140.566413, 38.560376], [140.578467, 38.570086], [140.571004, 38.580257], [140.572064, 38.586547], [140.567832, 38.590356], [140.569735, 38.594066], [140.558446, 38.597637], [140.562122, 38.607253], [140.552218, 38.613344], [140.537469, 38.635676], [140.546655, 38.649703], [140.562752, 38.648062], [140.569404, 38.638213], [140.575944, 38.639213], [140.587862, 38.633943], [140.601168, 38.639796], [140.606015, 38.655418], [140.613506, 38.661795], [140.614474, 38.669575], [140.620763, 38.676139], [140.623986, 38.691438], [140.620719, 38.696513], [140.623635, 38.699785], [140.606832, 38.703437], [140.609104, 38.708789], [140.607119, 38.721513], [140.620238, 38.73072], [140.620356, 38.738658], [140.631339, 38.747114], [140.635032, 38.760946], [140.646462, 38.769516], [140.637283, 38.777387], [140.626981, 38.773954], [140.603526, 38.783705], [140.595672, 38.802327], [140.598887, 38.825267], [140.59294, 38.827788], [140.590728, 38.836044], [140.566302, 38.848044], [140.559131, 38.847251], [140.553477, 38.858833], [140.540046, 38.861892], [140.538687, 38.871065], [140.547636, 38.880982], [140.547116, 38.889208], [140.553056, 38.882815], [140.554264, 38.876211], [140.561986, 38.873013], [140.579912, 38.881345], [140.585621, 38.880054], [140.590327, 38.889175], [140.597823, 38.885057], [140.607145, 38.886603], [140.609553, 38.892429], [140.61359, 38.893912], [140.630004, 38.889279], [140.638546, 38.883073], [140.645014, 38.888635], [140.654077, 38.889013], [140.653341, 38.891604], [140.671115, 38.897131], [140.680561, 38.913705], [140.702554, 38.923221], [140.708582, 38.919303], [140.707388, 38.920356], [140.711816, 38.926877], [140.717424, 38.927748], [140.722449, 38.932949], [140.731571, 38.948948], [140.749738, 38.957301], [140.78167, 38.958122], [140.79388, 38.964011], [140.800528, 38.961876], [140.824456, 38.964081], [140.837717, 38.957539], [140.841119, 38.950265], [140.864863, 38.94127], [140.881533, 38.927903], [140.910374, 38.927444], [140.914569, 38.916827], [140.922161, 38.914342], [140.926535, 38.921411], [140.931393, 38.92041], [140.931956, 38.916322], [140.939846, 38.916197], [140.947094, 38.910082], [140.957863, 38.908131], [140.970837, 38.894913], [140.97062, 38.888014], [140.984457, 38.879935], [140.982488, 38.878796], [140.985479, 38.875276], [140.990159, 38.874388], [140.996095, 38.880644], [141.004632, 38.878698], [141.013057, 38.880892], [141.0207, 38.886397], [141.02249, 38.881075], [141.029609, 38.883471], [141.032526, 38.877919], [141.043324, 38.876496], [141.051926, 38.883268], [141.061483, 38.883877], [141.074772, 38.879466], [141.088746, 38.883541], [141.093349, 38.887861], [141.102666, 38.88477], [141.102449, 38.880705], [141.107398, 38.877518], [141.118298, 38.880677], [141.139831, 38.877505], [141.146133, 38.869275], [141.146783, 38.856267], [141.13002, 38.839848], [141.120941, 38.835096], [141.10608, 38.837918], [141.10278, 38.830629], [141.105093, 38.822616], [141.10869, 38.825199], [141.116407, 38.822445], [141.121168, 38.826212], [141.126071, 38.821851], [141.123617, 38.816548], [141.130136, 38.81271], [141.13992, 38.814303], [141.142396, 38.812122], [141.13858, 38.790813], [141.146238, 38.784423], [141.157281, 38.782544], [141.163586, 38.781957], [141.168437, 38.777205], [141.180971, 38.784526], [141.206061, 38.769484], [141.207273, 38.756806], [141.215839, 38.748471], [141.233712, 38.747809], [141.236879, 38.752018], [141.228844, 38.752568], [141.257572, 38.76166], [141.258064, 38.776191], [141.263263, 38.780299], [141.262955, 38.787348], [141.268961, 38.788213], [141.272482, 38.796965], [141.280362, 38.792514], [141.284942, 38.797616], [141.30455, 38.79346], [141.302439, 38.803344], [141.307273, 38.808711], [141.306727, 38.819326], [141.316848, 38.823275], [141.332059, 38.812014], [141.334299, 38.806971], [141.341113, 38.806458], [141.349949, 38.812415], [141.366354, 38.809373], [141.371383, 38.807435], [141.378862, 38.796221], [141.393592, 38.79993], [141.397389, 38.795282], [141.396859, 38.790106], [141.414864, 38.786202], [141.415612, 38.779505], [141.410051, 38.77322], [141.410132, 38.767814], [141.422894, 38.771662], [141.421696, 38.779829], [141.430927, 38.783325], [141.437932, 38.782239], [141.439562, 38.785055], [141.432532, 38.791585], [141.436345, 38.805606], [141.431453, 38.80656], [141.429415, 38.810601], [141.437818, 38.812899], [141.454345, 38.810898], [141.458673, 38.81396], [141.453048, 38.818599], [141.454673, 38.822219], [141.449835, 38.83739], [141.454597, 38.847251], [141.466166, 38.856676], [141.452669, 38.862552], [141.450693, 38.875144], [141.466038, 38.885438], [141.466442, 38.893949], [141.483116, 38.902485], [141.491861, 38.912814], [141.489384, 38.917448], [141.49211, 38.921624], [141.485572, 38.935728], [141.493963, 38.95535], [141.490186, 38.957309], [141.488796, 38.968578], [141.483534, 38.978167], [141.489858, 38.997478], [141.506839, 38.999822], [141.509214, 39.002762], [141.518353, 39.001367], [141.516624, 38.998226], [141.523134, 38.991346], [141.536906, 38.995386], [141.560275, 38.993823], [141.56713, 38.995961], [141.575205, 38.987024], [141.586939, 38.988693], [141.601816, 38.986152], [141.621511, 38.972852], [141.633685, 38.969343], [141.635827, 38.96457], [141.632256, 38.963082], [141.637072, 38.964303], [141.644041, 38.955468], [141.64091, 38.954458], [141.632717, 38.957891], [141.631348, 38.954259], [141.637177, 38.950878], [141.636311, 38.948768], [141.639626, 38.949389], [141.637199, 38.946806], [141.640368, 38.946245], [141.640258, 38.942], [141.648304, 38.942297], [141.642568, 38.940287], [141.643063, 38.933038], [141.634265, 38.93016], [141.637886, 38.927188], [141.642718, 38.928101], [141.644489, 38.922724], [141.65315, 38.919131], [141.650611, 38.91138], [141.647515, 38.911313], [141.654834, 38.906957], [141.651418, 38.901827], [141.660793, 38.896111], [141.663569, 38.897197], [141.663198, 38.892516], [141.667482, 38.892208], [141.668353, 38.888862], [141.662569, 38.888842], [141.665189, 38.883082], [141.662585, 38.881723], [141.670774, 38.873966], [141.668517, 38.869938], [141.674526, 38.865457], [141.673929, 38.857173], [141.669457, 38.861911], [141.656691, 38.862576], [141.658006, 38.866356], [141.650816, 38.869294], [141.651197, 38.87302], [141.646677, 38.875161], [141.648282, 38.879511], [141.643041, 38.878795], [141.64218, 38.881404], [141.645892, 38.883227], [141.637014, 38.885158], [141.641511, 38.889889], [141.636152, 38.88883], [141.637212, 38.893964], [141.633417, 38.896572], [141.6383, 38.902308], [141.63134, 38.901412], [141.629412, 38.895544], [141.623397, 38.899811], [141.62406, 38.895017], [141.630127, 38.893993], [141.630909, 38.890867], [141.620917, 38.892847], [141.621081, 38.890293], [141.614689, 38.887985], [141.61544, 38.882067], [141.61295, 38.881223], [141.610781, 38.886372], [141.608407, 38.880065], [141.604717, 38.879868], [141.597414, 38.893799], [141.588162, 38.894574], [141.586795, 38.909333], [141.581895, 38.910133], [141.581296, 38.906501], [141.575027, 38.906175], [141.579704, 38.904885], [141.579514, 38.901011], [141.586026, 38.892912], [141.593714, 38.889749], [141.594106, 38.886042], [141.590259, 38.885489], [141.591664, 38.879218], [141.587971, 38.872084], [141.592129, 38.86983], [141.585842, 38.867286], [141.586259, 38.858027], [141.586819, 38.857831], [141.58483, 38.856363], [141.583348, 38.856709], [141.583391, 38.848525], [141.58692, 38.846429], [141.590761, 38.835625], [141.593256, 38.835827], [141.590781, 38.834385], [141.595826, 38.834207], [141.596433, 38.836797], [141.602754, 38.832544], [141.603661, 38.827777], [141.59672, 38.829139], [141.590367, 38.822209], [141.585606, 38.825133], [141.577364, 38.823377], [141.574764, 38.817726], [141.578411, 38.81314], [141.571439, 38.80803], [141.568688, 38.813388], [141.559059, 38.812517], [141.555104, 38.809427], [141.555705, 38.806262], [141.558885, 38.808446], [141.558175, 38.805797], [141.556255, 38.804206], [141.555361, 38.800799], [141.551207, 38.802121], [141.550178, 38.798166], [141.545988, 38.800361], [141.543824, 38.796682], [141.539043, 38.79822], [141.538317, 38.795325], [141.531231, 38.794768], [141.520414, 38.788462], [141.517912, 38.77417], [141.512791, 38.76751], [141.52027, 38.764926], [141.519694, 38.759914], [141.529112, 38.758831], [141.526949, 38.757119], [141.530644, 38.75248], [141.5277, 38.753796], [141.528642, 38.751921], [141.532643, 38.751784], [141.530401, 38.749142], [141.533752, 38.74932], [141.535223, 38.746826], [141.538136, 38.749201], [141.540913, 38.744022], [141.536374, 38.743356], [141.535068, 38.739892], [141.537389, 38.739762], [141.538544, 38.742377], [141.540719, 38.739128], [141.546831, 38.740415], [141.548642, 38.735646], [141.544856, 38.735668], [141.546012, 38.73352], [141.546387, 38.733368], [141.553051, 38.73877], [141.559245, 38.737141], [141.560466, 38.73765], [141.565333, 38.739681], [141.565602, 38.733275], [141.561172, 38.730469], [141.566557, 38.7258], [141.558572, 38.724007], [141.55984, 38.719148], [141.556662, 38.719343], [141.558656, 38.714584], [141.566409, 38.711126], [141.562753, 38.703359], [141.564111, 38.697862], [141.559655, 38.695454], [141.560273, 38.690065], [141.552886, 38.698807], [141.558855, 38.700212], [141.556673, 38.70676], [141.546639, 38.711819], [141.538004, 38.709453], [141.536202, 38.705301], [141.533846, 38.709906], [141.535772, 38.711446], [141.529114, 38.717688], [141.522263, 38.715878], [141.525551, 38.714554], [141.526158, 38.70882], [141.520819, 38.708749], [141.524197, 38.705196], [141.517271, 38.698143], [141.519223, 38.694611], [141.516434, 38.689447], [141.510617, 38.685201], [141.508837, 38.685848], [141.507984, 38.68974], [141.505634, 38.690004], [141.50623, 38.691096], [141.500673, 38.6898], [141.499747, 38.695313], [141.497736, 38.694724], [141.49701, 38.689921], [141.49037, 38.690029], [141.497092, 38.680452], [141.494676, 38.673999], [141.488372, 38.677901], [141.481627, 38.674427], [141.474829, 38.679971], [141.472864, 38.678493], [141.475543, 38.676487], [141.472854, 38.676412], [141.472635, 38.676946], [141.471411, 38.676357], [141.466021, 38.670825], [141.466486, 38.672759], [141.467631, 38.67346], [141.464984, 38.67408], [141.462227, 38.666342], [141.461229, 38.670217], [141.452599, 38.669861], [141.453699, 38.67016], [141.457716, 38.670149], [141.458399, 38.670561], [141.453609, 38.67386], [141.451422, 38.672001], [141.452218, 38.674417], [141.448856, 38.673823], [141.451056, 38.671515], [141.448154, 38.672203], [141.447991, 38.673332], [141.444256, 38.673537], [141.447204, 38.668799], [141.44617, 38.662421], [141.450213, 38.657551], [141.441172, 38.646452], [141.442908, 38.643681], [141.452152, 38.64433], [141.458074, 38.639448], [141.464248, 38.647915], [141.484374, 38.641443], [141.488723, 38.644794], [141.491828, 38.641925], [141.497589, 38.645227], [141.497148, 38.641491], [141.503884, 38.641743], [141.502915, 38.638573], [141.505729, 38.636892], [141.518543, 38.640062], [141.51886, 38.637271], [141.529685, 38.637051], [141.528838, 38.630381], [141.526944, 38.630572], [141.529045, 38.627694], [141.526641, 38.626875], [141.528742, 38.626659], [141.528255, 38.617948], [141.52415, 38.609167], [141.520467, 38.609498], [141.517418, 38.604134], [141.508398, 38.604003], [141.510814, 38.60165], [141.508298, 38.598378], [141.508456, 38.600857], [141.501314, 38.603193], [141.504575, 38.595031], [141.491926, 38.590942], [141.49252, 38.5892], [141.49422, 38.589434], [141.48735, 38.583111], [141.480217, 38.582057], [141.475332, 38.584982], [141.458568, 38.578465], [141.462895, 38.561306], [141.475062, 38.562954], [141.475499, 38.563462], [141.476675, 38.562684], [141.478386, 38.562657], [141.476206, 38.557622], [141.479841, 38.559425], [141.4826, 38.554549], [141.48784, 38.554047], [141.48569, 38.540913], [141.494045, 38.535657], [141.491475, 38.534716], [141.493528, 38.533066], [141.499775, 38.532895], [141.498277, 38.53572], [141.501849, 38.536498], [141.509976, 38.533362], [141.507964, 38.538101], [141.51449, 38.544904], [141.520537, 38.53929], [141.526131, 38.546883], [141.532222, 38.549079], [141.534857, 38.547016], [141.530207, 38.532646], [141.536831, 38.533134], [141.541694, 38.525012], [141.54794, 38.522184], [141.547285, 38.521726], [141.544579, 38.52152], [141.538598, 38.516754], [141.53929, 38.511282], [141.533853, 38.509127], [141.538939, 38.502566], [141.542804, 38.504578], [141.539117, 38.497929], [141.536822, 38.499451], [141.533322, 38.495964], [141.537208, 38.490155], [141.523916, 38.489865], [141.523117, 38.496038], [141.514944, 38.493018], [141.51633, 38.500869], [141.512421, 38.503288], [141.516226, 38.506097], [141.513677, 38.513037], [141.504652, 38.511774], [141.503425, 38.50839], [141.498506, 38.511334], [141.494132, 38.508798], [141.483236, 38.519861], [141.469455, 38.521141], [141.464967, 38.512274], [141.475162, 38.517721], [141.488964, 38.506093], [141.488954, 38.502358], [141.486881, 38.501876], [141.489284, 38.498633], [141.496222, 38.500492], [141.496203, 38.492943], [141.490767, 38.488817], [141.496028, 38.480049], [141.472746, 38.48217], [141.498773, 38.478466], [141.489317, 38.469143], [141.483627, 38.471248], [141.476176, 38.467938], [141.476303, 38.463914], [141.485576, 38.460803], [141.492197, 38.462696], [141.493065, 38.459706], [141.501595, 38.460753], [141.500195, 38.457816], [141.496008, 38.457051], [141.496643, 38.455254], [141.494657, 38.456188], [141.494177, 38.453728], [141.497524, 38.448807], [141.501982, 38.451119], [141.502946, 38.446771], [141.508935, 38.449441], [141.508798, 38.45348], [141.511948, 38.452863], [141.509338, 38.444229], [141.509038, 38.44586], [141.507933, 38.446525], [141.495841, 38.44398], [141.494403, 38.437116], [141.493063, 38.437441], [141.494366, 38.440325], [141.488507, 38.440361], [141.488733, 38.443098], [141.483533, 38.436707], [141.474056, 38.4409], [141.464362, 38.43731], [141.467023, 38.439183], [141.46096, 38.44505], [141.447388, 38.443893], [141.448091, 38.441282], [141.457663, 38.439137], [141.459437, 38.434454], [141.46332, 38.436356], [141.461989, 38.43402], [141.466028, 38.42828], [141.463428, 38.423863], [141.471546, 38.425638], [141.475032, 38.419883], [141.470316, 38.415234], [141.474573, 38.413558], [141.472603, 38.405772], [141.469938, 38.406682], [141.470038, 38.40526], [141.471559, 38.404948], [141.465505, 38.398786], [141.469639, 38.394297], [141.490794, 38.405711], [141.491899, 38.409415], [141.489559, 38.408311], [141.493111, 38.41212], [141.496687, 38.411346], [141.50194, 38.415998], [141.504579, 38.413526], [141.500874, 38.403402], [141.504356, 38.400652], [141.505883, 38.404589], [141.507126, 38.400938], [141.500038, 38.39095], [141.497691, 38.389021], [141.497823, 38.388961], [141.510836, 38.399528], [141.514855, 38.392833], [141.521832, 38.394135], [141.523945, 38.398086], [141.531133, 38.397242], [141.534392, 38.40246], [141.539005, 38.400917], [141.538268, 38.396638], [141.540939, 38.395789], [141.537625, 38.394657], [141.537745, 38.391391], [141.540614, 38.389749], [141.533136, 38.386782], [141.53069, 38.381521], [141.529625, 38.381125], [141.52704, 38.383797], [141.526707, 38.386729], [141.523795, 38.387049], [141.526574, 38.389154], [141.523775, 38.389993], [141.523947, 38.387598], [141.521986, 38.390362], [141.51589, 38.386531], [141.516767, 38.389581], [141.511936, 38.391579], [141.508091, 38.390536], [141.50722, 38.384132], [141.491459, 38.379744], [141.488348, 38.382291], [141.489023, 38.379576], [141.484595, 38.380002], [141.481312, 38.375433], [141.489613, 38.367568], [141.494972, 38.37136], [141.49825, 38.368452], [141.502864, 38.371532], [141.518095, 38.368506], [141.518321, 38.362714], [141.521895, 38.361878], [141.519462, 38.358869], [141.524487, 38.356584], [141.524414, 38.347437], [141.534185, 38.339837], [141.529895, 38.332799], [141.531051, 38.329459], [141.524646, 38.325461], [141.532447, 38.321319], [141.532546, 38.318566], [141.539748, 38.319115], [141.541015, 38.308043], [141.537344, 38.301081], [141.530615, 38.301235], [141.525579, 38.295859], [141.523545, 38.278122], [141.526793, 38.276034], [141.522981, 38.274415], [141.524948, 38.272517], [141.518788, 38.271625], [141.51158, 38.275772], [141.51021, 38.29252], [141.504354, 38.292745], [141.507797, 38.293681], [141.509283, 38.292812], [141.509021, 38.296714], [141.506617, 38.298043], [141.504516, 38.293397], [141.500757, 38.295203], [141.495651, 38.291465], [141.491883, 38.29362], [141.497174, 38.304407], [141.494036, 38.307695], [141.484082, 38.308349], [141.478257, 38.305467], [141.47014, 38.315359], [141.472096, 38.320078], [141.468037, 38.315304], [141.470482, 38.30817], [141.466747, 38.30583], [141.459977, 38.309422], [141.458723, 38.313799], [141.449471, 38.315253], [141.451132, 38.317664], [141.45884, 38.322672], [141.467446, 38.322985], [141.468157, 38.327063], [141.474115, 38.32934], [141.473109, 38.334169], [141.463128, 38.335717], [141.465158, 38.341205], [141.461422, 38.352048], [141.453751, 38.347894], [141.451532, 38.340313], [141.449119, 38.341755], [141.448253, 38.35471], [141.436127, 38.341269], [141.430638, 38.341235], [141.433524, 38.344765], [141.431352, 38.348264], [141.422058, 38.344065], [141.421454, 38.348185], [141.415788, 38.346043], [141.417432, 38.349296], [141.417042, 38.34949], [141.418112, 38.352848], [141.415236, 38.355071], [141.424011, 38.35552], [141.429878, 38.364765], [141.440616, 38.365097], [141.443614, 38.370501], [141.458835, 38.373057], [141.453126, 38.376571], [141.440205, 38.375578], [141.436922, 38.372033], [141.431788, 38.373675], [141.43827, 38.381316], [141.433037, 38.383095], [141.427822, 38.380371], [141.422693, 38.384324], [141.433519, 38.395741], [141.431095, 38.399212], [141.42824, 38.397538], [141.43, 38.396035], [141.423204, 38.394764], [141.419126, 38.39701], [141.414604, 38.391468], [141.408395, 38.404004], [141.390076, 38.385693], [141.374691, 38.383768], [141.363849, 38.388567], [141.368614, 38.393244], [141.370375, 38.400236], [141.365475, 38.402707], [141.369056, 38.407452], [141.363939, 38.409635], [141.36374, 38.411848], [141.356575, 38.414161], [141.344433, 38.413896], [141.340169, 38.409285], [141.341055, 38.412656], [141.327056, 38.412003], [141.327253, 38.409534], [141.335417, 38.409718], [141.335838, 38.409338], [141.320899, 38.408881], [141.325117, 38.409217], [141.324905, 38.41191], [141.317194, 38.411512], [141.317162, 38.407186], [141.316567, 38.407455], [141.313731, 38.413204], [141.310485, 38.413034], [141.312111, 38.409227], [141.308959, 38.414604], [141.293485, 38.414128], [141.29477, 38.400134], [141.286785, 38.399633], [141.286053, 38.408997], [141.274469, 38.409346], [141.274732, 38.406722], [141.264519, 38.397823], [141.264291, 38.397801], [141.274174, 38.408125], [141.272891, 38.411138], [141.274845, 38.414445], [141.285704, 38.416214], [141.285328, 38.419428], [141.273861, 38.416521], [141.273437, 38.419949], [141.266603, 38.419387], [141.266024, 38.412342], [141.269442, 38.410352], [141.265454, 38.40904], [141.266821, 38.407534], [141.24834, 38.40567], [141.216247, 38.395745], [141.173979, 38.375632], [141.160727, 38.364736], [141.159019, 38.353542], [141.144197, 38.36028], [141.13241, 38.359973], [141.137783, 38.371941], [141.126392, 38.379934], [141.12628, 38.380218], [141.126357, 38.379839], [141.120795, 38.378733], [141.106165, 38.38611], [141.107847, 38.380112], [141.116311, 38.376144], [141.107502, 38.375501], [141.108722, 38.370393], [141.105288, 38.368013], [141.103743, 38.372674], [141.096594, 38.374668], [141.09994, 38.375733], [141.098726, 38.378447], [141.087878, 38.381716], [141.082809, 38.380606], [141.081548, 38.376661], [141.074358, 38.377863], [141.072097, 38.372049], [141.060819, 38.367259], [141.065178, 38.350823], [141.049768, 38.355183], [141.05943, 38.350574], [141.051936, 38.350197], [141.059276, 38.3475], [141.055737, 38.348213], [141.053588, 38.344849], [141.051882, 38.347698], [141.049792, 38.345027], [141.042031, 38.349645], [141.041519, 38.349164], [141.04311, 38.346221], [141.037816, 38.34377], [141.037058, 38.339776], [141.038007, 38.339809], [141.037822, 38.337534], [141.041258, 38.33837], [141.039274, 38.334343], [141.050152, 38.339514], [141.048143, 38.336753], [141.053944, 38.330658], [141.043442, 38.3235], [141.038653, 38.324738], [141.03799, 38.322183], [141.036618, 38.322066], [141.037868, 38.323661], [141.032667, 38.324496], [141.024572, 38.320062], [141.025128, 38.319223], [141.035234, 38.319556], [141.034829, 38.318162], [141.039488, 38.319149], [141.039564, 38.316523], [141.045564, 38.318635], [141.035773, 38.307205], [141.03586, 38.305484], [141.035914, 38.307018], [141.045928, 38.312931], [141.050073, 38.309039], [141.048738, 38.313712], [141.058818, 38.312821], [141.060772, 38.316498], [141.065446, 38.321718], [141.076397, 38.319574], [141.081398, 38.305821], [141.089289, 38.303006], [141.090045, 38.300505], [141.087836, 38.295601], [141.0847, 38.292862], [141.072631, 38.294581], [141.064708, 38.288047], [141.063727, 38.28212], [141.054162, 38.280641], [141.050038, 38.276555], [141.050975, 38.278989], [141.043463, 38.276815], [141.040744, 38.279889], [141.04417, 38.272471], [141.0416, 38.269967], [141.040949, 38.271205], [141.044, 38.272507], [141.043024, 38.273892], [141.029573, 38.275565], [141.032297, 38.280214], [141.03908, 38.28177], [141.038163, 38.282807], [141.032187, 38.280247], [141.032307, 38.280476], [141.031146, 38.280933], [141.03068, 38.281116], [141.027506, 38.282366], [141.024982, 38.270991], [141.003456, 38.273859], [140.998918, 38.273109], [140.998495, 38.269999], [141.047023, 38.26563], [141.046889, 38.264641], [141.022278, 38.264327], [140.995331, 38.229723], [140.995109, 38.229784], [140.995319, 38.229715], [140.967719, 38.190978], [140.96051, 38.176021], [140.965615, 38.173499], [140.965283, 38.170512], [140.963172, 38.173559], [140.960776, 38.169756], [140.967573, 38.170468], [140.966869, 38.169576], [140.963328, 38.168661], [140.961786, 38.169268], [140.959061, 38.166454], [140.941442, 38.131776], [140.920335, 38.137716], [140.94143, 38.13177], [140.927046, 38.083248], [140.921749, 38.04711], [140.921975, 38.046986], [140.922585, 38.034913], [140.926064, 38.035174], [140.922627, 38.033874], [140.919128, 38.026618], [140.915108, 37.993558], [140.915024, 37.966407], [140.920321, 37.931233], [140.926773, 37.903237], [140.927179, 37.903185], [140.929352, 37.900433], [140.931539, 37.903997], [140.931014, 37.896171], [140.92021, 37.891997], [140.914866, 37.898029], [140.90112, 37.897638], [140.900221, 37.90433], [140.874354, 37.896624], [140.856342, 37.891025], [140.859938, 37.888664], [140.85654, 37.882605], [140.861123, 37.879401], [140.85458, 37.874518], [140.861562, 37.862829], [140.850546, 37.849314]], [[141.049418, 38.3261], [141.051772, 38.323218], [141.048576, 38.325233], [141.049418, 38.3261]], [[141.075773, 38.325519], [141.068372, 38.323707], [141.06789, 38.324575], [141.066812, 38.326772], [141.075282, 38.327977], [141.075773, 38.325519]], [[141.085828, 38.330102], [141.083604, 38.331455], [141.083956, 38.332222], [141.084506, 38.332143], [141.085828, 38.330102]], [[141.091204, 38.338478], [141.089427, 38.337652], [141.090919, 38.33545], [141.102789, 38.333254], [141.107224, 38.327553], [141.105394, 38.327223], [141.097048, 38.332578], [141.087689, 38.330754], [141.084904, 38.33585], [141.087833, 38.335463], [141.0888, 38.337418], [141.091204, 38.338478]], [[141.051717, 38.33483], [141.052857, 38.336691], [141.055372, 38.33816], [141.054294, 38.334612], [141.051717, 38.33483]], [[141.127387, 38.325719], [141.123852, 38.325695], [141.116565, 38.333345], [141.119884, 38.339481], [141.121431, 38.334683], [141.124465, 38.335124], [141.121685, 38.340114], [141.129266, 38.344881], [141.129826, 38.348978], [141.131253, 38.34505], [141.127464, 38.339631], [141.132634, 38.343334], [141.131864, 38.339166], [141.134506, 38.34272], [141.136576, 38.339217], [141.142167, 38.339289], [141.142792, 38.342475], [141.145467, 38.338257], [141.148216, 38.338826], [141.149767, 38.342594], [141.14055, 38.354314], [141.149822, 38.357125], [141.158278, 38.353205], [141.154335, 38.347994], [141.156867, 38.34961], [141.157531, 38.343327], [141.162837, 38.340378], [141.158834, 38.350395], [141.161665, 38.347999], [141.160581, 38.352197], [141.168883, 38.350137], [141.169104, 38.347842], [141.16375, 38.347141], [141.167263, 38.346892], [141.163868, 38.345602], [141.167396, 38.345505], [141.166915, 38.342362], [141.169497, 38.344719], [141.168657, 38.336497], [141.170668, 38.338866], [141.166831, 38.331991], [141.172039, 38.325202], [141.17657, 38.325619], [141.182683, 38.321531], [141.177197, 38.323648], [141.179537, 38.320887], [141.177091, 38.319483], [141.174881, 38.323124], [141.1692, 38.323145], [141.168908, 38.3262], [141.162606, 38.327936], [141.154236, 38.322346], [141.145336, 38.329989], [141.149266, 38.333898], [141.141541, 38.333195], [141.142309, 38.330084], [141.137846, 38.32991], [141.146603, 38.32469], [141.137692, 38.321676], [141.139676, 38.327288], [141.131717, 38.338367], [141.131204, 38.335588], [141.126859, 38.335754], [141.13127, 38.332282], [141.125801, 38.331274], [141.128685, 38.329149], [141.127387, 38.325719]], [[141.115743, 38.336309], [141.111174, 38.336298], [141.108826, 38.332904], [141.109818, 38.331089], [141.105408, 38.336027], [141.104829, 38.335655], [141.10531, 38.336137], [141.104292, 38.337276], [141.103547, 38.343356], [141.106471, 38.342042], [141.106682, 38.340229], [141.107547, 38.339929], [141.107596, 38.339208], [141.110666, 38.340902], [141.113223, 38.338181], [141.121475, 38.344673], [141.115743, 38.336309]], [[141.043598, 38.340451], [141.041082, 38.340755], [141.043814, 38.343209], [141.045255, 38.342889], [141.043598, 38.340451]], [[141.115868, 38.341516], [141.113975, 38.340933], [141.11236, 38.342931], [141.116572, 38.342879], [141.115868, 38.341516]], [[141.053325, 38.344598], [141.052939, 38.343712], [141.05185, 38.344062], [141.052772, 38.344834], [141.053325, 38.344598]], [[141.109749, 38.346844], [141.111995, 38.346832], [141.112451, 38.345333], [141.109984, 38.345407], [141.109749, 38.346844]], [[141.115151, 38.353411], [141.117371, 38.347602], [141.114076, 38.345647], [141.111801, 38.348113], [141.113778, 38.34883], [141.115151, 38.353411]], [[141.119291, 38.352821], [141.120967, 38.350597], [141.120379, 38.349983], [141.122451, 38.347977], [141.118951, 38.348254], [141.119291, 38.352821]], [[141.125153, 38.353809], [141.125503, 38.351967], [141.122873, 38.348861], [141.121077, 38.354223], [141.121278, 38.354217], [141.125153, 38.353809]], [[141.117838, 38.353898], [141.116565, 38.353981], [141.118218, 38.355689], [141.117838, 38.353898]], [[141.077044, 38.362291], [141.074922, 38.363591], [141.075713, 38.365429], [141.078452, 38.363121], [141.077044, 38.362291]], [[141.081962, 38.364239], [141.078956, 38.366677], [141.080338, 38.366258], [141.088167, 38.364756], [141.085108, 38.363398], [141.084991, 38.364372], [141.081962, 38.364239]], [[141.069869, 38.365966], [141.07006, 38.36882], [141.073171, 38.367129], [141.072971, 38.365469], [141.069869, 38.365966]], [[141.077075, 38.377214], [141.0818, 38.375968], [141.082286, 38.375586], [141.08062, 38.374615], [141.078, 38.375311], [141.075012, 38.376919], [141.077075, 38.377214]], [[141.492762, 38.25801], [141.494861, 38.255386], [141.49733, 38.25741], [141.495476, 38.259163], [141.499217, 38.256865], [141.496478, 38.251172], [141.50119, 38.247022], [141.497628, 38.246473], [141.493834, 38.251186], [141.479857, 38.249893], [141.475392, 38.252864], [141.472208, 38.263776], [141.468058, 38.266721], [141.464973, 38.265118], [141.46651, 38.268622], [141.457014, 38.268236], [141.459687, 38.272912], [141.458281, 38.273226], [141.456573, 38.273619], [141.463335, 38.276735], [141.460395, 38.28333], [141.466748, 38.280462], [141.470397, 38.283623], [141.481749, 38.27797], [141.489761, 38.265591], [141.489641, 38.259388], [141.494825, 38.258555], [141.492762, 38.25801]], [[141.436717, 38.288185], [141.435627, 38.288073], [141.435002, 38.288822], [141.435038, 38.291001], [141.435912, 38.289534], [141.436717, 38.288185]], [[141.429537, 38.292779], [141.408724, 38.285014], [141.406837, 38.288409], [141.412791, 38.299028], [141.411215, 38.30079], [141.409949, 38.302212], [141.410649, 38.307747], [141.418701, 38.311882], [141.422277, 38.306828], [141.419588, 38.306073], [141.420263, 38.303021], [141.426131, 38.296036], [141.424284, 38.294574], [141.428429, 38.294185], [141.429566, 38.293705], [141.429537, 38.292779]], [[141.475795, 38.302679], [141.4768, 38.301047], [141.475125, 38.301665], [141.475795, 38.302679]], [[141.163579, 38.31405], [141.163238, 38.313447], [141.162131, 38.314409], [141.162464, 38.315279], [141.163579, 38.31405]], [[141.186985, 38.316628], [141.187064, 38.315145], [141.185069, 38.315153], [141.18626, 38.317048], [141.186985, 38.316628]], [[141.158993, 38.320826], [141.159521, 38.320004], [141.161622, 38.316735], [141.155286, 38.318258], [141.157659, 38.321131], [141.158993, 38.320826]], [[141.15364, 38.318997], [141.152872, 38.321529], [141.154021, 38.32071], [141.15364, 38.318997]], [[141.166839, 38.354142], [141.16252, 38.352642], [141.160103, 38.353008], [141.163067, 38.355801], [141.166839, 38.354142]], [[141.426233, 38.364671], [141.422483, 38.364236], [141.426336, 38.365353], [141.426233, 38.364671]], [[141.417389, 38.376886], [141.42049, 38.380855], [141.42708, 38.379974], [141.424769, 38.377723], [141.417389, 38.376886]], [[141.378871, 38.381865], [141.380488, 38.382196], [141.375948, 38.381204], [141.377652, 38.383012], [141.378871, 38.381865]], [[141.278594, 38.392258], [141.27866, 38.392147], [141.269338, 38.387016], [141.278594, 38.392258]], [[141.345217, 38.40193], [141.338744, 38.403116], [141.342181, 38.403284], [141.345217, 38.40193]], [[141.284598, 38.41652], [141.279919, 38.417494], [141.283963, 38.417826], [141.284598, 38.41652]], [[141.494141, 38.560232], [141.493785, 38.55753], [141.49171, 38.55712], [141.492454, 38.558994], [141.494141, 38.560232]], [[141.478631, 38.563835], [141.478538, 38.562746], [141.477438, 38.562993], [141.478631, 38.563835]], [[141.49072, 38.651176], [141.487083, 38.650094], [141.487223, 38.650916], [141.488967, 38.653102], [141.49072, 38.651176]], [[141.579106, 38.286898], [141.583282, 38.281143], [141.581312, 38.279657], [141.586131, 38.277275], [141.574581, 38.269283], [141.553586, 38.286576], [141.552642, 38.287353], [141.552013, 38.293948], [141.551666, 38.294126], [141.549811, 38.297623], [141.547843, 38.302646], [141.550669, 38.305319], [141.570229, 38.312825], [141.568392, 38.308301], [141.589673, 38.301757], [141.579106, 38.286898]], [[141.525787, 38.356554], [141.52587, 38.357805], [141.527225, 38.35805], [141.527091, 38.356517], [141.525787, 38.356554]], [[141.529399, 38.35966], [141.530621, 38.359433], [141.530639, 38.357726], [141.529343, 38.357737], [141.529399, 38.35966]], [[141.601767, 38.389409], [141.606011, 38.392037], [141.606248, 38.391507], [141.604767, 38.386514], [141.600307, 38.385731], [141.601767, 38.389409]], [[141.592053, 38.395848], [141.592838, 38.395687], [141.592627, 38.394632], [141.591817, 38.394933], [141.592053, 38.395848]], [[141.589782, 38.399961], [141.594194, 38.400222], [141.591854, 38.402663], [141.59223, 38.402648], [141.594124, 38.400876], [141.595346, 38.40037], [141.59665, 38.402649], [141.598091, 38.401239], [141.599408, 38.400871], [141.599238, 38.399634], [141.599566, 38.398216], [141.593393, 38.395723], [141.591473, 38.396435], [141.589782, 38.399961]], [[141.579801, 38.400884], [141.583283, 38.40468], [141.583598, 38.403164], [141.58046, 38.399823], [141.579801, 38.400884]], [[141.549372, 38.402339], [141.548967, 38.40228], [141.548607, 38.403933], [141.550038, 38.403693], [141.550866, 38.402827], [141.549372, 38.402339]], [[141.554156, 38.405042], [141.553628, 38.403403], [141.551572, 38.403079], [141.554191, 38.406398], [141.554156, 38.405042]], [[141.507253, 38.408894], [141.506126, 38.408623], [141.506405, 38.40998], [141.507532, 38.409633], [141.507253, 38.408894]], [[141.595051, 38.422312], [141.591624, 38.422401], [141.593187, 38.424403], [141.59574, 38.423276], [141.595051, 38.422312]], [[141.526419, 38.436967], [141.524033, 38.438123], [141.527724, 38.439989], [141.521608, 38.439585], [141.516615, 38.449789], [141.519351, 38.456587], [141.516363, 38.457049], [141.517604, 38.461782], [141.515232, 38.462388], [141.518783, 38.465538], [141.526203, 38.459547], [141.524632, 38.453692], [141.531937, 38.454303], [141.529401, 38.450193], [141.534949, 38.443795], [141.526419, 38.436967]], [[141.515206, 38.4584], [141.512177, 38.45834], [141.514452, 38.459644], [141.515522, 38.459429], [141.515206, 38.4584]], [[141.512201, 38.511794], [141.513874, 38.510908], [141.51008, 38.511311], [141.512201, 38.511794]], [[141.513449, 38.555548], [141.516745, 38.555662], [141.516196, 38.55459], [141.511717, 38.549904], [141.513297, 38.555284], [141.513449, 38.555548]], [[141.514916, 38.561673], [141.516184, 38.563085], [141.516667, 38.561965], [141.515989, 38.561215], [141.514916, 38.561673]], [[141.529769, 38.638796], [141.530398, 38.638713], [141.531884, 38.637765], [141.530225, 38.637681], [141.529769, 38.638796]], [[141.510728, 38.674875], [141.510041, 38.674976], [141.509839, 38.676259], [141.51116, 38.67577], [141.510728, 38.674875]], [[141.625903, 38.82746], [141.626888, 38.827665], [141.627287, 38.826259], [141.626297, 38.826393], [141.625903, 38.82746]], [[141.625987, 38.83252], [141.6262, 38.833635], [141.627783, 38.833018], [141.627715, 38.831826], [141.625987, 38.83252]], [[141.641595, 38.844359], [141.643315, 38.8413], [141.640875, 38.842613], [141.640291, 38.844533], [141.641595, 38.844359]], [[141.639793, 38.85056], [141.639883, 38.848517], [141.638898, 38.848507], [141.638006, 38.85019], [141.639753, 38.851474], [141.639793, 38.85056]], [[141.627263, 38.84795], [141.636331, 38.84849], [141.63643, 38.84805], [141.633467, 38.846764], [141.633166, 38.845623], [141.637772, 38.840418], [141.633945, 38.838151], [141.628517, 38.840053], [141.625094, 38.831247], [141.615544, 38.839005], [141.617397, 38.841618], [141.610487, 38.847571], [141.613847, 38.849001], [141.604705, 38.860404], [141.606722, 38.864989], [141.612929, 38.865377], [141.607189, 38.866512], [141.601683, 38.873504], [141.605393, 38.877635], [141.618675, 38.878758], [141.624265, 38.885486], [141.627762, 38.878296], [141.634404, 38.87471], [141.631238, 38.871949], [141.634333, 38.867348], [141.630291, 38.863104], [141.626851, 38.864515], [141.622392, 38.861571], [141.627723, 38.856148], [141.622419, 38.851345], [141.627263, 38.84795]], [[141.659865, 38.859869], [141.659799, 38.861283], [141.660957, 38.860286], [141.659865, 38.859869]], [[141.644472, 38.94327], [141.645182, 38.944524], [141.646592, 38.943988], [141.646061, 38.943244], [141.644472, 38.94327]]]}}], "name": "宮城県"}