{"type":"FeatureCollection","name":"富山県","features":[{"type":"Feature","properties":{"name":"富山県"},"geometry":{"type":"MultiLineString","coordinates":[[[137.05833333,36.37175259],[137.06216647,36.36614092],[137.04890442,36.3454948],[137.05873553,36.34250033],[137.05151492,36.32813284],[137.03757097,36.31743867],[137.01974125,36.31828092],[137.01259558,36.2930998],[136.98621611,36.28627456],[136.97530577,36.27436403],[136.95773469,36.2779368],[136.97328872,36.30985236],[136.95489689,36.33935044],[136.90747423,36.36084156],[136.89009053,36.34555847],[136.87475691,36.34279289],[136.87122092,36.367549],[136.86510027,36.34966036],[136.83715192,36.34721559],[136.84249659,36.33271586],[136.83236764,36.30681141],[136.79063764,36.30188631],[136.78465861,36.34378713],[136.80819003,36.35868859],[136.795143,36.40126389],[136.7697992,36.41499747],[136.76865175,36.42876695],[136.79672514,36.44468808],[136.78820239,36.45268531],[136.7983627,36.46164864],[136.79555053,36.47488559],[136.80281778,36.485007],[136.79395005,36.49698113],[136.7951062,36.5108078],[136.81723403,36.55238592],[136.80244406,36.56877172],[136.79100825,36.56962197],[136.79531856,36.58484113],[136.78314876,36.61683184],[136.78481995,36.62850372],[136.79990336,36.63640453],[136.80056872,36.64657197],[136.82383586,36.67017187],[136.82057569,36.68392987],[136.81002569,36.68658625],[136.81558161,36.70050703],[136.78921536,36.71902644],[136.79610148,36.72957728],[136.81986144,36.7306498],[136.82196086,36.74030008],[136.83931423,36.74520231],[136.84916477,36.75923425],[136.85266562,36.77032867],[136.84313586,36.78231456],[136.85405345,36.79466059],[136.84880961,36.81315859],[136.86001805,36.82907677],[136.8564417,36.83979147],[136.86722953,36.85091861],[136.86238869,36.86032669],[136.88303167,36.87682428],[136.8789763,36.90627103],[136.89558148,36.92471969],[136.91561224,36.93080777],[136.93095361,36.95060256],[136.94796747,36.955364],[136.97374689,36.9443118],[136.98694822,36.9672968],[137.00508742,36.96113105],[137.04227192,36.96532669],[137.05169844,36.95917344],[137.02744127,36.93999537],[137.03258317,36.92376135],[136.98490407,36.87687097],[136.99326843,36.86322033],[136.99110907,36.8537212],[137.00806778,36.83569203],[137.05682016,36.80160415],[137.05790847,36.806502],[137.06893722,36.80142401],[137.06413263,36.79759595],[137.08280569,36.78410253],[137.11429542,36.78204278],[137.10785008,36.77932289],[137.11359686,36.7745273],[137.09392012,36.7756362],[137.09735645,36.77142331],[137.09220014,36.77043139],[137.11210144,36.76789189],[137.1112875,36.76198914],[137.13435399,36.75988212],[137.11831911,36.76650617],[137.11892917,36.78421961],[137.14111772,36.77276214],[137.13793567,36.76945397],[137.18093131,36.75767289],[137.23415463,36.76436653],[137.22920051,36.76674861],[137.30106665,36.75566664],[137.33350171,36.76244915],[137.34763314,36.781019],[137.39281195,36.80713036],[137.39205569,36.82366896],[137.41120484,36.84777611],[137.40891761,36.86014778],[137.41852737,36.87292311],[137.41861997,36.89327959],[137.41456008,36.88965147],[137.40891628,36.89725003],[137.43552769,36.93094903],[137.49743558,36.95604525],[137.57458289,36.96413303],[137.58760694,36.97481453],[137.63199698,36.97982997],[137.65153639,36.96902039],[137.66650611,36.95023903],[137.71123341,36.944174],[137.72045667,36.92668964],[137.7135182,36.89143839],[137.73412949,36.86883208],[137.73008136,36.82642589],[137.74932822,36.80957608],[137.75429375,36.79658908],[137.74955455,36.78002492],[137.76338674,36.76823347],[137.75177231,36.7511082],[137.75929425,36.74074067],[137.75075345,36.726584],[137.75002511,36.70474536],[137.76186387,36.66618339],[137.75345409,36.65776811],[137.7546217,36.63911923],[137.74424542,36.61750922],[137.7530972,36.59372228],[137.74786328,36.58685395],[137.72430769,36.58649061],[137.68773776,36.5620745],[137.68459764,36.53780733],[137.71055328,36.53574205],[137.7027518,36.52469572],[137.70546956,36.51788769],[137.69429616,36.51068244],[137.67725752,36.51435464],[137.66697109,36.50640547],[137.66644492,36.49342441],[137.65340934,36.49002859],[137.65541005,36.45917231],[137.64529336,36.45453033],[137.63330433,36.42502231],[137.60807903,36.41941636],[137.60536117,36.40253833],[137.59240747,36.38967497],[137.55950525,36.38745156],[137.52026392,36.40606728],[137.51041367,36.42432139],[137.47410776,36.42540914],[137.46071156,36.41222611],[137.40470691,36.42669105],[137.39522163,36.43639747],[137.38993594,36.45992164],[137.36149778,36.45005139],[137.35120655,36.43290253],[137.31862066,36.42444092],[137.30500684,36.43583539],[137.3177883,36.45118203],[137.3170117,36.46080317],[137.30851837,36.46377539],[137.2985125,36.45822986],[137.27848447,36.46499575],[137.25637859,36.45114133],[137.24761197,36.46196387],[137.20562983,36.42760417],[137.19167525,36.45521336],[137.17493936,36.45006225],[137.16070856,36.45663447],[137.13226761,36.43456311],[137.12200031,36.41715005],[137.11151031,36.41538284],[137.10192577,36.39919311],[137.09194411,36.39654033],[137.09488267,36.38396672],[137.07659322,36.38364395],[137.05833333,36.37175259]],[[137.04518316,36.81440308],[137.04518316,36.81440308]],[[136.99542861,36.86208336],[136.99542861,36.86208336]],[[136.99538235,36.86386811],[136.99538235,36.86386811]],[[136.99515798,36.86504501],[136.99515798,36.86504501]],[[137.00987385,36.89524609],[137.00987385,36.89524609]],[[137.03153702,36.9275345],[137.03153702,36.9275345]],[[137.03992515,36.93122995],[137.03992515,36.93122995]],[[137.04050664,36.93156121],[137.04050664,36.93156121]],[[137.03988109,36.93191428],[137.03988109,36.93191428]],[[137.04230747,36.93221484],[137.04230747,36.93221484]],[[137.04156921,36.93261509],[137.04156921,36.93261509]],[[137.04168169,36.93268965],[137.04168169,36.93268965]],[[137.04196756,36.93271717],[137.04196756,36.93271717]],[[137.04122169,36.94890502],[137.04122169,36.94890502]],[[137.13267254,36.75985748],[137.13267254,36.75985748]],[[137.19176346,36.76157009],[137.19176346,36.76157009]],[[137.1423483,36.77277925],[137.1423483,36.77277925]],[[137.10972202,36.78011651],[137.10972202,36.78011651]],[[137.11044272,36.78028467],[137.11044272,36.78028467]],[[137.08315503,36.78555472],[137.08315503,36.78555472]],[[137.082829,36.78688531],[137.082829,36.78688531]],[[137.07509773,36.80199199],[137.07509773,36.80199199]],[[137.06769122,36.80851146],[137.07526477,36.80221796],[137.06353807,36.81189652],[137.06769122,36.80851146]],[[137.05290983,36.81030228],[137.05290983,36.81030228]],[[137.4149565,36.86614808],[137.4149565,36.86614808]],[[137.41312575,36.86591164],[137.41312575,36.86591164]],[[137.41416464,36.889737],[137.41416464,36.889737]],[[137.41520742,36.86622678],[137.41520742,36.86622678]],[[137.41541494,36.8664445],[137.41541494,36.8664445]],[[137.41703852,36.90955436],[137.41703852,36.90955436]],[[137.41729224,36.90989159],[137.41729224,36.90989159]],[[137.4193717,36.91503997],[137.4193717,36.91503997]],[[137.55795475,36.9626402],[137.55795475,36.9626402]],[[137.55788358,36.96266903],[137.55788358,36.96266903]],[[137.586603,36.97509039],[137.586603,36.97509039]],[[137.58844728,36.97787433],[137.58844728,36.97787433]],[[137.58854005,36.977921],[137.58854005,36.977921]],[[137.58852311,36.97809517],[137.58852311,36.97809517]],[[137.58989256,36.98152767],[137.58989256,36.98152767]],[[137.59023258,36.98242878],[137.59023258,36.98242878]]]}}]}