{"type": "FeatureCollection", "features": [{"type": "Feature", "properties": {"name": "山形県"}, "geometry": {"type": "MultiLineString", "coordinates": [[[140.267339, 37.847566], [140.262259, 37.83393], [140.268994, 37.823788], [140.298821, 37.807924], [140.282211, 37.798229], [140.276288, 37.781768], [140.266034, 37.779065], [140.25495, 37.764618], [140.244371, 37.758414], [140.237043, 37.746379], [140.204821, 37.74753], [140.199599, 37.752811], [140.166657, 37.757287], [140.14601, 37.75272], [140.140693, 37.738079], [140.127621, 37.733943], [140.103384, 37.737186], [140.08673, 37.758044], [140.069123, 37.757844], [140.065, 37.767618], [140.053517, 37.770839], [140.019503, 37.762023], [139.986499, 37.760408], [139.978946, 37.773552], [139.960146, 37.795648], [139.957919, 37.814861], [139.940196, 37.822457], [139.938309, 37.830122], [139.924658, 37.813464], [139.90738, 37.815427], [139.898831, 37.81028], [139.879447, 37.81027], [139.857717, 37.826539], [139.837875, 37.814495], [139.821614, 37.811994], [139.809758, 37.803261], [139.803417, 37.815162], [139.794743, 37.817817], [139.782954, 37.831969], [139.755422, 37.822132], [139.741307, 37.820293], [139.732368, 37.832372], [139.720856, 37.839687], [139.715637, 37.854158], [139.697283, 37.848734], [139.678833, 37.851708], [139.658344, 37.862528], [139.656875, 37.871591], [139.638591, 37.879924], [139.629317, 37.893657], [139.631772, 37.900946], [139.624806, 37.918069], [139.639386, 37.934717], [139.640094, 37.952425], [139.645247, 37.962627], [139.637974, 37.969952], [139.639344, 37.98552], [139.654457, 37.997025], [139.652292, 38.021205], [139.654674, 38.035165], [139.68007, 38.043164], [139.692726, 38.057029], [139.686165, 38.065038], [139.691802, 38.07506], [139.671333, 38.076874], [139.672486, 38.089117], [139.690662, 38.118821], [139.688354, 38.134575], [139.692263, 38.148658], [139.682266, 38.171787], [139.696227, 38.185463], [139.698636, 38.202946], [139.713224, 38.206644], [139.738914, 38.202022], [139.754895, 38.193099], [139.763966, 38.198954], [139.786425, 38.192269], [139.810954, 38.211516], [139.860309, 38.23116], [139.876598, 38.261789], [139.90032, 38.275944], [139.898888, 38.293152], [139.879326, 38.303429], [139.874815, 38.316774], [139.847588, 38.336707], [139.848936, 38.342847], [139.827695, 38.344743], [139.816491, 38.356012], [139.790627, 38.348767], [139.770722, 38.352906], [139.761629, 38.361061], [139.75011, 38.359419], [139.7324, 38.371601], [139.722635, 38.393844], [139.709805, 38.386765], [139.703389, 38.400218], [139.717208, 38.421324], [139.717725, 38.447217], [139.711396, 38.476801], [139.725147, 38.485245], [139.721804, 38.496187], [139.702528, 38.499163], [139.693162, 38.506799], [139.653064, 38.506968], [139.637574, 38.511552], [139.631288, 38.521974], [139.620939, 38.525593], [139.599829, 38.52206], [139.577266, 38.539625], [139.560727, 38.542867], [139.543534, 38.560265], [139.574081, 38.605023], [139.574152, 38.611362], [139.587228, 38.625365], [139.595156, 38.646726], [139.611235, 38.66432], [139.609783, 38.669131], [139.627206, 38.687364], [139.635249, 38.684662], [139.660617, 38.704301], [139.668985, 38.718184], [139.690319, 38.723141], [139.707399, 38.750408], [139.722596, 38.763299], [139.74643, 38.775186], [139.761767, 38.80024], [139.777391, 38.832318], [139.804849, 38.9061], [139.81006, 38.929747], [139.821768, 38.949235], [139.818887, 38.960525], [139.82601, 38.974861], [139.841916, 38.984021], [139.840239, 38.985128], [139.867151, 39.052328], [139.867533, 39.073699], [139.879343, 39.096205], [139.86959, 39.118258], [139.90604, 39.118828], [139.945654, 39.112831], [139.948052, 39.117167], [139.994447, 39.105516], [139.997641, 39.115839], [140.007766, 39.12304], [140.062439, 39.133499], [140.062457, 39.092885], [140.076101, 39.086099], [140.102362, 39.083272], [140.114725, 39.078199], [140.124462, 39.063988], [140.137796, 39.065568], [140.145326, 39.046996], [140.162501, 39.054261], [140.198107, 39.061257], [140.204766, 39.053496], [140.20155, 39.035027], [140.231582, 39.026958], [140.245441, 39.030901], [140.286635, 39.028093], [140.293908, 39.018218], [140.310723, 39.013589], [140.318736, 39.025125], [140.331819, 39.030719], [140.354718, 39.023852], [140.376225, 38.994458], [140.41357, 38.989997], [140.431859, 38.991902], [140.4463, 38.979592], [140.453693, 38.958839], [140.451259, 38.947318], [140.428394, 38.933118], [140.449583, 38.945595], [140.458308, 38.933885], [140.461864, 38.919718], [140.482441, 38.91655], [140.485156, 38.901972], [140.493685, 38.901392], [140.484867, 38.880705], [140.494322, 38.898996], [140.503414, 38.894591], [140.515822, 38.900356], [140.538244, 38.900189], [140.547738, 38.890189], [140.547636, 38.880982], [140.538687, 38.871065], [140.540046, 38.861892], [140.553477, 38.858833], [140.566302, 38.848044], [140.590728, 38.836044], [140.598887, 38.825267], [140.595672, 38.802327], [140.603526, 38.783705], [140.626981, 38.773954], [140.637283, 38.777387], [140.646462, 38.769516], [140.635032, 38.760946], [140.631339, 38.747114], [140.620356, 38.738658], [140.620238, 38.73072], [140.607039, 38.721313], [140.606832, 38.703437], [140.620728, 38.696291], [140.624424, 38.687171], [140.606015, 38.655418], [140.601168, 38.639796], [140.589941, 38.633818], [140.569745, 38.638047], [140.562752, 38.648062], [140.546377, 38.649982], [140.537397, 38.634272], [140.552218, 38.613344], [140.562122, 38.607253], [140.558446, 38.597637], [140.569735, 38.594066], [140.571004, 38.580257], [140.578467, 38.570086], [140.566413, 38.560376], [140.56464, 38.545724], [140.554289, 38.54135], [140.555177, 38.530863], [140.571956, 38.525638], [140.563466, 38.510706], [140.574141, 38.494661], [140.60423, 38.482282], [140.60821, 38.458403], [140.613436, 38.453603], [140.597765, 38.436529], [140.586116, 38.440908], [140.579397, 38.423176], [140.571319, 38.413382], [140.574531, 38.396681], [140.56355, 38.377273], [140.552211, 38.376213], [140.545529, 38.364117], [140.529292, 38.359934], [140.521668, 38.349667], [140.529742, 38.320698], [140.520283, 38.309515], [140.504341, 38.314327], [140.492454, 38.302226], [140.496948, 38.283144], [140.487993, 38.27456], [140.47118, 38.269361], [140.470957, 38.213837], [140.478348, 38.198376], [140.480151, 38.182135], [140.469594, 38.170558], [140.467658, 38.156976], [140.442954, 38.143753], [140.445685, 38.129855], [140.431836, 38.12721], [140.417464, 38.103478], [140.420665, 38.085259], [140.40323, 38.070566], [140.383015, 38.07151], [140.374981, 38.057439], [140.355644, 38.058476], [140.344598, 38.053374], [140.319912, 38.055373], [140.302712, 38.053566], [140.289085, 38.059339], [140.268984, 38.059415], [140.2833, 38.050218], [140.275727, 38.030904], [140.289615, 38.007206], [140.276246, 37.993032], [140.280003, 37.976644], [140.271297, 37.966818], [140.278075, 37.952629], [140.276505, 37.926351], [140.267131, 37.917583], [140.264644, 37.906216], [140.27072, 37.890737], [140.265467, 37.862155], [140.267339, 37.847566]]]}}], "name": "山形県"}