{"type": "FeatureCollection", "features": [{"type": "Feature", "properties": {"name": "山口県"}, "geometry": {"type": "MultiLineString", "coordinates": [[[130.860548, 33.97096], [130.861314, 33.979519], [130.866092, 33.980962], [130.868749, 33.977869], [130.867247, 33.971427], [130.860548, 33.97096]], [[130.898313, 33.98494], [130.889596, 33.98647], [130.894476, 33.993734], [130.905395, 33.990337], [130.898887, 33.990412], [130.898313, 33.98494]], [[131.158527, 33.961286], [131.169727, 33.963576], [131.166573, 33.964297], [131.166663, 33.966136], [131.160147, 33.964458], [131.161978, 33.969873], [131.173279, 33.969372], [131.167977, 33.971364], [131.17464, 33.974501], [131.172587, 33.975537], [131.169466, 33.97493], [131.169201, 33.978369], [131.164713, 33.973453], [131.161037, 33.973868], [131.161537, 33.977847], [131.167128, 33.978871], [131.16061, 33.986627], [131.169774, 33.992447], [131.170076, 33.99686], [131.155971, 33.988808], [131.14619, 33.995155], [131.150652, 34.00352], [131.134188, 34.004295], [131.135118, 34.000757], [131.134043, 33.999894], [131.139463, 33.991346], [131.133434, 33.990464], [131.132252, 33.996516], [131.118106, 34.006952], [131.107899, 34.025285], [131.094183, 34.036775], [131.093284, 34.036424], [131.085148, 34.037851], [131.083239, 34.033747], [131.067789, 34.038934], [131.047439, 34.042282], [131.047835, 34.050412], [131.042799, 34.053761], [131.043423, 34.057397], [131.036848, 34.057082], [131.028413, 34.045673], [131.031758, 34.042833], [131.030622, 34.039276], [131.018607, 34.032621], [131.015576, 34.026145], [131.0122, 34.026968], [131.021258, 34.020119], [131.014636, 34.012038], [131.011709, 34.00963], [131.003358, 34.016523], [131.000479, 34.008862], [131.006275, 34.003079], [131.003504, 33.999113], [130.997561, 34.004077], [130.996752, 33.995134], [130.99296, 33.995247], [130.993895, 33.993301], [130.996623, 33.994262], [130.996758, 33.989764], [130.942801, 33.955986], [130.937951, 33.949157], [130.933101, 33.947595], [130.92462, 33.94741], [130.927254, 33.943501], [130.929195, 33.941573], [130.928368, 33.938424], [130.915229, 33.938812], [130.92002, 33.952592], [130.914648, 33.953205], [130.91767, 33.950871], [130.917259, 33.948469], [130.912873, 33.942719], [130.914685, 33.938343], [130.925086, 33.936839], [130.923779, 33.933405], [130.92835, 33.926736], [130.92344, 33.914326], [130.910993, 33.911138], [130.90264, 33.914624], [130.901221, 33.918824], [130.90885, 33.921355], [130.910131, 33.926174], [130.899277, 33.920196], [130.898444, 33.923243], [130.899479, 33.92813], [130.898265, 33.930617], [130.89613, 33.927635], [130.893416, 33.932411], [130.89688, 33.933575], [130.893493, 33.939258], [130.888271, 33.938099], [130.87459, 33.946209], [130.875886, 33.947412], [130.87438, 33.948927], [130.877119, 33.955316], [130.879248, 33.954453], [130.87604, 33.947555], [130.882603, 33.953649], [130.894826, 33.944162], [130.901, 33.94563], [130.90494, 33.952448], [130.90835, 33.950468], [130.913841, 33.953298], [130.905843, 33.954211], [130.913686, 33.963437], [130.912706, 33.970408], [130.916898, 33.978858], [130.908694, 33.992496], [130.909898, 34.001283], [130.915763, 34.009384], [130.916115, 34.020622], [130.909777, 34.026171], [130.909436, 34.023734], [130.90356, 34.025349], [130.914315, 34.043484], [130.912065, 34.059145], [130.906517, 34.063842], [130.901306, 34.060277], [130.901689, 34.062764], [130.901054, 34.064481], [130.90196, 34.066342], [130.899721, 34.067043], [130.895572, 34.070732], [130.891981, 34.063357], [130.888804, 34.064943], [130.888087, 34.072059], [130.882058, 34.074512], [130.881727, 34.079072], [130.87561, 34.080732], [130.881424, 34.084758], [130.87399, 34.089801], [130.87235, 34.0844], [130.870423, 34.08639], [130.874151, 34.090628], [130.872806, 34.098718], [130.861782, 34.10403], [130.86039, 34.11079], [130.865248, 34.114075], [130.866677, 34.13681], [130.874206, 34.138526], [130.878909, 34.136268], [130.880961, 34.142009], [130.886591, 34.141675], [130.887784, 34.138302], [130.883938, 34.137448], [130.887907, 34.134942], [130.900649, 34.138682], [130.904562, 34.147407], [130.901224, 34.148601], [130.899561, 34.152437], [130.904221, 34.152787], [130.908734, 34.158799], [130.916051, 34.159889], [130.926132, 34.170409], [130.92588, 34.180053], [130.931259, 34.183069], [130.933538, 34.189056], [130.929805, 34.211527], [130.916241, 34.214955], [130.922499, 34.225591], [130.921473, 34.239735], [130.900539, 34.254409], [130.896305, 34.265998], [130.886887, 34.271877], [130.866861, 34.287829], [130.872823, 34.29546], [130.881999, 34.295366], [130.886042, 34.302501], [130.882965, 34.306358], [130.884905, 34.310869], [130.886685, 34.311594], [130.892805, 34.309826], [130.89081, 34.317726], [130.891315, 34.318942], [130.895564, 34.31998], [130.897952, 34.324788], [130.89134, 34.32431], [130.893733, 34.332391], [130.892723, 34.333197], [130.889576, 34.3323], [130.891726, 34.338529], [130.889675, 34.344356], [130.899206, 34.350919], [130.8993, 34.355374], [130.900959, 34.362965], [130.906254, 34.363382], [130.914173, 34.351471], [130.921324, 34.353683], [130.927877, 34.341323], [130.935032, 34.348222], [130.935023, 34.352122], [130.94873, 34.352289], [130.98043, 34.363475], [130.981119, 34.363111], [130.986408, 34.368352], [130.991761, 34.367733], [131.000862, 34.374038], [131.005551, 34.370482], [131.017853, 34.374803], [131.035897, 34.371268], [131.034337, 34.385066], [131.020833, 34.391292], [131.01668, 34.404757], [131.002831, 34.397542], [130.979988, 34.39948], [130.972193, 34.407707], [130.956933, 34.405507], [130.958547, 34.40793], [130.949896, 34.402775], [130.956562, 34.396859], [130.955082, 34.38892], [130.944957, 34.387615], [130.934613, 34.392412], [130.937426, 34.403692], [130.946469, 34.403361], [130.958778, 34.411815], [130.957124, 34.420148], [130.960298, 34.426567], [130.970185, 34.428321], [130.97332, 34.432043], [130.972364, 34.442312], [130.980715, 34.435221], [131.003004, 34.428013], [131.004759, 34.415173], [131.019877, 34.411001], [131.046409, 34.410923], [131.057752, 34.415455], [131.06331, 34.42146], [131.068651, 34.418421], [131.070833, 34.424013], [131.074381, 34.424578], [131.087402, 34.419542], [131.097645, 34.42021], [131.11279, 34.409239], [131.128298, 34.412124], [131.12895, 34.417436], [131.131939, 34.417813], [131.130715, 34.411018], [131.139566, 34.399632], [131.137475, 34.390854], [131.143445, 34.380579], [131.148318, 34.380616], [131.155551, 34.372515], [131.167883, 34.372568], [131.17615, 34.375923], [131.177301, 34.37534], [131.181234, 34.377597], [131.179379, 34.380224], [131.188015, 34.380598], [131.198508, 34.397561], [131.201669, 34.396911], [131.202128, 34.390061], [131.204826, 34.392497], [131.205422, 34.38934], [131.202511, 34.387111], [131.209027, 34.380358], [131.205925, 34.373518], [131.215327, 34.370832], [131.223076, 34.380004], [131.225057, 34.378952], [131.221193, 34.385717], [131.225322, 34.393278], [131.229947, 34.388596], [131.235713, 34.391012], [131.242665, 34.384123], [131.249288, 34.383511], [131.248203, 34.38154], [131.256189, 34.38393], [131.255962, 34.389666], [131.262005, 34.38416], [131.275359, 34.390242], [131.279757, 34.38837], [131.280615, 34.383562], [131.286572, 34.387175], [131.290818, 34.384959], [131.292972, 34.380513], [131.292828, 34.381274], [131.29674, 34.383851], [131.306346, 34.382826], [131.307358, 34.38737], [131.325226, 34.392645], [131.3292, 34.399078], [131.32722, 34.404851], [131.330206, 34.406643], [131.331289, 34.414451], [131.337267, 34.418209], [131.344648, 34.414964], [131.347818, 34.417522], [131.356573, 34.41047], [131.376126, 34.415459], [131.379042, 34.418561], [131.377722, 34.42264], [131.384166, 34.422242], [131.387623, 34.416695], [131.396449, 34.419849], [131.401221, 34.428273], [131.411666, 34.428064], [131.412254, 34.425156], [131.416273, 34.427791], [131.41369, 34.431619], [131.411013, 34.428748], [131.409284, 34.433001], [131.417413, 34.43583], [131.41323, 34.438428], [131.414156, 34.440715], [131.420413, 34.437281], [131.420108, 34.443079], [131.409308, 34.447689], [131.408393, 34.444513], [131.400646, 34.445479], [131.396083, 34.448284], [131.394295, 34.455904], [131.397331, 34.460453], [131.401022, 34.459593], [131.407102, 34.452615], [131.416825, 34.449127], [131.417116, 34.452591], [131.425121, 34.454285], [131.435137, 34.46641], [131.431941, 34.472344], [131.441338, 34.47111], [131.445081, 34.474854], [131.443453, 34.478169], [131.447374, 34.47659], [131.44658, 34.47886], [131.441303, 34.480713], [131.442277, 34.484401], [131.447294, 34.485643], [131.454422, 34.480305], [131.464948, 34.485637], [131.461877, 34.48585], [131.467386, 34.497719], [131.463496, 34.499371], [131.460358, 34.49977], [131.456258, 34.50852], [131.450372, 34.506599], [131.454939, 34.511498], [131.450103, 34.516879], [131.453499, 34.516744], [131.455388, 34.525503], [131.463264, 34.530582], [131.466826, 34.53839], [131.470372, 34.533264], [131.481098, 34.531495], [131.504415, 34.534222], [131.515046, 34.55302], [131.52035, 34.553999], [131.519786, 34.55714], [131.523682, 34.555777], [131.535387, 34.560458], [131.539707, 34.563912], [131.540513, 34.569357], [131.553004, 34.577163], [131.556141, 34.587503], [131.550726, 34.593473], [131.563128, 34.606979], [131.557777, 34.603222], [131.554832, 34.60761], [131.557017, 34.61554], [131.565231, 34.621507], [131.580031, 34.620283], [131.579, 34.625574], [131.587564, 34.623777], [131.584539, 34.621716], [131.589249, 34.619154], [131.592469, 34.622866], [131.603045, 34.623003], [131.601919, 34.624826], [131.598947, 34.623479], [131.602346, 34.628106], [131.607121, 34.628214], [131.602665, 34.6341], [131.60308, 34.629445], [131.59909, 34.631421], [131.597804, 34.628439], [131.59492, 34.634432], [131.591249, 34.628561], [131.589002, 34.63336], [131.594439, 34.637442], [131.594404, 34.641753], [131.590728, 34.642667], [131.590474, 34.64599], [131.59579, 34.646226], [131.599483, 34.657768], [131.612724, 34.666993], [131.615421, 34.664332], [131.628207, 34.665539], [131.639906, 34.661665], [131.643768, 34.655458], [131.638218, 34.645991], [131.643939, 34.644223], [131.644167, 34.640674], [131.650431, 34.640888], [131.647638, 34.64249], [131.651974, 34.646515], [131.643835, 34.647159], [131.645929, 34.65321], [131.65544, 34.653414], [131.655931, 34.657743], [131.663284, 34.655469], [131.66401, 34.659154], [131.670253, 34.659686], [131.671947, 34.664999], [131.674848, 34.664701], [131.667829, 34.671481], [131.667887, 34.675995], [131.672502, 34.676964], [131.6729, 34.673288], [131.677219, 34.673129], [131.679445, 34.676539], [131.684578, 34.674759], [131.690622, 34.681045], [131.688413, 34.671849], [131.683863, 34.668801], [131.689857, 34.663185], [131.688763, 34.656813], [131.695238, 34.655973], [131.694936, 34.648812], [131.700488, 34.649182], [131.697073, 34.643536], [131.698269, 34.631781], [131.694231, 34.627733], [131.694819, 34.620679], [131.706654, 34.612896], [131.718414, 34.613403], [131.719999, 34.583005], [131.72761, 34.576436], [131.72442, 34.571992], [131.716677, 34.570295], [131.713195, 34.56281], [131.70283, 34.565066], [131.705389, 34.559613], [131.700925, 34.551011], [131.705597, 34.544931], [131.700793, 34.537736], [131.705993, 34.532017], [131.687717, 34.521286], [131.685807, 34.51703], [131.681436, 34.518518], [131.669268, 34.510654], [131.667057, 34.503114], [131.657514, 34.504507], [131.675506, 34.500964], [131.682093, 34.493105], [131.682341, 34.478999], [131.693422, 34.481576], [131.69912, 34.477028], [131.698879, 34.470115], [131.693897, 34.465545], [131.695537, 34.454606], [131.699058, 34.452291], [131.693896, 34.443837], [131.697425, 34.435308], [131.702243, 34.435941], [131.712869, 34.428495], [131.722807, 34.428903], [131.72948, 34.432713], [131.737835, 34.428596], [131.755376, 34.440361], [131.761394, 34.433666], [131.770784, 34.437087], [131.776464, 34.434796], [131.79382, 34.436213], [131.794195, 34.425349], [131.787096, 34.413156], [131.784778, 34.399861], [131.7786, 34.39846], [131.772853, 34.387391], [131.763457, 34.380936], [131.767338, 34.374366], [131.765246, 34.364066], [131.770951, 34.356186], [131.777634, 34.354032], [131.779017, 34.35021], [131.779284, 34.343869], [131.774607, 34.33752], [131.776915, 34.333451], [131.795884, 34.326911], [131.797504, 34.317756], [131.816274, 34.310467], [131.82035, 34.302439], [131.823464, 34.305287], [131.831437, 34.302615], [131.83417, 34.311263], [131.841106, 34.308338], [131.845186, 34.310975], [131.859997, 34.304634], [131.881209, 34.308295], [131.881455, 34.309081], [131.885771, 34.310971], [131.884013, 34.321295], [131.886449, 34.326197], [131.899538, 34.318156], [131.919456, 34.338097], [131.929969, 34.333289], [131.933049, 34.32788], [131.945384, 34.323686], [131.944744, 34.320706], [131.955647, 34.30796], [131.960979, 34.308018], [131.963506, 34.313595], [131.960759, 34.320794], [131.970216, 34.323453], [131.974171, 34.328951], [131.974133, 34.341369], [131.980674, 34.343364], [131.982024, 34.349652], [131.989596, 34.352382], [131.997843, 34.364883], [132.00751, 34.364824], [132.013467, 34.371328], [132.013512, 34.38209], [132.007077, 34.386324], [131.997519, 34.407089], [131.989876, 34.413954], [131.998076, 34.428613], [132.009751, 34.43134], [132.016233, 34.437469], [132.015424, 34.452042], [132.018895, 34.456614], [132.025068, 34.462383], [132.034884, 34.463446], [132.038993, 34.468885], [132.047349, 34.469388], [132.05058, 34.466161], [132.068354, 34.467833], [132.080994, 34.44354], [132.074866, 34.431821], [132.077449, 34.425689], [132.06879, 34.416048], [132.074622, 34.402201], [132.069755, 34.390992], [132.0778, 34.3879], [132.072517, 34.377168], [132.074855, 34.373712], [132.070372, 34.370888], [132.069797, 34.356296], [132.085263, 34.357882], [132.087828, 34.351893], [132.101424, 34.345146], [132.101044, 34.336577], [132.107527, 34.328052], [132.127355, 34.332924], [132.128544, 34.326101], [132.128519, 34.322161], [132.124116, 34.320369], [132.123108, 34.313983], [132.121193, 34.312243], [132.121728, 34.309348], [132.124158, 34.30842], [132.129471, 34.304022], [132.123998, 34.296648], [132.128537, 34.296093], [132.125598, 34.290871], [132.129701, 34.294463], [132.140051, 34.284942], [132.133569, 34.272014], [132.14012, 34.260622], [132.145725, 34.257173], [132.14621, 34.255374], [132.144941, 34.243001], [132.143746, 34.242256], [132.142743, 34.239195], [132.140304, 34.239789], [132.136869, 34.238049], [132.133828, 34.235529], [132.129648, 34.236625], [132.131172, 34.233662], [132.135452, 34.235128], [132.137438, 34.235176], [132.138753, 34.237553], [132.139996, 34.237839], [132.143923, 34.235461], [132.14866, 34.236386], [132.149141, 34.235198], [132.152311, 34.232714], [132.154368, 34.232244], [132.154145, 34.230178], [132.155753, 34.228367], [132.157711, 34.222597], [132.158426, 34.226479], [132.161684, 34.228671], [132.1609, 34.232326], [132.162704, 34.233837], [132.170892, 34.233583], [132.170869, 34.229063], [132.167282, 34.227951], [132.17191, 34.225123], [132.180755, 34.229927], [132.193499, 34.226482], [132.1931, 34.230422], [132.197876, 34.230633], [132.196767, 34.227328], [132.199678, 34.225169], [132.205252, 34.228211], [132.194331, 34.206105], [132.196333, 34.204292], [132.202571, 34.207753], [132.210169, 34.202576], [132.220656, 34.208153], [132.245598, 34.210673], [132.246682, 34.20092], [132.245069, 34.202825], [132.242207, 34.197197], [132.237639, 34.196204], [132.232299, 34.196112], [132.230786, 34.189063], [132.237508, 34.190046], [132.239272, 34.18756], [132.230857, 34.185526], [132.233812, 34.180964], [132.23863, 34.184165], [132.241, 34.177115], [132.24692, 34.179936], [132.242648, 34.17596], [132.245149, 34.175225], [132.244167, 34.171008], [132.247895, 34.172019], [132.249384, 34.171014], [132.244631, 34.169861], [132.246112, 34.165925], [132.248936, 34.169993], [132.252381, 34.158106], [132.248455, 34.137868], [132.258407, 34.136541], [132.257958, 34.134216], [132.24844, 34.137798], [132.24764, 34.133433], [132.250553, 34.133227], [132.249932, 34.130017], [132.235923, 34.131836], [132.233456, 34.126874], [132.222463, 34.131041], [132.219923, 34.127041], [132.201897, 34.124651], [132.200204, 34.120328], [132.204261, 34.120576], [132.199752, 34.109541], [132.200157, 34.108363], [132.2112, 34.083244], [132.211577, 34.071566], [132.2098, 34.068485], [132.206885, 34.070824], [132.211631, 34.055798], [132.216905, 34.047833], [132.220451, 34.048783], [132.219894, 34.042907], [132.221641, 34.040196], [132.218008, 34.03495], [132.21562, 34.008255], [132.210771, 33.999742], [132.20048, 33.988286], [132.199691, 33.981255], [132.198181, 33.981289], [132.199047, 33.980842], [132.184683, 33.961344], [132.177519, 33.963019], [132.152233, 33.956169], [132.128002, 33.957644], [132.129564, 33.95305], [132.124616, 33.947066], [132.118746, 33.953085], [132.122523, 33.942133], [132.127169, 33.940907], [132.124854, 33.926521], [132.132173, 33.909617], [132.126792, 33.899497], [132.132834, 33.894022], [132.127855, 33.887976], [132.131612, 33.886337], [132.13083, 33.883119], [132.136573, 33.882341], [132.136513, 33.879171], [132.148317, 33.874816], [132.146241, 33.866906], [132.158232, 33.859843], [132.157402, 33.844527], [132.152598, 33.843171], [132.139732, 33.831689], [132.124637, 33.835133], [132.120407, 33.833031], [132.115392, 33.833811], [132.118563, 33.84835], [132.115722, 33.859211], [132.116839, 33.859674], [132.113031, 33.860287], [132.120793, 33.870941], [132.1168, 33.878366], [132.111757, 33.877984], [132.087678, 33.890463], [132.084579, 33.890675], [132.078274, 33.892037], [132.074363, 33.905321], [132.069052, 33.904299], [132.059694, 33.910073], [132.057685, 33.910146], [132.044806, 33.908765], [132.05594, 33.913188], [132.055961, 33.916667], [132.061761, 33.927992], [132.056151, 33.920811], [132.051466, 33.922848], [132.052962, 33.915844], [132.030273, 33.906938], [132.026141, 33.901865], [132.027126, 33.912844], [132.025126, 33.901736], [131.999176, 33.915149], [131.980865, 33.929666], [131.974657, 33.92857], [131.968736, 33.92236], [131.972506, 33.919289], [131.976881, 33.922134], [131.975748, 33.917431], [131.965474, 33.918359], [131.962236, 33.920796], [131.962184, 33.929803], [131.968693, 33.928852], [131.969373, 33.932471], [131.962964, 33.945879], [131.954548, 33.950202], [131.951882, 33.948093], [131.950376, 33.950066], [131.948056, 33.949999], [131.94733, 33.94698], [131.93637, 33.947219], [131.928253, 33.952477], [131.927024, 33.957459], [131.923201, 33.956088], [131.924496, 33.959349], [131.919085, 33.967693], [131.902239, 33.971883], [131.898416, 33.977008], [131.891593, 33.978437], [131.882654, 33.98109], [131.875165, 33.990454], [131.861469, 33.988218], [131.868479, 33.993652], [131.868886, 33.999021], [131.862649, 34.003298], [131.859209, 34.000807], [131.856757, 34.001752], [131.859398, 34.006654], [131.856233, 34.008399], [131.853013, 34.003622], [131.850483, 34.005336], [131.854124, 34.007416], [131.851257, 34.009096], [131.837724, 34.009433], [131.830659, 34.01099], [131.830038, 34.008119], [131.833764, 34.006893], [131.818459, 33.993096], [131.794683, 33.987731], [131.798648, 33.982119], [131.804442, 33.980864], [131.807932, 33.984226], [131.816924, 33.98212], [131.815919, 33.975871], [131.820991, 33.977646], [131.816791, 33.969544], [131.809746, 33.967763], [131.799807, 33.976922], [131.778106, 33.973874], [131.778484, 33.977082], [131.772022, 33.977764], [131.770487, 33.980791], [131.78737, 33.987664], [131.782737, 33.99524], [131.804418, 34.016135], [131.812008, 34.015934], [131.816085, 34.019053], [131.814753, 34.022725], [131.826763, 34.023538], [131.82761, 34.029383], [131.821442, 34.027729], [131.818459, 34.035377], [131.809061, 34.040341], [131.806495, 34.038701], [131.80234, 34.043232], [131.786559, 34.027846], [131.788467, 34.024684], [131.781095, 34.027511], [131.789358, 34.042427], [131.800806, 34.048473], [131.798492, 34.051625], [131.792829, 34.050539], [131.796167, 34.055086], [131.798761, 34.053415], [131.796913, 34.059142], [131.793213, 34.054253], [131.78674, 34.053768], [131.782154, 34.054773], [131.782978, 34.061368], [131.780027, 34.05351], [131.774938, 34.053346], [131.765262, 34.053505], [131.763547, 34.05574], [131.759584, 34.05644], [131.761933, 34.053052], [131.758301, 34.048274], [131.747209, 34.04577], [131.74213, 34.04924], [131.737234, 34.045689], [131.73364, 34.048878], [131.738874, 34.055257], [131.761376, 34.067882], [131.751564, 34.065522], [131.752318, 34.07077], [131.747493, 34.065625], [131.74173, 34.071951], [131.743544, 34.065527], [131.737156, 34.06315], [131.739718, 34.061742], [131.735001, 34.060917], [131.729225, 34.062156], [131.727702, 34.061246], [131.723493, 34.057341], [131.709366, 34.060435], [131.70725, 34.053974], [131.704098, 34.056258], [131.698121, 34.05337], [131.69759, 34.046455], [131.688564, 34.047263], [131.690912, 34.050186], [131.692434, 34.051015], [131.690627, 34.054182], [131.683305, 34.051823], [131.678708, 34.054482], [131.675473, 34.049146], [131.678927, 34.04588], [131.676678, 34.042536], [131.668601, 34.052174], [131.67338, 34.043532], [131.67171, 34.042874], [131.670742, 34.045111], [131.6673, 34.044788], [131.662189, 34.04056], [131.644703, 34.03709], [131.645823, 34.04086], [131.647459, 34.041309], [131.642766, 34.044166], [131.645124, 34.047309], [131.642858, 34.047781], [131.641609, 34.046843], [131.634562, 34.046871], [131.623305, 34.039686], [131.617941, 34.027999], [131.609875, 34.020792], [131.602232, 34.027454], [131.601394, 34.034872], [131.604154, 34.037169], [131.599424, 34.038609], [131.587854, 34.032056], [131.581391, 34.021585], [131.586325, 34.024855], [131.601462, 34.014896], [131.59464, 34.010719], [131.591372, 33.999864], [131.567354, 33.986298], [131.564019, 33.993916], [131.555735, 33.990192], [131.557779, 33.997828], [131.568176, 34.003609], [131.568007, 34.012715], [131.57738, 34.018927], [131.562715, 34.012672], [131.561772, 34.007028], [131.546984, 33.999899], [131.540166, 33.997513], [131.526787, 33.999196], [131.522671, 34.007736], [131.517058, 34.002884], [131.509083, 34.003612], [131.508374, 34.010699], [131.515864, 34.014006], [131.512191, 34.015648], [131.51345, 34.018024], [131.506085, 34.024556], [131.496676, 34.025095], [131.487563, 34.030657], [131.484206, 34.028165], [131.47448, 34.037851], [131.468084, 34.034286], [131.469234, 34.033102], [131.466693, 34.030336], [131.465565, 34.027517], [131.469845, 34.018664], [131.471773, 34.021316], [131.479188, 34.018151], [131.479719, 34.012259], [131.462225, 34.003676], [131.45518, 34.003853], [131.463603, 33.993348], [131.45962, 33.987335], [131.455086, 33.988301], [131.455592, 33.993518], [131.451251, 33.995511], [131.442051, 33.991572], [131.441872, 33.982809], [131.436482, 33.98307], [131.433175, 33.990182], [131.424105, 33.989194], [131.424887, 33.996107], [131.426782, 33.993676], [131.431881, 34.006437], [131.427954, 34.013899], [131.421142, 34.015631], [131.41651, 34.015216], [131.418775, 34.011271], [131.416314, 34.009691], [131.411463, 34.011985], [131.411575, 34.006819], [131.409204, 34.005142], [131.40949, 33.99716], [131.4009, 33.994283], [131.400048, 33.98609], [131.395632, 33.984877], [131.394468, 33.997678], [131.401373, 33.998282], [131.405416, 34.014055], [131.408329, 34.013396], [131.41239, 34.020352], [131.417129, 34.021302], [131.402042, 34.02629], [131.394445, 34.025538], [131.395385, 34.036934], [131.404321, 34.042533], [131.396768, 34.043942], [131.398711, 34.049289], [131.394237, 34.051286], [131.384637, 34.05], [131.386337, 34.04701], [131.382721, 34.035528], [131.386443, 34.031938], [131.370853, 34.026798], [131.383391, 34.021889], [131.377935, 34.007908], [131.367192, 33.999389], [131.369674, 33.998155], [131.356577, 33.997345], [131.362182, 33.9976], [131.361519, 33.986859], [131.352953, 33.987093], [131.347725, 33.980767], [131.355788, 33.966419], [131.348289, 33.966045], [131.329787, 33.952165], [131.31601, 33.954425], [131.312623, 33.952115], [131.313894, 33.949413], [131.306489, 33.949466], [131.305456, 33.948889], [131.300103, 33.940723], [131.295692, 33.941893], [131.290944, 33.938179], [131.284137, 33.937336], [131.284679, 33.935044], [131.293691, 33.935515], [131.268429, 33.922888], [131.262051, 33.923788], [131.264562, 33.925675], [131.261268, 33.927263], [131.258569, 33.926259], [131.249052, 33.921466], [131.242068, 33.919768], [131.244406, 33.925542], [131.24614, 33.921359], [131.25063, 33.923593], [131.248402, 33.928944], [131.246655, 33.93138], [131.252107, 33.934512], [131.252462, 33.936797], [131.232551, 33.927082], [131.23026, 33.930365], [131.234017, 33.936439], [131.243171, 33.938613], [131.248875, 33.942938], [131.243289, 33.941474], [131.246194, 33.946072], [131.24244, 33.944321], [131.239005, 33.951434], [131.233246, 33.948133], [131.234779, 33.943379], [131.231382, 33.937651], [131.222515, 33.933803], [131.215326, 33.93672], [131.22719, 33.944771], [131.233221, 33.954019], [131.230937, 33.957411], [131.226076, 33.946711], [131.225039, 33.948505], [131.227712, 33.96432], [131.224174, 33.95895], [131.223974, 33.949048], [131.217705, 33.949799], [131.219057, 33.957569], [131.208921, 33.958928], [131.211545, 33.954407], [131.210491, 33.944501], [131.19931, 33.94286], [131.184768, 33.938985], [131.185501, 33.931608], [131.178446, 33.931408], [131.171287, 33.942087], [131.157722, 33.95331], [131.158527, 33.961286]], [[130.79988, 34.093366], [130.795413, 34.092552], [130.789519, 34.100749], [130.78728, 34.099152], [130.782177, 34.097801], [130.781174, 34.10184], [130.775896, 34.104594], [130.774939, 34.112297], [130.779942, 34.115169], [130.78375, 34.106199], [130.789789, 34.108638], [130.795801, 34.104692], [130.800146, 34.099981], [130.797531, 34.097517], [130.79988, 34.093366]], [[130.905942, 34.172552], [130.898722, 34.170027], [130.899257, 34.173878], [130.902519, 34.176436], [130.905942, 34.172552]], [[130.901826, 34.18018], [130.901689, 34.178396], [130.896995, 34.176687], [130.897448, 34.179172], [130.901826, 34.18018]], [[130.86577, 34.359402], [130.870499, 34.365371], [130.86696, 34.373856], [130.871407, 34.372206], [130.872371, 34.366442], [130.876855, 34.367811], [130.88041, 34.363984], [130.877607, 34.353456], [130.874089, 34.354885], [130.8575, 34.352538], [130.847342, 34.340963], [130.847133, 34.343856], [130.838298, 34.348102], [130.840106, 34.355157], [130.856829, 34.354612], [130.86577, 34.359402]], [[130.965743, 34.358359], [130.964035, 34.359798], [130.96696, 34.363093], [130.974619, 34.363129], [130.972602, 34.361149], [130.965743, 34.358359]], [[131.253047, 34.390547], [131.25369, 34.393922], [131.257575, 34.393861], [131.257563, 34.393032], [131.253047, 34.390547]], [[131.204564, 34.393488], [131.202383, 34.393222], [131.202305, 34.39686], [131.203703, 34.396407], [131.204564, 34.393488]], [[131.274721, 34.407265], [131.275599, 34.410514], [131.277525, 34.407653], [131.274721, 34.407265]], [[131.268631, 34.416434], [131.273411, 34.413199], [131.271693, 34.410145], [131.266752, 34.410573], [131.266019, 34.417828], [131.268261, 34.418153], [131.268631, 34.416434]], [[131.192892, 34.42421], [131.196305, 34.429273], [131.199898, 34.425622], [131.217402, 34.425652], [131.246178, 34.438321], [131.250112, 34.435872], [131.253491, 34.43767], [131.254418, 34.432687], [131.261301, 34.429927], [131.256616, 34.422443], [131.26033, 34.416788], [131.252287, 34.417893], [131.254824, 34.423061], [131.248373, 34.425737], [131.242728, 34.422064], [131.232443, 34.423668], [131.222471, 34.416616], [131.226719, 34.427949], [131.211938, 34.415302], [131.213868, 34.412921], [131.209729, 34.413679], [131.210011, 34.411951], [131.214743, 34.400699], [131.195976, 34.398066], [131.19862, 34.401074], [131.196476, 34.402667], [131.194401, 34.398896], [131.188585, 34.398677], [131.172812, 34.408376], [131.172514, 34.416311], [131.172317, 34.422895], [131.166701, 34.428645], [131.166779, 34.431283], [131.16847, 34.431869], [131.168461, 34.42868], [131.17251, 34.431703], [131.172482, 34.427604], [131.178765, 34.428832], [131.185751, 34.423438], [131.192892, 34.42421]], [[131.318272, 34.432777], [131.320866, 34.432666], [131.321855, 34.426831], [131.320937, 34.426749], [131.320111, 34.426281], [131.316525, 34.427685], [131.318272, 34.432777]], [[131.379081, 34.465954], [131.379806, 34.462169], [131.375177, 34.462481], [131.375087, 34.466663], [131.379081, 34.465954]], [[131.377448, 34.486523], [131.38171, 34.487473], [131.379514, 34.48212], [131.375844, 34.482539], [131.377448, 34.486523]], [[131.343735, 34.503814], [131.345824, 34.499965], [131.341742, 34.497714], [131.338255, 34.500399], [131.343735, 34.503814]], [[131.294016, 34.511289], [131.29175, 34.505037], [131.279107, 34.499767], [131.275997, 34.497955], [131.27087, 34.506041], [131.275397, 34.516874], [131.279019, 34.517647], [131.283883, 34.51157], [131.294016, 34.511289]], [[131.390412, 34.523793], [131.391136, 34.514337], [131.386697, 34.512478], [131.383818, 34.521177], [131.390412, 34.523793]], [[131.1519, 34.762313], [131.15547, 34.759712], [131.148455, 34.758305], [131.137131, 34.758216], [131.131062, 34.768733], [131.126956, 34.793258], [131.130703, 34.798654], [131.141869, 34.788361], [131.146767, 34.789398], [131.148967, 34.789799], [131.150406, 34.785622], [131.143542, 34.781336], [131.146152, 34.781244], [131.146173, 34.779174], [131.157159, 34.775001], [131.164078, 34.777069], [131.161183, 34.774582], [131.160838, 34.763481], [131.1519, 34.762313]], [[131.952158, 33.771158], [131.949102, 33.775337], [131.947191, 33.78089], [131.961619, 33.78236], [131.961487, 33.79288], [131.967531, 33.798144], [131.974693, 33.797442], [131.990594, 33.787694], [131.993529, 33.78017], [131.963358, 33.768441], [131.952158, 33.771158]], [[131.939363, 33.792224], [131.938538, 33.787161], [131.932674, 33.78861], [131.930884, 33.793981], [131.939363, 33.792224]], [[131.930767, 33.935459], [131.926537, 33.943023], [131.928558, 33.942735], [131.930031, 33.939566], [131.930767, 33.935459]], [[131.688513, 33.942494], [131.692378, 33.946096], [131.695024, 33.94324], [131.697588, 33.949859], [131.700896, 33.938389], [131.695046, 33.934924], [131.690274, 33.940833], [131.688513, 33.942494]], [[131.699924, 33.952017], [131.698003, 33.951042], [131.697456, 33.953393], [131.699074, 33.955654], [131.699924, 33.952017]], [[131.698926, 33.955819], [131.697652, 33.957164], [131.698625, 33.958767], [131.701758, 33.959167], [131.698926, 33.955819]], [[131.821146, 33.949571], [131.820604, 33.944763], [131.824557, 33.945206], [131.825457, 33.948936], [131.833272, 33.947955], [131.833527, 33.956582], [131.849445, 33.952865], [131.848279, 33.958185], [131.850962, 33.96165], [131.846402, 33.962353], [131.849974, 33.963752], [131.849008, 33.967509], [131.841384, 33.966699], [131.843472, 33.971244], [131.847908, 33.969727], [131.855218, 33.976026], [131.852001, 33.98036], [131.856635, 33.980903], [131.857747, 33.989992], [131.862878, 33.979997], [131.867661, 33.978176], [131.869877, 33.981456], [131.87338, 33.971057], [131.877712, 33.970586], [131.874799, 33.968484], [131.867682, 33.969165], [131.859898, 33.965576], [131.85787, 33.962648], [131.861886, 33.950694], [131.856703, 33.952481], [131.854744, 33.948077], [131.841745, 33.941838], [131.835361, 33.933466], [131.824045, 33.931457], [131.819689, 33.930684], [131.818425, 33.936125], [131.805612, 33.939935], [131.804264, 33.946606], [131.807613, 33.95196], [131.821447, 33.959232], [131.816604, 33.952723], [131.821146, 33.949571]], [[131.802523, 33.961926], [131.799757, 33.957725], [131.79907, 33.960414], [131.800749, 33.963019], [131.802523, 33.961926]], [[131.761168, 33.975178], [131.759409, 33.983473], [131.76993, 33.980642], [131.763341, 33.974946], [131.761168, 33.975178]], [[131.735421, 33.978541], [131.733173, 33.981337], [131.737131, 33.981993], [131.738081, 33.9804], [131.735421, 33.978541]], [[131.691398, 34.008128], [131.697853, 34.00952], [131.705006, 34.008031], [131.704368, 34.027244], [131.708953, 34.035411], [131.715412, 34.031082], [131.709382, 34.025313], [131.709736, 34.021436], [131.713358, 34.020424], [131.710496, 34.015676], [131.714955, 34.013369], [131.710753, 34.007914], [131.711072, 33.99978], [131.732738, 33.982342], [131.718867, 33.979506], [131.719626, 33.989345], [131.714977, 33.988855], [131.704325, 34.000072], [131.691398, 34.008128]], [[131.722907, 34.018102], [131.725709, 34.016372], [131.724486, 34.015485], [131.722907, 34.018102]], [[131.798926, 34.022813], [131.796681, 34.020233], [131.793881, 34.02248], [131.798093, 34.024155], [131.798926, 34.022813]], [[131.747982, 34.037503], [131.752706, 34.03269], [131.76274, 34.048084], [131.779908, 34.049057], [131.762971, 34.038124], [131.754758, 34.028571], [131.752374, 34.0322], [131.749446, 34.026435], [131.73826, 34.020442], [131.729173, 34.022276], [131.726354, 34.028392], [131.728079, 34.034316], [131.734125, 34.037932], [131.747982, 34.037503]], [[131.41504, 34.507313], [131.418073, 34.499695], [131.41888, 34.493868], [131.406108, 34.49007], [131.40063, 34.497474], [131.403901, 34.507521], [131.411883, 34.513175], [131.416708, 34.510632], [131.41504, 34.507313]], [[131.450873, 34.512225], [131.448679, 34.513423], [131.449954, 34.514819], [131.451861, 34.513439], [131.450873, 34.512225]], [[131.516151, 34.564187], [131.513046, 34.564853], [131.513211, 34.566657], [131.515649, 34.566806], [131.516151, 34.564187]], [[131.476825, 34.575159], [131.480655, 34.57521], [131.479049, 34.57199], [131.476825, 34.575159]], [[132.027055, 33.738965], [132.031277, 33.740194], [132.030026, 33.736191], [132.025545, 33.735626], [132.027055, 33.738965]], [[132.146095, 33.739776], [132.152805, 33.726992], [132.149125, 33.720761], [132.133511, 33.712935], [132.126616, 33.719541], [132.133304, 33.727064], [132.144887, 33.730536], [132.145138, 33.737568], [132.140096, 33.738943], [132.139032, 33.746465], [132.150861, 33.763892], [132.151625, 33.761325], [132.146298, 33.754284], [132.151653, 33.749889], [132.146095, 33.739776]], [[132.054614, 33.776436], [132.054919, 33.775434], [132.052078, 33.771992], [132.047929, 33.773967], [132.052832, 33.779441], [132.054614, 33.776436]], [[132.197832, 33.812992], [132.209085, 33.81805], [132.213504, 33.814891], [132.221114, 33.81579], [132.223974, 33.80776], [132.23273, 33.806713], [132.235935, 33.797908], [132.249536, 33.795244], [132.259606, 33.779601], [132.262917, 33.779611], [132.273904, 33.781564], [132.257037, 33.766533], [132.256521, 33.771166], [132.249689, 33.774013], [132.236717, 33.783337], [132.215327, 33.78109], [132.212633, 33.787651], [132.201888, 33.793211], [132.198522, 33.801754], [132.197226, 33.804142], [132.190359, 33.804185], [132.174265, 33.794827], [132.172203, 33.803866], [132.185614, 33.810844], [132.18786, 33.807685], [132.194878, 33.808005], [132.197832, 33.812992]], [[132.254254, 33.806719], [132.249375, 33.810737], [132.250951, 33.81556], [132.259136, 33.816649], [132.254254, 33.806719]], [[132.118311, 33.811109], [132.120155, 33.816969], [132.116667, 33.819807], [132.119288, 33.823756], [132.122269, 33.818282], [132.118311, 33.811109]], [[132.104157, 33.835365], [132.108332, 33.8374], [132.112252, 33.832094], [132.118486, 33.830148], [132.108031, 33.828141], [132.106001, 33.82474], [132.087861, 33.825623], [132.085353, 33.815559], [132.075106, 33.813373], [132.075402, 33.805656], [132.072658, 33.803122], [132.058999, 33.801822], [132.055572, 33.793723], [132.057814, 33.789151], [132.049919, 33.784589], [132.042178, 33.790147], [132.035919, 33.786942], [132.032487, 33.788559], [132.033572, 33.792388], [132.027977, 33.793541], [132.031072, 33.796168], [132.045158, 33.79597], [132.046744, 33.799148], [132.054724, 33.798499], [132.058849, 33.803623], [132.057299, 33.808686], [132.060404, 33.819337], [132.06695, 33.818837], [132.067254, 33.822423], [132.07249, 33.822424], [132.078618, 33.827571], [132.078045, 33.833426], [132.081082, 33.836244], [132.072649, 33.844055], [132.070033, 33.843113], [132.067654, 33.848341], [132.071049, 33.858488], [132.083581, 33.844787], [132.091559, 33.848835], [132.096154, 33.843426], [132.104655, 33.84338], [132.104157, 33.835365]], [[132.178272, 33.846335], [132.178426, 33.848935], [132.185116, 33.848568], [132.183303, 33.843985], [132.178272, 33.846335]], [[132.203281, 33.849304], [132.202007, 33.846732], [132.199079, 33.847388], [132.199071, 33.850388], [132.203281, 33.849304]], [[132.016179, 33.859504], [132.013678, 33.868954], [132.0172, 33.871492], [132.024639, 33.853049], [132.006562, 33.852779], [131.999414, 33.856982], [131.99758, 33.86081], [132.016179, 33.859504]], [[131.983762, 33.871294], [131.985045, 33.869079], [131.982127, 33.869021], [131.983762, 33.871294]], [[132.058218, 33.874921], [132.058823, 33.882027], [132.065873, 33.883741], [132.064896, 33.878013], [132.069559, 33.869581], [132.061705, 33.866859], [132.061122, 33.873556], [132.058218, 33.874921]], [[132.058158, 33.885903], [132.056571, 33.884393], [132.05442, 33.889066], [132.058657, 33.88793], [132.058158, 33.885903]], [[132.054093, 33.889641], [132.049569, 33.886983], [132.050662, 33.890911], [132.041441, 33.895998], [132.043538, 33.900844], [132.048561, 33.899196], [132.053908, 33.895084], [132.051321, 33.89331], [132.054093, 33.889641]], [[132.156763, 33.946027], [132.168689, 33.945825], [132.163573, 33.939474], [132.157134, 33.937668], [132.153899, 33.941036], [132.156763, 33.946027]], [[132.267653, 33.993606], [132.264004, 33.995837], [132.265519, 34.00055], [132.258795, 34.003003], [132.258433, 34.00702], [132.265947, 34.009344], [132.270394, 34.004469], [132.267648, 34.000742], [132.271984, 33.999366], [132.267653, 33.993606]], [[132.392657, 33.780726], [132.393214, 33.777399], [132.391086, 33.777818], [132.387546, 33.782787], [132.392657, 33.780726]], [[132.39384, 33.802004], [132.391724, 33.807328], [132.397979, 33.811343], [132.398736, 33.802925], [132.39384, 33.802004]], [[132.359545, 33.858623], [132.365596, 33.855031], [132.365474, 33.851478], [132.371897, 33.852895], [132.372873, 33.8483], [132.365624, 33.846855], [132.357323, 33.853662], [132.35368, 33.854828], [132.359545, 33.858623]], [[132.314841, 33.867369], [132.313258, 33.862228], [132.308481, 33.864789], [132.311453, 33.867532], [132.314841, 33.867369]], [[132.392673, 33.905021], [132.395242, 33.903863], [132.392569, 33.900515], [132.391492, 33.903291], [132.392673, 33.905021]], [[132.192973, 33.955068], [132.205528, 33.949132], [132.212448, 33.952787], [132.212699, 33.964107], [132.215834, 33.965605], [132.217867, 33.960503], [132.229717, 33.958844], [132.233824, 33.967644], [132.244975, 33.962837], [132.249084, 33.953895], [132.263353, 33.948709], [132.273811, 33.949847], [132.284893, 33.955788], [132.28813, 33.950204], [132.288153, 33.940419], [132.30173, 33.929897], [132.300859, 33.9205], [132.312419, 33.914816], [132.319814, 33.922731], [132.323227, 33.913569], [132.316726, 33.906023], [132.321837, 33.902785], [132.323477, 33.906595], [132.331178, 33.901263], [132.343316, 33.905066], [132.34364, 33.904398], [132.353986, 33.907144], [132.357823, 33.910942], [132.353309, 33.917625], [132.36124, 33.918431], [132.369837, 33.928422], [132.377844, 33.924683], [132.402019, 33.928675], [132.405769, 33.933004], [132.401938, 33.941253], [132.41008, 33.944744], [132.416528, 33.952923], [132.424907, 33.95397], [132.431842, 33.95006], [132.438688, 33.951801], [132.437603, 33.944996], [132.445369, 33.94198], [132.457491, 33.94356], [132.463476, 33.948196], [132.467896, 33.946461], [132.472052, 33.950174], [132.471274, 33.945941], [132.45747, 33.941189], [132.450619, 33.932172], [132.44339, 33.931438], [132.442643, 33.927719], [132.435369, 33.932272], [132.431865, 33.926249], [132.421174, 33.92518], [132.41992, 33.919353], [132.411032, 33.916865], [132.408158, 33.909599], [132.405038, 33.915699], [132.398956, 33.917822], [132.390596, 33.916121], [132.390456, 33.911394], [132.381619, 33.914961], [132.371777, 33.910742], [132.371899, 33.903515], [132.366441, 33.90269], [132.362338, 33.896263], [132.367128, 33.892458], [132.363313, 33.882577], [132.369372, 33.876614], [132.368239, 33.867962], [132.369528, 33.863844], [132.361111, 33.860645], [132.355717, 33.866696], [132.351436, 33.865999], [132.347099, 33.869685], [132.344621, 33.865202], [132.334577, 33.862013], [132.332006, 33.857877], [132.326498, 33.857951], [132.326208, 33.868941], [132.33784, 33.878207], [132.337701, 33.8825], [132.331398, 33.886529], [132.331231, 33.884663], [132.326728, 33.881691], [132.32643, 33.889215], [132.324972, 33.891286], [132.309208, 33.892154], [132.300996, 33.896545], [132.295927, 33.896545], [132.289668, 33.890764], [132.288261, 33.893342], [132.292449, 33.898142], [132.288556, 33.902145], [132.279182, 33.899997], [132.282347, 33.899425], [132.278091, 33.894212], [132.268286, 33.889653], [132.268239, 33.876264], [132.279318, 33.870851], [132.270084, 33.873253], [132.264201, 33.868908], [132.258596, 33.877618], [132.248536, 33.876707], [132.21993, 33.874448], [132.214074, 33.869349], [132.216343, 33.865557], [132.206356, 33.857565], [132.19946, 33.871232], [132.204441, 33.872], [132.203928, 33.879071], [132.189768, 33.886058], [132.188417, 33.888771], [132.18706, 33.893283], [132.176066, 33.894535], [132.179989, 33.898325], [132.174942, 33.902883], [132.176852, 33.919084], [132.17268, 33.923666], [132.175979, 33.930333], [132.182174, 33.929039], [132.188534, 33.934476], [132.184224, 33.953463], [132.192973, 33.955068]], [[132.467382, 33.916265], [132.465419, 33.91446], [132.462287, 33.919021], [132.455491, 33.919964], [132.454071, 33.926858], [132.462556, 33.923877], [132.467382, 33.916265]], [[132.309638, 33.926088], [132.309273, 33.928101], [132.312493, 33.927441], [132.309638, 33.926088]], [[132.35033, 33.944447], [132.345725, 33.945925], [132.339053, 33.947392], [132.336432, 33.949319], [132.338283, 33.956258], [132.351079, 33.960827], [132.35552, 33.952603], [132.35383, 33.944965], [132.356616, 33.941522], [132.352587, 33.939349], [132.35033, 33.944447]], [[132.491212, 33.95863], [132.491286, 33.954402], [132.488691, 33.953045], [132.485803, 33.95638], [132.491212, 33.95863]], [[132.460375, 33.964266], [132.46699, 33.962683], [132.470981, 33.966562], [132.481589, 33.959191], [132.473828, 33.95357], [132.47001, 33.959524], [132.460375, 33.964266]], [[132.355533, 33.967112], [132.351459, 33.961153], [132.349957, 33.962962], [132.348321, 33.963034], [132.349135, 33.96728], [132.343702, 33.971663], [132.348513, 33.97406], [132.355533, 33.967112]], [[132.430206, 33.984218], [132.432478, 33.980699], [132.430922, 33.979852], [132.429145, 33.981756], [132.430206, 33.984218]], [[132.352642, 33.989882], [132.354591, 33.988781], [132.350539, 33.986154], [132.349404, 33.987894], [132.352642, 33.989882]], [[132.330013, 34.003242], [132.333641, 33.999146], [132.336371, 33.99904], [132.335638, 33.994464], [132.331641, 33.991149], [132.328813, 33.99401], [132.330013, 34.003242]], [[132.43099, 34.001593], [132.429141, 34.004767], [132.430687, 34.010339], [132.432381, 34.008946], [132.430379, 34.003813], [132.435243, 34.003218], [132.43099, 34.001593]], [[132.427395, 34.010793], [132.405487, 34.015378], [132.402801, 34.027224], [132.414888, 34.030368], [132.422088, 34.020357], [132.430839, 34.01504], [132.427084, 34.015016], [132.427395, 34.010793]], [[132.389353, 34.032443], [132.385192, 34.027026], [132.383225, 34.029063], [132.382746, 34.034763], [132.375885, 34.03662], [132.382925, 34.041751], [132.387428, 34.039139], [132.392397, 34.042482], [132.388749, 34.037004], [132.385964, 34.036494], [132.389353, 34.032443]], [[132.420553, 34.037312], [132.427552, 34.034405], [132.423556, 34.032215], [132.416809, 34.035006], [132.420553, 34.037312]], [[132.400494, 34.057483], [132.397436, 34.053644], [132.391667, 34.056754], [132.39534, 34.060096], [132.400494, 34.057483]], [[132.395157, 34.070226], [132.391374, 34.068689], [132.39148, 34.071439], [132.393984, 34.072741], [132.395157, 34.070226]], [[132.313009, 34.118837], [132.313612, 34.121229], [132.318234, 34.120938], [132.319341, 34.118931], [132.313009, 34.118837]]]}}], "name": "山口県"}