{"type": "FeatureCollection", "features": [{"type": "Feature", "properties": {}, "geometry": {"type": "MultiLineString", "coordinates": [[[138.530628, 35.345579], [138.534846, 35.341056], [138.535086, 35.330565], [138.526777, 35.325926], [138.5254, 35.321866], [138.512093, 35.313555], [138.516102, 35.296084], [138.521656, 35.283476], [138.520321, 35.270884], [138.515422, 35.267308], [138.514243, 35.262231], [138.520666, 35.255435], [138.523084, 35.248603], [138.526903, 35.232572], [138.529516, 35.231079], [138.532275, 35.223391], [138.52738, 35.216804], [138.531216, 35.211113], [138.533193, 35.200862], [138.528483, 35.197539], [138.524247, 35.198976], [138.517333, 35.198609], [138.512309, 35.188975], [138.506231, 35.186069], [138.501134, 35.176523], [138.49629, 35.174391], [138.491492, 35.168384], [138.487829, 35.169652], [138.484257, 35.174193], [138.472216, 35.17611], [138.46113, 35.179491], [138.456833, 35.178212], [138.430942, 35.180387], [138.42748, 35.182667], [138.424725, 35.18996], [138.419035, 35.197636], [138.407574, 35.20293], [138.399584, 35.200226], [138.394293, 35.207813], [138.390673, 35.219901], [138.391797, 35.224825], [138.386712, 35.239519], [138.386152, 35.246244], [138.378214, 35.253937], [138.373556, 35.263323], [138.367032, 35.270188], [138.369266, 35.276678], [138.366704, 35.280512], [138.366765, 35.29032], [138.372479, 35.299411], [138.370595, 35.304765], [138.364671, 35.312026], [138.359466, 35.313378], [138.357615, 35.317757], [138.349995, 35.31525], [138.343373, 35.317995], [138.335638, 35.326496], [138.324462, 35.327208], [138.313462, 35.322611], [138.31128, 35.319588], [138.302932, 35.316633], [138.296452, 35.316508], [138.294071, 35.311972], [138.285267, 35.304275], [138.276407, 35.307419], [138.26979, 35.314397], [138.257917, 35.316471], [138.254804, 35.319817], [138.255023, 35.324184], [138.248737, 35.331602], [138.256979, 35.338591], [138.253921, 35.345421], [138.255141, 35.34847], [138.251002, 35.358353], [138.251256, 35.363529], [138.24676, 35.367148], [138.242729, 35.365851], [138.237293, 35.370015], [138.232017, 35.371225], [138.232855, 35.376656], [138.240118, 35.388136], [138.245937, 35.39107], [138.246446, 35.399799], [138.258098, 35.407394], [138.257616, 35.414785], [138.259268, 35.421888], [138.259444, 35.431083], [138.255233, 35.441211], [138.255334, 35.444577], [138.248305, 35.447185], [138.244339, 35.454123], [138.244068, 35.458976], [138.246285, 35.463478], [138.253483, 35.465962], [138.257881, 35.476018], [138.259793, 35.489169], [138.25891, 35.493224], [138.260249, 35.5059], [138.268976, 35.514125], [138.264681, 35.519954], [138.262592, 35.527134], [138.257348, 35.530849], [138.260075, 35.542896], [138.259482, 35.552979], [138.252047, 35.555694], [138.244449, 35.563462], [138.245154, 35.569316], [138.240461, 35.576317], [138.239433, 35.586606], [138.243578, 35.591524], [138.240636, 35.605108], [138.235676, 35.606186], [138.236254, 35.612729], [138.234088, 35.61497], [138.23608, 35.622271], [138.228325, 35.62721], [138.232315, 35.640097], [138.228368, 35.645957], [138.219375, 35.644352], [138.211026, 35.651772], [138.208085, 35.655789], [138.205489, 35.664264], [138.193302, 35.672265], [138.193117, 35.6811], [138.191298, 35.685378], [138.193475, 35.687965], [138.193983, 35.695494], [138.191159, 35.701899], [138.186667, 35.704433], [138.180856, 35.711238], [138.181848, 35.718338], [138.186644, 35.722154], [138.197474, 35.727032], [138.20055, 35.733119], [138.207164, 35.735597], [138.212915, 35.741574], [138.219248, 35.745509], [138.222083, 35.75048], [138.229558, 35.753045], [138.236702, 35.757715], [138.232161, 35.763552], [138.224679, 35.765689], [138.221281, 35.770671], [138.217292, 35.771375], [138.205327, 35.782585], [138.199631, 35.78101], [138.191492, 35.784289], [138.185174, 35.79108], [138.187785, 35.799953], [138.193317, 35.803838], [138.205693, 35.815734], [138.203493, 35.822632], [138.20678, 35.831535], [138.212658, 35.837015], [138.216146, 35.845491], [138.218922, 35.846817], [138.224174, 35.856211], [138.226789, 35.857404], [138.22986, 35.869425], [138.232599, 35.876132], [138.238235, 35.882379], [138.248604, 35.885925], [138.264441, 35.875911], [138.272841, 35.864929], [138.27895, 35.860391], [138.283641, 35.859316], [138.293056, 35.867062], [138.303248, 35.879426], [138.307679, 35.887449], [138.312783, 35.890974], [138.324318, 35.90233], [138.33091, 35.910892], [138.331528, 35.914377], [138.339371, 35.924598], [138.342032, 35.925669], [138.345729, 35.935246], [138.345047, 35.941333], [138.352164, 35.947973], [138.360079, 35.951014], [138.359706, 35.955702], [138.361903, 35.962596], [138.369444, 35.967225], [138.37046, 35.971381], [138.381772, 35.97125], [138.390687, 35.966338], [138.408416, 35.962486], [138.416832, 35.958983], [138.424193, 35.958975], [138.443161, 35.951138], [138.450563, 35.945411], [138.454333, 35.938306], [138.447506, 35.929249], [138.447282, 35.923585], [138.444419, 35.917733], [138.44901, 35.912787], [138.454222, 35.903206], [138.460487, 35.903524], [138.471654, 35.89619], [138.482143, 35.898773], [138.489783, 35.896451], [138.494712, 35.902083], [138.496006, 35.908076], [138.494649, 35.911152], [138.502758, 35.912195], [138.505671, 35.918867], [138.510649, 35.922344], [138.51306, 35.920031], [138.521371, 35.918694], [138.529372, 35.914549], [138.545358, 35.914777], [138.553844, 35.918993], [138.558034, 35.916004], [138.564415, 35.917334], [138.572353, 35.912116], [138.576667, 35.911444], [138.580982, 35.91705], [138.59243, 35.918277], [138.600517, 35.913802], [138.602538, 35.909844], [138.612317, 35.908669], [138.60723, 35.899683], [138.606045, 35.891854], [138.606761, 35.878456], [138.610756, 35.873689], [138.621594, 35.870448], [138.62834, 35.873327], [138.634234, 35.870053], [138.642523, 35.874772], [138.651957, 35.873954], [138.655931, 35.875868], [138.660946, 35.87389], [138.675988, 35.869838], [138.682678, 35.881461], [138.685846, 35.893866], [138.691932, 35.89585], [138.700162, 35.903063], [138.705684, 35.905951], [138.70797, 35.909636], [138.724106, 35.907985], [138.729011, 35.909221], [138.734888, 35.904001], [138.739184, 35.905844], [138.749107, 35.901608], [138.75829, 35.902408], [138.765667, 35.899108], [138.777155, 35.900419], [138.789115, 35.893242], [138.791119, 35.890808], [138.792788, 35.881933], [138.791808, 35.875975], [138.79697, 35.87213], [138.808405, 35.87002], [138.813605, 35.862368], [138.819682, 35.865233], [138.828502, 35.865738], [138.832427, 35.86225], [138.841721, 35.864913], [138.845449, 35.867391], [138.856628, 35.864616], [138.858811, 35.857574], [138.862661, 35.858761], [138.869432, 35.857249], [138.879703, 35.846922], [138.885648, 35.847133], [138.892038, 35.839845], [138.899161, 35.846721], [138.904674, 35.848475], [138.910946, 35.852727], [138.922623, 35.850687], [138.926376, 35.848918], [138.945184, 35.854452], [138.948548, 35.849544], [138.947339, 35.843297], [138.953262, 35.836517], [138.962195, 35.829608], [138.969297, 35.831383], [138.970479, 35.827357], [138.96977, 35.815853], [138.972059, 35.813697], [138.970322, 35.804584], [138.971796, 35.798998], [138.977105, 35.792752], [138.976876, 35.789029], [138.985045, 35.785268], [138.986425, 35.782253], [138.983773, 35.769475], [138.989362, 35.76349], [138.992432, 35.755518], [138.998828, 35.751138], [139.005155, 35.750452], [139.011881, 35.738863], [139.013795, 35.734989], [139.020899, 35.727281], [139.022528, 35.721991], [139.028978, 35.716768], [139.034778, 35.714959], [139.038715, 35.711287], [139.046673, 35.709484], [139.052022, 35.704904], [139.063118, 35.700463], [139.064861, 35.698155], [139.072109, 35.695408], [139.08166, 35.695517], [139.092245, 35.690571], [139.097108, 35.692266], [139.105625, 35.691016], [139.112615, 35.684964], [139.126851, 35.676863], [139.131341, 35.671995], [139.123898, 35.662918], [139.11981, 35.660408], [139.117264, 35.654897], [139.126969, 35.6419], [139.123621, 35.63408], [139.123465, 35.62406], [139.133715, 35.615811], [139.127785, 35.612645], [139.133016, 35.606482], [139.129333, 35.594596], [139.124597, 35.592647], [139.121438, 35.586918], [139.124012, 35.582154], [139.127771, 35.581], [139.127018, 35.571712], [139.129642, 35.567038], [139.128411, 35.562648], [139.121286, 35.556173], [139.115219, 35.553711], [139.111961, 35.549794], [139.111714, 35.544535], [139.113922, 35.538487], [139.106636, 35.532174], [139.104115, 35.526891], [139.094305, 35.521871], [139.08579, 35.512086], [139.080761, 35.512736], [139.074466, 35.50994], [139.068554, 35.510891], [139.060081, 35.507499], [139.051402, 35.510578], [139.046019, 35.509663], [139.043933, 35.49944], [139.036935, 35.490949], [139.03062, 35.488702], [139.027549, 35.480968], [139.02095, 35.478793], [139.014858, 35.479911], [139.008141, 35.474559], [138.997797, 35.474974], [138.988822, 35.473641], [138.985035, 35.468547], [138.978769, 35.463742], [138.973463, 35.466545], [138.96923, 35.463515], [138.959252, 35.462229], [138.954483, 35.459837], [138.940583, 35.44957], [138.937315, 35.448807], [138.937391, 35.447001], [138.927404, 35.437645], [138.926728, 35.430487], [138.930645, 35.426329], [138.93017, 35.420871], [138.926726, 35.420026], [138.925664, 35.415311], [138.918066, 35.411339], [138.915768, 35.404315], [138.916403, 35.400614], [138.910937, 35.397737], [138.902867, 35.396332], [138.89833, 35.391831], [138.892649, 35.390371], [138.887942, 35.386353], [138.879292, 35.385954], [138.873464, 35.381709], [138.862402, 35.39008], [138.856341, 35.387999], [138.850826, 35.39046], [138.843739, 35.386596], [138.833981, 35.383855], [138.828933, 35.377968], [138.821941, 35.374182], [138.815572, 35.376435], [138.808374, 35.375657], [138.799452, 35.376669], [138.746871, 35.366331], [138.730781, 35.362799], [138.724805, 35.365245], [138.718753, 35.365494], [138.713141, 35.363613], [138.700445, 35.362674], [138.698653, 35.359653], [138.680536, 35.357678], [138.671183, 35.39283], [138.663386, 35.398282], [138.638955, 35.398283], [138.609136, 35.393176], [138.597718, 35.431802], [138.592421, 35.436101], [138.588507, 35.436796], [138.581888, 35.445728], [138.577422, 35.440893], [138.57048, 35.439482], [138.563321, 35.434553], [138.559057, 35.434213], [138.555607, 35.426129], [138.5469, 35.41912], [138.545746, 35.416785], [138.538295, 35.414177], [138.531827, 35.409409], [138.531247, 35.402122], [138.535848, 35.38988], [138.528171, 35.379047], [138.530702, 35.376131], [138.529868, 35.359625], [138.531021, 35.353532], [138.530628, 35.345579]]]}}]}