{"type": "FeatureCollection", "features": [{"type": "Feature", "properties": {"name": "岐阜県"}, "geometry": {"type": "MultiLineString", "coordinates": [[[136.683133, 35.19983], [136.672453, 35.189248], [136.672868, 35.165636], [136.672778, 35.134777], [136.66963, 35.133729], [136.65547, 35.161307], [136.646382, 35.165813], [136.645218, 35.144572], [136.634071, 35.149833], [136.623765, 35.14583], [136.615847, 35.149687], [136.61239, 35.159638], [136.60514, 35.167306], [136.606126, 35.172069], [136.602301, 35.178039], [136.59724, 35.177091], [136.592698, 35.186595], [136.587719, 35.184463], [136.583822, 35.190741], [136.585189, 35.19446], [136.577405, 35.196746], [136.576056, 35.202252], [136.55984, 35.206578], [136.556988, 35.220626], [136.547371, 35.220316], [136.550445, 35.233055], [136.540935, 35.237308], [136.541393, 35.245749], [136.536337, 35.250201], [136.537711, 35.251002], [136.534175, 35.257089], [136.527365, 35.257941], [136.527668, 35.257533], [136.516011, 35.253894], [136.507479, 35.23587], [136.49495, 35.237947], [136.489449, 35.23552], [136.482447, 35.239805], [136.481109, 35.234976], [136.473031, 35.237432], [136.470273, 35.232694], [136.466254, 35.238054], [136.453875, 35.229916], [136.442218, 35.21707], [136.434539, 35.220448], [136.430901, 35.229404], [136.415131, 35.217744], [136.408389, 35.223622], [136.392472, 35.22982], [136.39205, 35.234181], [136.385686, 35.235115], [136.378939, 35.241667], [136.379215, 35.247505], [136.389154, 35.249767], [136.396962, 35.257731], [136.393541, 35.261913], [136.395961, 35.280229], [136.39115, 35.290197], [136.402657, 35.300452], [136.421788, 35.287847], [136.402967, 35.300546], [136.412264, 35.315563], [136.411427, 35.329014], [136.422325, 35.34839], [136.421423, 35.353917], [136.410476, 35.352791], [136.409727, 35.356968], [136.413528, 35.359973], [136.411912, 35.369896], [136.415138, 35.373341], [136.426744, 35.373532], [136.436893, 35.379132], [136.444352, 35.389425], [136.445989, 35.389979], [136.427965, 35.400785], [136.420306, 35.412908], [136.411808, 35.418598], [136.411839, 35.422406], [136.418887, 35.427776], [136.415729, 35.433422], [136.423119, 35.439734], [136.426223, 35.448401], [136.421466, 35.455639], [136.420861, 35.465035], [136.401619, 35.470017], [136.398005, 35.480929], [136.387417, 35.487807], [136.386893, 35.492026], [136.400071, 35.513639], [136.403745, 35.511385], [136.405678, 35.513455], [136.399057, 35.521343], [136.401753, 35.525649], [136.400405, 35.530082], [136.384253, 35.533091], [136.372801, 35.559723], [136.36264, 35.558746], [136.356662, 35.539914], [136.345977, 35.536128], [136.340928, 35.537283], [136.33732, 35.550255], [136.329564, 35.550918], [136.322443, 35.544356], [136.317503, 35.547397], [136.316231, 35.556924], [136.32267, 35.569468], [136.324449, 35.58418], [136.32031, 35.601553], [136.314982, 35.60593], [136.323711, 35.616444], [136.315765, 35.623425], [136.298398, 35.617476], [136.288701, 35.620465], [136.287345, 35.6281], [136.279164, 35.636686], [136.282501, 35.645416], [136.276217, 35.652478], [136.28445, 35.663391], [136.290544, 35.665936], [136.288788, 35.671378], [136.298907, 35.677683], [136.292015, 35.683883], [136.291822, 35.690523], [136.297798, 35.691841], [136.309463, 35.703516], [136.311752, 35.711955], [136.323953, 35.716747], [136.320449, 35.722544], [136.327003, 35.731434], [136.325198, 35.743648], [136.318386, 35.751058], [136.321551, 35.765104], [136.327948, 35.775102], [136.346528, 35.776047], [136.357089, 35.786832], [136.37745, 35.79521], [136.388798, 35.791895], [136.389501, 35.788042], [136.400275, 35.789335], [136.409207, 35.779931], [136.418505, 35.782433], [136.430934, 35.774992], [136.445805, 35.772908], [136.458932, 35.779067], [136.472599, 35.772696], [136.485714, 35.776454], [136.48529, 35.773738], [136.496515, 35.765533], [136.503616, 35.750721], [136.506335, 35.750499], [136.508151, 35.757008], [136.514041, 35.762267], [136.52199, 35.753151], [136.513121, 35.763783], [136.513307, 35.77533], [136.522815, 35.788166], [136.544948, 35.778775], [136.555818, 35.780978], [136.570745, 35.777424], [136.585987, 35.784335], [136.585232, 35.789631], [136.589652, 35.795547], [136.59915, 35.79853], [136.611451, 35.788796], [136.622057, 35.7868], [136.627647, 35.790842], [136.626628, 35.796838], [136.637854, 35.797305], [136.645195, 35.806832], [136.65287, 35.79798], [136.654326, 35.785883], [136.657665, 35.783483], [136.666135, 35.785136], [136.67205, 35.791308], [136.676959, 35.793253], [136.689779, 35.789283], [136.699555, 35.794174], [136.708986, 35.791659], [136.719192, 35.798565], [136.722967, 35.808078], [136.741097, 35.801069], [136.755012, 35.809478], [136.76391, 35.810607], [136.774385, 35.806673], [136.776021, 35.798833], [136.792173, 35.797816], [136.789253, 35.799395], [136.798529, 35.817742], [136.79709, 35.828095], [136.802188, 35.843961], [136.820916, 35.843934], [136.83113, 35.851934], [136.830078, 35.865842], [136.818998, 35.881656], [136.822879, 35.886405], [136.822308, 35.896285], [136.81578, 35.902729], [136.811956, 35.91245], [136.805965, 35.912774], [136.798984, 35.920643], [136.784783, 35.924018], [136.783863, 35.927776], [136.793386, 35.940923], [136.793244, 35.945982], [136.780503, 35.950552], [136.769991, 35.950532], [136.750272, 35.958898], [136.748846, 35.963602], [136.753607, 35.968374], [136.750813, 35.990412], [136.726745, 35.995938], [136.735726, 36.032315], [136.735477, 36.047805], [136.732793, 36.048882], [136.740295, 36.053966], [136.740054, 36.056928], [136.759019, 36.067078], [136.764257, 36.067682], [136.768119, 36.057708], [136.763998, 36.074446], [136.754284, 36.08629], [136.756178, 36.099112], [136.764957, 36.105608], [136.785698, 36.098576], [136.765336, 36.105864], [136.771057, 36.123969], [136.778587, 36.129398], [136.780785, 36.141545], [136.775831, 36.143914], [136.773373, 36.157443], [136.766449, 36.162556], [136.786442, 36.16619], [136.798407, 36.172564], [136.802059, 36.187059], [136.811243, 36.196635], [136.822603, 36.201498], [136.819584, 36.206237], [136.820994, 36.210742], [136.831645, 36.217597], [136.832292, 36.223607], [136.840415, 36.231414], [136.847299, 36.24563], [136.851823, 36.247102], [136.850831, 36.251651], [136.844687, 36.25424], [136.844287, 36.259241], [136.836099, 36.261792], [136.833672, 36.265828], [136.814579, 36.266402], [136.814402, 36.270314], [136.806003, 36.275806], [136.805943, 36.284375], [136.795461, 36.292495], [136.792287, 36.299211], [136.804177, 36.306191], [136.809392, 36.302541], [136.826185, 36.302548], [136.832368, 36.306811], [136.832519, 36.315418], [136.842497, 36.332716], [136.837152, 36.347216], [136.844063, 36.351112], [136.852064, 36.347429], [136.8651, 36.34966], [136.864135, 36.355201], [136.871108, 36.367531], [136.872805, 36.361585], [136.876299, 36.360279], [136.876008, 36.355648], [136.869585, 36.351651], [136.870241, 36.348943], [136.875741, 36.350106], [136.874757, 36.342793], [136.87876, 36.344901], [136.882289, 36.341942], [136.890091, 36.345558], [136.907474, 36.360842], [136.932757, 36.348293], [136.939366, 36.349324], [136.946998, 36.345666], [136.951067, 36.339244], [136.955136, 36.339097], [136.961409, 36.322947], [136.971117, 36.315543], [136.973289, 36.309852], [136.957735, 36.277937], [136.966473, 36.277707], [136.967889, 36.275242], [136.970722, 36.277749], [136.975237, 36.273785], [136.975666, 36.275311], [136.986525, 36.282465], [136.986216, 36.286275], [137.002681, 36.286926], [137.012596, 36.2931], [137.010809, 36.298029], [137.021251, 36.309176], [137.018202, 36.311452], [137.019741, 36.318281], [137.037571, 36.317439], [137.051515, 36.328133], [137.052533, 36.33854], [137.058736, 36.3425], [137.048904, 36.345495], [137.062166, 36.366141], [137.058388, 36.368235], [137.059362, 36.373418], [137.078726, 36.384311], [137.094883, 36.383967], [137.091944, 36.39654], [137.101926, 36.399193], [137.109254, 36.407447], [137.11151, 36.415383], [137.117299, 36.418554], [137.122, 36.41715], [137.132268, 36.434563], [137.14339, 36.43847], [137.144192, 36.445521], [137.152833, 36.447655], [137.159697, 36.456444], [137.171245, 36.454727], [137.174939, 36.450062], [137.177999, 36.4542], [137.182265, 36.452464], [137.191675, 36.455213], [137.194329, 36.45307], [137.193126, 36.448012], [137.198354, 36.445928], [137.204871, 36.436774], [137.20563, 36.427604], [137.208944, 36.431691], [137.213981, 36.43075], [137.21387, 36.438793], [137.21898, 36.439003], [137.222449, 36.443717], [137.232064, 36.444502], [137.247612, 36.461964], [137.256379, 36.451141], [137.263942, 36.458411], [137.278484, 36.464996], [137.298513, 36.45823], [137.308518, 36.463775], [137.317012, 36.460803], [137.317788, 36.451182], [137.313375, 36.449088], [137.313826, 36.441595], [137.305007, 36.435835], [137.312896, 36.425341], [137.318621, 36.424441], [137.338397, 36.433854], [137.351207, 36.432903], [137.35859, 36.436844], [137.357728, 36.443212], [137.361498, 36.450051], [137.370345, 36.453598], [137.378017, 36.45272], [137.389936, 36.459922], [137.396206, 36.450465], [137.395222, 36.436397], [137.404707, 36.426691], [137.43601, 36.420393], [137.445309, 36.412964], [137.449369, 36.416819], [137.460712, 36.412226], [137.468723, 36.417205], [137.474108, 36.425409], [137.510414, 36.424321], [137.515046, 36.411346], [137.520264, 36.406067], [137.5312, 36.402447], [137.539887, 36.39332], [137.520937, 36.38114], [137.539973, 36.3927], [137.559505, 36.387452], [137.577391, 36.392995], [137.587347, 36.389801], [137.587087, 36.371964], [137.617998, 36.365126], [137.635471, 36.34255], [137.645422, 36.341715], [137.646366, 36.330232], [137.652434, 36.322009], [137.648832, 36.309107], [137.653057, 36.304675], [137.646859, 36.296452], [137.647821, 36.289052], [137.629043, 36.278626], [137.620924, 36.266675], [137.614739, 36.264777], [137.605923, 36.248787], [137.59635, 36.242976], [137.589679, 36.228603], [137.583197, 36.22691], [137.583025, 36.220396], [137.573058, 36.218655], [137.57857, 36.197539], [137.595089, 36.19074], [137.590933, 36.185933], [137.591157, 36.178123], [137.595064, 36.172048], [137.590842, 36.1638], [137.570515, 36.155616], [137.56796, 36.147669], [137.554721, 36.140199], [137.560551, 36.130242], [137.557085, 36.118058], [137.5502, 36.112893], [137.554884, 36.105532], [137.567773, 36.096867], [137.573428, 36.087683], [137.59279, 36.080945], [137.596814, 36.075841], [137.612959, 36.077186], [137.610931, 36.067255], [137.614784, 36.062128], [137.597859, 36.042407], [137.600224, 36.028571], [137.590451, 36.006661], [137.575716, 35.995493], [137.569114, 35.995694], [137.543458, 35.982871], [137.544991, 35.977102], [137.541983, 35.966628], [137.532557, 35.961617], [137.524519, 35.942464], [137.518731, 35.939682], [137.503556, 35.939888], [137.49775, 35.928819], [137.483431, 35.913788], [137.484456, 35.908631], [137.481142, 35.90596], [137.479258, 35.896423], [137.461601, 35.889315], [137.44767, 35.89342], [137.434899, 35.905489], [137.419402, 35.904472], [137.380816, 35.892422], [137.36437, 35.878873], [137.368186, 35.874205], [137.367585, 35.860667], [137.361127, 35.846208], [137.354268, 35.842221], [137.336046, 35.844218], [137.332144, 35.84068], [137.324552, 35.812021], [137.332321, 35.809335], [137.336723, 35.798601], [137.352543, 35.801533], [137.360286, 35.795968], [137.359603, 35.79515], [137.373317, 35.800442], [137.394147, 35.797392], [137.396958, 35.785352], [137.391095, 35.780428], [137.396072, 35.77634], [137.423543, 35.775157], [137.427168, 35.771367], [137.434403, 35.771047], [137.433984, 35.766975], [137.440179, 35.758553], [137.449942, 35.759292], [137.45263, 35.763424], [137.464752, 35.756372], [137.468094, 35.747025], [137.466558, 35.741169], [137.479025, 35.726559], [137.485212, 35.724704], [137.487627, 35.716484], [137.485719, 35.706028], [137.497634, 35.698139], [137.497196, 35.688482], [137.535374, 35.665805], [137.535957, 35.661151], [137.545448, 35.651082], [137.539723, 35.646833], [137.54102, 35.642078], [137.538444, 35.63855], [137.526599, 35.63426], [137.527691, 35.628705], [137.523785, 35.625967], [137.522652, 35.619403], [137.516826, 35.618281], [137.513809, 35.608023], [137.520089, 35.600108], [137.532036, 35.593231], [137.530983, 35.588982], [137.537603, 35.584451], [137.55052, 35.587706], [137.571304, 35.584161], [137.568731, 35.573467], [137.564119, 35.568613], [137.572061, 35.561248], [137.570629, 35.553772], [137.574772, 35.549434], [137.573947, 35.544725], [137.576927, 35.544873], [137.581104, 35.538811], [137.602381, 35.530723], [137.607809, 35.533295], [137.618444, 35.525997], [137.626166, 35.512164], [137.631766, 35.509447], [137.628332, 35.501467], [137.624546, 35.500606], [137.62443, 35.493827], [137.627002, 35.484582], [137.629777, 35.483592], [137.63175, 35.470044], [137.628539, 35.467312], [137.618176, 35.467769], [137.593011, 35.447107], [137.615538, 35.430595], [137.61778, 35.426704], [137.615685, 35.423339], [137.621974, 35.411896], [137.632128, 35.410552], [137.633944, 35.399218], [137.618568, 35.391788], [137.595018, 35.395377], [137.590343, 35.39368], [137.575333, 35.399538], [137.577363, 35.390436], [137.586415, 35.389557], [137.598543, 35.379028], [137.597838, 35.366272], [137.602556, 35.358261], [137.59983, 35.352069], [137.603358, 35.332217], [137.590595, 35.330596], [137.583368, 35.318996], [137.571466, 35.318349], [137.567073, 35.314884], [137.568672, 35.313325], [137.564397, 35.313373], [137.56507, 35.310826], [137.556607, 35.309399], [137.559307, 35.302884], [137.556385, 35.295537], [137.561984, 35.289317], [137.561902, 35.283296], [137.551395, 35.284232], [137.543429, 35.280553], [137.52898, 35.284231], [137.518935, 35.283327], [137.520675, 35.273476], [137.516141, 35.274983], [137.513869, 35.26927], [137.505974, 35.266428], [137.504802, 35.262945], [137.496986, 35.264171], [137.496986, 35.259126], [137.476499, 35.253364], [137.460736, 35.240183], [137.453366, 35.240508], [137.45045, 35.235092], [137.441736, 35.233527], [137.434714, 35.224138], [137.428145, 35.223347], [137.417078, 35.240323], [137.408418, 35.234801], [137.400744, 35.241755], [137.387814, 35.240295], [137.382785, 35.247311], [137.386784, 35.251812], [137.384992, 35.258913], [137.377743, 35.258835], [137.373871, 35.262594], [137.344099, 35.257858], [137.34512, 35.261775], [137.33995, 35.264545], [137.346343, 35.270672], [137.34463, 35.273718], [137.331174, 35.276763], [137.308081, 35.289663], [137.320768, 35.293397], [137.298434, 35.288749], [137.276587, 35.288991], [137.282914, 35.317375], [137.276984, 35.291645], [137.271428, 35.285979], [137.262664, 35.285202], [137.260814, 35.275174], [137.249677, 35.268443], [137.243656, 35.268652], [137.242218, 35.264464], [137.235389, 35.264658], [137.223997, 35.256201], [137.221558, 35.255936], [137.221013, 35.260372], [137.212256, 35.259947], [137.207737, 35.253479], [137.203536, 35.255021], [137.199958, 35.251464], [137.185224, 35.25369], [137.172895, 35.264903], [137.186456, 35.277418], [137.176093, 35.270383], [137.165227, 35.283415], [137.145601, 35.279826], [137.13117, 35.293168], [137.102334, 35.301648], [137.096033, 35.290554], [137.081311, 35.292191], [137.081841, 35.305121], [137.06677, 35.308972], [137.063522, 35.318197], [137.072979, 35.326457], [137.068218, 35.335682], [137.061357, 35.339122], [137.047867, 35.335429], [137.045241, 35.350597], [137.049822, 35.359341], [137.04794, 35.36488], [137.047622, 35.364693], [137.044836, 35.367482], [137.033982, 35.368046], [137.028338, 35.376065], [137.020014, 35.375721], [137.014906, 35.38158], [137.002237, 35.381374], [136.998446, 35.39133], [136.990113, 35.394857], [136.988963, 35.401164], [136.978199, 35.403329], [136.987099, 35.415373], [136.986425, 35.419999], [136.992525, 35.423769], [136.968657, 35.422051], [136.963424, 35.420169], [136.961117, 35.414582], [136.963018, 35.408031], [136.959266, 35.397793], [136.93599, 35.388752], [136.922074, 35.379178], [136.888543, 35.377913], [136.864932, 35.372605], [136.860449, 35.367868], [136.834039, 35.355945], [136.792887, 35.363458], [136.794064, 35.366068], [136.794456, 35.368335], [136.777199, 35.369503], [136.774692, 35.36988], [136.774904, 35.372934], [136.774641, 35.369604], [136.760455, 35.359356], [136.753946, 35.344894], [136.725733, 35.295614], [136.707005, 35.279068], [136.69438, 35.25683], [136.677875, 35.241058], [136.680959, 35.223783], [136.683133, 35.19983]]]}}], "name": "岐阜県"}