{"type": "FeatureCollection", "features": [{"type": "Feature", "properties": {}, "geometry": {"type": "MultiLineString", "coordinates": [[[133.533269, 34.29872], [133.529821, 34.299555], [133.525742, 34.305076], [133.527878, 34.307556], [133.540512, 34.307604], [133.533269, 34.29872]], [[133.499769, 34.339977], [133.499017, 34.345576], [133.506761, 34.344935], [133.509449, 34.340543], [133.506826, 34.335261], [133.499769, 34.339977]], [[133.591105, 34.358805], [133.58467, 34.358336], [133.580873, 34.351134], [133.573991, 34.348751], [133.566505, 34.352736], [133.574632, 34.356208], [133.5807, 34.35666], [133.581558, 34.361876], [133.586857, 34.363657], [133.591105, 34.358805]], [[133.549928, 34.396448], [133.550428, 34.38783], [133.544787, 34.380223], [133.544996, 34.377375], [133.55732, 34.37547], [133.560221, 34.370484], [133.558618, 34.367024], [133.547785, 34.369034], [133.545798, 34.366606], [133.539142, 34.370331], [133.535901, 34.373908], [133.532207, 34.373328], [133.528096, 34.37858], [133.517748, 34.382584], [133.516615, 34.386259], [133.523565, 34.391597], [133.527497, 34.388042], [133.537175, 34.395839], [133.537618, 34.401237], [133.544868, 34.402177], [133.549928, 34.396448]], [[133.525589, 34.411192], [133.523509, 34.405931], [133.525603, 34.39887], [133.520238, 34.397561], [133.513767, 34.389689], [133.50884, 34.393922], [133.507124, 34.399709], [133.505839, 34.406636], [133.512197, 34.406621], [133.514427, 34.410103], [133.518667, 34.408476], [133.521418, 34.415668], [133.525589, 34.411192]], [[133.500312, 34.423603], [133.501315, 34.428802], [133.506749, 34.433358], [133.516244, 34.432723], [133.514473, 34.428397], [133.500312, 34.423603]], [[133.669188, 34.501661], [133.674692, 34.504162], [133.684416, 34.504267], [133.683503, 34.489219], [133.68115, 34.487411], [133.668894, 34.487583], [133.669188, 34.501661]], [[133.529498, 34.477052], [133.524967, 34.475137], [133.518365, 34.479116], [133.518322, 34.4826], [133.514749, 34.49005], [133.508239, 34.497128], [133.499884, 34.499933], [133.508508, 34.490559], [133.518493, 34.477413], [133.519384, 34.473131], [133.526974, 34.471223], [133.528021, 34.468296], [133.524629, 34.458496], [133.52747, 34.453887], [133.524145, 34.451216], [133.514404, 34.449183], [133.507167, 34.451826], [133.500935, 34.451725], [133.495054, 34.444271], [133.489098, 34.440961], [133.477885, 34.443416], [133.473803, 34.44146], [133.473049, 34.447542], [133.476013, 34.452152], [133.482286, 34.454035], [133.490291, 34.459963], [133.484024, 34.464745], [133.4801, 34.46369], [133.46278, 34.454466], [133.456324, 34.454538], [133.456479, 34.470561], [133.455223, 34.477374], [133.449216, 34.477518], [133.445873, 34.483057], [133.448801, 34.48855], [133.455439, 34.494901], [133.45639, 34.500104], [133.453375, 34.506735], [133.444943, 34.505886], [133.445208, 34.509715], [133.449161, 34.513202], [133.447272, 34.519399], [133.450371, 34.526744], [133.45393, 34.530166], [133.453339, 34.534971], [133.448708, 34.53972], [133.449437, 34.542764], [133.44636, 34.551106], [133.44603, 34.556434], [133.440349, 34.559341], [133.435077, 34.565773], [133.426733, 34.569145], [133.427554, 34.571693], [133.423133, 34.57866], [133.423169, 34.585544], [133.420688, 34.587244], [133.41272, 34.586915], [133.410899, 34.589614], [133.40578, 34.589285], [133.397006, 34.594884], [133.398113, 34.597813], [133.395861, 34.605346], [133.39063, 34.612042], [133.384773, 34.616758], [133.383426, 34.621932], [133.384976, 34.625369], [133.391916, 34.631134], [133.38719, 34.636382], [133.388484, 34.643431], [133.391766, 34.649288], [133.39649, 34.652079], [133.396427, 34.655874], [133.402787, 34.667066], [133.401411, 34.674045], [133.385487, 34.677538], [133.386411, 34.685379], [133.382761, 34.690129], [133.374175, 34.695357], [133.373083, 34.707987], [133.369132, 34.723554], [133.361457, 34.727129], [133.360866, 34.734527], [133.364639, 34.740521], [133.369648, 34.744586], [133.365978, 34.75455], [133.361847, 34.7556], [133.36718, 34.761196], [133.36466, 34.767114], [133.367375, 34.774331], [133.372384, 34.780019], [133.369797, 34.789774], [133.377592, 34.797083], [133.378086, 34.80836], [133.374507, 34.813912], [133.368556, 34.814883], [133.367897, 34.819006], [133.35888, 34.819644], [133.35647, 34.826481], [133.352986, 34.830643], [133.34223, 34.830277], [133.336091, 34.834745], [133.332591, 34.840742], [133.335423, 34.844518], [133.330657, 34.849539], [133.330664, 34.855925], [133.323115, 34.859272], [133.324029, 34.864356], [133.316811, 34.867178], [133.314324, 34.872821], [133.309406, 34.874043], [133.305699, 34.882062], [133.301099, 34.88445], [133.298011, 34.889339], [133.295794, 34.904008], [133.297553, 34.909474], [133.302969, 34.913084], [133.304632, 34.921717], [133.301873, 34.928914], [133.309446, 34.937045], [133.308026, 34.941088], [133.298115, 34.952984], [133.297262, 34.956004], [133.304893, 34.964962], [133.303079, 34.972044], [133.310838, 34.974644], [133.313277, 34.98007], [133.3195, 34.98318], [133.321726, 34.987926], [133.319223, 34.998313], [133.321211, 35.003629], [133.319622, 35.008626], [133.315704, 35.012431], [133.304998, 35.015193], [133.302998, 35.020651], [133.296878, 35.024729], [133.295843, 35.029493], [133.291002, 35.035961], [133.285236, 35.040659], [133.274467, 35.044977], [133.273419, 35.047813], [133.266927, 35.052431], [133.268538, 35.057069], [133.272631, 35.059751], [133.276912, 35.066109], [133.283421, 35.06595], [133.290824, 35.070944], [133.288859, 35.074446], [133.29066, 35.084424], [133.288263, 35.095914], [133.29094, 35.100359], [133.299032, 35.103804], [133.302829, 35.099581], [133.308341, 35.099447], [133.316324, 35.096563], [133.319428, 35.093856], [133.32814, 35.094998], [133.332359, 35.101272], [133.338223, 35.106563], [133.347271, 35.105595], [133.354874, 35.100771], [133.358396, 35.102126], [133.366681, 35.110155], [133.378788, 35.114666], [133.386994, 35.113115], [133.403363, 35.114321], [133.405764, 35.118024], [133.411826, 35.121146], [133.412618, 35.133493], [133.411224, 35.138753], [133.405138, 35.142928], [133.404514, 35.148668], [133.400359, 35.153271], [133.400722, 35.158433], [133.398515, 35.163581], [133.393362, 35.169145], [133.396947, 35.172461], [133.394385, 35.176073], [133.396101, 35.180596], [133.402776, 35.182178], [133.407439, 35.185882], [133.415573, 35.184724], [133.420849, 35.180984], [133.42218, 35.176113], [133.428124, 35.177409], [133.438052, 35.173075], [133.447556, 35.171296], [133.456515, 35.173109], [133.459826, 35.177787], [133.466972, 35.175157], [133.473161, 35.178594], [133.474845, 35.182019], [133.482562, 35.182413], [133.485438, 35.186401], [133.49846, 35.188229], [133.500412, 35.192367], [133.508051, 35.193092], [133.51047, 35.190114], [133.516341, 35.190517], [133.519182, 35.182911], [133.526111, 35.182886], [133.529076, 35.186937], [133.526821, 35.193669], [133.520683, 35.206016], [133.521514, 35.210573], [133.51541, 35.220534], [133.511312, 35.221516], [133.505541, 35.228173], [133.508174, 35.233247], [133.514493, 35.235489], [133.517227, 35.240737], [133.525669, 35.239449], [133.528355, 35.236662], [133.534831, 35.236717], [133.541495, 35.242179], [133.545947, 35.243681], [133.55491, 35.24181], [133.561806, 35.248878], [133.562223, 35.254116], [133.566637, 35.25559], [133.568181, 35.257056], [133.56677, 35.26581], [133.571916, 35.272569], [133.568849, 35.277495], [133.572318, 35.281658], [133.570544, 35.287086], [133.577553, 35.297261], [133.575764, 35.300815], [133.576786, 35.314414], [133.587933, 35.324891], [133.592446, 35.330814], [133.589123, 35.333904], [133.589341, 35.337859], [133.594528, 35.340786], [133.596799, 35.345021], [133.605811, 35.341063], [133.618002, 35.339601], [133.622191, 35.336709], [133.631613, 35.339502], [133.638901, 35.338948], [133.640693, 35.336661], [133.649177, 35.336338], [133.665739, 35.32401], [133.673965, 35.323373], [133.677362, 35.319293], [133.683566, 35.318751], [133.691756, 35.320844], [133.691531, 35.323888], [133.696062, 35.326924], [133.704957, 35.324297], [133.709023, 35.32506], [133.717206, 35.31992], [133.724727, 35.319649], [133.727134, 35.31701], [133.742309, 35.316523], [133.748685, 35.317062], [133.750693, 35.311396], [133.75696, 35.308198], [133.76212, 35.311116], [133.76701, 35.308634], [133.769207, 35.304982], [133.775705, 35.299558], [133.782373, 35.297873], [133.79348, 35.292851], [133.799874, 35.292693], [133.801379, 35.284831], [133.809279, 35.276917], [133.807606, 35.270286], [133.815222, 35.264888], [133.818154, 35.259236], [133.818146, 35.252634], [133.826386, 35.249542], [133.832076, 35.248833], [133.843729, 35.253485], [133.852239, 35.262374], [133.855557, 35.268117], [133.865943, 35.272259], [133.863463, 35.277095], [133.865129, 35.285864], [133.860823, 35.288091], [133.862009, 35.292361], [133.872805, 35.293042], [133.877263, 35.295225], [133.881378, 35.293945], [133.906837, 35.306641], [133.917562, 35.307581], [133.925222, 35.306899], [133.931266, 35.314714], [133.932019, 35.317921], [133.927823, 35.322097], [133.931535, 35.333206], [133.937126, 35.335566], [133.945321, 35.332616], [133.953889, 35.338291], [133.954071, 35.340698], [133.964766, 35.346686], [133.969633, 35.347834], [133.97978, 35.34341], [133.989666, 35.348567], [133.992336, 35.348147], [133.997668, 35.3529], [134.015721, 35.348695], [134.015421, 35.345294], [134.010822, 35.340396], [134.015365, 35.333864], [134.011988, 35.329887], [134.004161, 35.325283], [133.999468, 35.314651], [134.007836, 35.308398], [134.021695, 35.305569], [134.025329, 35.307493], [134.030142, 35.305421], [134.044136, 35.302756], [134.04813, 35.29848], [134.054656, 35.298189], [134.062199, 35.303043], [134.070661, 35.299259], [134.075838, 35.302748], [134.08168, 35.302257], [134.086297, 35.307326], [134.097914, 35.303299], [134.102793, 35.296394], [134.114107, 35.288464], [134.113819, 35.285953], [134.122303, 35.281074], [134.131532, 35.280333], [134.135684, 35.282335], [134.141297, 35.27494], [134.137601, 35.269564], [134.142249, 35.263939], [134.150026, 35.259928], [134.150579, 35.257956], [134.142763, 35.249426], [134.14542, 35.242837], [134.137475, 35.239246], [134.144462, 35.231301], [134.158246, 35.234563], [134.164184, 35.227976], [134.162301, 35.225465], [134.162164, 35.216453], [134.154344, 35.205553], [134.153113, 35.200155], [134.153977, 35.194641], [134.160861, 35.191822], [134.164951, 35.187981], [134.168894, 35.180167], [134.167534, 35.171826], [134.177598, 35.169171], [134.189937, 35.175865], [134.193679, 35.184345], [134.192851, 35.188562], [134.198409, 35.190533], [134.203174, 35.188794], [134.212644, 35.190723], [134.21652, 35.189489], [134.221618, 35.190422], [134.227629, 35.197115], [134.234682, 35.199262], [134.244237, 35.198455], [134.249759, 35.200681], [134.254099, 35.208293], [134.260902, 35.210457], [134.267973, 35.208419], [134.26854, 35.203927], [134.278461, 35.196871], [134.281335, 35.196703], [134.282316, 35.197878], [134.298996, 35.20186], [134.313794, 35.200594], [134.322697, 35.202754], [134.334682, 35.212893], [134.336554, 35.219483], [134.350399, 35.222818], [134.35466, 35.226547], [134.3689, 35.231719], [134.374672, 35.237244], [134.373163, 35.245881], [134.378706, 35.246568], [134.389727, 35.252122], [134.393665, 35.251749], [134.401693, 35.245824], [134.402814, 35.241024], [134.396998, 35.227618], [134.382517, 35.221724], [134.381152, 35.21789], [134.381316, 35.206347], [134.382993, 35.194439], [134.39475, 35.191354], [134.399674, 35.187625], [134.411083, 35.186967], [134.412633, 35.17765], [134.407133, 35.169853], [134.406184, 35.165777], [134.41083, 35.162911], [134.413161, 35.158619], [134.411632, 35.151963], [134.407021, 35.147331], [134.397472, 35.152141], [134.388257, 35.151263], [134.383085, 35.15249], [134.377564, 35.14912], [134.374716, 35.150869], [134.367393, 35.146961], [134.362476, 35.140093], [134.363294, 35.135526], [134.36052, 35.129305], [134.35643, 35.124824], [134.36073, 35.120349], [134.353457, 35.114347], [134.352284, 35.1111], [134.353329, 35.102055], [134.355031, 35.099428], [134.350001, 35.094252], [134.349551, 35.090223], [134.336539, 35.088751], [134.319083, 35.083443], [134.321159, 35.067497], [134.317177, 35.065647], [134.31454, 35.060904], [134.314335, 35.050792], [134.317174, 35.046818], [134.316332, 35.0432], [134.307736, 35.045502], [134.305305, 35.040169], [134.297787, 35.043107], [134.292667, 35.039001], [134.281588, 35.033616], [134.275208, 35.02331], [134.267598, 35.021538], [134.264438, 35.016692], [134.265762, 35.004967], [134.278971, 35.001015], [134.282365, 34.996593], [134.277837, 34.987107], [134.271089, 34.983902], [134.271931, 34.978936], [134.277075, 34.975789], [134.274575, 34.971223], [134.274296, 34.965751], [134.276956, 34.96333], [134.267341, 34.957456], [134.266699, 34.954431], [134.25999, 34.952306], [134.257768, 34.947777], [134.254203, 34.946004], [134.253727, 34.939087], [134.259944, 34.934439], [134.262884, 34.937657], [134.273087, 34.932551], [134.276096, 34.92968], [134.274799, 34.92428], [134.278237, 34.921679], [134.284492, 34.921035], [134.284019, 34.916966], [134.287356, 34.91283], [134.295015, 34.907462], [134.294106, 34.902802], [134.289148, 34.897691], [134.277791, 34.895141], [134.269293, 34.889091], [134.267488, 34.883301], [134.262354, 34.881983], [134.267075, 34.875478], [134.260163, 34.867314], [134.258455, 34.862554], [134.254001, 34.856958], [134.254557, 34.849262], [134.260964, 34.846967], [134.264611, 34.837313], [134.26173, 34.831149], [134.266295, 34.825641], [134.283347, 34.829745], [134.288419, 34.82693], [134.287931, 34.821559], [134.295607, 34.818056], [134.298142, 34.813621], [134.301537, 34.814627], [134.307351, 34.810923], [134.306341, 34.808616], [134.311285, 34.802552], [134.316361, 34.802574], [134.316465, 34.79721], [134.319209, 34.788188], [134.315828, 34.781041], [134.323268, 34.774256], [134.3296, 34.774238], [134.334789, 34.768888], [134.333066, 34.765737], [134.321531, 34.761709], [134.318449, 34.756261], [134.31662, 34.744129], [134.313027, 34.738397], [134.320819, 34.735365], [134.323651, 34.731044], [134.319613, 34.728174], [134.31513, 34.732207], [134.30205, 34.734812], [134.298106, 34.736554], [134.285661, 34.734034], [134.283503, 34.730276], [134.275448, 34.73457], [134.276264, 34.72825], [134.271112, 34.726279], [134.268587, 34.719178], [134.25172, 34.718427], [134.244057, 34.715265], [134.241437, 34.718414], [134.231971, 34.722687], [134.232338, 34.726222], [134.228711, 34.731381], [134.207981, 34.730037], [134.197286, 34.732829], [134.187052, 34.737766], [134.185881, 34.7424], [134.179216, 34.73674], [134.191044, 34.733158], [134.195488, 34.72979], [134.204931, 34.726828], [134.204379, 34.722766], [134.19393, 34.72015], [134.197585, 34.71525], [134.204406, 34.717093], [134.207075, 34.709542], [134.213557, 34.710111], [134.220042, 34.708552], [134.229366, 34.714755], [134.235609, 34.714859], [134.235507, 34.710805], [134.245281, 34.701053], [134.237855, 34.697664], [134.235426, 34.691504], [134.226346, 34.691755], [134.227678, 34.68796], [134.21692, 34.683799], [134.222023, 34.682016], [134.217909, 34.675804], [134.213902, 34.675537], [134.206682, 34.670149], [134.202622, 34.663649], [134.192798, 34.664962], [134.195248, 34.658265], [134.188526, 34.650806], [134.1766, 34.653749], [134.172045, 34.64958], [134.174581, 34.634089], [134.179073, 34.631744], [134.183079, 34.63671], [134.185531, 34.631257], [134.178663, 34.629949], [134.177375, 34.624121], [134.174547, 34.622898], [134.173154, 34.617337], [134.166629, 34.613046], [134.16222, 34.616451], [134.153906, 34.615357], [134.147043, 34.617039], [134.147101, 34.611794], [134.141327, 34.60785], [134.138975, 34.611295], [134.134362, 34.607822], [134.138379, 34.599546], [134.132788, 34.597672], [134.127976, 34.598547], [134.118427, 34.589812], [134.112187, 34.588468], [134.103524, 34.589577], [134.096677, 34.582818], [134.091351, 34.580902], [134.084489, 34.581082], [134.07975, 34.586469], [134.068974, 34.583813], [134.060088, 34.584622], [134.05438, 34.586434], [134.053207, 34.596035], [134.05792, 34.603462], [134.061573, 34.602709], [134.064009, 34.60754], [134.058041, 34.607772], [134.047434, 34.597617], [134.042151, 34.608333], [134.032479, 34.609108], [134.028974, 34.606386], [134.018983, 34.609742], [134.002873, 34.612912], [133.995797, 34.613536], [133.991676, 34.612535], [133.98269, 34.607492], [133.984587, 34.602854], [133.977382, 34.600337], [133.970885, 34.601798], [133.968338, 34.599509], [133.957186, 34.596968], [133.952354, 34.602473], [133.946052, 34.598991], [133.948087, 34.593642], [133.958722, 34.584061], [133.960443, 34.587584], [133.967974, 34.592571], [133.97385, 34.594473], [134.004537, 34.594903], [134.014475, 34.59773], [134.02606, 34.598961], [134.032688, 34.597781], [134.032556, 34.594856], [134.040721, 34.587482], [134.041139, 34.576422], [134.034195, 34.573756], [134.031053, 34.570205], [134.029298, 34.564373], [134.030927, 34.558044], [134.023113, 34.551744], [134.019084, 34.544036], [134.015217, 34.545808], [134.014766, 34.550631], [134.009671, 34.550683], [134.004659, 34.545341], [134.001104, 34.54504], [133.995374, 34.533443], [133.999335, 34.528812], [133.99793, 34.520902], [134.001885, 34.517118], [134.00728, 34.516426], [134.002963, 34.51161], [134.000015, 34.515752], [133.993499, 34.518334], [133.989151, 34.528639], [133.986892, 34.530866], [133.97748, 34.532999], [133.968785, 34.530065], [133.959458, 34.522733], [133.96235, 34.518671], [133.960221, 34.509365], [133.956475, 34.505968], [133.964824, 34.494927], [133.961183, 34.491937], [133.952937, 34.492705], [133.945465, 34.483224], [133.938123, 34.481067], [133.939259, 34.475432], [133.93436, 34.473245], [133.940686, 34.465627], [133.943257, 34.46465], [133.943226, 34.455291], [133.937631, 34.454663], [133.933734, 34.451542], [133.919203, 34.449786], [133.907472, 34.451903], [133.898522, 34.457136], [133.893767, 34.456417], [133.880141, 34.456841], [133.867144, 34.467276], [133.858418, 34.466783], [133.855555, 34.469436], [133.843733, 34.470094], [133.829737, 34.472528], [133.825162, 34.469543], [133.817079, 34.466827], [133.81404, 34.461497], [133.80859, 34.458801], [133.811212, 34.445386], [133.814406, 34.437991], [133.81831, 34.436132], [133.814329, 34.431409], [133.807132, 34.435895], [133.79666, 34.436723], [133.791677, 34.439365], [133.785173, 34.43608], [133.781644, 34.440175], [133.780578, 34.445378], [133.771305, 34.455302], [133.775354, 34.45905], [133.773099, 34.462888], [133.767494, 34.462506], [133.766633, 34.472319], [133.759621, 34.470201], [133.757125, 34.481701], [133.759578, 34.485847], [133.748329, 34.489466], [133.742884, 34.501216], [133.74348, 34.512505], [133.736631, 34.517249], [133.737071, 34.508631], [133.735143, 34.506733], [133.73505, 34.498593], [133.729574, 34.498602], [133.72169, 34.50087], [133.719046, 34.496406], [133.737177, 34.490575], [133.743399, 34.470602], [133.731225, 34.471036], [133.719377, 34.473118], [133.70403, 34.477827], [133.705334, 34.523063], [133.690826, 34.522822], [133.690467, 34.512377], [133.683994, 34.512504], [133.684071, 34.507073], [133.670195, 34.507346], [133.670359, 34.512747], [133.676831, 34.514896], [133.676877, 34.518403], [133.669821, 34.517783], [133.658594, 34.520345], [133.657115, 34.517012], [133.648031, 34.512123], [133.650762, 34.508526], [133.647168, 34.503757], [133.640524, 34.505037], [133.638146, 34.501375], [133.631442, 34.502212], [133.625344, 34.500994], [133.623527, 34.496071], [133.619404, 34.491941], [133.611554, 34.495375], [133.603739, 34.495143], [133.594145, 34.491065], [133.588727, 34.482481], [133.595919, 34.475774], [133.591707, 34.470736], [133.578738, 34.470518], [133.576633, 34.465766], [133.573241, 34.465905], [133.560344, 34.468262], [133.553647, 34.464436], [133.540384, 34.461384], [133.530995, 34.470043], [133.529498, 34.477052]], [[133.774964, 34.426499], [133.774479, 34.421746], [133.770052, 34.41878], [133.763975, 34.419771], [133.762328, 34.425093], [133.774964, 34.426499]], [[134.019015, 34.501936], [134.018989, 34.49821], [134.011956, 34.496173], [134.00938, 34.500632], [134.018176, 34.507018], [134.019015, 34.501936]], [[134.100245, 34.566944], [134.104724, 34.566568], [134.106524, 34.560763], [134.096551, 34.560843], [134.100245, 34.566944]], [[134.194675, 34.607071], [134.184861, 34.604786], [134.183658, 34.606131], [134.167907, 34.602202], [134.164652, 34.607123], [134.16791, 34.610251], [134.17751, 34.608806], [134.185627, 34.611407], [134.188449, 34.614743], [134.201864, 34.615859], [134.194675, 34.607071]], [[134.244163, 34.672242], [134.237356, 34.673244], [134.223371, 34.668546], [134.218493, 34.675751], [134.22736, 34.676234], [134.228858, 34.678928], [134.245254, 34.677648], [134.244163, 34.672242]], [[134.262863, 34.675027], [134.256402, 34.679649], [134.249151, 34.679801], [134.255938, 34.687974], [134.261082, 34.68608], [134.265604, 34.681717], [134.272857, 34.683456], [134.273486, 34.68082], [134.262863, 34.675027]], [[134.263004, 34.697164], [134.261067, 34.692431], [134.257416, 34.69016], [134.249661, 34.69553], [134.252853, 34.701396], [134.250391, 34.705778], [134.258591, 34.707279], [134.268679, 34.701194], [134.263004, 34.697164]], [[134.279491, 34.702918], [134.289842, 34.703732], [134.290952, 34.697474], [134.28276, 34.698559], [134.279491, 34.702918]], [[134.258444, 34.713518], [134.265839, 34.713882], [134.269225, 34.710036], [134.261249, 34.707927], [134.24983, 34.709801], [134.258444, 34.713518]], [[134.318391, 34.716085], [134.323039, 34.714101], [134.331778, 34.723034], [134.338809, 34.719729], [134.346961, 34.70813], [134.342788, 34.706431], [134.336901, 34.711199], [134.331812, 34.708443], [134.327214, 34.712196], [134.322972, 34.708358], [134.321382, 34.703145], [134.313046, 34.703539], [134.306678, 34.71212], [134.302868, 34.708166], [134.295003, 34.708695], [134.29265, 34.706847], [134.281906, 34.706706], [134.274677, 34.713622], [134.280318, 34.722337], [134.285291, 34.724045], [134.292852, 34.729712], [134.296974, 34.730342], [134.312089, 34.726389], [134.318391, 34.716085]]]}}]}