{"type": "FeatureCollection", "features": [{"type": "Feature", "properties": {"name": "岩手県"}, "geometry": {"type": "MultiLineString", "coordinates": [[[141.490186, 38.957309], [141.493963, 38.95535], [141.485572, 38.935728], [141.49211, 38.921624], [141.489384, 38.917448], [141.491915, 38.91304], [141.488769, 38.906702], [141.466442, 38.893949], [141.465739, 38.885095], [141.450853, 38.875797], [141.452669, 38.862552], [141.466113, 38.856252], [141.454597, 38.847251], [141.449835, 38.83739], [141.454673, 38.822219], [141.453048, 38.818599], [141.458673, 38.81396], [141.454345, 38.810898], [141.437818, 38.812899], [141.429379, 38.810547], [141.431453, 38.80656], [141.436408, 38.805432], [141.432532, 38.791585], [141.439676, 38.786103], [141.437932, 38.782239], [141.430927, 38.783325], [141.421696, 38.779829], [141.422894, 38.771662], [141.409881, 38.767823], [141.410051, 38.77322], [141.415612, 38.779505], [141.414864, 38.786202], [141.396859, 38.790106], [141.397389, 38.795282], [141.393813, 38.79984], [141.379183, 38.796091], [141.371321, 38.807475], [141.352724, 38.812521], [141.341113, 38.806458], [141.334299, 38.806971], [141.332059, 38.812014], [141.317101, 38.82318], [141.309296, 38.82223], [141.306588, 38.818957], [141.307273, 38.808711], [141.302454, 38.803476], [141.30455, 38.79346], [141.284942, 38.797616], [141.280362, 38.792514], [141.272482, 38.796965], [141.268961, 38.788213], [141.262955, 38.787348], [141.263263, 38.780299], [141.258064, 38.776191], [141.256809, 38.760939], [141.24766, 38.760454], [141.247926, 38.758374], [141.228844, 38.752568], [141.236879, 38.752018], [141.233712, 38.747809], [141.215839, 38.748471], [141.207273, 38.756806], [141.206061, 38.769484], [141.1956, 38.776811], [141.180654, 38.784537], [141.167646, 38.777253], [141.163586, 38.781957], [141.146238, 38.784423], [141.140149, 38.788642], [141.142504, 38.811902], [141.13992, 38.814303], [141.129916, 38.812823], [141.123445, 38.816726], [141.126082, 38.821641], [141.123735, 38.825463], [141.1161, 38.822382], [141.107668, 38.825045], [141.105093, 38.822616], [141.10278, 38.830629], [141.10608, 38.837918], [141.120448, 38.835091], [141.125336, 38.836861], [141.146524, 38.855938], [141.146133, 38.869275], [141.139831, 38.877505], [141.118298, 38.880677], [141.107398, 38.877518], [141.102449, 38.880705], [141.102666, 38.88477], [141.093349, 38.887861], [141.088746, 38.883541], [141.074772, 38.879466], [141.061483, 38.883877], [141.051926, 38.883268], [141.043324, 38.876496], [141.032526, 38.877919], [141.029609, 38.883471], [141.02249, 38.881075], [141.0207, 38.886397], [141.013057, 38.880892], [141.004632, 38.878698], [140.996095, 38.880644], [140.990159, 38.874388], [140.985479, 38.875276], [140.982488, 38.878796], [140.984457, 38.879935], [140.97062, 38.888014], [140.970837, 38.894913], [140.957863, 38.908131], [140.947094, 38.910082], [140.939846, 38.916197], [140.931956, 38.916322], [140.931393, 38.92041], [140.926535, 38.921411], [140.922161, 38.914342], [140.914569, 38.916827], [140.910374, 38.927444], [140.881533, 38.927903], [140.864863, 38.94127], [140.841119, 38.950265], [140.837717, 38.957539], [140.824456, 38.964081], [140.800528, 38.961876], [140.79388, 38.964011], [140.782168, 38.958208], [140.77359, 38.958084], [140.772177, 38.966636], [140.774957, 38.970417], [140.764573, 38.985388], [140.767902, 38.994711], [140.764033, 39.000192], [140.778688, 39.008145], [140.784929, 39.019714], [140.795287, 39.029429], [140.793559, 39.041861], [140.799381, 39.044395], [140.80083, 39.049445], [140.81025, 39.057409], [140.799532, 39.060974], [140.803904, 39.06718], [140.804098, 39.072047], [140.80082, 39.073955], [140.802387, 39.077895], [140.794146, 39.077021], [140.778345, 39.082093], [140.770467, 39.07888], [140.7527, 39.086196], [140.763247, 39.108858], [140.755931, 39.112187], [140.755955, 39.118302], [140.766606, 39.120218], [140.769981, 39.124165], [140.758112, 39.13366], [140.751263, 39.133071], [140.749555, 39.140086], [140.759191, 39.143714], [140.774131, 39.167853], [140.783743, 39.165413], [140.788334, 39.172511], [140.796214, 39.176572], [140.816253, 39.176789], [140.807858, 39.178383], [140.797393, 39.189956], [140.788519, 39.188602], [140.778722, 39.194763], [140.771056, 39.193416], [140.764849, 39.19776], [140.767611, 39.204774], [140.76305, 39.213227], [140.770227, 39.223408], [140.787624, 39.226785], [140.78602, 39.234225], [140.788706, 39.238327], [140.777169, 39.241573], [140.76892, 39.252463], [140.766267, 39.251142], [140.75575, 39.256906], [140.751349, 39.262807], [140.743711, 39.261754], [140.717829, 39.272609], [140.717327, 39.296508], [140.710797, 39.295803], [140.70402, 39.30187], [140.693586, 39.299593], [140.697225, 39.310286], [140.692639, 39.313629], [140.694044, 39.319764], [140.697524, 39.321762], [140.698587, 39.32843], [140.70935, 39.329969], [140.708202, 39.334459], [140.703236, 39.343586], [140.688453, 39.347525], [140.692731, 39.358597], [140.682581, 39.362045], [140.67564, 39.368342], [140.678973, 39.383182], [140.675112, 39.385866], [140.665651, 39.384203], [140.653125, 39.390998], [140.66371, 39.40367], [140.662816, 39.40811], [140.65755, 39.411158], [140.658381, 39.415095], [140.676879, 39.418907], [140.67967, 39.417068], [140.685125, 39.424665], [140.685595, 39.437263], [140.676795, 39.447792], [140.681901, 39.457223], [140.689527, 39.464809], [140.724405, 39.480534], [140.713271, 39.494057], [140.713575, 39.498854], [140.719779, 39.504802], [140.723966, 39.504419], [140.72434, 39.511184], [140.721129, 39.514057], [140.724681, 39.518594], [140.737839, 39.522398], [140.741359, 39.536186], [140.739708, 39.546598], [140.727479, 39.555954], [140.729619, 39.565128], [140.740256, 39.565337], [140.754297, 39.57072], [140.763864, 39.587567], [140.780662, 39.590326], [140.778753, 39.598367], [140.782196, 39.603969], [140.795313, 39.602993], [140.804872, 39.612009], [140.802572, 39.618848], [140.808388, 39.624263], [140.807105, 39.632197], [140.815347, 39.646117], [140.822304, 39.649953], [140.820172, 39.653132], [140.822568, 39.669126], [140.818409, 39.680099], [140.822576, 39.688175], [140.81135, 39.695538], [140.809904, 39.708023], [140.805303, 39.710795], [140.794461, 39.709596], [140.788716, 39.722903], [140.783341, 39.725686], [140.783998, 39.729078], [140.774796, 39.734339], [140.803727, 39.744752], [140.807007, 39.753133], [140.80533, 39.756645], [140.816127, 39.762886], [140.822208, 39.774543], [140.825576, 39.774327], [140.848254, 39.792985], [140.841105, 39.805238], [140.825034, 39.809741], [140.818477, 39.816577], [140.799204, 39.816846], [140.786649, 39.823399], [140.788287, 39.826496], [140.783206, 39.828861], [140.786174, 39.835159], [140.78501, 39.842271], [140.789194, 39.849149], [140.783886, 39.856314], [140.787651, 39.858951], [140.783024, 39.860877], [140.784699, 39.871564], [140.799227, 39.881636], [140.81565, 39.879351], [140.825058, 39.886141], [140.834032, 39.881214], [140.832487, 39.875145], [140.844241, 39.873574], [140.843173, 39.871212], [140.852924, 39.865787], [140.858474, 39.870325], [140.877884, 39.874291], [140.879352, 39.884516], [140.874764, 39.894229], [140.867262, 39.900199], [140.867937, 39.911871], [140.854695, 39.923289], [140.857571, 39.930082], [140.852223, 39.93613], [140.856918, 39.944201], [140.857353, 39.952863], [140.848064, 39.958359], [140.845313, 39.974959], [140.850807, 39.993754], [140.848999, 40.008068], [140.855862, 40.015705], [140.850401, 40.031426], [140.855223, 40.037137], [140.855441, 40.046343], [140.844478, 40.074591], [140.851325, 40.077855], [140.85492, 40.085163], [140.862827, 40.084706], [140.875336, 40.094566], [140.881027, 40.113726], [140.871203, 40.115952], [140.874037, 40.122386], [140.866989, 40.132368], [140.882371, 40.150846], [140.883607, 40.157317], [140.881005, 40.159978], [140.868792, 40.159516], [140.85919, 40.171426], [140.892694, 40.192458], [140.889525, 40.200536], [140.898686, 40.208054], [140.899109, 40.212387], [140.895787, 40.213646], [140.904035, 40.217913], [140.905481, 40.222138], [140.94096, 40.226898], [140.940092, 40.240241], [140.946771, 40.246946], [140.955074, 40.247628], [140.958456, 40.241819], [140.965619, 40.239519], [140.968588, 40.226396], [140.975961, 40.225763], [140.979487, 40.219744], [140.991046, 40.222807], [140.996489, 40.219152], [141.012689, 40.217712], [141.026325, 40.221313], [141.025978, 40.221681], [141.026839, 40.22657], [141.041553, 40.2342], [141.041882, 40.23686], [141.05972, 40.238158], [141.076406, 40.252638], [141.088295, 40.251748], [141.10406, 40.255734], [141.110055, 40.261052], [141.099849, 40.280958], [141.134391, 40.294745], [141.138069, 40.300352], [141.15397, 40.301293], [141.172783, 40.310102], [141.197362, 40.307636], [141.218486, 40.315221], [141.226161, 40.327834], [141.232432, 40.328347], [141.248378, 40.341004], [141.26013, 40.341872], [141.262429, 40.349475], [141.279533, 40.344751], [141.292318, 40.351668], [141.29195, 40.357881], [141.295887, 40.360722], [141.293392, 40.363087], [141.297342, 40.365396], [141.310373, 40.366833], [141.316003, 40.372622], [141.324386, 40.369856], [141.325127, 40.365523], [141.336338, 40.360197], [141.334005, 40.345601], [141.346883, 40.340149], [141.346164, 40.335672], [141.350937, 40.334659], [141.350339, 40.329942], [141.370103, 40.338537], [141.373296, 40.34317], [141.376646, 40.338926], [141.381575, 40.34214], [141.389793, 40.353041], [141.389119, 40.359224], [141.397254, 40.367249], [141.401534, 40.366363], [141.407126, 40.357125], [141.419242, 40.363525], [141.427289, 40.36181], [141.433953, 40.373717], [141.441603, 40.37604], [141.454309, 40.373001], [141.466421, 40.377459], [141.479984, 40.376359], [141.496434, 40.36741], [141.49895, 40.362122], [141.507506, 40.362861], [141.518172, 40.351836], [141.531678, 40.351448], [141.535786, 40.347369], [141.54548, 40.351236], [141.556021, 40.36123], [141.571884, 40.365855], [141.572438, 40.369485], [141.58135, 40.373837], [141.581824, 40.373321], [141.58088, 40.375637], [141.586759, 40.380708], [141.582764, 40.38497], [141.584569, 40.389547], [141.581096, 40.391885], [141.58124, 40.398426], [141.586922, 40.406961], [141.595124, 40.412133], [141.612142, 40.415284], [141.616482, 40.420297], [141.631336, 40.420254], [141.646894, 40.42824], [141.654955, 40.428588], [141.669947, 40.437244], [141.676032, 40.448535], [141.682591, 40.450256], [141.688575, 40.441772], [141.689974, 40.443688], [141.693788, 40.435184], [141.702271, 40.431538], [141.705368, 40.42209], [141.71468, 40.420579], [141.723133, 40.406902], [141.720603, 40.408461], [141.72256, 40.405675], [141.720345, 40.404384], [141.723571, 40.403523], [141.720591, 40.399549], [141.728945, 40.389015], [141.754233, 40.369172], [141.75491, 40.354948], [141.765905, 40.352041], [141.763972, 40.347755], [141.770863, 40.345912], [141.771294, 40.345614], [141.772663, 40.342572], [141.770339, 40.336615], [141.774089, 40.321697], [141.785768, 40.314284], [141.79543, 40.296765], [141.789593, 40.295829], [141.797063, 40.294247], [141.816391, 40.271325], [141.814757, 40.266889], [141.819717, 40.264233], [141.820874, 40.253868], [141.825039, 40.252147], [141.822663, 40.246168], [141.832067, 40.234693], [141.831228, 40.222504], [141.835444, 40.217587], [141.834109, 40.217286], [141.830727, 40.220898], [141.819573, 40.221415], [141.8112, 40.215968], [141.814407, 40.214], [141.812574, 40.212239], [141.807102, 40.215177], [141.798658, 40.201392], [141.800151, 40.198489], [141.805717, 40.198978], [141.806539, 40.197535], [141.801641, 40.19722], [141.802427, 40.189234], [141.797098, 40.191606], [141.795711, 40.195155], [141.794029, 40.190721], [141.800126, 40.188921], [141.803685, 40.182991], [141.806685, 40.183496], [141.806859, 40.182768], [141.814183, 40.183284], [141.818867, 40.179209], [141.822733, 40.180183], [141.820852, 40.181412], [141.832353, 40.179107], [141.846624, 40.168509], [141.852917, 40.168464], [141.863869, 40.160781], [141.862149, 40.158544], [141.864738, 40.154745], [141.876659, 40.143787], [141.871528, 40.13521], [141.862788, 40.132022], [141.854035, 40.13101], [141.855454, 40.132323], [141.848702, 40.134777], [141.842672, 40.130661], [141.842087, 40.130923], [141.834992, 40.121555], [141.835776, 40.115293], [141.833534, 40.113319], [141.83499, 40.117504], [141.828799, 40.113181], [141.825637, 40.101334], [141.83109, 40.091593], [141.828748, 40.086248], [141.830544, 40.081385], [141.831052, 40.081451], [141.833405, 40.074397], [141.850726, 40.05596], [141.854927, 40.055594], [141.839301, 40.040453], [141.855321, 40.055707], [141.863641, 40.051069], [141.869133, 40.053216], [141.870909, 40.048385], [141.87821, 40.047587], [141.884999, 40.033351], [141.889396, 40.033946], [141.887008, 40.031372], [141.896425, 40.025565], [141.901287, 40.018665], [141.899511, 40.015169], [141.905446, 40.014786], [141.907118, 40.009178], [141.909929, 40.010683], [141.908332, 40.012085], [141.91706, 40.007856], [141.935315, 40.009689], [141.936793, 40.00292], [141.944257, 39.997957], [141.945071, 39.997618], [141.948295, 39.989805], [141.950247, 39.990398], [141.957113, 39.979379], [141.954106, 39.971399], [141.956669, 39.968265], [141.95578, 39.958326], [141.959304, 39.95675], [141.956885, 39.954571], [141.963168, 39.953344], [141.957822, 39.950358], [141.960536, 39.944642], [141.945254, 39.945974], [141.939664, 39.939052], [141.942379, 39.939234], [141.941509, 39.932158], [141.938238, 39.932089], [141.943238, 39.929078], [141.940219, 39.927669], [141.943422, 39.925445], [141.939732, 39.919604], [141.949098, 39.911595], [141.953141, 39.895808], [141.95966, 39.887471], [141.971166, 39.88463], [141.979052, 39.86515], [141.974705, 39.859438], [141.977956, 39.856327], [141.975727, 39.851859], [141.972783, 39.851455], [141.977357, 39.848931], [141.974278, 39.8475], [141.978493, 39.845177], [141.976495, 39.841988], [141.981253, 39.839981], [141.979851, 39.830972], [141.977618, 39.830485], [141.980209, 39.828179], [141.986223, 39.830149], [141.991393, 39.820452], [141.987832, 39.814436], [141.98369, 39.81408], [141.984107, 39.799468], [141.988648, 39.797699], [141.98351, 39.788899], [141.991273, 39.786002], [141.995959, 39.778105], [142.004364, 39.775828], [141.989737, 39.767087], [141.988539, 39.758014], [141.995447, 39.750951], [141.996355, 39.753789], [142.004031, 39.750797], [141.989129, 39.746076], [141.983124, 39.736757], [141.985365, 39.734573], [141.976052, 39.731118], [141.977379, 39.735358], [141.97479, 39.735343], [141.975797, 39.732903], [141.971909, 39.731795], [141.975019, 39.731471], [141.973589, 39.73054], [141.97094, 39.730994], [141.975519, 39.726686], [141.988032, 39.723264], [141.98438, 39.722601], [141.982334, 39.717579], [141.986774, 39.709905], [141.980455, 39.70574], [141.975771, 39.706434], [141.97189, 39.700558], [141.97411, 39.697362], [141.972205, 39.693599], [141.967031, 39.690465], [141.969147, 39.687112], [141.973291, 39.68725], [141.973081, 39.689609], [141.975234, 39.686594], [141.982891, 39.688143], [141.986358, 39.685261], [141.981619, 39.673333], [141.976442, 39.670628], [141.975733, 39.664553], [141.971273, 39.661479], [141.974392, 39.656983], [141.969783, 39.652925], [141.979524, 39.653363], [141.982257, 39.648721], [141.979427, 39.647194], [141.983342, 39.647048], [141.975445, 39.643024], [141.969372, 39.646569], [141.96819, 39.641491], [141.973891, 39.637856], [141.965974, 39.639623], [141.963755, 39.637259], [141.971188, 39.635231], [141.977072, 39.62868], [141.965788, 39.635289], [141.971537, 39.625915], [141.965975, 39.623175], [141.963975, 39.623952], [141.967059, 39.617468], [141.965608, 39.616329], [141.96409, 39.618136], [141.962296, 39.615723], [141.963619, 39.611145], [141.954041, 39.601024], [141.954221, 39.60391], [141.948294, 39.600856], [141.952754, 39.599879], [141.950438, 39.597846], [141.945272, 39.598991], [141.945184, 39.595909], [141.948073, 39.587664], [141.95902, 39.58642], [141.968293, 39.601638], [141.978281, 39.611114], [141.975901, 39.611537], [141.986973, 39.617403], [142.015985, 39.655121], [142.025918, 39.655566], [142.022578, 39.652556], [142.027822, 39.647054], [142.024445, 39.643748], [142.027929, 39.642657], [142.024432, 39.640872], [142.028776, 39.636793], [142.023111, 39.63617], [142.028255, 39.63131], [142.022453, 39.629662], [142.02532, 39.62771], [142.021567, 39.625699], [142.024609, 39.623721], [142.02241, 39.615866], [142.034521, 39.60969], [142.02575, 39.607136], [142.02754, 39.599806], [142.034169, 39.598082], [142.030014, 39.59544], [142.029392, 39.590377], [142.032084, 39.588734], [142.026514, 39.579331], [142.032382, 39.576376], [142.027378, 39.575065], [142.03365, 39.573863], [142.036445, 39.577105], [142.036835, 39.572232], [142.056515, 39.574742], [142.057227, 39.56093], [142.067987, 39.562233], [142.068967, 39.546208], [142.072481, 39.547962], [142.069709, 39.54066], [142.06515, 39.540642], [142.0653, 39.53346], [142.051553, 39.532436], [142.061705, 39.524795], [142.055779, 39.521911], [142.044898, 39.531339], [142.036653, 39.53117], [142.029972, 39.524585], [142.031878, 39.519774], [142.026083, 39.505131], [142.019721, 39.502192], [142.020096, 39.499282], [142.016964, 39.501798], [142.011487, 39.500159], [142.008967, 39.492818], [142.012416, 39.479833], [142.008871, 39.476037], [141.992968, 39.483385], [141.9804, 39.479881], [141.980232, 39.482535], [141.975317, 39.482695], [141.968191, 39.479808], [141.966513, 39.476437], [141.955931, 39.475121], [141.953742, 39.46663], [141.95732, 39.46023], [141.961549, 39.460571], [141.961604, 39.458051], [141.957181, 39.456925], [141.963343, 39.453431], [141.964347, 39.450506], [141.962789, 39.447561], [141.970208, 39.449522], [141.973237, 39.440092], [141.979681, 39.438689], [141.986644, 39.44846], [141.9951, 39.452327], [142.004824, 39.445229], [142.001766, 39.454964], [142.008902, 39.464881], [142.026322, 39.473254], [142.035846, 39.483493], [142.039006, 39.481181], [142.050669, 39.484729], [142.049037, 39.479774], [142.052526, 39.474642], [142.061525, 39.471452], [142.058702, 39.470459], [142.059593, 39.466111], [142.04803, 39.456475], [142.049225, 39.45075], [142.038334, 39.44649], [142.037925, 39.442564], [142.043027, 39.440518], [142.041398, 39.439079], [142.039355, 39.440325], [142.037374, 39.435521], [142.043279, 39.432952], [142.041394, 39.428039], [142.044643, 39.426057], [142.038045, 39.425267], [142.038778, 39.422289], [142.031813, 39.415857], [142.02247, 39.417551], [142.018079, 39.424475], [142.010981, 39.426473], [142.006665, 39.421318], [142.011, 39.415519], [142.006232, 39.414788], [142.005365, 39.410442], [141.998138, 39.412192], [141.993831, 39.409009], [141.982402, 39.408578], [141.981903, 39.418462], [141.982894, 39.418088], [141.983383, 39.416032], [141.985517, 39.417607], [141.978964, 39.422341], [141.979608, 39.422371], [141.981507, 39.421198], [141.983443, 39.421311], [141.982094, 39.424375], [141.979486, 39.42288], [141.979645, 39.424448], [141.982353, 39.425986], [141.976853, 39.427311], [141.973935, 39.425834], [141.975557, 39.422218], [141.968571, 39.41647], [141.953104, 39.399365], [141.951717, 39.399849], [141.953331, 39.399197], [141.937948, 39.384713], [141.942859, 39.375708], [141.945018, 39.377423], [141.947034, 39.374688], [141.944007, 39.375313], [141.943978, 39.372881], [141.952698, 39.371639], [141.950711, 39.373556], [141.96444, 39.378789], [141.967811, 39.374297], [141.964874, 39.367947], [141.955854, 39.362271], [141.958706, 39.359204], [141.957215, 39.355764], [141.939595, 39.348302], [141.934264, 39.351094], [141.931035, 39.347642], [141.933086, 39.351643], [141.915967, 39.356065], [141.919192, 39.352985], [141.917067, 39.351706], [141.912723, 39.349809], [141.915317, 39.345622], [141.91356, 39.346098], [141.897761, 39.338344], [141.896107, 39.332133], [141.905037, 39.325934], [141.905266, 39.328701], [141.91116, 39.32891], [141.913173, 39.324137], [141.923488, 39.332909], [141.944475, 39.329613], [141.945232, 39.333693], [141.95588, 39.340461], [141.960708, 39.340674], [141.959574, 39.336348], [141.975489, 39.337229], [141.984659, 39.348148], [141.996884, 39.35084], [141.996404, 39.349328], [141.993945, 39.346927], [141.990893, 39.345788], [141.989652, 39.343221], [141.987774, 39.343437], [141.988699, 39.342054], [141.980402, 39.336527], [141.980341, 39.332386], [141.973771, 39.325461], [141.974651, 39.32391], [141.976436, 39.323082], [141.976939, 39.318674], [141.971368, 39.317477], [141.970284, 39.312993], [141.958078, 39.316861], [141.954552, 39.313304], [141.945548, 39.315956], [141.936555, 39.308077], [141.921665, 39.309896], [141.917837, 39.302983], [141.915517, 39.306113], [141.908847, 39.305244], [141.906099, 39.309474], [141.896047, 39.303603], [141.897139, 39.306818], [141.894146, 39.304985], [141.891013, 39.308304], [141.891373, 39.304652], [141.887193, 39.303199], [141.90933, 39.295526], [141.904374, 39.291165], [141.914873, 39.289397], [141.916521, 39.285708], [141.925675, 39.285558], [141.926782, 39.281372], [141.921251, 39.279248], [141.929606, 39.270469], [141.922672, 39.265299], [141.920734, 39.268738], [141.915701, 39.266638], [141.916112, 39.271258], [141.913816, 39.266364], [141.906634, 39.271831], [141.89838, 39.270063], [141.896603, 39.270482], [141.897346, 39.271638], [141.891112, 39.274124], [141.888578, 39.273663], [141.887594, 39.272343], [141.886802, 39.26861], [141.897604, 39.2663], [141.895763, 39.26428], [141.899361, 39.261707], [141.898823, 39.258323], [141.903078, 39.256692], [141.900758, 39.255643], [141.902712, 39.252867], [141.890306, 39.247443], [141.905108, 39.250298], [141.907806, 39.246776], [141.91353, 39.248343], [141.915373, 39.246843], [141.913424, 39.240518], [141.922156, 39.237714], [141.924357, 39.240014], [141.928434, 39.246276], [141.933384, 39.241943], [141.939269, 39.244526], [141.938482, 39.248439], [141.942454, 39.24631], [141.960589, 39.251361], [141.971259, 39.250709], [141.971301, 39.247668], [141.966696, 39.245533], [141.960518, 39.247417], [141.957131, 39.243611], [141.944306, 39.241873], [141.943634, 39.23707], [141.950255, 39.235317], [141.950543, 39.225701], [141.95531, 39.224469], [141.947617, 39.216985], [141.94324, 39.217529], [141.937843, 39.223665], [141.924635, 39.222707], [141.923234, 39.220481], [141.9282, 39.218219], [141.927626, 39.215525], [141.916203, 39.213674], [141.904515, 39.205058], [141.895427, 39.209396], [141.887388, 39.20902], [141.893681, 39.204173], [141.890915, 39.197948], [141.87503, 39.205805], [141.868381, 39.204954], [141.869478, 39.206032], [141.87222, 39.205564], [141.870657, 39.207027], [141.864027, 39.20219], [141.872783, 39.197785], [141.865459, 39.193722], [141.866342, 39.191771], [141.880758, 39.191052], [141.881722, 39.185361], [141.889232, 39.184194], [141.890749, 39.181156], [141.894536, 39.184538], [141.915309, 39.186569], [141.922568, 39.182816], [141.884621, 39.167656], [141.922601, 39.181137], [141.917189, 39.173209], [141.897939, 39.164316], [141.896444, 39.160529], [141.887336, 39.155745], [141.85957, 39.153265], [141.860907, 39.154697], [141.862223, 39.15501], [141.86057, 39.156595], [141.858734, 39.154214], [141.856193, 39.155441], [141.855366, 39.157521], [141.849723, 39.156971], [141.835875, 39.145756], [141.848304, 39.141439], [141.853692, 39.135267], [141.872653, 39.130555], [141.869954, 39.121683], [141.874465, 39.122114], [141.871916, 39.117195], [141.87415, 39.115328], [141.891455, 39.116301], [141.900393, 39.120074], [141.905596, 39.116737], [141.905277, 39.112631], [141.909369, 39.108579], [141.919334, 39.107486], [141.917986, 39.105669], [141.920968, 39.104474], [141.913508, 39.105515], [141.892261, 39.096337], [141.889968, 39.089413], [141.882985, 39.089961], [141.880785, 39.083966], [141.878498, 39.085997], [141.877859, 39.093059], [141.867717, 39.097501], [141.862225, 39.096359], [141.860249, 39.103912], [141.833938, 39.104238], [141.829502, 39.109248], [141.81741, 39.112636], [141.820766, 39.113763], [141.814632, 39.115133], [141.811308, 39.111901], [141.81091, 39.108347], [141.814804, 39.106371], [141.80937, 39.102412], [141.815838, 39.094642], [141.80939, 39.093125], [141.808781, 39.090094], [141.812095, 39.086359], [141.813492, 39.086948], [141.815644, 39.085677], [141.824287, 39.086205], [141.820383, 39.082909], [141.823359, 39.07522], [141.83572, 39.073154], [141.844237, 39.076413], [141.857295, 39.070838], [141.869872, 39.072111], [141.872878, 39.069086], [141.871464, 39.06587], [141.875871, 39.064874], [141.874667, 39.06351], [141.87118, 39.062558], [141.869148, 39.063304], [141.863633, 39.0591], [141.858888, 39.061839], [141.849693, 39.057863], [141.838166, 39.061038], [141.81446, 39.058626], [141.817647, 39.049412], [141.843872, 39.040372], [141.849941, 39.03685], [141.849667, 39.031234], [141.853254, 39.02916], [141.836092, 39.024614], [141.825004, 39.027217], [141.818303, 39.022493], [141.805646, 39.027095], [141.800166, 39.024242], [141.794305, 39.030045], [141.798496, 39.041113], [141.796224, 39.04325], [141.796585, 39.040245], [141.793135, 39.041191], [141.790114, 39.033377], [141.78415, 39.032448], [141.782286, 39.027305], [141.768747, 39.034615], [141.761971, 39.024417], [141.76314, 39.020638], [141.758778, 39.017589], [141.749754, 39.019611], [141.745117, 39.024894], [141.733389, 39.021652], [141.727889, 39.028426], [141.738477, 39.030725], [141.730767, 39.033215], [141.737782, 39.036087], [141.733569, 39.045429], [141.737001, 39.04768], [141.735087, 39.050601], [141.741058, 39.052013], [141.738699, 39.054656], [141.734117, 39.051055], [141.736079, 39.062222], [141.738739, 39.063607], [141.734563, 39.068519], [141.731731, 39.066094], [141.729687, 39.070923], [141.72999, 39.067499], [141.72805, 39.069216], [141.725119, 39.064248], [141.721967, 39.065737], [141.726441, 39.061461], [141.722155, 39.051713], [141.724901, 39.040732], [141.7095, 39.024287], [141.711643, 39.02234], [141.716544, 39.020482], [141.715721, 39.015265], [141.718186, 39.019616], [141.720904, 39.01433], [141.722507, 39.019173], [141.72822, 39.013953], [141.731678, 39.015295], [141.738962, 38.999923], [141.744315, 38.997013], [141.741674, 38.994564], [141.74427, 38.990805], [141.74173, 38.985573], [141.731773, 38.990233], [141.727942, 38.988232], [141.728185, 38.99133], [141.722812, 38.987922], [141.722079, 38.994858], [141.721512, 38.995121], [141.716953, 38.995139], [141.716584, 38.995617], [141.716666, 38.998052], [141.71085, 38.995343], [141.712688, 38.988698], [141.717687, 38.982287], [141.711367, 38.982111], [141.710026, 38.984889], [141.709396, 38.978507], [141.701622, 38.97752], [141.700983, 38.974389], [141.698581, 38.976429], [141.696508, 38.96963], [141.702258, 38.964453], [141.706968, 38.965572], [141.703846, 38.966959], [141.718176, 38.967248], [141.717755, 38.964501], [141.724035, 38.962534], [141.723498, 38.957128], [141.728411, 38.952269], [141.712301, 38.950859], [141.715909, 38.947489], [141.704274, 38.945056], [141.707252, 38.940939], [141.70388, 38.93826], [141.699374, 38.939359], [141.70053, 38.941944], [141.696476, 38.94148], [141.698832, 38.944538], [141.696256, 38.947308], [141.689291, 38.946973], [141.692508, 38.952946], [141.690759, 38.951907], [141.691205, 38.956919], [141.689909, 38.956891], [141.689237, 38.955904], [141.68667, 38.957264], [141.688887, 38.964614], [141.683691, 38.969063], [141.676342, 38.969012], [141.677588, 38.971758], [141.66868, 38.975566], [141.666101, 38.98163], [141.669297, 38.990449], [141.682732, 38.996549], [141.670057, 39.00513], [141.657862, 39.000241], [141.659327, 39.00457], [141.64637, 39.004756], [141.648332, 39.005408], [141.645157, 39.007111], [141.628632, 39.003372], [141.624484, 38.998802], [141.62911, 38.994298], [141.622097, 38.993914], [141.62645, 38.990829], [141.629855, 38.993586], [141.625849, 38.984863], [141.627682, 38.978133], [141.633387, 38.973919], [141.631723, 38.970704], [141.621511, 38.972852], [141.601816, 38.986152], [141.586939, 38.988693], [141.575205, 38.987024], [141.56713, 38.995961], [141.560275, 38.993823], [141.536906, 38.995386], [141.523134, 38.991346], [141.516624, 38.998226], [141.518353, 39.001367], [141.509214, 39.002762], [141.506839, 38.999822], [141.489971, 38.997597], [141.483534, 38.978167], [141.479253, 38.983791], [141.488499, 38.96941], [141.490186, 38.957309]], [[141.72681, 39.037516], [141.728201, 39.03816], [141.726584, 39.035472], [141.72681, 39.037516]], [[141.981457, 39.309088], [141.988173, 39.305521], [141.984438, 39.302949], [141.978957, 39.304662], [141.975788, 39.307152], [141.981457, 39.309088]], [[141.968577, 39.37856], [141.967646, 39.379485], [141.968101, 39.380673], [141.969241, 39.380124], [141.968577, 39.37856]], [[141.993846, 39.40073], [141.998492, 39.406677], [141.999982, 39.404943], [141.999384, 39.403301], [141.997927, 39.399297], [141.993846, 39.40073]], [[141.978944, 39.410159], [141.979861, 39.409193], [141.978673, 39.40864], [141.978074, 39.40987], [141.978944, 39.410159]], [[142.036744, 39.419722], [142.039261, 39.419552], [142.036787, 39.418375], [142.036744, 39.419722]], [[141.976242, 39.462094], [141.974758, 39.461001], [141.9741, 39.461879], [141.974454, 39.463429], [141.976242, 39.462094]], [[141.959733, 39.46117], [141.957421, 39.461105], [141.957741, 39.46416], [141.958274, 39.465785], [141.959733, 39.46117]], [[141.984012, 39.649755], [141.980711, 39.65197], [141.982045, 39.653041], [141.985582, 39.650806], [141.984012, 39.649755]], [[141.986014, 39.668545], [141.987203, 39.672091], [141.98916, 39.670749], [141.987821, 39.668173], [141.986014, 39.668545]]]}}], "name": "岩手県"}