{"type": "FeatureCollection", "features": [{"type": "Feature", "properties": {"name": "島根県"}, "geometry": {"type": "MultiLineString", "coordinates": [[[132.023279, 34.461153], [132.015441, 34.452104], [132.016233, 34.437469], [132.009751, 34.43134], [131.997518, 34.427911], [131.989853, 34.413424], [131.997519, 34.407089], [132.007077, 34.386324], [132.013512, 34.38209], [132.013467, 34.371328], [132.00751, 34.364824], [131.997843, 34.364883], [131.989596, 34.352382], [131.982024, 34.349652], [131.980674, 34.343364], [131.974133, 34.341369], [131.975409, 34.331789], [131.970216, 34.323453], [131.960849, 34.320968], [131.963506, 34.313595], [131.959101, 34.306371], [131.944744, 34.320706], [131.945384, 34.323686], [131.933049, 34.32788], [131.929969, 34.333289], [131.919261, 34.338141], [131.899538, 34.318156], [131.887546, 34.327237], [131.884013, 34.321295], [131.885771, 34.310971], [131.88129, 34.308619], [131.859997, 34.304634], [131.845186, 34.310975], [131.841106, 34.308338], [131.83417, 34.311263], [131.831089, 34.302576], [131.823858, 34.305291], [131.820101, 34.302555], [131.816274, 34.310467], [131.797504, 34.317756], [131.795884, 34.326911], [131.782118, 34.332918], [131.777562, 34.332926], [131.774626, 34.337322], [131.779284, 34.343869], [131.779017, 34.35021], [131.765246, 34.364066], [131.767338, 34.374366], [131.763457, 34.380936], [131.772853, 34.387391], [131.7786, 34.39846], [131.784778, 34.399861], [131.787096, 34.413156], [131.794195, 34.425349], [131.79382, 34.436213], [131.776464, 34.434796], [131.770784, 34.437087], [131.761394, 34.433666], [131.755376, 34.440361], [131.745216, 34.435213], [131.741473, 34.429146], [131.72948, 34.432713], [131.722807, 34.428903], [131.712983, 34.428477], [131.702243, 34.435941], [131.697181, 34.435452], [131.693931, 34.443429], [131.699102, 34.451459], [131.695537, 34.454606], [131.693897, 34.465545], [131.698879, 34.470115], [131.69912, 34.477028], [131.693422, 34.481576], [131.682341, 34.478999], [131.682066, 34.493178], [131.675312, 34.501144], [131.669143, 34.502775], [131.667966, 34.506698], [131.678236, 34.516707], [131.685807, 34.51703], [131.687717, 34.521286], [131.706561, 34.53263], [131.700793, 34.537736], [131.705597, 34.544931], [131.700925, 34.551011], [131.705389, 34.559613], [131.70283, 34.565066], [131.713195, 34.56281], [131.72, 34.572388], [131.72442, 34.571992], [131.72758, 34.576652], [131.720646, 34.584559], [131.717377, 34.598905], [131.719841, 34.60056], [131.716918, 34.60599], [131.718414, 34.613403], [131.706654, 34.612896], [131.694819, 34.620679], [131.694231, 34.627733], [131.698269, 34.631781], [131.697073, 34.643536], [131.700488, 34.649182], [131.694936, 34.648812], [131.695238, 34.655973], [131.688763, 34.656813], [131.689857, 34.663185], [131.683863, 34.668801], [131.688413, 34.671849], [131.690622, 34.681045], [131.690969, 34.677114], [131.703236, 34.675327], [131.700079, 34.674945], [131.703823, 34.672506], [131.709321, 34.675937], [131.715494, 34.673061], [131.722803, 34.677263], [131.725072, 34.673581], [131.73968, 34.674612], [131.803104, 34.689611], [131.828709, 34.699489], [131.850616, 34.712312], [131.856024, 34.71901], [131.854352, 34.722808], [131.86137, 34.722569], [131.870951, 34.732565], [131.86884, 34.739869], [131.872128, 34.739572], [131.871148, 34.74311], [131.874506, 34.743601], [131.868707, 34.745864], [131.864647, 34.755286], [131.874097, 34.760088], [131.887228, 34.756623], [131.89099, 34.759303], [131.888981, 34.763399], [131.896761, 34.758385], [131.893286, 34.769177], [131.89712, 34.775619], [131.910977, 34.773235], [131.914493, 34.774082], [131.916754, 34.783485], [131.922835, 34.788482], [131.925403, 34.781089], [131.92842, 34.782163], [131.92968, 34.784746], [131.931091, 34.782916], [131.935034, 34.789898], [131.939251, 34.788287], [131.94679, 34.79293], [131.948372, 34.801219], [131.953699, 34.805503], [131.952101, 34.810556], [131.95641, 34.81327], [131.954688, 34.816405], [131.961317, 34.8168], [131.971367, 34.823183], [131.976014, 34.821216], [131.989389, 34.827955], [131.991761, 34.835243], [131.994158, 34.835125], [131.994543, 34.842311], [132.007496, 34.846773], [132.014885, 34.858066], [132.006939, 34.863191], [132.008354, 34.868467], [132.021418, 34.872731], [132.022046, 34.871891], [132.030686, 34.874959], [132.02839, 34.878774], [132.034156, 34.877955], [132.035952, 34.882069], [132.041112, 34.878661], [132.047846, 34.878984], [132.04215, 34.876205], [132.043641, 34.874364], [132.041497, 34.873415], [132.051427, 34.871044], [132.056667, 34.872854], [132.05986, 34.877642], [132.053894, 34.878047], [132.053283, 34.883433], [132.058999, 34.884163], [132.055785, 34.893422], [132.058629, 34.891813], [132.057561, 34.888966], [132.063295, 34.891059], [132.061068, 34.893869], [132.065443, 34.892348], [132.067169, 34.890804], [132.070632, 34.892186], [132.064124, 34.898995], [132.063466, 34.905072], [132.069694, 34.90837], [132.07763, 34.905292], [132.078261, 34.911972], [132.077241, 34.912742], [132.075061, 34.908205], [132.070858, 34.913974], [132.074191, 34.914717], [132.07288, 34.918318], [132.078985, 34.920575], [132.077877, 34.922621], [132.08548, 34.925836], [132.084591, 34.930848], [132.090571, 34.930937], [132.093882, 34.934698], [132.101411, 34.932043], [132.107564, 34.937388], [132.106563, 34.941144], [132.108557, 34.939961], [132.104717, 34.94592], [132.11005, 34.947552], [132.11246, 34.953143], [132.117631, 34.951286], [132.144218, 34.96401], [132.1456, 34.963206], [132.151899, 34.977415], [132.159566, 34.978245], [132.182769, 34.989822], [132.194147, 35.000144], [132.224604, 35.02405], [132.225655, 35.025086], [132.230912, 35.026563], [132.231323, 35.031625], [132.252479, 35.038016], [132.254704, 35.041451], [132.262288, 35.038094], [132.275472, 35.04136], [132.285599, 35.048242], [132.2932, 35.049187], [132.293548, 35.052145], [132.296517, 35.050249], [132.303711, 35.05295], [132.314139, 35.06415], [132.323675, 35.051758], [132.316145, 35.061559], [132.313901, 35.0648], [132.316772, 35.066102], [132.318125, 35.073772], [132.327889, 35.07714], [132.32373, 35.088165], [132.331223, 35.092983], [132.332284, 35.097196], [132.338542, 35.094758], [132.338386, 35.092249], [132.345247, 35.092128], [132.338923, 35.095959], [132.340947, 35.097618], [132.337374, 35.098838], [132.337346, 35.10244], [132.34673, 35.102818], [132.346722, 35.106017], [132.348316, 35.107819], [132.350628, 35.106618], [132.351521, 35.109629], [132.354815, 35.106345], [132.355162, 35.110144], [132.359296, 35.111532], [132.356996, 35.113355], [132.36564, 35.114812], [132.363783, 35.119834], [132.366719, 35.120301], [132.370409, 35.119197], [132.369062, 35.123306], [132.375844, 35.123279], [132.373069, 35.126004], [132.383343, 35.126398], [132.389383, 35.131741], [132.391044, 35.14014], [132.381434, 35.146435], [132.390619, 35.146205], [132.393316, 35.155502], [132.399439, 35.157425], [132.398678, 35.154203], [132.403957, 35.159289], [132.404844, 35.163921], [132.404141, 35.166708], [132.406402, 35.174182], [132.416676, 35.17682], [132.413697, 35.180425], [132.415825, 35.183773], [132.422066, 35.183116], [132.41992, 35.185318], [132.42227, 35.187022], [132.420276, 35.187715], [132.41833, 35.185694], [132.417666, 35.190687], [132.429385, 35.18977], [132.449909, 35.198582], [132.465384, 35.209354], [132.468462, 35.214703], [132.466841, 35.216961], [132.486594, 35.223052], [132.486977, 35.230493], [132.497603, 35.227539], [132.501764, 35.231444], [132.50235, 35.229006], [132.504556, 35.230611], [132.502584, 35.233663], [132.508245, 35.237818], [132.527467, 35.242079], [132.529737, 35.252669], [132.55145, 35.260287], [132.555668, 35.264684], [132.561595, 35.264343], [132.573075, 35.271843], [132.575577, 35.271822], [132.575523, 35.272038], [132.615748, 35.280958], [132.628521, 35.287873], [132.643495, 35.30216], [132.662521, 35.33095], [132.674755, 35.372479], [132.671749, 35.400655], [132.666468, 35.403638], [132.656526, 35.410463], [132.649748, 35.410853], [132.644662, 35.416223], [132.635616, 35.419132], [132.623147, 35.418157], [132.62374, 35.425282], [132.628325, 35.42853], [132.627744, 35.433755], [132.641724, 35.431298], [132.641304, 35.434649], [132.645487, 35.432846], [132.64767, 35.435533], [132.64187, 35.44143], [132.648434, 35.439284], [132.650505, 35.441385], [132.651296, 35.438738], [132.654943, 35.444134], [132.656436, 35.442388], [132.655987, 35.441022], [132.659361, 35.440366], [132.658603, 35.444793], [132.66128, 35.444725], [132.661122, 35.441278], [132.665092, 35.44481], [132.665636, 35.442804], [132.668471, 35.44018], [132.667252, 35.444038], [132.675261, 35.447789], [132.678957, 35.44726], [132.678344, 35.443058], [132.683674, 35.444211], [132.686572, 35.440647], [132.684806, 35.451729], [132.701374, 35.448629], [132.704773, 35.446878], [132.702525, 35.444355], [132.709836, 35.441263], [132.72345, 35.447097], [132.743439, 35.447171], [132.746788, 35.451937], [132.75343, 35.447571], [132.759199, 35.456478], [132.748803, 35.460171], [132.747275, 35.461276], [132.72677, 35.470618], [132.745974, 35.471627], [132.753923, 35.476611], [132.800608, 35.48353], [132.801587, 35.488471], [132.813119, 35.497169], [132.825567, 35.49714], [132.831739, 35.505202], [132.839907, 35.502592], [132.856249, 35.51012], [132.86054, 35.507336], [132.864947, 35.51319], [132.876867, 35.510128], [132.903163, 35.511966], [132.914112, 35.513958], [132.920532, 35.520013], [132.925334, 35.515935], [132.939789, 35.514487], [132.954466, 35.518938], [132.963256, 35.514956], [132.97137, 35.515973], [132.974759, 35.519677], [132.974439, 35.527617], [132.972766, 35.527443], [132.971148, 35.525189], [132.96858, 35.528953], [132.969654, 35.532153], [132.967698, 35.540128], [132.966299, 35.54081], [132.97116, 35.54465], [132.975606, 35.540444], [132.980242, 35.540647], [132.977851, 35.545795], [132.982446, 35.546854], [132.989445, 35.542994], [132.989753, 35.547278], [132.991291, 35.544253], [132.999562, 35.543828], [132.998198, 35.539431], [133.001708, 35.542381], [133.007825, 35.537705], [133.014301, 35.539335], [133.013636, 35.541847], [133.028187, 35.538429], [133.031198, 35.542988], [133.025782, 35.551683], [133.028699, 35.555651], [133.030056, 35.555803], [133.031424, 35.55322], [133.033866, 35.555616], [133.031599, 35.557709], [133.040452, 35.559805], [133.039988, 35.554897], [133.048071, 35.553936], [133.05017, 35.556221], [133.046524, 35.559691], [133.053044, 35.560219], [133.05299, 35.564546], [133.059965, 35.564654], [133.060438, 35.572072], [133.04889, 35.575171], [133.0477, 35.578039], [133.054295, 35.577576], [133.059685, 35.582202], [133.066841, 35.575893], [133.068857, 35.584167], [133.084366, 35.579857], [133.089279, 35.581543], [133.093204, 35.57831], [133.098206, 35.580103], [133.089889, 35.587749], [133.096471, 35.5873], [133.098078, 35.590139], [133.093465, 35.590999], [133.093086, 35.598374], [133.09031, 35.59604], [133.084972, 35.598835], [133.085269, 35.602541], [133.098822, 35.604041], [133.096656, 35.602942], [133.098172, 35.597821], [133.112082, 35.597639], [133.115164, 35.589298], [133.11219, 35.588929], [133.124944, 35.576242], [133.127795, 35.577615], [133.128851, 35.580238], [133.139764, 35.581529], [133.140949, 35.579123], [133.129936, 35.577166], [133.140485, 35.567761], [133.138978, 35.562911], [133.141805, 35.560723], [133.148638, 35.562218], [133.1517, 35.559426], [133.154601, 35.563475], [133.156619, 35.560663], [133.160071, 35.562886], [133.156219, 35.565473], [133.161181, 35.57203], [133.164626, 35.571365], [133.166271, 35.563223], [133.170286, 35.566273], [133.170688, 35.563668], [133.175581, 35.564614], [133.174899, 35.568724], [133.180118, 35.569056], [133.184466, 35.563685], [133.192018, 35.562193], [133.189643, 35.57189], [133.189991, 35.573684], [133.186939, 35.577692], [133.191538, 35.577698], [133.193261, 35.576915], [133.196795, 35.577039], [133.195221, 35.567702], [133.197626, 35.570432], [133.211682, 35.567153], [133.216301, 35.570416], [133.21359, 35.575511], [133.21687, 35.575705], [133.217145, 35.5816], [133.220243, 35.57773], [133.226299, 35.580773], [133.227457, 35.57777], [133.234953, 35.57915], [133.225802, 35.575695], [133.227847, 35.574899], [133.223905, 35.573121], [133.224551, 35.570601], [133.236132, 35.573221], [133.236769, 35.569926], [133.244559, 35.570334], [133.251603, 35.575741], [133.254011, 35.572947], [133.25007, 35.570574], [133.256094, 35.569711], [133.259079, 35.575265], [133.265527, 35.572317], [133.266248, 35.577601], [133.27013, 35.578976], [133.274943, 35.57684], [133.273531, 35.573676], [133.277101, 35.574844], [133.280457, 35.57151], [133.280189, 35.577373], [133.290356, 35.573829], [133.291014, 35.577709], [133.294014, 35.577934], [133.29817, 35.570958], [133.29995, 35.572697], [133.300298, 35.574509], [133.304713, 35.571024], [133.30756, 35.576174], [133.315624, 35.569401], [133.326779, 35.567951], [133.308922, 35.557958], [133.310955, 35.560056], [133.308677, 35.562616], [133.308232, 35.558201], [133.265021, 35.555648], [133.252534, 35.553946], [133.244621, 35.549112], [133.243863, 35.55012], [133.239139, 35.550031], [133.236126, 35.551212], [133.232786, 35.550466], [133.229567, 35.55065], [133.22398, 35.549082], [133.220807, 35.549192], [133.216802, 35.5475], [133.215716, 35.547692], [133.212201, 35.545442], [133.210621, 35.543402], [133.205883, 35.540672], [133.2037, 35.538696], [133.19861, 35.537429], [133.198755, 35.536096], [133.195762, 35.533491], [133.195582, 35.532096], [133.194045, 35.531206], [133.194548, 35.529904], [133.191538, 35.526902], [133.187748, 35.527114], [133.184949, 35.52832], [133.183493, 35.532759], [133.183504, 35.53417], [133.181245, 35.537238], [133.180359, 35.537609], [133.177227, 35.535514], [133.179536, 35.533824], [133.180672, 35.531999], [133.178564, 35.530698], [133.177476, 35.534073], [133.172109, 35.533408], [133.172708, 35.535019], [133.162585, 35.532828], [133.1621, 35.535877], [133.160592, 35.537272], [133.156452, 35.537989], [133.154217, 35.537084], [133.152065, 35.535207], [133.152003, 35.533546], [133.154048, 35.531978], [133.153777, 35.53554], [133.156308, 35.537274], [133.157913, 35.537497], [133.160931, 35.536002], [133.161245, 35.533166], [133.164405, 35.530941], [133.179519, 35.524671], [133.180769, 35.523864], [133.184396, 35.517808], [133.187431, 35.518105], [133.188614, 35.517265], [133.190391, 35.519135], [133.195744, 35.521276], [133.201983, 35.510752], [133.197292, 35.509483], [133.196253, 35.508698], [133.190557, 35.506803], [133.188822, 35.507513], [133.187016, 35.504295], [133.187776, 35.502453], [133.190148, 35.501393], [133.190516, 35.499109], [133.189133, 35.497876], [133.189512, 35.495371], [133.185684, 35.492443], [133.187233, 35.491514], [133.186315, 35.490243], [133.186147, 35.48789], [133.187471, 35.486543], [133.186257, 35.485566], [133.183853, 35.486358], [133.182795, 35.485286], [133.180205, 35.486246], [133.176854, 35.486586], [133.173492, 35.486178], [133.172001, 35.485081], [133.169013, 35.488658], [133.16597, 35.490391], [133.162601, 35.488425], [133.146717, 35.480054], [133.146255, 35.480288], [133.162318, 35.488699], [133.162459, 35.490672], [133.157626, 35.494564], [133.158273, 35.495828], [133.157036, 35.49682], [133.157895, 35.498777], [133.159943, 35.499339], [133.159635, 35.502268], [133.158634, 35.504452], [133.159613, 35.506244], [133.161291, 35.507556], [133.164272, 35.507657], [133.165729, 35.506801], [133.172844, 35.504703], [133.176027, 35.503348], [133.178651, 35.503696], [133.182783, 35.502996], [133.186256, 35.504435], [133.18829, 35.5078], [133.190349, 35.513449], [133.187434, 35.517668], [133.184279, 35.517166], [133.18045, 35.523571], [133.179653, 35.524152], [133.164895, 35.530246], [133.162254, 35.531623], [133.160913, 35.533337], [133.160616, 35.535961], [133.157874, 35.537253], [133.154294, 35.535709], [133.154364, 35.532071], [133.152587, 35.530142], [133.152219, 35.528333], [133.149631, 35.52703], [133.148437, 35.523932], [133.146025, 35.523014], [133.144766, 35.519448], [133.142928, 35.520425], [133.140276, 35.520408], [133.138751, 35.519698], [133.135942, 35.514865], [133.132123, 35.514329], [133.130807, 35.513033], [133.130029, 35.509851], [133.130399, 35.503874], [133.131599, 35.501237], [133.134304, 35.499511], [133.13409, 35.497952], [133.137345, 35.492014], [133.132906, 35.489309], [133.13206, 35.48722], [133.132816, 35.485835], [133.136877, 35.483604], [133.139802, 35.4826], [133.142129, 35.479818], [133.14422, 35.478211], [133.143298, 35.47482], [133.140223, 35.471988], [133.139128, 35.46944], [133.135317, 35.468763], [133.13399, 35.467735], [133.127477, 35.465734], [133.126307, 35.464424], [133.126026, 35.461999], [133.12471, 35.461189], [133.124803, 35.458567], [133.126177, 35.453396], [133.127903, 35.451279], [133.132259, 35.451805], [133.137998, 35.452968], [133.138565, 35.451028], [133.142534, 35.449866], [133.144344, 35.450206], [133.155613, 35.448606], [133.157243, 35.447841], [133.159064, 35.445894], [133.163838, 35.447008], [133.167423, 35.443617], [133.171669, 35.440363], [133.173441, 35.440257], [133.174038, 35.437119], [133.175941, 35.435578], [133.183101, 35.431784], [133.185556, 35.431294], [133.190011, 35.432754], [133.191302, 35.432683], [133.194893, 35.433287], [133.198263, 35.435148], [133.20069, 35.439537], [133.201455, 35.441598], [133.204468, 35.445428], [133.207491, 35.446324], [133.209124, 35.447822], [133.211617, 35.448317], [133.216628, 35.44471], [133.219058, 35.448383], [133.21857, 35.454087], [133.219034, 35.455002], [133.221756, 35.455371], [133.224335, 35.453796], [133.227916, 35.450436], [133.234544, 35.449248], [133.23769, 35.448959], [133.238727, 35.447904], [133.239677, 35.44481], [133.241598, 35.44366], [133.243952, 35.444803], [133.246086, 35.444516], [133.246679, 35.443488], [133.253859, 35.443693], [133.254094, 35.437948], [133.255239, 35.436577], [133.255306, 35.434523], [133.257701, 35.431083], [133.259401, 35.42963], [133.262094, 35.431424], [133.258751, 35.433016], [133.259046, 35.434465], [133.262026, 35.434837], [133.263127, 35.436291], [133.264895, 35.43577], [133.267103, 35.436172], [133.268818, 35.435699], [133.270021, 35.432247], [133.274468, 35.433796], [133.275213, 35.435238], [133.277841, 35.434995], [133.279173, 35.432735], [133.284352, 35.430557], [133.28737, 35.429682], [133.289583, 35.429912], [133.292435, 35.427999], [133.295069, 35.428038], [133.296171, 35.429246], [133.298232, 35.428885], [133.300001, 35.432014], [133.300775, 35.431896], [133.301221, 35.428341], [133.303381, 35.426326], [133.309777, 35.422739], [133.315507, 35.416836], [133.316229, 35.41417], [133.314356, 35.41227], [133.311496, 35.411737], [133.306431, 35.412501], [133.30118, 35.415284], [133.299411, 35.415554], [133.29427, 35.413882], [133.296438, 35.412954], [133.297239, 35.414313], [133.300196, 35.414993], [133.305919, 35.411823], [133.311301, 35.410968], [133.319261, 35.412552], [133.320573, 35.410278], [133.32123, 35.395748], [133.313567, 35.387346], [133.324505, 35.374033], [133.318503, 35.373339], [133.319284, 35.368952], [133.315974, 35.36549], [133.307665, 35.365822], [133.296046, 35.34937], [133.295574, 35.328868], [133.298559, 35.325104], [133.292525, 35.320643], [133.302389, 35.305506], [133.306951, 35.30337], [133.299501, 35.291882], [133.307413, 35.281701], [133.310551, 35.267918], [133.291728, 35.260742], [133.282037, 35.262381], [133.275661, 35.257856], [133.253283, 35.260028], [133.243357, 35.250413], [133.23223, 35.246576], [133.222788, 35.249106], [133.212022, 35.241697], [133.181686, 35.234465], [133.151639, 35.216434], [133.14526, 35.211475], [133.151707, 35.216161], [133.152742, 35.203812], [133.168819, 35.209354], [133.182446, 35.200842], [133.184658, 35.195285], [133.181974, 35.188434], [133.189253, 35.184694], [133.193699, 35.177415], [133.193722, 35.165464], [133.183467, 35.156467], [133.155968, 35.148151], [133.154891, 35.143903], [133.148451, 35.139983], [133.145142, 35.131275], [133.146625, 35.123622], [133.140223, 35.11806], [133.145531, 35.105047], [133.139819, 35.100005], [133.13665, 35.090573], [133.137498, 35.08513], [133.142225, 35.081313], [133.139507, 35.079246], [133.140814, 35.075638], [133.126572, 35.076881], [133.125589, 35.081322], [133.119514, 35.084857], [133.102192, 35.082309], [133.096423, 35.085424], [133.085958, 35.078041], [133.072602, 35.082111], [133.060804, 35.081455], [133.051239, 35.069571], [133.033979, 35.068158], [133.025312, 35.077306], [133.016414, 35.078409], [133.015659, 35.083608], [133.014545, 35.087709], [133.003533, 35.090302], [133.000112, 35.097191], [132.992385, 35.098225], [132.990696, 35.101304], [132.982465, 35.097637], [132.978669, 35.091131], [132.979839, 35.086708], [132.974669, 35.082962], [132.947591, 35.075762], [132.93417, 35.083941], [132.926143, 35.080547], [132.92356, 35.084268], [132.909478, 35.086217], [132.897355, 35.104061], [132.892738, 35.105079], [132.89734, 35.123274], [132.892109, 35.104711], [132.873186, 35.102316], [132.859746, 35.092366], [132.858845, 35.09329], [132.859002, 35.089604], [132.845961, 35.080853], [132.839154, 35.070413], [132.828102, 35.062075], [132.837121, 35.052492], [132.836736, 35.046966], [132.827434, 35.047085], [132.813719, 35.040552], [132.808834, 35.02856], [132.788586, 35.015755], [132.787754, 35.004788], [132.776472, 34.998457], [132.765703, 34.996836], [132.763427, 34.992872], [132.766919, 34.991349], [132.765299, 34.989267], [132.768703, 34.983949], [132.755944, 34.977275], [132.748812, 34.978927], [132.745071, 34.976711], [132.752968, 34.966761], [132.750276, 34.965494], [132.749722, 34.960259], [132.742532, 34.956329], [132.738608, 34.962313], [132.727552, 34.956343], [132.727313, 34.952676], [132.720393, 34.947994], [132.707277, 34.955087], [132.702099, 34.951465], [132.698281, 34.953648], [132.685094, 34.950557], [132.681762, 34.95968], [132.685043, 34.949209], [132.675828, 34.932659], [132.666637, 34.93062], [132.660881, 34.923289], [132.651265, 34.920408], [132.641154, 34.903724], [132.634255, 34.90477], [132.634863, 34.899132], [132.655691, 34.899488], [132.663589, 34.889732], [132.675154, 34.894489], [132.680211, 34.884663], [132.700781, 34.881895], [132.705877, 34.863335], [132.710135, 34.858281], [132.710598, 34.84986], [132.698248, 34.84277], [132.692958, 34.844157], [132.691471, 34.850626], [132.680273, 34.851678], [132.67256, 34.845398], [132.667531, 34.832277], [132.659464, 34.832428], [132.652311, 34.840536], [132.643967, 34.837502], [132.632858, 34.839975], [132.63118, 34.843132], [132.61459, 34.843011], [132.610814, 34.837614], [132.612249, 34.833023], [132.604354, 34.830595], [132.599168, 34.833582], [132.590003, 34.821077], [132.585846, 34.823007], [132.582304, 34.816989], [132.56926, 34.811631], [132.56778, 34.806154], [132.554085, 34.808284], [132.543649, 34.796553], [132.538741, 34.79512], [132.519691, 34.803996], [132.505576, 34.796034], [132.495016, 34.801435], [132.483878, 34.797136], [132.471518, 34.802341], [132.454259, 34.800698], [132.456682, 34.807406], [132.436666, 34.820962], [132.429917, 34.814222], [132.420896, 34.813771], [132.424821, 34.799164], [132.414626, 34.797829], [132.398891, 34.783817], [132.398314, 34.779974], [132.392846, 34.783745], [132.387442, 34.782744], [132.38183, 34.787967], [132.383079, 34.795036], [132.374847, 34.800796], [132.368029, 34.801002], [132.356661, 34.796856], [132.351964, 34.798069], [132.346786, 34.793444], [132.333801, 34.790042], [132.323314, 34.793489], [132.319038, 34.801264], [132.315821, 34.801417], [132.305725, 34.793189], [132.306694, 34.789695], [132.300636, 34.784545], [132.297963, 34.776554], [132.280214, 34.783507], [132.27933, 34.789883], [132.274543, 34.791956], [132.278103, 34.798982], [132.269779, 34.798297], [132.259568, 34.806845], [132.242246, 34.80649], [132.238307, 34.801609], [132.243618, 34.798839], [132.242657, 34.782999], [132.232804, 34.776088], [132.234299, 34.773661], [132.22511, 34.769916], [132.226904, 34.764911], [132.222169, 34.760276], [132.224739, 34.757482], [132.222384, 34.749539], [132.209886, 34.744881], [132.202546, 34.748666], [132.195687, 34.744446], [132.196499, 34.738417], [132.189166, 34.73363], [132.178019, 34.736766], [132.173991, 34.731195], [132.143295, 34.716207], [132.143084, 34.711203], [132.135772, 34.707125], [132.130906, 34.707831], [132.132043, 34.702327], [132.129549, 34.699371], [132.137034, 34.694443], [132.142222, 34.691594], [132.144423, 34.693964], [132.157688, 34.692686], [132.161082, 34.688119], [132.161934, 34.683141], [132.154787, 34.678846], [132.146884, 34.665925], [132.147569, 34.662064], [132.137194, 34.651898], [132.137205, 34.648216], [132.133518, 34.648056], [132.133653, 34.644131], [132.127751, 34.64178], [132.130805, 34.629165], [132.123282, 34.623666], [132.116348, 34.612463], [132.117638, 34.601763], [132.129684, 34.595479], [132.124535, 34.589292], [132.125528, 34.583151], [132.11788, 34.578298], [132.119028, 34.572425], [132.113867, 34.562693], [132.10002, 34.554964], [132.08385, 34.537466], [132.052379, 34.530276], [132.047737, 34.521225], [132.048839, 34.515423], [132.036529, 34.501944], [132.052204, 34.498916], [132.059743, 34.49227], [132.057224, 34.482199], [132.064942, 34.475839], [132.068585, 34.467671], [132.055185, 34.467795], [132.052715, 34.466384], [132.038993, 34.468885], [132.034816, 34.463406], [132.023279, 34.461153]], [[131.829659, 34.836878], [131.836294, 34.837845], [131.842152, 34.834223], [131.83149, 34.834645], [131.829659, 34.836878]], [[132.049656, 34.896497], [132.048802, 34.897123], [132.051944, 34.899924], [132.053493, 34.897861], [132.049656, 34.896497]], [[132.058099, 34.899238], [132.059374, 34.902063], [132.056089, 34.903835], [132.062884, 34.904324], [132.063151, 34.89802], [132.058099, 34.899238]], [[132.047416, 34.901583], [132.045211, 34.9016], [132.051259, 34.905877], [132.049231, 34.902569], [132.047416, 34.901583]], [[131.872178, 37.23989], [131.870046, 37.238031], [131.867856, 37.239204], [131.870334, 37.242015], [131.872178, 37.23989]], [[131.86716, 37.241178], [131.864942, 37.239974], [131.863476, 37.241388], [131.865164, 37.244255], [131.86716, 37.241178]], [[133.051407, 35.568807], [133.05476, 35.568898], [133.051831, 35.564099], [133.051407, 35.568807]], [[133.238205, 35.582204], [133.244813, 35.581438], [133.242078, 35.57963], [133.23505, 35.579393], [133.238205, 35.582204]], [[133.125402, 35.589891], [133.124447, 35.58728], [133.118509, 35.59024], [133.123947, 35.596138], [133.128781, 35.595902], [133.124309, 35.59311], [133.125402, 35.589891]], [[133.037817, 35.997492], [133.041968, 35.99516], [133.039563, 35.994523], [133.037817, 35.997492]], [[133.077726, 35.99306], [133.075639, 35.998433], [133.077448, 35.999858], [133.079923, 35.996879], [133.077726, 35.99306]], [[133.047935, 36.001322], [133.053764, 36.002742], [133.053751, 35.999221], [133.049772, 35.993189], [133.051048, 35.998461], [133.047935, 36.001322]], [[133.009581, 36.009916], [133.003287, 36.016231], [133.007834, 36.018484], [133.002081, 36.020888], [133.005893, 36.023148], [133.001027, 36.026876], [132.999939, 36.032328], [133.025376, 36.029683], [133.027045, 36.032515], [133.041042, 36.022994], [133.040694, 36.027044], [133.044123, 36.022416], [133.042501, 36.020552], [133.055084, 36.012862], [133.073178, 36.010628], [133.069713, 36.005953], [133.06554, 36.00629], [133.065783, 35.995853], [133.061001, 35.993915], [133.055116, 35.997075], [133.057809, 36.005113], [133.046993, 36.004572], [133.048382, 36.008887], [133.041865, 36.013063], [133.038503, 36.000843], [133.036909, 36.000432], [133.033074, 36.006527], [133.030906, 36.00582], [133.03276, 36.004366], [133.029756, 36.0], [133.027968, 36.004774], [133.023401, 36.006667], [133.010738, 36.001912], [133.005859, 36.00367], [133.009581, 36.009916]], [[133.138149, 36.068336], [133.136319, 36.067266], [133.135203, 36.069254], [133.136579, 36.07037], [133.138149, 36.068336]], [[133.070218, 36.049532], [133.072607, 36.050198], [133.070377, 36.059226], [133.074238, 36.057824], [133.073579, 36.060375], [133.078431, 36.062156], [133.074868, 36.06344], [133.074535, 36.067276], [133.07985, 36.068681], [133.076756, 36.075066], [133.071247, 36.072678], [133.067486, 36.075793], [133.074064, 36.077184], [133.072128, 36.079713], [133.075011, 36.080189], [133.069789, 36.083132], [133.072787, 36.085149], [133.065419, 36.093735], [133.064328, 36.101068], [133.068975, 36.100443], [133.074787, 36.106431], [133.076812, 36.102607], [133.081332, 36.102473], [133.080897, 36.106983], [133.077144, 36.10865], [133.082992, 36.114289], [133.088626, 36.10842], [133.085303, 36.102989], [133.088201, 36.100092], [133.08647, 36.097306], [133.091057, 36.096294], [133.090542, 36.102978], [133.095733, 36.106022], [133.091966, 36.108997], [133.096897, 36.107734], [133.097569, 36.109953], [133.090403, 36.111022], [133.093518, 36.117675], [133.104606, 36.116802], [133.113105, 36.120092], [133.110268, 36.117116], [133.115263, 36.117755], [133.114687, 36.114747], [133.121626, 36.1154], [133.126448, 36.111007], [133.132519, 36.111153], [133.132383, 36.110126], [133.126244, 36.105545], [133.135982, 36.102034], [133.126524, 36.098056], [133.127691, 36.090446], [133.123729, 36.089494], [133.125468, 36.087814], [133.122705, 36.084998], [133.117504, 36.084677], [133.118728, 36.08189], [133.132353, 36.082869], [133.131014, 36.085607], [133.135365, 36.086334], [133.145661, 36.082458], [133.152656, 36.074596], [133.144794, 36.074662], [133.137981, 36.08234], [133.131653, 36.073428], [133.128232, 36.077005], [133.123403, 36.07438], [133.117858, 36.079157], [133.113049, 36.078646], [133.117442, 36.074002], [133.115008, 36.072831], [133.118262, 36.070679], [133.11712, 36.064196], [133.096954, 36.072255], [133.097787, 36.070397], [133.108345, 36.064207], [133.107715, 36.060844], [133.100008, 36.060996], [133.104304, 36.057831], [133.096114, 36.057086], [133.09986, 36.05257], [133.105005, 36.053313], [133.103907, 36.050099], [133.087508, 36.052825], [133.087525, 36.0455], [133.075949, 36.044869], [133.082105, 36.041298], [133.080482, 36.03798], [133.068388, 36.034944], [133.070218, 36.049532]], [[132.987178, 36.114753], [132.985062, 36.107899], [132.994556, 36.114412], [132.999889, 36.114109], [133.006659, 36.107967], [133.006646, 36.112704], [133.013202, 36.116433], [133.014513, 36.137616], [133.023226, 36.134124], [133.027666, 36.138563], [133.043755, 36.135144], [133.046348, 36.130742], [133.044255, 36.127636], [133.054711, 36.132207], [133.055337, 36.126689], [133.065563, 36.135492], [133.068907, 36.142716], [133.069884, 36.14003], [133.081604, 36.142139], [133.080182, 36.137835], [133.092948, 36.139255], [133.086059, 36.129583], [133.087349, 36.125426], [133.083686, 36.125358], [133.070291, 36.11364], [133.04778, 36.113174], [133.041099, 36.109689], [133.04358, 36.106611], [133.040432, 36.107413], [133.040011, 36.105014], [133.046302, 36.099221], [133.044449, 36.095521], [133.050129, 36.095989], [133.057116, 36.082934], [133.05039, 36.078839], [133.052771, 36.069021], [133.050359, 36.06559], [133.047181, 36.066306], [133.045792, 36.060678], [133.037718, 36.062329], [133.03656, 36.065319], [133.022608, 36.063286], [133.015132, 36.073931], [133.007514, 36.074196], [133.010707, 36.078024], [133.005634, 36.082571], [133.008285, 36.085332], [133.005432, 36.090416], [133.012717, 36.094534], [133.012988, 36.09785], [133.006345, 36.105689], [133.008069, 36.098746], [133.005099, 36.092979], [132.998045, 36.090493], [132.990085, 36.092545], [132.99181, 36.083671], [132.984924, 36.086811], [132.985688, 36.093318], [132.97848, 36.084571], [132.978677, 36.079143], [132.983052, 36.07843], [132.980728, 36.076437], [132.985386, 36.069721], [132.98304, 36.068557], [132.988068, 36.06619], [132.993936, 36.055732], [132.993069, 36.051688], [133.000971, 36.043785], [132.998351, 36.037972], [132.985986, 36.049062], [132.974738, 36.052588], [132.973164, 36.057353], [132.962255, 36.06031], [132.954416, 36.058671], [132.949669, 36.062473], [132.955284, 36.064993], [132.946037, 36.064878], [132.953816, 36.076566], [132.948058, 36.076273], [132.945803, 36.079781], [132.950625, 36.080029], [132.95077, 36.08538], [132.954759, 36.086073], [132.955835, 36.090433], [132.969842, 36.094274], [132.961711, 36.09678], [132.962359, 36.097662], [132.966053, 36.102689], [132.976696, 36.110473], [132.977711, 36.114707], [132.982447, 36.114759], [132.982123, 36.117313], [132.987178, 36.114753]], [[133.163319, 36.114483], [133.167184, 36.113007], [133.164776, 36.108495], [133.168766, 36.105656], [133.168371, 36.100784], [133.164686, 36.099741], [133.156686, 36.10422], [133.163319, 36.114483]], [[133.172283, 36.133191], [133.168307, 36.133438], [133.174589, 36.140289], [133.178866, 36.137849], [133.177319, 36.135303], [133.172283, 36.133191]], [[133.251633, 36.157899], [133.253328, 36.160124], [133.255087, 36.157505], [133.252401, 36.155889], [133.251633, 36.157899]], [[133.184824, 36.264533], [133.187842, 36.274508], [133.188106, 36.283109], [133.179302, 36.288044], [133.185782, 36.289554], [133.198091, 36.279437], [133.204458, 36.279581], [133.199579, 36.283306], [133.199544, 36.287514], [133.213728, 36.287198], [133.215958, 36.28971], [133.191175, 36.290416], [133.194287, 36.29158], [133.196038, 36.301781], [133.201059, 36.298751], [133.210189, 36.300497], [133.207071, 36.308728], [133.216272, 36.314731], [133.225333, 36.313514], [133.232098, 36.318094], [133.225606, 36.322616], [133.224604, 36.328649], [133.232261, 36.328339], [133.247469, 36.334372], [133.256428, 36.327388], [133.258989, 36.329996], [133.263403, 36.327889], [133.264106, 36.331268], [133.270802, 36.332125], [133.280031, 36.340495], [133.280908, 36.345576], [133.27605, 36.34886], [133.282927, 36.348237], [133.287876, 36.336536], [133.295666, 36.333781], [133.297476, 36.327664], [133.303072, 36.325575], [133.306462, 36.32955], [133.30987, 36.328491], [133.309968, 36.322789], [133.305691, 36.32381], [133.308946, 36.319211], [133.321014, 36.327773], [133.3181, 36.320027], [133.321615, 36.315639], [133.325659, 36.315882], [133.324529, 36.308823], [133.335012, 36.312987], [133.34377, 36.310886], [133.336829, 36.306615], [133.340828, 36.306407], [133.339603, 36.303247], [133.344771, 36.301216], [133.344705, 36.297309], [133.356749, 36.299389], [133.363892, 36.297322], [133.362281, 36.292918], [133.359388, 36.295365], [133.356006, 36.291458], [133.358308, 36.288766], [133.363741, 36.290187], [133.359734, 36.283854], [133.362689, 36.279106], [133.368648, 36.278414], [133.371394, 36.281887], [133.373648, 36.27736], [133.379252, 36.276234], [133.375859, 36.270257], [133.385994, 36.26995], [133.38234, 36.263993], [133.376012, 36.261745], [133.377813, 36.258588], [133.372563, 36.250726], [133.375877, 36.248287], [133.373118, 36.242956], [133.376659, 36.241671], [133.377679, 36.230309], [133.371589, 36.221707], [133.370094, 36.205657], [133.354578, 36.20362], [133.354437, 36.201204], [133.355796, 36.19957], [133.352443, 36.197199], [133.338681, 36.197532], [133.349444, 36.206592], [133.34732, 36.205869], [133.345189, 36.208704], [133.352007, 36.212236], [133.345252, 36.214311], [133.344786, 36.217011], [133.349607, 36.217863], [133.343566, 36.220411], [133.345208, 36.22468], [133.337416, 36.220583], [133.340277, 36.21616], [133.337688, 36.211084], [133.33551, 36.211838], [133.338813, 36.207351], [133.33622, 36.20104], [133.316202, 36.205276], [133.306386, 36.199048], [133.310125, 36.193425], [133.309401, 36.199566], [133.321685, 36.19561], [133.325024, 36.200723], [133.335717, 36.197199], [133.334588, 36.192399], [133.338951, 36.187725], [133.336722, 36.181934], [133.341118, 36.170017], [133.325557, 36.167115], [133.311184, 36.172162], [133.308397, 36.178952], [133.30744, 36.178819], [133.308886, 36.173001], [133.302972, 36.171406], [133.301131, 36.176399], [133.295934, 36.178766], [133.294671, 36.175697], [133.290746, 36.179775], [133.288585, 36.174469], [133.291366, 36.171444], [133.287553, 36.17078], [133.285074, 36.178502], [133.281086, 36.175079], [133.279689, 36.182307], [133.282495, 36.186371], [133.279904, 36.188153], [133.276106, 36.180256], [133.277859, 36.169497], [133.268152, 36.169272], [133.260174, 36.163328], [133.258289, 36.16449], [133.263869, 36.171931], [133.259507, 36.169505], [133.258212, 36.172894], [133.256038, 36.165273], [133.248592, 36.161224], [133.247303, 36.161403], [133.248214, 36.165991], [133.253326, 36.171414], [133.245141, 36.177034], [133.243064, 36.175473], [133.247786, 36.170412], [133.240779, 36.166816], [133.237902, 36.165993], [133.230386, 36.170144], [133.236304, 36.170505], [133.241138, 36.175333], [133.236925, 36.179867], [133.238731, 36.183369], [133.245806, 36.183568], [133.244861, 36.190159], [133.238335, 36.191676], [133.234762, 36.18959], [133.236734, 36.187879], [133.224128, 36.188392], [133.208624, 36.197897], [133.208268, 36.209592], [133.194992, 36.2112], [133.193299, 36.214577], [133.182254, 36.212193], [133.185357, 36.214696], [133.183734, 36.223148], [133.183691, 36.224045], [133.190744, 36.230838], [133.18974, 36.243801], [133.192359, 36.242358], [133.192735, 36.245049], [133.188287, 36.249393], [133.177241, 36.250553], [133.177078, 36.257504], [133.184824, 36.264533]], [[133.279954, 36.350245], [133.278681, 36.351761], [133.281224, 36.355689], [133.281676, 36.353239], [133.279954, 36.350245]]]}}], "name": "島根県"}