{"type": "FeatureCollection", "features": [{"type": "Feature", "properties": {}, "geometry": {"type": "MultiLineString", "coordinates": [[[134.42202, 33.630191], [134.421506, 33.636756], [134.42662, 33.635444], [134.424937, 33.629107], [134.42202, 33.630191]], [[134.465537, 33.679929], [134.460419, 33.675612], [134.446783, 33.669822], [134.444135, 33.666491], [134.435901, 33.664164], [134.429453, 33.663798], [134.425226, 33.660632], [134.423244, 33.66588], [134.418764, 33.665355], [134.413767, 33.654829], [134.404424, 33.659847], [134.39586, 33.656089], [134.396659, 33.650555], [134.389876, 33.650608], [134.384825, 33.641444], [134.378635, 33.639212], [134.3759, 33.634888], [134.370514, 33.634667], [134.364571, 33.624299], [134.375948, 33.623886], [134.3796, 33.625327], [134.388081, 33.624422], [134.388347, 33.619554], [134.383218, 33.618821], [134.382908, 33.614269], [134.377652, 33.613367], [134.371469, 33.609591], [134.364303, 33.602015], [134.361649, 33.596085], [134.364249, 33.5909], [134.360854, 33.587523], [134.345857, 33.585025], [134.338674, 33.585735], [134.332309, 33.584447], [134.333791, 33.581361], [134.341689, 33.583504], [134.354217, 33.583479], [134.362682, 33.580792], [134.355187, 33.57847], [134.33883, 33.578137], [134.32937, 33.582128], [134.323738, 33.580629], [134.317836, 33.581826], [134.315981, 33.576463], [134.311412, 33.576655], [134.308808, 33.571858], [134.308653, 33.563718], [134.316936, 33.557726], [134.314036, 33.545613], [134.307505, 33.546734], [134.303694, 33.553907], [134.296998, 33.553421], [134.295676, 33.557728], [134.287237, 33.559796], [134.273746, 33.560624], [134.270009, 33.554862], [134.262905, 33.556418], [134.258206, 33.553273], [134.249179, 33.552899], [134.243351, 33.555916], [134.238507, 33.552921], [134.232231, 33.555652], [134.228716, 33.561012], [134.218706, 33.567537], [134.211704, 33.566959], [134.202271, 33.562477], [134.19317, 33.561627], [134.195356, 33.568731], [134.192471, 33.573982], [134.187767, 33.575768], [134.188537, 33.581063], [134.184719, 33.588686], [134.178779, 33.594147], [134.170577, 33.596972], [134.17024, 33.602115], [134.175955, 33.607101], [134.172525, 33.609603], [134.164794, 33.610486], [134.160614, 33.612813], [134.155956, 33.611789], [134.152143, 33.618181], [134.154892, 33.622985], [134.149251, 33.627141], [134.150225, 33.630552], [134.163985, 33.635447], [134.170547, 33.641958], [134.174825, 33.643292], [134.184173, 33.649023], [134.171334, 33.657686], [134.17535, 33.661594], [134.168965, 33.670768], [134.175465, 33.675931], [134.174782, 33.683991], [134.163845, 33.688124], [134.160966, 33.686835], [134.148551, 33.685706], [134.135784, 33.690933], [134.133383, 33.693961], [134.126263, 33.695885], [134.119912, 33.694952], [134.111991, 33.695659], [134.10602, 33.693587], [134.099899, 33.694621], [134.095093, 33.69242], [134.090441, 33.69307], [134.0814, 33.690469], [134.076398, 33.690614], [134.066335, 33.688625], [134.058057, 33.691033], [134.0566, 33.693912], [134.064774, 33.698538], [134.063524, 33.700142], [134.066423, 33.709513], [134.070102, 33.711196], [134.065037, 33.719452], [134.068417, 33.728352], [134.066193, 33.734067], [134.061781, 33.735215], [134.061494, 33.74044], [134.056096, 33.751949], [134.058954, 33.761], [134.058788, 33.776667], [134.055322, 33.784691], [134.050272, 33.785637], [134.045869, 33.789997], [134.04658, 33.799071], [134.040738, 33.801887], [134.033311, 33.809278], [134.036978, 33.81498], [134.03688, 33.820339], [134.032828, 33.8284], [134.026707, 33.827435], [134.023407, 33.824693], [134.012331, 33.821787], [133.995932, 33.82193], [133.989949, 33.828583], [133.987147, 33.836669], [133.983116, 33.840798], [133.979094, 33.837493], [133.959783, 33.83466], [133.951105, 33.828686], [133.953074, 33.823661], [133.95273, 33.815493], [133.947474, 33.803744], [133.941261, 33.799158], [133.924878, 33.800609], [133.919296, 33.797634], [133.912778, 33.791405], [133.907999, 33.795225], [133.90106, 33.79438], [133.895975, 33.80238], [133.884936, 33.803412], [133.872359, 33.806193], [133.872496, 33.810158], [133.866367, 33.819217], [133.856869, 33.827907], [133.853523, 33.834602], [133.843912, 33.838132], [133.838695, 33.845167], [133.828488, 33.844749], [133.817773, 33.837321], [133.809024, 33.838031], [133.78858, 33.836244], [133.786713, 33.840843], [133.775773, 33.842297], [133.773281, 33.839883], [133.766843, 33.840282], [133.756226, 33.83643], [133.748236, 33.836771], [133.740817, 33.842872], [133.740184, 33.847779], [133.728951, 33.85108], [133.719469, 33.849279], [133.707598, 33.851682], [133.701736, 33.849791], [133.694859, 33.856277], [133.687302, 33.856528], [133.680811, 33.859512], [133.677695, 33.858539], [133.671774, 33.864989], [133.666411, 33.866011], [133.66291, 33.870345], [133.660748, 33.881809], [133.661918, 33.885784], [133.677946, 33.893084], [133.677466, 33.898794], [133.674514, 33.903186], [133.677578, 33.909551], [133.682143, 33.91044], [133.687947, 33.916256], [133.688507, 33.92163], [133.68563, 33.925716], [133.675684, 33.92638], [133.676484, 33.932945], [133.681759, 33.938082], [133.68644, 33.938976], [133.692566, 33.943991], [133.692626, 33.947839], [133.687134, 33.955331], [133.692364, 33.962455], [133.680322, 33.970225], [133.684131, 33.976391], [133.681381, 33.978789], [133.680629, 33.984174], [133.675092, 33.983682], [133.676477, 33.992491], [133.680686, 33.996296], [133.685737, 34.003656], [133.679549, 34.01252], [133.688512, 34.012379], [133.700272, 34.017803], [133.708763, 34.015352], [133.72132, 34.022292], [133.723072, 34.036463], [133.728994, 34.04416], [133.732991, 34.044897], [133.740451, 34.050192], [133.749497, 34.05427], [133.756484, 34.05929], [133.76338, 34.06681], [133.763405, 34.06984], [133.775042, 34.074264], [133.777956, 34.078934], [133.785298, 34.07981], [133.795849, 34.070362], [133.800051, 34.069546], [133.810332, 34.072587], [133.82015, 34.07402], [133.818533, 34.079702], [133.822988, 34.084807], [133.821771, 34.091709], [133.834133, 34.097741], [133.842153, 34.094966], [133.84949, 34.099151], [133.854837, 34.104165], [133.863017, 34.105338], [133.867084, 34.100153], [133.873915, 34.101138], [133.884905, 34.104631], [133.892855, 34.108197], [133.901339, 34.100065], [133.903094, 34.100071], [133.911564, 34.10441], [133.922296, 34.114412], [133.931967, 34.116011], [133.939767, 34.114894], [133.937636, 34.108176], [133.939566, 34.104657], [133.944431, 34.101754], [133.943887, 34.094495], [133.956478, 34.088099], [133.959125, 34.082495], [133.969046, 34.081252], [133.973048, 34.073021], [133.976943, 34.07576], [133.988746, 34.074867], [133.993934, 34.072617], [133.999633, 34.074787], [134.002194, 34.080868], [134.010429, 34.086768], [134.021782, 34.084472], [134.02779, 34.087428], [134.025614, 34.091891], [134.031251, 34.097394], [134.04004, 34.100865], [134.042232, 34.110324], [134.044581, 34.113756], [134.053405, 34.118005], [134.058333, 34.115199], [134.061352, 34.111031], [134.070917, 34.112713], [134.071932, 34.115479], [134.081568, 34.121286], [134.094484, 34.114591], [134.102977, 34.115009], [134.105974, 34.117128], [134.122331, 34.118786], [134.131173, 34.125368], [134.132682, 34.129563], [134.139314, 34.134082], [134.138515, 34.1415], [134.135341, 34.151941], [134.143799, 34.158651], [134.145743, 34.16453], [134.158144, 34.167564], [134.163243, 34.169784], [134.168506, 34.174474], [134.1731, 34.175789], [134.185306, 34.174261], [134.195064, 34.171874], [134.198292, 34.175352], [134.204297, 34.172691], [134.208726, 34.174726], [134.216008, 34.176376], [134.220647, 34.17986], [134.237027, 34.180451], [134.247428, 34.17873], [134.256575, 34.180954], [134.260264, 34.183558], [134.273441, 34.181134], [134.277153, 34.176481], [134.287156, 34.180071], [134.292233, 34.179143], [134.296091, 34.172761], [134.300243, 34.170281], [134.308067, 34.17076], [134.314446, 34.177217], [134.328314, 34.173167], [134.334073, 34.175539], [134.344193, 34.17238], [134.346415, 34.175739], [134.348064, 34.183874], [134.349842, 34.185322], [134.357993, 34.184654], [134.368693, 34.178255], [134.375658, 34.171786], [134.383114, 34.172137], [134.385487, 34.165097], [134.393652, 34.163549], [134.400054, 34.167764], [134.404178, 34.167046], [134.407419, 34.162549], [134.411442, 34.161496], [134.412932, 34.156883], [134.419599, 34.157941], [134.425194, 34.165708], [134.433872, 34.169514], [134.43364, 34.178781], [134.429264, 34.183348], [134.438891, 34.190829], [134.43791, 34.193914], [134.440696, 34.199806], [134.440243, 34.207282], [134.453215, 34.205551], [134.458051, 34.207338], [134.47179, 34.208771], [134.478675, 34.212333], [134.483808, 34.218788], [134.496538, 34.224396], [134.5056, 34.225722], [134.517731, 34.226261], [134.526165, 34.225359], [134.530123, 34.226549], [134.541416, 34.226361], [134.547049, 34.223686], [134.559407, 34.221588], [134.563978, 34.224682], [134.572274, 34.222631], [134.572879, 34.226866], [134.568498, 34.227877], [134.566017, 34.232692], [134.57076, 34.237358], [134.586097, 34.239846], [134.5889, 34.237066], [134.586212, 34.232374], [134.590495, 34.224103], [134.588757, 34.21948], [134.582358, 34.210349], [134.586451, 34.20133], [134.595455, 34.195298], [134.611134, 34.19082], [134.624372, 34.180748], [134.63778, 34.181553], [134.641914, 34.180003], [134.637758, 34.170858], [134.629759, 34.159762], [134.616242, 34.14443], [134.618814, 34.141181], [134.619412, 34.137641], [134.625541, 34.136505], [134.623277, 34.128195], [134.609055, 34.124724], [134.604563, 34.118271], [134.601533, 34.107189], [134.607426, 34.100924], [134.604941, 34.093942], [134.602993, 34.083707], [134.597375, 34.072739], [134.596914, 34.068004], [134.585623, 34.052316], [134.589755, 34.050544], [134.590988, 34.044553], [134.586901, 34.035203], [134.588816, 34.027982], [134.593518, 34.024243], [134.598283, 34.023081], [134.60053, 34.018721], [134.598359, 34.016306], [134.591805, 34.01602], [134.591752, 34.007946], [134.59929, 34.003699], [134.599923, 33.998946], [134.605402, 33.996432], [134.614262, 33.996814], [134.611906, 33.991688], [134.627521, 33.991389], [134.631314, 33.999719], [134.629602, 34.003356], [134.62487, 34.004029], [134.626108, 34.009003], [134.632653, 34.010681], [134.640888, 34.006339], [134.645425, 34.000444], [134.650775, 33.990735], [134.65208, 33.985816], [134.657679, 33.975376], [134.664941, 33.965078], [134.670663, 33.961084], [134.681167, 33.959359], [134.686149, 33.957294], [134.696692, 33.948596], [134.701246, 33.93835], [134.705633, 33.925939], [134.699566, 33.91808], [134.70067, 33.913229], [134.697843, 33.909903], [134.695889, 33.903551], [134.688471, 33.901033], [134.684103, 33.892145], [134.675595, 33.885942], [134.668937, 33.884758], [134.667373, 33.879263], [134.661229, 33.881517], [134.653057, 33.88117], [134.660767, 33.875837], [134.656205, 33.872403], [134.650037, 33.870727], [134.645347, 33.874627], [134.642738, 33.870466], [134.635737, 33.868742], [134.629719, 33.860805], [134.631189, 33.856731], [134.638536, 33.859176], [134.641114, 33.86456], [134.644963, 33.865347], [134.644074, 33.857348], [134.646164, 33.850155], [134.639325, 33.845495], [134.642845, 33.843022], [134.653678, 33.844634], [134.657783, 33.848732], [134.662995, 33.847306], [134.671778, 33.849083], [134.67481, 33.846733], [134.679273, 33.849453], [134.690338, 33.851643], [134.69249, 33.8482], [134.700289, 33.849682], [134.703915, 33.848134], [134.707804, 33.850566], [134.71857, 33.847547], [134.714884, 33.844319], [134.700159, 33.841291], [134.697652, 33.842015], [134.688023, 33.838954], [134.679391, 33.834359], [134.679751, 33.830493], [134.687291, 33.832461], [134.698156, 33.833323], [134.700823, 33.83619], [134.721155, 33.832256], [134.730262, 33.838549], [134.737876, 33.839798], [134.741972, 33.842122], [134.744128, 33.836923], [134.748218, 33.832296], [134.737228, 33.829399], [134.728919, 33.823592], [134.72169, 33.823851], [134.719154, 33.820236], [134.706756, 33.8161], [134.704269, 33.814189], [134.695358, 33.812498], [134.688974, 33.805513], [134.682499, 33.80606], [134.678939, 33.804479], [134.675842, 33.802122], [134.669688, 33.802006], [134.648089, 33.789089], [134.642272, 33.789377], [134.638803, 33.784714], [134.635719, 33.786602], [134.620226, 33.786659], [134.61651, 33.781307], [134.608948, 33.779667], [134.605314, 33.772887], [134.60088, 33.769348], [134.602278, 33.764325], [134.595894, 33.764767], [134.593726, 33.770249], [134.587023, 33.769014], [134.580386, 33.770081], [134.581496, 33.76333], [134.577639, 33.76148], [134.572788, 33.765698], [134.56994, 33.761727], [134.574854, 33.753351], [134.572357, 33.75091], [134.571049, 33.743621], [134.566449, 33.738813], [134.565702, 33.732431], [134.557753, 33.737334], [134.553775, 33.741952], [134.550835, 33.736303], [134.546769, 33.737952], [134.541728, 33.734339], [134.541442, 33.728664], [134.543157, 33.720126], [134.534739, 33.715127], [134.530916, 33.711346], [134.514198, 33.702431], [134.510119, 33.698425], [134.504699, 33.699265], [134.501079, 33.694107], [134.495119, 33.693741], [134.486605, 33.687732], [134.472407, 33.681795], [134.465537, 33.679929]], [[134.485006, 33.645096], [134.488788, 33.644631], [134.496494, 33.638447], [134.500111, 33.638637], [134.501176, 33.633733], [134.497231, 33.631407], [134.490243, 33.632114], [134.483912, 33.640065], [134.485006, 33.645096]], [[134.816186, 33.846077], [134.81859, 33.844115], [134.811824, 33.840369], [134.808022, 33.841322], [134.805641, 33.844285], [134.818016, 33.857004], [134.821379, 33.856266], [134.819798, 33.850322], [134.816186, 33.846077]], [[134.654468, 33.853684], [134.648806, 33.856337], [134.645753, 33.858786], [134.648195, 33.863878], [134.657815, 33.867318], [134.661528, 33.863155], [134.654468, 33.853684]], [[134.597612, 34.053426], [134.591186, 34.056264], [134.597105, 34.066872], [134.603812, 34.064711], [134.606599, 34.062031], [134.603238, 34.05578], [134.597612, 34.053426]], [[134.631081, 34.217327], [134.631004, 34.213674], [134.627355, 34.207852], [134.625813, 34.187302], [134.615143, 34.194366], [134.610413, 34.194595], [134.591078, 34.201411], [134.587716, 34.207314], [134.588939, 34.210868], [134.60082, 34.210948], [134.608071, 34.215278], [134.615238, 34.214341], [134.614828, 34.211077], [134.622257, 34.211513], [134.621298, 34.217568], [134.614628, 34.21958], [134.613745, 34.224654], [134.61768, 34.230153], [134.624453, 34.232734], [134.629578, 34.231232], [134.64318, 34.235911], [134.637337, 34.229339], [134.637861, 34.22474], [134.631081, 34.217327]], [[134.611048, 34.229539], [134.605319, 34.229808], [134.600896, 34.226492], [134.598207, 34.221339], [134.590264, 34.217031], [134.593205, 34.225859], [134.589511, 34.227491], [134.587958, 34.23198], [134.591715, 34.236502], [134.593307, 34.242205], [134.600535, 34.246303], [134.603753, 34.250236], [134.613706, 34.250518], [134.617926, 34.243984], [134.614975, 34.2411], [134.617399, 34.234221], [134.611048, 34.229539]]]}}]}