{"type": "FeatureCollection", "features": [{"type": "Feature", "properties": {}, "geometry": {"type": "MultiLineString", "coordinates": [[[132.458678, 32.949662], [132.455468, 32.942839], [132.446989, 32.943226], [132.441365, 32.94036], [132.441884, 32.943749], [132.447041, 32.948109], [132.450287, 32.947135], [132.455183, 32.952104], [132.458678, 32.949662]], [[132.677959, 33.037995], [132.678673, 33.029399], [132.675517, 33.022395], [132.677005, 33.011058], [132.683902, 33.004046], [132.686717, 32.997348], [132.681381, 32.993816], [132.687065, 32.982202], [132.68744, 32.975811], [132.691516, 32.973571], [132.683467, 32.963136], [132.682048, 32.955862], [132.684512, 32.949569], [132.678251, 32.942964], [132.675877, 32.943943], [132.665674, 32.94176], [132.660667, 32.942485], [132.652473, 32.939154], [132.656271, 32.932307], [132.654815, 32.925802], [132.647281, 32.928106], [132.630861, 32.923976], [132.59903, 32.912616], [132.596041, 32.917054], [132.598683, 32.922913], [132.592332, 32.923923], [132.588109, 32.929301], [132.586065, 32.934563], [132.587215, 32.938805], [132.596825, 32.943287], [132.593118, 32.945812], [132.58708, 32.942251], [132.579846, 32.941788], [132.577613, 32.939149], [132.571849, 32.946149], [132.564018, 32.947198], [132.562413, 32.94438], [132.551339, 32.9471], [132.5481, 32.944865], [132.549891, 32.938849], [132.554361, 32.939246], [132.559104, 32.936958], [132.556375, 32.933451], [132.549716, 32.932758], [132.539923, 32.936171], [132.536971, 32.942198], [132.537891, 32.947247], [132.531172, 32.948746], [132.512666, 32.950133], [132.504823, 32.947003], [132.504362, 32.943041], [132.509208, 32.940197], [132.515108, 32.941494], [132.521769, 32.931705], [132.515255, 32.931549], [132.510503, 32.926895], [132.506362, 32.925933], [132.497233, 32.919437], [132.500772, 32.91494], [132.505342, 32.91466], [132.520332, 32.919738], [132.527079, 32.919827], [132.52587, 32.913679], [132.518912, 32.91138], [132.521639, 32.908312], [132.515274, 32.903217], [132.506725, 32.903539], [132.499263, 32.9055], [132.496451, 32.903414], [132.48923, 32.90218], [132.484725, 32.904559], [132.476407, 32.904644], [132.477292, 32.90955], [132.474926, 32.915189], [132.4775, 32.922281], [132.473474, 32.923382], [132.471231, 32.934475], [132.462721, 32.93613], [132.460533, 32.938151], [132.465563, 32.942488], [132.468748, 32.939853], [132.476725, 32.94016], [132.481627, 32.938175], [132.487317, 32.94179], [132.49214, 32.939881], [132.495835, 32.943788], [132.494344, 32.947919], [132.499818, 32.94852], [132.502791, 32.956047], [132.489848, 32.959415], [132.482909, 32.964371], [132.478801, 32.971762], [132.486702, 32.973406], [132.484908, 32.980649], [132.488274, 32.980666], [132.493002, 32.984741], [132.501596, 32.982114], [132.496315, 32.975344], [132.501533, 32.973177], [132.499635, 32.965086], [132.505999, 32.963694], [132.508112, 32.96763], [132.515196, 32.966431], [132.51647, 32.960891], [132.522367, 32.964763], [132.525113, 32.960108], [132.531047, 32.96575], [132.537377, 32.964182], [132.550326, 32.956859], [132.553889, 32.96025], [132.552342, 32.963229], [132.545256, 32.965324], [132.542201, 32.970092], [132.53728, 32.968605], [132.532527, 32.972953], [132.525017, 32.971606], [132.523661, 32.973628], [132.511923, 32.976385], [132.509407, 32.983137], [132.504129, 32.987744], [132.500596, 32.993803], [132.506047, 33.004945], [132.496021, 33.012118], [132.494962, 33.018435], [132.490451, 33.014992], [132.490503, 33.010885], [132.484947, 33.010671], [132.484305, 33.024245], [132.481466, 33.027947], [132.485883, 33.042181], [132.485189, 33.046418], [132.480445, 33.04948], [132.474791, 33.046443], [132.474558, 33.042091], [132.468903, 33.040714], [132.470799, 33.049272], [132.465974, 33.049747], [132.460061, 33.046228], [132.456085, 33.049202], [132.449641, 33.047965], [132.450866, 33.041391], [132.442889, 33.041909], [132.44297, 33.048111], [132.43745, 33.051653], [132.432619, 33.0513], [132.418055, 33.058069], [132.407543, 33.054901], [132.409753, 33.045906], [132.408626, 33.040196], [132.404125, 33.034641], [132.404765, 33.029106], [132.399122, 33.025747], [132.399685, 33.023062], [132.393634, 33.019948], [132.386722, 33.020716], [132.383248, 33.018289], [132.378587, 33.022879], [132.386145, 33.025865], [132.391932, 33.025968], [132.396116, 33.028347], [132.398378, 33.036232], [132.402989, 33.039818], [132.404929, 33.047391], [132.403518, 33.051422], [132.397948, 33.054297], [132.397192, 33.05729], [132.405345, 33.0608], [132.405911, 33.069553], [132.413568, 33.072317], [132.412879, 33.063122], [132.424923, 33.067294], [132.42762, 33.064877], [132.428222, 33.056746], [132.437543, 33.054877], [132.443952, 33.057178], [132.444444, 33.065071], [132.449157, 33.061026], [132.448676, 33.055442], [132.456547, 33.056855], [132.462097, 33.062654], [132.472389, 33.060206], [132.478074, 33.064824], [132.482553, 33.059823], [132.484122, 33.067427], [132.481468, 33.071016], [132.482209, 33.076448], [132.478224, 33.07897], [132.469998, 33.076057], [132.470351, 33.083596], [132.467108, 33.086312], [132.46842, 33.089727], [132.479901, 33.095646], [132.470921, 33.099381], [132.475136, 33.107058], [132.466198, 33.111986], [132.467474, 33.117453], [132.46413, 33.118336], [132.459098, 33.124927], [132.46245, 33.126946], [132.469032, 33.126215], [132.469892, 33.12266], [132.480825, 33.119683], [132.483663, 33.124703], [132.488605, 33.124085], [132.491688, 33.120211], [132.495422, 33.122095], [132.499178, 33.120377], [132.499799, 33.127238], [132.497558, 33.131921], [132.500185, 33.137225], [132.493268, 33.137959], [132.486753, 33.136792], [132.482161, 33.138414], [132.473498, 33.135678], [132.471355, 33.139478], [132.467269, 33.141148], [132.463388, 33.138314], [132.453607, 33.142514], [132.455242, 33.135022], [132.451887, 33.131755], [132.44207, 33.137901], [132.444138, 33.146741], [132.442992, 33.148641], [132.42526, 33.155284], [132.426354, 33.158446], [132.433996, 33.158399], [132.433367, 33.164535], [132.43653, 33.169661], [132.442149, 33.167945], [132.450273, 33.171825], [132.456022, 33.171311], [132.45678, 33.168391], [132.464109, 33.170371], [132.458193, 33.17569], [132.457639, 33.179046], [132.447098, 33.184665], [132.447922, 33.191895], [132.439122, 33.187972], [132.438721, 33.193306], [132.431133, 33.203116], [132.42014, 33.208446], [132.414638, 33.204018], [132.403598, 33.205374], [132.404845, 33.199832], [132.410224, 33.195749], [132.417784, 33.197278], [132.41515, 33.190408], [132.40732, 33.189456], [132.399995, 33.184896], [132.39562, 33.187181], [132.398711, 33.195024], [132.394114, 33.202319], [132.395235, 33.206293], [132.411702, 33.206519], [132.422692, 33.210973], [132.43651, 33.205847], [132.451106, 33.202377], [132.455301, 33.209376], [132.459574, 33.20787], [132.454584, 33.203685], [132.457295, 33.196883], [132.458228, 33.184352], [132.465696, 33.177477], [132.470196, 33.176418], [132.479427, 33.182614], [132.483502, 33.180875], [132.477158, 33.1698], [132.486746, 33.164434], [132.496736, 33.171287], [132.495147, 33.173822], [132.498845, 33.180245], [132.50451, 33.175201], [132.501292, 33.170127], [132.514897, 33.172455], [132.509763, 33.175982], [132.510631, 33.185537], [132.506777, 33.19456], [132.500258, 33.190546], [132.490356, 33.195084], [132.505514, 33.196647], [132.50358, 33.202716], [132.509002, 33.206781], [132.511894, 33.213251], [132.522202, 33.214536], [132.527228, 33.213915], [132.533853, 33.217427], [132.541149, 33.216452], [132.538741, 33.222636], [132.542001, 33.226952], [132.547127, 33.222711], [132.554464, 33.222238], [132.551107, 33.227338], [132.550033, 33.233909], [132.545671, 33.233111], [132.53833, 33.23659], [132.530673, 33.245653], [132.522996, 33.245106], [132.520005, 33.249814], [132.523328, 33.252922], [132.536858, 33.255996], [132.540948, 33.258845], [132.542861, 33.269207], [132.534721, 33.265023], [132.5192, 33.26168], [132.515408, 33.260049], [132.506667, 33.259655], [132.503324, 33.262507], [132.503768, 33.268033], [132.500948, 33.270138], [132.493736, 33.271082], [132.488904, 33.269347], [132.487003, 33.274049], [132.482918, 33.274868], [132.475739, 33.269842], [132.484013, 33.266283], [132.474694, 33.260773], [132.475127, 33.256599], [132.469694, 33.257201], [132.475206, 33.268148], [132.472813, 33.272177], [132.477469, 33.27524], [132.479589, 33.279973], [132.483801, 33.2822], [132.481722, 33.286186], [132.483076, 33.289629], [132.489405, 33.29459], [132.505444, 33.300989], [132.508385, 33.306079], [132.512344, 33.304371], [132.524157, 33.304188], [132.528156, 33.306584], [132.526513, 33.312779], [132.512106, 33.318896], [132.504636, 33.316658], [132.498241, 33.311828], [132.498245, 33.311915], [132.498246, 33.311931], [132.495754, 33.322023], [132.490816, 33.325186], [132.486731, 33.321046], [132.476149, 33.318138], [132.467077, 33.318676], [132.462532, 33.310621], [132.451977, 33.309011], [132.440526, 33.311259], [132.429718, 33.319216], [132.424879, 33.313433], [132.423112, 33.304226], [132.416691, 33.303671], [132.41127, 33.307219], [132.406216, 33.306647], [132.40059, 33.309251], [132.398958, 33.316516], [132.391419, 33.319513], [132.38784, 33.317387], [132.382481, 33.321186], [132.370588, 33.318617], [132.36954, 33.322683], [132.371612, 33.328577], [132.374598, 33.329567], [132.376429, 33.337145], [132.3921, 33.339733], [132.392392, 33.343523], [132.400646, 33.347271], [132.411691, 33.346465], [132.40883, 33.352179], [132.418826, 33.353999], [132.420404, 33.356642], [132.415931, 33.361898], [132.410682, 33.364521], [132.411988, 33.372705], [132.419377, 33.383052], [132.411085, 33.382602], [132.409795, 33.378952], [132.390089, 33.365201], [132.389067, 33.371929], [132.382167, 33.383601], [132.378841, 33.384805], [132.379409, 33.38781], [132.386168, 33.392437], [132.389489, 33.392353], [132.396529, 33.397144], [132.396305, 33.399643], [132.389552, 33.404431], [132.393838, 33.407092], [132.393946, 33.41323], [132.38626, 33.419817], [132.395488, 33.429379], [132.400223, 33.425694], [132.406685, 33.425508], [132.405444, 33.433188], [132.416205, 33.44291], [132.407386, 33.444404], [132.39717, 33.44072], [132.388646, 33.442313], [132.408056, 33.446497], [132.408796, 33.450585], [132.414706, 33.452818], [132.417626, 33.45588], [132.417048, 33.461775], [132.408202, 33.457684], [132.402308, 33.459518], [132.394304, 33.457858], [132.387685, 33.459394], [132.390368, 33.468336], [132.400006, 33.465625], [132.401995, 33.471082], [132.390349, 33.476977], [132.387938, 33.474358], [132.38283, 33.474397], [132.377589, 33.461816], [132.372919, 33.463067], [132.374247, 33.467175], [132.371973, 33.469795], [132.370665, 33.473799], [132.364043, 33.479947], [132.352649, 33.483943], [132.351458, 33.48831], [132.347297, 33.487548], [132.345854, 33.48356], [132.353153, 33.473756], [132.349715, 33.47268], [132.337417, 33.475304], [132.333884, 33.472469], [132.327617, 33.473889], [132.323816, 33.472278], [132.323325, 33.465675], [132.317356, 33.456953], [132.31155, 33.462216], [132.306949, 33.469322], [132.306717, 33.472998], [132.299753, 33.474684], [132.296826, 33.472154], [132.294755, 33.464642], [132.291493, 33.465242], [132.286336, 33.462034], [132.28635, 33.456926], [132.282145, 33.453955], [132.280557, 33.447107], [132.269215, 33.446367], [132.264862, 33.44275], [132.257079, 33.441925], [132.248064, 33.436111], [132.245596, 33.432365], [132.239247, 33.428785], [132.238446, 33.426402], [132.224232, 33.425483], [132.214229, 33.422419], [132.202893, 33.414877], [132.189839, 33.41379], [132.182539, 33.41211], [132.175622, 33.406606], [132.166135, 33.397064], [132.156935, 33.392817], [132.153284, 33.389194], [132.152171, 33.375852], [132.144836, 33.37566], [132.133871, 33.369853], [132.129147, 33.363586], [132.124046, 33.365728], [132.102253, 33.362531], [132.101618, 33.369884], [132.103886, 33.373402], [132.114262, 33.372634], [132.112025, 33.379343], [132.117411, 33.381604], [132.120755, 33.388275], [132.118676, 33.390793], [132.093907, 33.38739], [132.083537, 33.380294], [132.077502, 33.38035], [132.072845, 33.374653], [132.066559, 33.375968], [132.063653, 33.371725], [132.058014, 33.368365], [132.053867, 33.368177], [132.048235, 33.362895], [132.05139, 33.360425], [132.039842, 33.352202], [132.029118, 33.347425], [132.025216, 33.343935], [132.020591, 33.344892], [132.027991, 33.350788], [132.031821, 33.358351], [132.037122, 33.361235], [132.039155, 33.366529], [132.044918, 33.367946], [132.052793, 33.374997], [132.079382, 33.388558], [132.078706, 33.390872], [132.084433, 33.398129], [132.096621, 33.404292], [132.102106, 33.405232], [132.107923, 33.408505], [132.115436, 33.417314], [132.124063, 33.42022], [132.12793, 33.416385], [132.127616, 33.406514], [132.134267, 33.404933], [132.136863, 33.407546], [132.137053, 33.419398], [132.141325, 33.419539], [132.147603, 33.416016], [132.149046, 33.410866], [132.153488, 33.407187], [132.160135, 33.411211], [132.16521, 33.411139], [132.169656, 33.418722], [132.164643, 33.423893], [132.156719, 33.428876], [132.148095, 33.432444], [132.156293, 33.437738], [132.164132, 33.430315], [132.169609, 33.427028], [132.176791, 33.428599], [132.176388, 33.435254], [132.172014, 33.44428], [132.173908, 33.446819], [132.180576, 33.448907], [132.194065, 33.442273], [132.197885, 33.44514], [132.194405, 33.450982], [132.199594, 33.456091], [132.210457, 33.445866], [132.216197, 33.444987], [132.217939, 33.447547], [132.224614, 33.444508], [132.226049, 33.449718], [132.223978, 33.451737], [132.225901, 33.458991], [132.233203, 33.461702], [132.240736, 33.461671], [132.240191, 33.464887], [132.247083, 33.465112], [132.246541, 33.456467], [132.250822, 33.457435], [132.254014, 33.451547], [132.259181, 33.450022], [132.265127, 33.457075], [132.265697, 33.467608], [132.258731, 33.472614], [132.264306, 33.474255], [132.268002, 33.473138], [132.272436, 33.477376], [132.275852, 33.473197], [132.289248, 33.48135], [132.296154, 33.487491], [132.307137, 33.48727], [132.308096, 33.492445], [132.318971, 33.493423], [132.322382, 33.498784], [132.334255, 33.504011], [132.339746, 33.502559], [132.342429, 33.50718], [132.353304, 33.510373], [132.357478, 33.515945], [132.36184, 33.515881], [132.370853, 33.52157], [132.376835, 33.523238], [132.378244, 33.52615], [132.390953, 33.529221], [132.390385, 33.531885], [132.395322, 33.536165], [132.407905, 33.541576], [132.412456, 33.54447], [132.418266, 33.544702], [132.425334, 33.551612], [132.426844, 33.554695], [132.43369, 33.559631], [132.433542, 33.568546], [132.442214, 33.573512], [132.448527, 33.583054], [132.455971, 33.588483], [132.456957, 33.595074], [132.462765, 33.600069], [132.474648, 33.606864], [132.475019, 33.611337], [132.480006, 33.61703], [132.483889, 33.616017], [132.4901, 33.61752], [132.491813, 33.620043], [132.508005, 33.630192], [132.510768, 33.627104], [132.515703, 33.629004], [132.531258, 33.637656], [132.57372, 33.65088], [132.585955, 33.653579], [132.591402, 33.657685], [132.606658, 33.666365], [132.611519, 33.672286], [132.618523, 33.677492], [132.627119, 33.679592], [132.63812, 33.689682], [132.64766, 33.692633], [132.659362, 33.703523], [132.663213, 33.713806], [132.670093, 33.725349], [132.674348, 33.730339], [132.679926, 33.745776], [132.681532, 33.745483], [132.692864, 33.75229], [132.700004, 33.760991], [132.700248, 33.767132], [132.698465, 33.776373], [132.6945, 33.786085], [132.689972, 33.788391], [132.6882, 33.793301], [132.692413, 33.794723], [132.689095, 33.803363], [132.685776, 33.804995], [132.689653, 33.809155], [132.692967, 33.816884], [132.689039, 33.817952], [132.692892, 33.824199], [132.692093, 33.829776], [132.687329, 33.834118], [132.694739, 33.839727], [132.700789, 33.838806], [132.699912, 33.846082], [132.69549, 33.848356], [132.696158, 33.852005], [132.705763, 33.852525], [132.7104, 33.854085], [132.712531, 33.858806], [132.709869, 33.861733], [132.710821, 33.865602], [132.707548, 33.874466], [132.699951, 33.876706], [132.700586, 33.885949], [132.704764, 33.889091], [132.709545, 33.899925], [132.710724, 33.906683], [132.731992, 33.902844], [132.74724, 33.905678], [132.755231, 33.911318], [132.757708, 33.917676], [132.756681, 33.923857], [132.761192, 33.930115], [132.762146, 33.936699], [132.76834, 33.948328], [132.769333, 33.957579], [132.771627, 33.964755], [132.769753, 33.976177], [132.770937, 33.98244], [132.774014, 33.986525], [132.774314, 33.992315], [132.770628, 33.996601], [132.777192, 34.003635], [132.786054, 34.009005], [132.795888, 34.009228], [132.800675, 34.010476], [132.808485, 34.018619], [132.815674, 34.021158], [132.818441, 34.025014], [132.824295, 34.026705], [132.830523, 34.033551], [132.837394, 34.033527], [132.840289, 34.040119], [132.849981, 34.046135], [132.855423, 34.046015], [132.857401, 34.054698], [132.865086, 34.059217], [132.868688, 34.056484], [132.885772, 34.058616], [132.898843, 34.066656], [132.909014, 34.064216], [132.916366, 34.063564], [132.922192, 34.074567], [132.922702, 34.082914], [132.920303, 34.087124], [132.93024, 34.088366], [132.931442, 34.094292], [132.926243, 34.109416], [132.920317, 34.111889], [132.91628, 34.111026], [132.903118, 34.113255], [132.899263, 34.109876], [132.894651, 34.118173], [132.900142, 34.121184], [132.909767, 34.119037], [132.916177, 34.120591], [132.919251, 34.116666], [132.923694, 34.116046], [132.928292, 34.123344], [132.934755, 34.125002], [132.936923, 34.128083], [132.939069, 34.137738], [132.946366, 34.137921], [132.948138, 34.130332], [132.953288, 34.126875], [132.953127, 34.12387], [132.96535, 34.118782], [132.969206, 34.109582], [132.973037, 34.115048], [132.977359, 34.116385], [132.981516, 34.107679], [132.984694, 34.09761], [132.991845, 34.090968], [132.995385, 34.081622], [133.006787, 34.065907], [133.012719, 34.067244], [133.022803, 34.062589], [133.025294, 34.049961], [133.031511, 34.052956], [133.034268, 34.049045], [133.029951, 34.046111], [133.037291, 34.038087], [133.038082, 34.032482], [133.043053, 34.025371], [133.051956, 34.006957], [133.059986, 33.996476], [133.058956, 33.994784], [133.066591, 33.982666], [133.061107, 33.979069], [133.064701, 33.973563], [133.067921, 33.975335], [133.073255, 33.968029], [133.084051, 33.957985], [133.088923, 33.950387], [133.093915, 33.948367], [133.101186, 33.94068], [133.10776, 33.947763], [133.119318, 33.94108], [133.115802, 33.936848], [133.116643, 33.934168], [133.112342, 33.930519], [133.116835, 33.925807], [133.120057, 33.936751], [133.1275, 33.941302], [133.125904, 33.93175], [133.133468, 33.926967], [133.139985, 33.927864], [133.167629, 33.938068], [133.171409, 33.931981], [133.176821, 33.930749], [133.171977, 33.939771], [133.180419, 33.941821], [133.178246, 33.94759], [133.185914, 33.949455], [133.188656, 33.944282], [133.195759, 33.946009], [133.197968, 33.935903], [133.200647, 33.937445], [133.199339, 33.946216], [133.234163, 33.952054], [133.23543, 33.956116], [133.243043, 33.956874], [133.24909, 33.960668], [133.249827, 33.964302], [133.248503, 33.974934], [133.255709, 33.980721], [133.263829, 33.96989], [133.272645, 33.977843], [133.267026, 33.980245], [133.270296, 33.983634], [133.276853, 33.980718], [133.276821, 33.985165], [133.28012, 33.986426], [133.285745, 33.980265], [133.289821, 33.982969], [133.29525, 33.9813], [133.309945, 33.98407], [133.317257, 33.988971], [133.320504, 33.994231], [133.325881, 33.993831], [133.333153, 33.990675], [133.332995, 33.983739], [133.337353, 33.983776], [133.33691, 33.992064], [133.346085, 33.990464], [133.350971, 33.983659], [133.356362, 33.979185], [133.371026, 33.980753], [133.378424, 33.983631], [133.388805, 33.985832], [133.393278, 33.990446], [133.401662, 33.988486], [133.410609, 33.990569], [133.414359, 33.985911], [133.429976, 33.9868], [133.442422, 33.985183], [133.451513, 33.981347], [133.453461, 33.984137], [133.466575, 33.974573], [133.485563, 33.972419], [133.490517, 33.969255], [133.502373, 33.972828], [133.516067, 33.975478], [133.527478, 33.982076], [133.532636, 33.986966], [133.537913, 33.983319], [133.539848, 33.98624], [133.546882, 33.989025], [133.551952, 33.995579], [133.541122, 34.003337], [133.551654, 34.013014], [133.56021, 34.011858], [133.565545, 34.013172], [133.571687, 34.019767], [133.579918, 34.023926], [133.576346, 34.027578], [133.57853, 34.031328], [133.583629, 34.029619], [133.586193, 34.034501], [133.590644, 34.033502], [133.5954, 34.037886], [133.59817, 34.043403], [133.604171, 34.035903], [133.61331, 34.032321], [133.621137, 34.034598], [133.626878, 34.037767], [133.63294, 34.031165], [133.63946, 34.025932], [133.644437, 34.027736], [133.649246, 34.027141], [133.655991, 34.029076], [133.665428, 34.027108], [133.670372, 34.024091], [133.671892, 34.020746], [133.678232, 34.018188], [133.677461, 34.015794], [133.685737, 34.003656], [133.680686, 33.996296], [133.676477, 33.992491], [133.675092, 33.983682], [133.680629, 33.984174], [133.681381, 33.978789], [133.684131, 33.976391], [133.680322, 33.970225], [133.692364, 33.962455], [133.687134, 33.955331], [133.692626, 33.947839], [133.692566, 33.943991], [133.68644, 33.938976], [133.681759, 33.938082], [133.676484, 33.932945], [133.675684, 33.92638], [133.68563, 33.925716], [133.688507, 33.92163], [133.687947, 33.916256], [133.682143, 33.91044], [133.677578, 33.909551], [133.674514, 33.903186], [133.677466, 33.898794], [133.677946, 33.893084], [133.661918, 33.885784], [133.660748, 33.881809], [133.644069, 33.883026], [133.635252, 33.880199], [133.629543, 33.872737], [133.627308, 33.872031], [133.617364, 33.8766], [133.611092, 33.880751], [133.596227, 33.879821], [133.592888, 33.875362], [133.585494, 33.870978], [133.583123, 33.867654], [133.578138, 33.868092], [133.565699, 33.875029], [133.562183, 33.875335], [133.557114, 33.882156], [133.549906, 33.88199], [133.543926, 33.878824], [133.535918, 33.871482], [133.53624, 33.866095], [133.526391, 33.862111], [133.526354, 33.853661], [133.522518, 33.852235], [133.518105, 33.847335], [133.509689, 33.848259], [133.506532, 33.839903], [133.507931, 33.835872], [133.499503, 33.829242], [133.491873, 33.832377], [133.487288, 33.830162], [133.483214, 33.832991], [133.473465, 33.8337], [133.470499, 33.83679], [133.464297, 33.834518], [133.455013, 33.836927], [133.448061, 33.834053], [133.432486, 33.834936], [133.424894, 33.839263], [133.412053, 33.83914], [133.405958, 33.836259], [133.400833, 33.836237], [133.391673, 33.824434], [133.375707, 33.828676], [133.369017, 33.829333], [133.361854, 33.833167], [133.3558, 33.834358], [133.345614, 33.824819], [133.33331, 33.821295], [133.326331, 33.814764], [133.319153, 33.816057], [133.310275, 33.81588], [133.302292, 33.823129], [133.293769, 33.828696], [133.28425, 33.831792], [133.277357, 33.830924], [133.269213, 33.825618], [133.267544, 33.820831], [133.260772, 33.811084], [133.262455, 33.804825], [133.25718, 33.793863], [133.249881, 33.788329], [133.245937, 33.788947], [133.236921, 33.782725], [133.231609, 33.783962], [133.219844, 33.780431], [133.215538, 33.785612], [133.203704, 33.794735], [133.192744, 33.793782], [133.19047, 33.783626], [133.187258, 33.777371], [133.182372, 33.771478], [133.183743, 33.768142], [133.179973, 33.764055], [133.170921, 33.757543], [133.164646, 33.756361], [133.157837, 33.750295], [133.159297, 33.733937], [133.161196, 33.731692], [133.151713, 33.724696], [133.145837, 33.721939], [133.145826, 33.719521], [133.139817, 33.715691], [133.144581, 33.704652], [133.134172, 33.699852], [133.125322, 33.698326], [133.119227, 33.688602], [133.121477, 33.686284], [133.119484, 33.679461], [133.1215, 33.674037], [133.118426, 33.667821], [133.116533, 33.660146], [133.106662, 33.656651], [133.097409, 33.658243], [133.090756, 33.657813], [133.08478, 33.654922], [133.077509, 33.653553], [133.07502, 33.650619], [133.072358, 33.638387], [133.06723, 33.622552], [133.073203, 33.61436], [133.078982, 33.611669], [133.07962, 33.6087], [133.069951, 33.601142], [133.057416, 33.59636], [133.055198, 33.589951], [133.049214, 33.584962], [133.046757, 33.575217], [133.053997, 33.570424], [133.055476, 33.567448], [133.062309, 33.56145], [133.060252, 33.55409], [133.062619, 33.545368], [133.059163, 33.538713], [133.046289, 33.530287], [133.037942, 33.526406], [133.038253, 33.519322], [133.034255, 33.511834], [133.026163, 33.505189], [133.0207, 33.496108], [133.013401, 33.490582], [133.015382, 33.480936], [132.99903, 33.475754], [132.992728, 33.475829], [132.986873, 33.472906], [132.978838, 33.472918], [132.972674, 33.469786], [132.959638, 33.466312], [132.951666, 33.466578], [132.944224, 33.471949], [132.938521, 33.472079], [132.929001, 33.468575], [132.915213, 33.467654], [132.900674, 33.470352], [132.893873, 33.472476], [132.884129, 33.473018], [132.881056, 33.470953], [132.864529, 33.472339], [132.862418, 33.47453], [132.847534, 33.47919], [132.840419, 33.474726], [132.827157, 33.472406], [132.822973, 33.472944], [132.818932, 33.466552], [132.814823, 33.464335], [132.811056, 33.466062], [132.80699, 33.460778], [132.808131, 33.453855], [132.821946, 33.448621], [132.826562, 33.445604], [132.827773, 33.438324], [132.824517, 33.434673], [132.823385, 33.429843], [132.824915, 33.422934], [132.834013, 33.420152], [132.833299, 33.411951], [132.831619, 33.408852], [132.835435, 33.400644], [132.841054, 33.397895], [132.854509, 33.398302], [132.855556, 33.390056], [132.853047, 33.388217], [132.856503, 33.382586], [132.856585, 33.378114], [132.86002, 33.368455], [132.866743, 33.368097], [132.874133, 33.363961], [132.883797, 33.362349], [132.890134, 33.357509], [132.894734, 33.349526], [132.900436, 33.343737], [132.902885, 33.338041], [132.903344, 33.33014], [132.898984, 33.32445], [132.900667, 33.320622], [132.898546, 33.314703], [132.884949, 33.307103], [132.872462, 33.304926], [132.857703, 33.293186], [132.849717, 33.289642], [132.839551, 33.287862], [132.824397, 33.282231], [132.817563, 33.283831], [132.814535, 33.280659], [132.809941, 33.280168], [132.80051, 33.275497], [132.793117, 33.274841], [132.787142, 33.267039], [132.787344, 33.262582], [132.777732, 33.251525], [132.777606, 33.24614], [132.771922, 33.241063], [132.774909, 33.233994], [132.774598, 33.228354], [132.771143, 33.226308], [132.770859, 33.221042], [132.773587, 33.217969], [132.773161, 33.212437], [132.775943, 33.208409], [132.767957, 33.203284], [132.75944, 33.201704], [132.74848, 33.203487], [132.740643, 33.201284], [132.738416, 33.195844], [132.741911, 33.189743], [132.737216, 33.186331], [132.737837, 33.182158], [132.731589, 33.176403], [132.731309, 33.17395], [132.725813, 33.168276], [132.719551, 33.166787], [132.717178, 33.159877], [132.710561, 33.153157], [132.698602, 33.146412], [132.695853, 33.142612], [132.695835, 33.137587], [132.686888, 33.134848], [132.680358, 33.144198], [132.67356, 33.149982], [132.66238, 33.154419], [132.659665, 33.160008], [132.646679, 33.171864], [132.638733, 33.17361], [132.63442, 33.178792], [132.637086, 33.184762], [132.635659, 33.1864], [132.626004, 33.183864], [132.619444, 33.180879], [132.619485, 33.173466], [132.614865, 33.169289], [132.619334, 33.162684], [132.624789, 33.15935], [132.627574, 33.153446], [132.632295, 33.149244], [132.628216, 33.134757], [132.629816, 33.132294], [132.637476, 33.132392], [132.638281, 33.12791], [132.644403, 33.122187], [132.646636, 33.115566], [132.653891, 33.110411], [132.663523, 33.108995], [132.66595, 33.099478], [132.669311, 33.092392], [132.670051, 33.085507], [132.666677, 33.08048], [132.669502, 33.071183], [132.666638, 33.066226], [132.662331, 33.063468], [132.657674, 33.057057], [132.661069, 33.055339], [132.666191, 33.048712], [132.671221, 33.045909], [132.677959, 33.037995]], [[132.318695, 33.106992], [132.327633, 33.109071], [132.33557, 33.109113], [132.336934, 33.10638], [132.322044, 33.102127], [132.318695, 33.106992]], [[132.416442, 33.105305], [132.415008, 33.102346], [132.407753, 33.105994], [132.414468, 33.110932], [132.416442, 33.105305]], [[132.291504, 33.156068], [132.29705, 33.160053], [132.304821, 33.159581], [132.305449, 33.152855], [132.303338, 33.149761], [132.298701, 33.154135], [132.291504, 33.156068]], [[132.28977, 33.175942], [132.294028, 33.17562], [132.293073, 33.169584], [132.289226, 33.16628], [132.285721, 33.166792], [132.282363, 33.169295], [132.273983, 33.169819], [132.26613, 33.168316], [132.271708, 33.177238], [132.277021, 33.171268], [132.28977, 33.175942]], [[132.368216, 33.204418], [132.360925, 33.202178], [132.362719, 33.198944], [132.360669, 33.193922], [132.365244, 33.18948], [132.357657, 33.189146], [132.357545, 33.199729], [132.354053, 33.203987], [132.365251, 33.207639], [132.365107, 33.211123], [132.375584, 33.216394], [132.377771, 33.218825], [132.382728, 33.211641], [132.380352, 33.208232], [132.375448, 33.208258], [132.368216, 33.204418]], [[132.520172, 33.217904], [132.511162, 33.227472], [132.507849, 33.228562], [132.518568, 33.240912], [132.526238, 33.238485], [132.534385, 33.227697], [132.533894, 33.224477], [132.522459, 33.221411], [132.520172, 33.217904]], [[132.353392, 33.374305], [132.3472, 33.37424], [132.343905, 33.3778], [132.357723, 33.378379], [132.363988, 33.376218], [132.363195, 33.373193], [132.357212, 33.372299], [132.353392, 33.374305]], [[132.34133, 33.381468], [132.335511, 33.391293], [132.338687, 33.395565], [132.344994, 33.39599], [132.343911, 33.390495], [132.340392, 33.386639], [132.34133, 33.381468]], [[132.476581, 33.737012], [132.484694, 33.738711], [132.487457, 33.736679], [132.476973, 33.733313], [132.476581, 33.737012]], [[132.525813, 33.851829], [132.515969, 33.851883], [132.518159, 33.854314], [132.523206, 33.852458], [132.529633, 33.855675], [132.534432, 33.851276], [132.532344, 33.844537], [132.525813, 33.851829]], [[132.554462, 33.936332], [132.552944, 33.93313], [132.543087, 33.93239], [132.535716, 33.926853], [132.526815, 33.926262], [132.521101, 33.929353], [132.518452, 33.932885], [132.523304, 33.936756], [132.525922, 33.934141], [132.532622, 33.934687], [132.53808, 33.933351], [132.541334, 33.935425], [132.554462, 33.936332]], [[132.507659, 33.98736], [132.512842, 33.990299], [132.516957, 33.988607], [132.522948, 33.989436], [132.520147, 33.982701], [132.512999, 33.981433], [132.513234, 33.975593], [132.505511, 33.974073], [132.505264, 33.970621], [132.496537, 33.968381], [132.493294, 33.964947], [132.493071, 33.968731], [132.497807, 33.969961], [132.500618, 33.975003], [132.496064, 33.979325], [132.503641, 33.988222], [132.507659, 33.98736]], [[132.553559, 33.993564], [132.559343, 33.9955], [132.564483, 33.992018], [132.55673, 33.985456], [132.555639, 33.978547], [132.549425, 33.973317], [132.549953, 33.970446], [132.544115, 33.968687], [132.541217, 33.960982], [132.536081, 33.966186], [132.54064, 33.97395], [132.537168, 33.983243], [132.534162, 33.986588], [132.544655, 33.991873], [132.55079, 33.989935], [132.553559, 33.993564]], [[132.640829, 34.003125], [132.640639, 33.99328], [132.644792, 33.981647], [132.642444, 33.978887], [132.631364, 33.977033], [132.629989, 33.973609], [132.63443, 33.970692], [132.640758, 33.970462], [132.642461, 33.96293], [132.64166, 33.956573], [132.636072, 33.956768], [132.632976, 33.953826], [132.624493, 33.957703], [132.616882, 33.957632], [132.604933, 33.950665], [132.603742, 33.943923], [132.600663, 33.942748], [132.590378, 33.952279], [132.592302, 33.955538], [132.586486, 33.962485], [132.577941, 33.968416], [132.579248, 33.970137], [132.587273, 33.969801], [132.596257, 33.978224], [132.60474, 33.984011], [132.610243, 33.993326], [132.615228, 33.991968], [132.62257, 33.993211], [132.625913, 33.996005], [132.630556, 34.000452], [132.632954, 34.005881], [132.645157, 34.010337], [132.644051, 34.01784], [132.651932, 34.01328], [132.640829, 34.003125]], [[132.646122, 33.890771], [132.643064, 33.886258], [132.637866, 33.891667], [132.637971, 33.895499], [132.646122, 33.890771]], [[132.69057, 33.913275], [132.693609, 33.905533], [132.683356, 33.902357], [132.679301, 33.903324], [132.674037, 33.900922], [132.672565, 33.89282], [132.68195, 33.879829], [132.688465, 33.877534], [132.682613, 33.874041], [132.679147, 33.875572], [132.670091, 33.874289], [132.6686, 33.870327], [132.66246, 33.873972], [132.666817, 33.888215], [132.665595, 33.890827], [132.668877, 33.89627], [132.666005, 33.900924], [132.661455, 33.903273], [132.659852, 33.91031], [132.673765, 33.909239], [132.678744, 33.910486], [132.679917, 33.917409], [132.679498, 33.921063], [132.68778, 33.921426], [132.691178, 33.926525], [132.695503, 33.925276], [132.695123, 33.917577], [132.69057, 33.913275]], [[132.671791, 33.96595], [132.673128, 33.958008], [132.663857, 33.956018], [132.661826, 33.952234], [132.656677, 33.950826], [132.649489, 33.957562], [132.648577, 33.960977], [132.652279, 33.967438], [132.658402, 33.969382], [132.661787, 33.973827], [132.672497, 33.970086], [132.671791, 33.96595]], [[132.697744, 33.965721], [132.686296, 33.965489], [132.682819, 33.971914], [132.692987, 33.973907], [132.697744, 33.965721]], [[132.995874, 34.118472], [132.994897, 34.113899], [132.989532, 34.116985], [132.992942, 34.122542], [132.995874, 34.118472]], [[132.875506, 34.194473], [132.882211, 34.191085], [132.890446, 34.19257], [132.894025, 34.190508], [132.891986, 34.183808], [132.882856, 34.183501], [132.88089, 34.174545], [132.875489, 34.178781], [132.870039, 34.186122], [132.863875, 34.19025], [132.863455, 34.194508], [132.875506, 34.194473]], [[132.907144, 34.188965], [132.898488, 34.18547], [132.900083, 34.19052], [132.904949, 34.194289], [132.907144, 34.188965]], [[132.929777, 34.182676], [132.921796, 34.18412], [132.920406, 34.188479], [132.919186, 34.198702], [132.924572, 34.201841], [132.928861, 34.19535], [132.930642, 34.188935], [132.934264, 34.184955], [132.929777, 34.182676]], [[132.955099, 34.24747], [132.957472, 34.244193], [132.948871, 34.241504], [132.950225, 34.248218], [132.955099, 34.24747]], [[133.360652, 33.989901], [133.358456, 33.9946], [133.350553, 33.996442], [133.351374, 34.000544], [133.355221, 34.005478], [133.360385, 34.003713], [133.369873, 34.005053], [133.368873, 33.994054], [133.360652, 33.989901]], [[133.187882, 34.102759], [133.182585, 34.103431], [133.181157, 34.107496], [133.187347, 34.107973], [133.187882, 34.102759]], [[133.03024, 34.193359], [133.036981, 34.195324], [133.054577, 34.191763], [133.068552, 34.191733], [133.075721, 34.186216], [133.07614, 34.176953], [133.078653, 34.172573], [133.083292, 34.169423], [133.090487, 34.170225], [133.092656, 34.173537], [133.098979, 34.174983], [133.107541, 34.174594], [133.110066, 34.172559], [133.10791, 34.165902], [133.102268, 34.162681], [133.101468, 34.159096], [133.086805, 34.15726], [133.080539, 34.150429], [133.079045, 34.14525], [133.073642, 34.142082], [133.068328, 34.136788], [133.061048, 34.134452], [133.053716, 34.123006], [133.045582, 34.120455], [133.042747, 34.113171], [133.03745, 34.112959], [133.035102, 34.107718], [133.029547, 34.11013], [133.02416, 34.108735], [133.012728, 34.11082], [133.015394, 34.116951], [133.021574, 34.120559], [133.022433, 34.126639], [133.01765, 34.126953], [133.018738, 34.139202], [133.015151, 34.141807], [133.024239, 34.149169], [133.026392, 34.15785], [133.03111, 34.156399], [133.03348, 34.151035], [133.039629, 34.153355], [133.040052, 34.159737], [133.036446, 34.162895], [133.035771, 34.16699], [133.033743, 34.171867], [133.026346, 34.172562], [133.020807, 34.178192], [133.021864, 34.183039], [133.027574, 34.185288], [133.03024, 34.193359]], [[133.006469, 34.146902], [132.999932, 34.148605], [132.991953, 34.149532], [132.990013, 34.154212], [132.997204, 34.158944], [133.003624, 34.153965], [133.010942, 34.152863], [133.006469, 34.146902]], [[133.310965, 34.178381], [133.308107, 34.179136], [133.31693, 34.18104], [133.321254, 34.178954], [133.327995, 34.179096], [133.328191, 34.173555], [133.317364, 34.171501], [133.310965, 34.178381]], [[133.083152, 34.183317], [133.083989, 34.188443], [133.088675, 34.192986], [133.094289, 34.191887], [133.093434, 34.18777], [133.088744, 34.182999], [133.083152, 34.183317]], [[133.265663, 34.186073], [133.265843, 34.19121], [133.266034, 34.197226], [133.269713, 34.19738], [133.276616, 34.187555], [133.276453, 34.184274], [133.268317, 34.182499], [133.265663, 34.186073]], [[133.105051, 34.194561], [133.101205, 34.202704], [133.095318, 34.204411], [133.083156, 34.193654], [133.077544, 34.195582], [133.075222, 34.201977], [133.070072, 34.208825], [133.059776, 34.206456], [133.054005, 34.212219], [133.057273, 34.215398], [133.065875, 34.216859], [133.066454, 34.220851], [133.062521, 34.222092], [133.059275, 34.226635], [133.061507, 34.232642], [133.068985, 34.235919], [133.073472, 34.231249], [133.078797, 34.230037], [133.087641, 34.233164], [133.093479, 34.238164], [133.101588, 34.235472], [133.105384, 34.239152], [133.110244, 34.236311], [133.106796, 34.231806], [133.108737, 34.222446], [133.113442, 34.218268], [133.11829, 34.216498], [133.12778, 34.216384], [133.131408, 34.212606], [133.124846, 34.207987], [133.119781, 34.206415], [133.125636, 34.199287], [133.123676, 34.194079], [133.113868, 34.194381], [133.111058, 34.191241], [133.105051, 34.194561]], [[133.251591, 34.229385], [133.259979, 34.233808], [133.260058, 34.229231], [133.251591, 34.229385]], [[133.167191, 34.234167], [133.16246, 34.233135], [133.157633, 34.234634], [133.152847, 34.233089], [133.150411, 34.239792], [133.153605, 34.243801], [133.16242, 34.246345], [133.168288, 34.245431], [133.17207, 34.241424], [133.167191, 34.234167]], [[133.189716, 34.25668], [133.19707, 34.254335], [133.196004, 34.245698], [133.191464, 34.244227], [133.189419, 34.237998], [133.191808, 34.234681], [133.186703, 34.229304], [133.180387, 34.226821], [133.177015, 34.230117], [133.182958, 34.232082], [133.182161, 34.241322], [133.184637, 34.243988], [133.184618, 34.250101], [133.189716, 34.25668]], [[132.967172, 34.259421], [132.964915, 34.264134], [132.970463, 34.270362], [132.978234, 34.271367], [132.984723, 34.269717], [132.986451, 34.274816], [132.98073, 34.286659], [132.986062, 34.291144], [132.995191, 34.289108], [132.999265, 34.290536], [133.006074, 34.297119], [133.011146, 34.299792], [133.029366, 34.292834], [133.035317, 34.28502], [133.036179, 34.276918], [133.041703, 34.269323], [133.044838, 34.262287], [133.048167, 34.259032], [133.057278, 34.258256], [133.053925, 34.253141], [133.054735, 34.247991], [133.051777, 34.239816], [133.053823, 34.232945], [133.052381, 34.227221], [133.058543, 34.220671], [133.050135, 34.214153], [133.045458, 34.214785], [133.041124, 34.211153], [133.032475, 34.208497], [133.020262, 34.211153], [133.007855, 34.210565], [133.000475, 34.209334], [132.996137, 34.206857], [132.99283, 34.201888], [132.982286, 34.200025], [132.96926, 34.19378], [132.958661, 34.192158], [132.951325, 34.197606], [132.946633, 34.209437], [132.953, 34.221077], [132.956827, 34.224077], [132.962867, 34.222727], [132.96485, 34.227101], [132.969389, 34.227964], [132.974512, 34.226215], [132.980353, 34.227005], [132.981946, 34.224197], [132.990577, 34.224981], [132.992337, 34.236915], [132.994361, 34.242829], [132.994559, 34.251166], [132.989065, 34.252614], [132.992542, 34.257271], [132.986796, 34.263387], [132.978171, 34.261117], [132.971548, 34.257985], [132.967172, 34.259421]], [[133.137725, 34.272097], [133.14318, 34.277945], [133.152497, 34.280716], [133.152455, 34.277613], [133.157981, 34.271604], [133.165567, 34.260625], [133.165569, 34.255277], [133.158978, 34.251886], [133.152455, 34.246036], [133.140231, 34.244292], [133.134069, 34.240885], [133.131566, 34.245163], [133.132812, 34.249349], [133.130813, 34.256444], [133.132474, 34.265099], [133.135982, 34.266481], [133.137725, 34.272097]], [[133.212185, 34.283978], [133.216733, 34.284171], [133.228603, 34.291353], [133.232508, 34.287866], [133.233475, 34.283775], [133.237455, 34.280738], [133.236831, 34.277126], [133.2309, 34.273504], [133.226958, 34.266596], [133.220511, 34.265768], [133.211358, 34.260439], [133.208535, 34.257469], [133.213999, 34.244005], [133.207618, 34.239302], [133.200557, 34.240056], [133.200055, 34.249169], [133.201925, 34.251208], [133.20415, 34.258128], [133.199674, 34.259632], [133.198838, 34.2688], [133.204029, 34.271256], [133.209931, 34.276389], [133.212185, 34.283978]], [[133.186088, 34.258511], [133.178432, 34.255813], [133.172794, 34.258034], [133.170087, 34.265547], [133.171559, 34.269982], [133.166799, 34.272978], [133.166667, 34.281852], [133.168318, 34.284887], [133.173291, 34.285227], [133.178413, 34.277229], [133.182025, 34.275984], [133.185901, 34.269204], [133.186088, 34.258511]]]}}]}