{"type":"FeatureCollection","name":"愛知県","features":[{"type":"Feature","properties":{"name":"愛知県"},"geometry":{"type":"MultiLineString","coordinates":[[[136.97287026,34.692936],[136.97287026,34.692936]],[[136.97210764,34.6952241],[136.97210764,34.6952241]],[[136.97227313,34.69512871],[136.97227313,34.69512871]],[[136.97008105,34.69748366],[136.97008105,34.69748366]],[[136.97427147,34.70031245],[136.97427147,34.70031245]],[[136.9483925,34.69952978],[136.9483925,34.69952978]],[[136.94900662,34.69969649],[136.94900662,34.69969649]],[[136.97813322,34.70123369],[136.97813322,34.70123369]],[[136.93688519,34.7031035],[136.93688519,34.7031035]],[[136.93919536,34.70353713],[136.93919536,34.70353713]],[[136.98766158,34.70461831],[136.98766158,34.70461831]],[[136.98756433,34.70481497],[136.98756433,34.70481497]],[[136.91882353,34.70778295],[136.91882353,34.70778295]],[[136.97141104,34.71111626],[136.97141104,34.71111626]],[[136.96967793,34.71853456],[136.96967793,34.71853456]],[[136.97035111,34.71918978],[136.97035111,34.71918978]],[[136.89149309,34.7198225],[136.89149309,34.7198225]],[[136.88447595,34.72411179],[136.88447595,34.72411179]],[[136.88426878,34.72431965],[136.88426878,34.72431965]],[[136.94277394,34.74760469],[136.96665432,34.73210848],[136.97013179,34.72486004],[136.96207283,34.72047047],[136.97265805,34.71744841],[136.96768689,34.70978889],[136.97781209,34.70175761],[136.97232078,34.69533424],[136.9426738,34.70074565],[136.93566056,34.70819647],[136.92984372,34.70307786],[136.85785453,34.73840628],[136.84026403,34.76612623],[136.85635275,34.79422986],[136.86653481,34.83916633],[136.85521852,34.86551722],[136.83721864,34.8758698],[136.83792986,34.88438641],[136.83041938,34.87186464],[136.82074503,34.88639903],[136.82689114,34.89307183],[136.82054467,34.90745511],[136.82889205,34.96137095],[136.82013338,34.96643656],[136.83867425,34.98005164],[136.82539131,34.99390561],[136.83773914,34.98670328],[136.85456453,35.00262811],[136.84383927,35.00473675],[136.84943822,35.01092375],[136.86967914,35.00818522],[136.85200569,35.01639956],[136.86909341,35.04165375],[136.88926328,35.04225347],[136.87921942,35.04739489],[136.88522514,35.07450641],[136.88958686,35.07034072],[136.89608302,35.07649028],[136.890047,35.0779262],[136.89647988,35.08380639],[136.89012377,35.08623736],[136.89201525,35.09251705],[136.86853674,35.08820675],[136.86260163,35.06979525],[136.855089,35.0775802],[136.85993178,35.06832175],[136.85547956,35.05658764],[136.84259683,35.05927822],[136.84725135,35.08304757],[136.84231112,35.0826768],[136.84075182,35.06627993],[136.84227814,35.08267433],[136.82728442,35.08287734],[136.81863606,35.06468925],[136.83334737,35.06409895],[136.83008258,35.05024984],[136.79688346,35.05153574],[136.80046261,35.02901259],[136.78069206,35.03356662],[136.79676667,35.02211969],[136.79680131,35.01240572],[136.76968501,35.02258195],[136.75340112,35.05301556],[136.75013917,35.08024805],[136.67180103,35.13747603],[136.67231739,35.18877739],[136.68336798,35.20229656],[136.67843353,35.24297153],[136.72573331,35.29561436],[136.77063372,35.36843239],[136.79445567,35.36833461],[136.80075372,35.36093353],[136.834039,35.35594464],[136.86493183,35.37260541],[136.92420058,35.38005117],[136.96171302,35.39977133],[136.96437261,35.42093903],[136.99133341,35.42462356],[136.97826472,35.40317605],[136.98896302,35.40116441],[137.00223652,35.38137395],[137.04695255,35.36613128],[137.04718494,35.336778],[137.06821772,35.33568192],[137.07297881,35.32645692],[137.06352211,35.31819692],[137.06676959,35.30897164],[137.0818407,35.30512084],[137.08131066,35.29219084],[137.09603345,35.29055417],[137.10233375,35.3016475],[137.13171445,35.29360989],[137.14560122,35.27982614],[137.16522678,35.28341475],[137.18650064,35.25307003],[137.20700956,35.25306141],[137.21225594,35.25994725],[137.22399733,35.25620086],[137.25719711,35.27241305],[137.26266377,35.28520195],[137.27508659,35.29049189],[137.30808105,35.29115569],[137.34462995,35.27371761],[137.34409908,35.25785789],[137.38318025,35.26020869],[137.387023,35.24088425],[137.40074438,35.24175508],[137.40841828,35.2348012],[137.417078,35.24032259],[137.42981436,35.22288123],[137.52067506,35.27347647],[137.51893533,35.28332731],[137.56152148,35.28315372],[137.56578703,35.2901565],[137.57075231,35.28272705],[137.55575978,35.27454595],[137.55789589,35.26523011],[137.54600558,35.25168067],[137.57872584,35.21943513],[137.57873689,35.19842823],[137.61485973,35.21046044],[137.64457891,35.20899128],[137.65398341,35.22677628],[137.68153713,35.23523489],[137.72164003,35.23085044],[137.72318302,35.22162572],[137.75956756,35.22210239],[137.76809669,35.21840517],[137.76609331,35.20999711],[137.77394966,35.20325075],[137.79532019,35.2040688],[137.8229638,35.2158802],[137.83811567,35.21246659],[137.82778625,35.21132436],[137.83106316,35.20530047],[137.82197261,35.20373214],[137.8163763,35.18799469],[137.80323361,35.18351861],[137.82547195,35.16820028],[137.82129083,35.15844028],[137.82912944,35.15226139],[137.81465083,35.15238305],[137.81494222,35.14057556],[137.80586167,35.13112444],[137.79284111,35.13476444],[137.80117917,35.10595528],[137.79264445,35.09536584],[137.77826834,35.09962305],[137.77553222,35.07761472],[137.7171375,35.03504472],[137.70102944,35.00348833],[137.70813167,34.99445695],[137.69983694,34.98443167],[137.70712139,34.97194723],[137.69463167,34.97025778],[137.67582111,34.94545972],[137.65813333,34.94299722],[137.64052584,34.90497333],[137.64125167,34.89308333],[137.61625278,34.87534083],[137.59745056,34.87244723],[137.58725167,34.84957583],[137.55158944,34.85186444],[137.54227361,34.84204916],[137.50267389,34.83349583],[137.5012575,34.82265778],[137.48701389,34.81174944],[137.49428167,34.80223278],[137.49294222,34.78686611],[137.4767175,34.77478556],[137.47410694,34.74994056],[137.49179,34.70245972],[137.48496389,34.67410511],[137.30822278,34.6395815],[137.18919472,34.60060731],[137.18669406,34.60871025],[137.18712916,34.60236934],[137.14291399,34.59002578],[137.09613869,34.5909462],[137.01763681,34.57835625],[137.06832089,34.66123013],[137.091381,34.65791625],[137.08507681,34.64717672],[137.10642964,34.64272336],[137.1025583,34.63280836],[137.11926414,34.63431047],[137.14081372,34.64557159],[137.12683022,34.65494569],[137.16272975,34.65494805],[137.20718377,34.67827136],[137.22522759,34.6764582],[137.23267361,34.68897813],[137.24347197,34.68886192],[137.23266925,34.69914439],[137.24548209,34.70938349],[137.26067799,34.69583482],[137.26690547,34.70861544],[137.25846547,34.71567395],[137.284827,34.73094677],[137.30092969,34.72807183],[137.30088399,34.69377697],[137.29046075,34.69372941],[137.28701689,34.67956025],[137.30731892,34.67975669],[137.31582878,34.68851283],[137.30830769,34.69148772],[137.3114555,34.69626578],[137.32297416,34.69437944],[137.32506444,34.70235538],[137.30848375,34.70210975],[137.30834297,34.72498478],[137.32810905,34.72744547],[137.33292348,34.71897975],[137.35175552,34.72746386],[137.32031423,34.73283444],[137.32057338,34.77023141],[137.33103956,34.78051195],[137.32560109,34.78552567],[137.30857141,34.77876992],[137.30332659,34.7929848],[137.31666667,34.79766361],[137.28870119,34.81292797],[137.29352733,34.80483341],[137.27674394,34.81009603],[137.28096222,34.80367011],[137.27306613,34.80157786],[137.26814409,34.80904739],[137.2668438,34.80358953],[137.25140178,34.80526489],[137.24674083,34.8141664],[137.24391163,34.80996777],[137.21607396,34.82318681],[137.22357205,34.81555297],[137.21445442,34.81588333],[137.21912944,34.81249697],[137.21374813,34.80310832],[137.19343926,34.80884862],[137.19357127,34.7982357],[137.18577442,34.79192097],[137.19061506,34.79284289],[137.18962659,34.77615044],[137.17506917,34.76481983],[137.16744881,34.7719778],[137.17373185,34.77031405],[137.17829211,34.77851103],[137.16833551,34.78763167],[137.15253694,34.78132031],[137.13613036,34.78905141],[137.13001752,34.78192539],[137.10676725,34.79125089],[137.10557136,34.78423659],[137.08833597,34.77508456],[137.07626236,34.78705753],[137.02989438,34.77496836],[137.00048492,34.80421333],[136.99671839,34.81434541],[137.00152114,34.81319903],[136.96441808,34.82275739],[136.95674353,34.83329003],[136.95421766,34.84833213],[136.9650428,34.85223303],[136.95528964,34.85484061],[136.96808239,34.87489703],[136.97588431,34.87421195],[136.97060672,34.87747831],[136.97679883,34.89330367],[136.98383432,34.89326099],[136.97688564,34.89775822],[136.98638603,34.95198078],[136.98103577,34.95684992],[136.96834508,34.9146625],[136.97170131,34.90850764],[136.95717805,34.88111008],[136.96419306,34.87652113],[136.95876419,34.87108039],[136.94416078,34.88088864],[136.93424389,34.87461056],[136.94601309,34.87416275],[136.93972078,34.86144583],[136.92770227,34.86494926],[136.93660134,34.85610142],[136.93489536,34.84849053],[136.92622239,34.85146295],[136.93539578,34.83004306],[136.92207191,34.82771764],[136.93810973,34.82095119],[136.92607027,34.82118328],[136.92006384,34.81114516],[136.91451659,34.77111269],[136.94277394,34.74760469]],[[136.85772904,34.737915],[136.85772904,34.737915]],[[136.94933105,34.74116792],[136.94933105,34.74116792]],[[136.94371769,34.81878295],[136.95816153,34.8279675],[136.94371769,34.81878295]],[[136.92317931,34.82867744],[136.92317931,34.82867744]],[[136.9236362,34.82926758],[136.9236362,34.82926758]],[[136.79842936,34.87572461],[136.81142494,34.87489831],[136.82220112,34.86307105],[136.82446964,34.84874369],[136.812648,34.84674903],[136.81418445,34.84016261],[136.8069655,34.84018969],[136.79842936,34.87572461]],[[136.82188092,34.9001525],[136.82188092,34.9001525]],[[136.97880556,34.92641163],[136.97880556,34.92641163]],[[136.82186572,34.93229795],[136.82186572,34.93229795]],[[136.97753908,34.94195375],[136.97753908,34.94195375]],[[136.98212659,34.94435886],[136.98212659,34.94435886]],[[136.98294866,34.94924771],[136.98294866,34.94924771]],[[136.81424861,34.95880869],[136.81869117,34.96434944],[136.82574547,34.96049403],[136.82027214,34.94976878],[136.81101922,34.95477711],[136.81424861,34.95880869]],[[136.82195589,34.96108272],[136.82195589,34.96108272]],[[136.82190442,34.96125916],[136.82190442,34.96125916]],[[136.80990278,34.99737],[136.80022472,35.00361111],[136.80166783,35.00941161],[136.82167639,35.01763528],[136.81544861,35.00046547],[136.8198028,34.99765041],[136.80990278,34.99737]],[[136.8100602,35.03626856],[136.81003686,35.04930741],[136.83090261,35.049372],[136.83897134,35.03019669],[136.81235642,35.02568679],[136.8100602,35.03626856]],[[136.80077961,35.04252278],[136.80077961,35.04252278]],[[136.80076936,35.04361944],[136.80076936,35.04361944]],[[136.84058503,35.05603595],[136.85495645,35.05530847],[136.8520285,35.04385128],[136.84617655,35.04552792],[136.85023516,35.0406002],[136.8440827,35.04162156],[136.84584075,35.03387933],[136.84058503,35.05603595]],[[136.80172662,35.04849572],[136.80172662,35.04849572]],[[136.80583569,35.04850847],[136.80583569,35.04850847]],[[136.80827476,35.04849722],[136.80827476,35.04849722]],[[136.80937038,35.04850008],[136.80937038,35.04850008]],[[136.81298949,35.0499816],[136.81298949,35.0499816]],[[136.81007645,35.04998353],[136.81007645,35.04998353]],[[136.81449152,35.04998263],[136.81449152,35.04998263]],[[136.81151279,35.04998468],[136.81151279,35.04998468]],[[136.81604339,35.04998848],[136.81604339,35.04998848]],[[136.87376635,35.051402],[136.86525384,35.0500065],[136.86759789,35.06325097],[136.88131244,35.07156141],[136.87376635,35.051402]],[[136.82259001,35.06507723],[136.82259001,35.06507723]],[[136.8227931,35.07679455],[136.8227931,35.07679455]],[[136.82520366,35.07961301],[136.82520366,35.07961301]],[[136.87034406,35.08595689],[136.87034406,35.08595689]],[[137.02726167,34.57377695],[137.02726167,34.57377695]],[[137.02850834,34.57440805],[137.02850834,34.57440805]],[[137.03076306,34.57564195],[137.03076306,34.57564195]],[[137.01513639,34.57928083],[137.01513639,34.57928083]],[[137.01444805,34.58016556],[137.01444805,34.58016556]],[[137.03263253,34.58072628],[137.03263253,34.58072628]],[[137.03232353,34.58078239],[137.03232353,34.58078239]],[[137.00749485,34.65656859],[137.00749485,34.65656859]],[[137.00744744,34.65671421],[137.00744744,34.65671421]],[[137.00729284,34.65694326],[137.00729284,34.65694326]],[[137.00904844,34.65748745],[137.00904844,34.65748745]],[[137.0090114,34.65768907],[137.0090114,34.65768907]],[[137.00914787,34.65781592],[137.00914787,34.65781592]],[[137.00692393,34.65776236],[137.00692393,34.65776236]],[[137.00683061,34.65784274],[137.00683061,34.65784274]],[[137.00822445,34.65689165],[137.00822445,34.65689165]],[[137.00956022,34.65824855],[137.00956022,34.65824855]],[[137.00703106,34.65907611],[137.00703106,34.65907611]],[[137.00678336,34.65955025],[137.00678336,34.65955025]],[[137.00662802,34.65959765],[137.00662802,34.65959765]],[[137.00761493,34.65990222],[137.00761493,34.65990222]],[[137.00673851,34.65995047],[137.00673851,34.65995047]],[[137.00688141,34.65990586],[137.00688141,34.65990586]],[[137.00615748,34.66025551],[137.00615748,34.66025551]],[[137.00570084,34.66027807],[137.00570084,34.66027807]],[[137.00557691,34.66082937],[137.00557691,34.66082937]],[[137.00540859,34.66098853],[137.00540859,34.66098853]],[[137.00488047,34.66622675],[137.00488047,34.66622675]],[[137.00500331,34.66630328],[137.00500331,34.66630328]],[[137.00444442,34.66646877],[137.00444442,34.66646877]],[[137.00429411,34.66656441],[137.00429411,34.66656441]],[[137.00529492,34.66655303],[137.00529492,34.66655303]],[[137.00448124,34.66655475],[137.00448124,34.66655475]],[[137.00534462,34.66658239],[137.00534462,34.66658239]],[[136.99559239,34.66674409],[136.99559239,34.66674409]],[[136.99518323,34.66657736],[136.99518323,34.66657736]],[[137.00671506,34.6686872],[137.00671506,34.6686872]],[[136.99038903,34.66981953],[136.99038903,34.66981953]],[[136.99035442,34.66992349],[136.99035442,34.66992349]],[[136.99102764,34.66984595],[136.99102764,34.66984595]],[[136.99231178,34.67007778],[136.99231178,34.67007778]],[[136.99236044,34.67013383],[136.99236044,34.67013383]],[[136.9923635,34.67017928],[136.9923635,34.67017928]],[[136.99273416,34.67023759],[136.99273416,34.67023759]],[[137.005622,34.67080144],[137.005622,34.67080144]],[[137.0058117,34.67082892],[137.0058117,34.67082892]],[[137.00580031,34.67090553],[137.00580031,34.67090553]],[[136.99845917,34.67244876],[136.99845917,34.67244876]],[[136.99966725,34.6734237],[136.99966725,34.6734237]],[[137.00003754,34.67046433],[137.00850302,34.68637662],[137.00605389,34.66678725],[137.00003754,34.67046433]],[[137.009978,34.67718618],[137.009978,34.67718618]],[[137.0104538,34.67753171],[137.0104538,34.67753171]],[[136.99874192,34.6782178],[136.99874192,34.6782178]],[[136.99795628,34.67963462],[136.99795628,34.67963462]],[[136.99974616,34.67955956],[136.99974616,34.67955956]],[[137.00401017,34.68276472],[137.00401017,34.68276472]],[[137.0103499,34.68125387],[137.0103499,34.68125387]],[[136.99889131,34.68201105],[136.99889131,34.68201105]],[[137.01039847,34.68223974],[137.01039847,34.68223974]],[[137.00437662,34.68484961],[136.99994745,34.68166441],[137.00437662,34.68484961]],[[137.00516759,34.68476692],[137.00516759,34.68476692]],[[137.00694415,34.68548714],[137.00694415,34.68548714]],[[137.00637494,34.69140377],[137.00637494,34.69140377]],[[136.99130565,34.69909163],[136.99130565,34.69909163]],[[137.00984464,34.70213239],[137.00984464,34.70213239]],[[136.99332423,34.70262287],[136.99332423,34.70262287]],[[136.99274339,34.70314772],[136.99274339,34.70314772]],[[136.99371335,34.70369253],[136.99371335,34.70369253]],[[136.98844523,34.70459295],[136.98844523,34.70459295]],[[136.98855333,34.70467478],[136.98855333,34.70467478]],[[137.01152947,34.70478949],[137.01152947,34.70478949]],[[136.99744092,34.70138395],[137.00673053,34.70831363],[137.0009228,34.70863528],[137.0142672,34.70669029],[136.99744092,34.70138395]],[[137.01373639,34.70718438],[137.01373639,34.70718438]],[[137.01336327,34.70718381],[137.01336327,34.70718381]],[[137.01151691,34.70742308],[137.01151691,34.70742308]],[[137.01190145,34.70751435],[137.01190145,34.70751435]],[[137.01055189,34.70805327],[137.01055189,34.70805327]],[[137.00087263,34.70987129],[137.00087263,34.70987129]],[[137.00641414,34.71075732],[137.00641414,34.71075732]],[[137.02280502,34.7118814],[137.02280502,34.7118814]],[[137.02217215,34.71294986],[137.02217215,34.71294986]],[[137.03079752,34.72338092],[137.03079752,34.72338092]],[[137.03219244,34.724229],[137.03219244,34.724229]],[[137.03232348,34.72430053],[137.03232348,34.72430053]],[[137.03108248,34.72567659],[137.03108248,34.72567659]],[[137.03160185,34.72859231],[137.03160185,34.72859231]],[[137.03153536,34.72865272],[137.03153536,34.72865272]],[[137.01446389,34.78958644],[137.01446389,34.78958644]],[[137.03613197,34.57677414],[137.03613197,34.57677414]],[[137.03629292,34.5771405],[137.03629292,34.5771405]],[[137.03317445,34.57721916],[137.03317445,34.57721916]],[[137.03893594,34.57765359],[137.03893594,34.57765359]],[[137.03397733,34.57780578],[137.03397733,34.57780578]],[[137.03398345,34.57785989],[137.03398345,34.57785989]],[[137.03419545,34.57793836],[137.03419545,34.57793836]],[[137.03384856,34.57789733],[137.03384856,34.57789733]],[[137.03484438,34.57795249],[137.03484438,34.57795249]],[[137.03411761,34.57794414],[137.03411761,34.57794414]],[[137.0339073,34.57790895],[137.0339073,34.57790895]],[[137.03419051,34.57796016],[137.03419051,34.57796016]],[[137.03485497,34.57801192],[137.03485497,34.57801192]],[[137.03628516,34.5781285],[137.03628516,34.5781285]],[[137.03482922,34.57817472],[137.03482922,34.57817472]],[[137.03798689,34.57831447],[137.03798689,34.57831447]],[[137.03865866,34.57843844],[137.03865866,34.57843844]],[[137.04210073,34.57865033],[137.04210073,34.57865033]],[[137.03444625,34.57875489],[137.03444625,34.57875489]],[[137.03363908,34.58020928],[137.03363908,34.58020928]],[[137.0334982,34.58018297],[137.0334982,34.58018297]],[[137.03350047,34.58025961],[137.03350047,34.58025961]],[[137.03341494,34.58051356],[137.03341494,34.58051356]],[[137.03264647,34.58072125],[137.03264647,34.58072125]],[[137.05346248,34.71357244],[137.05346248,34.71357244]],[[137.05057167,34.71394567],[137.05057167,34.71394567]],[[137.05029997,34.71399264],[137.05029997,34.71399264]],[[137.05042244,34.71416639],[137.05042244,34.71416639]],[[137.05046564,34.71425759],[137.05046564,34.71425759]],[[137.0505237,34.71427656],[137.0505237,34.71427656]],[[137.05006876,34.71436872],[137.05006876,34.71436872]],[[137.05033278,34.71450131],[137.05033278,34.71450131]],[[137.04996234,34.71441523],[137.04996234,34.71441523]],[[137.05073781,34.71451189],[137.05073781,34.71451189]],[[137.05044411,34.71451495],[137.05044411,34.71451495]],[[137.05060681,34.71458397],[137.05060681,34.71458397]],[[137.05010306,34.71443283],[137.05010306,34.71443283]],[[137.05067455,34.71468877],[137.05067455,34.71468877]],[[137.05046669,34.71467172],[137.05046669,34.71467172]],[[137.04485597,34.71493103],[137.04485597,34.71493103]],[[137.0469802,34.71516653],[137.0469802,34.71516653]],[[137.04856689,34.71545989],[137.04856689,34.71545989]],[[137.05165428,34.71550747],[137.05165428,34.71550747]],[[137.04897681,34.71595341],[137.04897681,34.71595341]],[[137.04568224,34.71604036],[137.04568224,34.71604036]],[[137.03870927,34.71708195],[137.03870927,34.71708195]],[[137.03873131,34.71780087],[137.03873131,34.71780087]],[[137.04415167,34.71788567],[137.04415167,34.71788567]],[[137.03792694,34.71789431],[137.03792694,34.71789431]],[[137.04562564,34.71637378],[137.04562564,34.71637378]],[[137.03840445,34.71832444],[137.03840445,34.71832444]],[[137.03707105,34.7183905],[137.03707105,34.7183905]],[[137.03693706,34.71919711],[137.03693706,34.71919711]],[[137.0383075,34.71943805],[137.0383075,34.71943805]],[[137.03652012,34.71930567],[137.03652012,34.71930567]],[[137.03633462,34.71945077],[137.03633462,34.71945077]],[[137.03653064,34.71949941],[137.03653064,34.71949941]],[[137.03622341,34.71948636],[137.03622341,34.71948636]],[[137.03835861,34.71972361],[137.03835861,34.71972361]],[[137.03594497,34.72089567],[137.03594497,34.72089567]],[[137.03539706,34.72084289],[137.03539706,34.72084289]],[[137.03814078,34.72137853],[137.03814078,34.72137853]],[[137.04422638,34.72147407],[137.04422638,34.72147407]],[[137.03304134,34.7218192],[137.03304134,34.7218192]],[[137.0372572,34.72232813],[137.0372572,34.72232813]],[[137.04375844,34.72235687],[137.04375844,34.72235687]],[[137.03773372,34.72258487],[137.03773372,34.72258487]],[[137.04030856,34.72260225],[137.04030856,34.72260225]],[[137.03948384,34.72262411],[137.03948384,34.72262411]],[[137.04031275,34.72264669],[137.04031275,34.72264669]],[[137.04290964,34.72323713],[137.04290964,34.72323713]],[[137.03992808,34.72286295],[137.03992808,34.72286295]],[[137.04035589,34.72271047],[137.04035589,34.72271047]],[[137.03768876,34.72272247],[137.03768876,34.72272247]],[[137.03979791,34.72314453],[137.03979791,34.72314453]],[[137.03954922,34.72326659],[137.03954922,34.72326659]],[[137.03406305,34.72566468],[137.03881659,34.73325414],[137.0563015,34.72225159],[137.04696769,34.71369633],[137.04477997,34.72602911],[137.03762511,34.72024883],[137.03406305,34.72566468]],[[137.03926316,34.72362059],[137.03926316,34.72362059]],[[137.03946728,34.72437728],[137.03946728,34.72437728]],[[137.03921711,34.72438078],[137.03921711,34.72438078]],[[137.05254591,34.72455764],[137.05254591,34.72455764]],[[137.03951914,34.7248132],[137.03951914,34.7248132]],[[137.04186861,34.72485583],[137.04186861,34.72485583]],[[137.04216761,34.72512505],[137.04216761,34.72512505]],[[137.03978058,34.72541892],[137.03978058,34.72541892]],[[137.03309742,34.72876911],[137.03309742,34.72876911]],[[137.03371861,34.72952916],[137.03371861,34.72952916]],[[137.04728575,34.72986178],[137.04728575,34.72986178]],[[137.04652594,34.73009408],[137.04652594,34.73009408]],[[137.0352998,34.73199603],[137.0352998,34.73199603]],[[137.03510834,34.73203405],[137.03510834,34.73203405]],[[137.04190317,34.73267586],[137.04190317,34.73267586]],[[137.10636003,34.58742686],[137.10636003,34.58742686]],[[137.10635319,34.58782441],[137.10635319,34.58782441]],[[137.10313489,34.58783923],[137.10313489,34.58783923]],[[137.10508849,34.58805349],[137.10508849,34.58805349]],[[137.10515173,34.58807086],[137.10515173,34.58807086]],[[137.10511224,34.58807923],[137.10511224,34.58807923]],[[137.10479109,34.58819436],[137.10479109,34.58819436]],[[137.10630419,34.58820864],[137.10630419,34.58820864]],[[137.1055375,34.58822908],[137.1055375,34.58822908]],[[137.10562519,34.58830278],[137.10562519,34.58830278]],[[137.10259294,34.58845783],[137.10259294,34.58845783]],[[137.10415041,34.58868572],[137.10415041,34.58868572]],[[137.10304017,34.588912],[137.10304017,34.588912]],[[137.10172827,34.58886587],[137.10172827,34.58886587]],[[137.10243367,34.58916059],[137.10243367,34.58916059]],[[137.09783481,34.58927833],[137.09783481,34.58927833]],[[137.09801536,34.58924336],[137.09801536,34.58924336]],[[137.09930314,34.5893455],[137.09930314,34.5893455]],[[137.10115708,34.58950528],[137.10115708,34.58950528]],[[137.10105789,34.58951341],[137.10105789,34.58951341]],[[137.09934914,34.58987247],[137.09934914,34.58987247]],[[137.09894436,34.58990561],[137.09894436,34.58990561]],[[137.10082711,34.58991503],[137.10082711,34.58991503]],[[137.09870878,34.58992297],[137.09870878,34.58992297]],[[137.09992869,34.59001495],[137.09992869,34.59001495]],[[137.10028231,34.58999489],[137.10028231,34.58999489]],[[137.09869328,34.58991059],[137.09869328,34.58991059]],[[137.09799222,34.59005861],[137.09799222,34.59005861]],[[137.0981627,34.59008286],[137.0981627,34.59008286]],[[137.09973973,34.59003947],[137.09973973,34.59003947]],[[137.09831447,34.59019195],[137.09831447,34.59019195]],[[137.09794514,34.59032786],[137.09794514,34.59032786]],[[137.09773341,34.59047661],[137.09773341,34.59047661]],[[137.09646314,34.59077987],[137.09646314,34.59077987]],[[137.09658742,34.59078625],[137.09658742,34.59078625]],[[137.10527431,34.63658889],[137.10527431,34.63658889]],[[137.10390341,34.63793561],[137.10390341,34.63793561]],[[137.09111361,34.65],[137.09111361,34.65]],[[137.10245017,34.65027089],[137.10245017,34.65027089]],[[137.10506297,34.65139067],[137.10506297,34.65139067]],[[137.0990155,34.65178089],[137.0990155,34.65178089]],[[137.10092403,34.65268939],[137.10092403,34.65268939]],[[137.09152192,34.65301005],[137.09569012,34.65073159],[137.09152192,34.65301005]],[[137.1054745,34.65283403],[137.1054745,34.65283403]],[[137.09837331,34.65265544],[137.09837331,34.65265544]],[[137.08775202,34.65796172],[137.08775202,34.65796172]],[[137.05626316,34.72102875],[137.05626316,34.72102875]],[[137.05691414,34.72193156],[137.05691414,34.72193156]],[[137.05575717,34.72301928],[137.05575717,34.72301928]],[[137.05439881,34.72589847],[137.05439881,34.72589847]],[[137.05577136,34.72620369],[137.05577136,34.72620369]],[[137.05562811,34.72660387],[137.05562811,34.72660387]],[[137.05543012,34.72672014],[137.05543012,34.72672014]],[[137.05529647,34.72687011],[137.05529647,34.72687011]],[[137.10299211,34.76488308],[137.10299211,34.76488308]],[[137.10287761,34.76489861],[137.10287761,34.76489861]],[[137.10289538,34.76492403],[137.10289538,34.76492403]],[[137.10347239,34.76538323],[137.10347239,34.76538323]],[[137.09822163,34.76533259],[137.09822163,34.76533259]],[[137.10312278,34.76541233],[137.10312278,34.76541233]],[[137.10305903,34.76548469],[137.10305903,34.76548469]],[[137.10357322,34.76566859],[137.10357322,34.76566859]],[[137.1023917,34.76573469],[137.1023917,34.76573469]],[[137.10149645,34.765727],[137.10149645,34.765727]],[[137.10244302,34.76573769],[137.10244302,34.76573769]],[[137.10143581,34.7657522],[137.10143581,34.7657522]],[[137.10383603,34.76584],[137.10383603,34.76584]],[[137.10385847,34.76578667],[137.10385847,34.76578667]],[[137.10396151,34.76737192],[137.10396151,34.76737192]],[[137.10378202,34.76747587],[137.10378202,34.76747587]],[[137.09848713,34.76714911],[137.10379467,34.76737941],[137.09848713,34.76714911]],[[137.10298173,34.76815853],[137.10298173,34.76815853]],[[137.09593112,34.77050044],[137.09593112,34.77050044]],[[137.09416584,34.77112686],[137.09416584,34.77112686]],[[137.09488458,34.77115153],[137.09488458,34.77115153]],[[137.09483005,34.77117889],[137.09483005,34.77117889]],[[137.09485934,34.77129692],[137.09485934,34.77129692]],[[137.09438564,34.77139013],[137.09438564,34.77139013]],[[137.0955493,34.77149547],[137.0955493,34.77149547]],[[137.09354333,34.77211503],[137.09354333,34.77211503]],[[137.09023241,34.77570031],[137.09023241,34.77570031]],[[137.08908515,34.77589296],[137.08908515,34.77589296]],[[137.08069031,34.78196736],[137.08069031,34.78196736]],[[137.10538114,34.78333333],[137.10538114,34.78333333]],[[137.10021217,34.78332669],[137.10021217,34.78332669]],[[137.10040392,34.78332597],[137.10040392,34.78332597]],[[137.1002998,34.78332639],[137.1002998,34.78332639]],[[137.10036353,34.78355341],[137.10036353,34.78355341]],[[137.10062217,34.78369697],[137.10062217,34.78369697]],[[137.10258914,34.78405495],[137.10258914,34.78405495]],[[137.11567156,34.58669553],[137.11567156,34.58669553]],[[137.11580698,34.58682441],[137.11580698,34.58682441]],[[137.11344112,34.5869675],[137.11344112,34.5869675]],[[137.11500209,34.58710953],[137.11500209,34.58710953]],[[137.11547601,34.58717987],[137.11547601,34.58717987]],[[137.11420889,34.58714667],[137.11420889,34.58714667]],[[137.11554628,34.58725461],[137.11554628,34.58725461]],[[137.11505886,34.58729805],[137.11505886,34.58729805]],[[137.11571531,34.58730508],[137.11571531,34.58730508]],[[137.11541433,34.58730649],[137.11541433,34.58730649]],[[137.11558625,34.58729475],[137.11558625,34.58729475]],[[137.11565186,34.58732867],[137.11565186,34.58732867]],[[137.1156135,34.5873312],[137.1156135,34.5873312]],[[137.11551678,34.58735441],[137.11551678,34.58735441]],[[137.11544058,34.58736572],[137.11544058,34.58736572]],[[137.11583805,34.58732244],[137.11583805,34.58732244]],[[137.11568761,34.58734744],[137.11568761,34.58734744]],[[137.1157263,34.5873645],[137.1157263,34.5873645]],[[137.1155582,34.58735867],[137.1155582,34.58735867]],[[137.11544472,34.58738161],[137.11544472,34.58738161]],[[137.11174056,34.58746],[137.11174056,34.58746]],[[137.11530353,34.58739353],[137.11530353,34.58739353]],[[137.11567939,34.58741064],[137.11567939,34.58741064]],[[137.11541708,34.5874438],[137.11541708,34.5874438]],[[137.11524105,34.5874265],[137.11524105,34.5874265]],[[137.10655175,34.58740061],[137.10655175,34.58740061]],[[137.11245861,34.58756167],[137.11245861,34.58756167]],[[137.11524878,34.58746239],[137.11524878,34.58746239]],[[137.1156592,34.58744164],[137.1156592,34.58744164]],[[137.10860445,34.587365],[137.10860445,34.587365]],[[137.1151717,34.5874848],[137.1151717,34.5874848]],[[137.11546319,34.58747456],[137.11546319,34.58747456]],[[137.11503158,34.58751659],[137.11503158,34.58751659]],[[137.11527739,34.58752353],[137.11527739,34.58752353]],[[137.115418,34.58755795],[137.115418,34.58755795]],[[137.11536808,34.58756936],[137.11536808,34.58756936]],[[137.11532042,34.58757889],[137.11532042,34.58757889]],[[137.10645733,34.58760759],[137.10645733,34.58760759]],[[137.10779866,34.58766736],[137.10779866,34.58766736]],[[137.10806772,34.58760739],[137.10806772,34.58760739]],[[137.10890083,34.58764389],[137.10890083,34.58764389]],[[137.10926333,34.58775333],[137.10926333,34.58775333]],[[137.11115139,34.587885],[137.11115139,34.587885]],[[137.10788866,34.5878772],[137.10788866,34.5878772]],[[137.10801523,34.58790322],[137.10801523,34.58790322]],[[137.10793311,34.58794375],[137.10793311,34.58794375]],[[137.1143982,34.58795725],[137.1143982,34.58795725]],[[137.10983611,34.58793333],[137.10983611,34.58793333]],[[137.10774141,34.58800325],[137.10774141,34.58800325]],[[137.10661786,34.58800208],[137.10661786,34.58800208]],[[137.11207898,34.58798264],[137.11207898,34.58798264]],[[137.11373722,34.58799716],[137.11373722,34.58799716]],[[137.11358786,34.58805039],[137.11358786,34.58805039]],[[137.11398564,34.58805072],[137.11398564,34.58805072]],[[137.11363014,34.58805159],[137.11363014,34.58805159]],[[137.11358523,34.58806544],[137.11358523,34.58806544]],[[137.1140617,34.58808908],[137.1140617,34.58808908]],[[137.114121,34.5880692],[137.114121,34.5880692]],[[137.11345876,34.58809061],[137.11345876,34.58809061]],[[137.11408358,34.58810522],[137.11408358,34.58810522]],[[137.11237808,34.58815261],[137.11237808,34.58815261]],[[137.113403,34.58816344],[137.113403,34.58816344]],[[137.11224519,34.58818077],[137.11224519,34.58818077]],[[137.10781064,34.58818189],[137.10781064,34.58818189]],[[137.11228472,34.58822922],[137.11228472,34.58822922]],[[137.10696828,34.58820941],[137.10696828,34.58820941]],[[137.11247973,34.58824922],[137.11247973,34.58824922]],[[137.11222411,34.58824659],[137.11222411,34.58824659]],[[137.10789253,34.58827189],[137.10789253,34.58827189]],[[137.11255319,34.58827297],[137.11255319,34.58827297]],[[137.11275944,34.58826161],[137.11275944,34.58826161]],[[137.11291389,34.58828656],[137.11291389,34.58828656]],[[137.10805744,34.58830956],[137.10805744,34.58830956]],[[137.10687326,34.58831205],[137.10687326,34.58831205]],[[137.10775384,34.5883445],[137.10775384,34.5883445]],[[137.1079993,34.58835983],[137.1079993,34.58835983]],[[137.10782205,34.58835092],[137.10782205,34.58835092]],[[137.10700008,34.58840433],[137.10700008,34.58840433]],[[137.10991681,34.58854808],[137.10991681,34.58854808]],[[137.11143528,34.58862731],[137.11143528,34.58862731]],[[137.10981156,34.58862305],[137.10981156,34.58862305]],[[137.11147112,34.58865472],[137.11147112,34.58865472]],[[137.11135139,34.58868992],[137.11135139,34.58868992]],[[137.11026811,34.64340413],[137.11026811,34.64340413]],[[137.11157636,34.6441868],[137.11157636,34.6441868]],[[137.11529125,34.64450883],[137.11529125,34.64450883]],[[137.1066882,34.64677928],[137.1066882,34.64677928]],[[137.11130523,34.64740459],[137.11130523,34.64740459]],[[137.11584278,34.6473512],[137.11584278,34.6473512]],[[137.11526769,34.64785139],[137.11526769,34.64785139]],[[137.1152245,34.64819361],[137.1152245,34.64819361]],[[137.11566075,34.6480015],[137.11566075,34.6480015]],[[137.10617175,34.78294169],[137.10617175,34.78294169]],[[137.10847562,34.78595089],[137.10847562,34.78595089]],[[137.11400086,34.78971231],[137.11400086,34.78971231]],[[137.12185183,34.5864202],[137.12185183,34.5864202]],[[137.12245939,34.58655367],[137.12245939,34.58655367]],[[137.12209886,34.58661061],[137.12209886,34.58661061]],[[137.12157584,34.58659961],[137.12157584,34.58659961]],[[137.12143017,34.58668231],[137.12143017,34.58668231]],[[137.12202664,34.58674139],[137.12202664,34.58674139]],[[137.11748117,34.58675039],[137.11748117,34.58675039]],[[137.11913752,34.58681325],[137.11913752,34.58681325]],[[137.11789111,34.58682059],[137.11789111,34.58682059]],[[137.12225516,34.58681783],[137.12225516,34.58681783]],[[137.11966645,34.58680677],[137.11966645,34.58680677]],[[137.12156014,34.58679172],[137.12156014,34.58679172]],[[137.11740134,34.58680839],[137.11740134,34.58680839]],[[137.11812458,34.58686459],[137.11812458,34.58686459]],[[137.11829789,34.58689387],[137.11829789,34.58689387]],[[137.12194489,34.58693439],[137.12194489,34.58693439]],[[137.1222647,34.58695297],[137.1222647,34.58695297]],[[137.12022492,34.58694556],[137.12022492,34.58694556]],[[137.12086134,34.58694039],[137.12086134,34.58694039]],[[137.12078053,34.5869812],[137.12078053,34.5869812]],[[137.12222752,34.58697064],[137.12222752,34.58697064]],[[137.11731664,34.58699713],[137.11731664,34.58699713]],[[137.12203694,34.58701556],[137.12203694,34.58701556]],[[137.12174849,34.58703113],[137.12174849,34.58703113]],[[137.117958,34.58707583],[137.117958,34.58707583]],[[137.11845553,34.58699428],[137.11845553,34.58699428]],[[137.12082083,34.58700303],[137.12082083,34.58700303]],[[137.1216737,34.58707716],[137.1216737,34.58707716]],[[137.12213025,34.5870522],[137.12213025,34.5870522]],[[137.11890302,34.58712956],[137.11890302,34.58712956]],[[137.12049684,34.58708728],[137.12049684,34.58708728]],[[137.12030616,34.58708695],[137.12030616,34.58708695]],[[137.12243034,34.58708359],[137.12243034,34.58708359]],[[137.12198008,34.58711867],[137.12198008,34.58711867]],[[137.1173262,34.58707567],[137.1173262,34.58707567]],[[137.12084467,34.58710211],[137.12084467,34.58710211]],[[137.11808117,34.58711772],[137.11808117,34.58711772]],[[137.11798358,34.58712308],[137.11798358,34.58712308]],[[137.1217745,34.58713041],[137.1217745,34.58713041]],[[137.11742141,34.58716489],[137.11742141,34.58716489]],[[137.11749348,34.58714831],[137.11749348,34.58714831]],[[137.12118659,34.58716111],[137.12118659,34.58716111]],[[137.12100837,34.58717447],[137.12100837,34.58717447]],[[137.12157608,34.58713897],[137.12157608,34.58713897]],[[137.12187642,34.58716597],[137.12187642,34.58716597]],[[137.12020497,34.58712269],[137.12020497,34.58712269]],[[137.12198217,34.58713841],[137.12198217,34.58713841]],[[137.12074684,34.58717259],[137.12074684,34.58717259]],[[137.11752575,34.58714147],[137.11752575,34.58714147]],[[137.12025336,34.58717303],[137.12025336,34.58717303]],[[137.11800689,34.58719667],[137.11800689,34.58719667]],[[137.12170533,34.58720459],[137.12170533,34.58720459]],[[137.12186681,34.58719525],[137.12186681,34.58719525]],[[137.12103789,34.58718423],[137.12103789,34.58718423]],[[137.1208527,34.58717072],[137.1208527,34.58717072]],[[137.12185849,34.58719616],[137.12185849,34.58719616]],[[137.12050134,34.58718816],[137.12050134,34.58718816]],[[137.11795759,34.58720808],[137.11795759,34.58720808]],[[137.12031275,34.58721297],[137.12031275,34.58721297]],[[137.12022552,34.58721683],[137.12022552,34.58721683]],[[137.12159895,34.58719939],[137.12159895,34.58719939]],[[137.11999581,34.58728539],[137.11999581,34.58728539]],[[137.11676842,34.58720653],[137.11676842,34.58720653]],[[137.11761814,34.58722364],[137.11761814,34.58722364]],[[137.117804,34.58723111],[137.117804,34.58723111]],[[137.11767317,34.58723972],[137.11767317,34.58723972]],[[137.12054875,34.58722623],[137.12054875,34.58722623]],[[137.1167975,34.58722639],[137.1167975,34.58722639]],[[137.1160327,34.58723264],[137.1160327,34.58723264]],[[137.12026859,34.58725289],[137.12026859,34.58725289]],[[137.12137275,34.58723467],[137.12137275,34.58723467]],[[137.12140795,34.58726072],[137.12140795,34.58726072]],[[137.12028044,34.58726436],[137.12028044,34.58726436]],[[137.11593783,34.58726569],[137.11593783,34.58726569]],[[137.11686014,34.58732025],[137.11686014,34.58732025]],[[137.11585386,34.5873],[137.11585386,34.5873]],[[137.11609172,34.58731661],[137.11609172,34.58731661]],[[137.11692258,34.58732633],[137.11692258,34.58732633]],[[137.116682,34.58731441],[137.116682,34.58731441]],[[137.11929934,34.58733367],[137.11929934,34.58733367]],[[137.11666403,34.58733136],[137.11666403,34.58733136]],[[137.1159818,34.58735892],[137.1159818,34.58735892]],[[137.11912772,34.58738525],[137.11912772,34.58738525]],[[137.11902328,34.58739449],[137.11902328,34.58739449]],[[137.11895141,34.58741611],[137.11895141,34.58741611]],[[137.11622781,34.58744449],[137.11622781,34.58744449]],[[137.11634326,34.58743661],[137.11634326,34.58743661]],[[137.12218475,34.644683],[137.12218475,34.644683]],[[137.1185873,34.64549977],[137.1185873,34.64549977]],[[137.11597086,34.64718303],[137.11597086,34.64718303]],[[137.11937283,34.64707116],[137.11937283,34.64707116]],[[137.11604881,34.64760308],[137.11604881,34.64760308]],[[137.11610769,34.64785175],[137.11610769,34.64785175]],[[137.12245733,34.65829233],[137.12245733,34.65829233]],[[137.12271889,34.58627972],[137.12271889,34.58627972]],[[137.12324222,34.5862875],[137.12324222,34.5862875]],[[137.12367639,34.58634195],[137.12367639,34.58634195]],[[137.12394416,34.58643111],[137.12394416,34.58643111]],[[137.12264888,34.58656111],[137.12264888,34.58656111]],[[137.12323333,34.58667416],[137.12323333,34.58667416]],[[137.12284458,34.58664867],[137.12284458,34.58664867]],[[137.12369027,34.5867375],[137.12369027,34.5867375]],[[137.12300586,34.58670559],[137.12300586,34.58670559]],[[137.13192635,34.58677869],[137.13192635,34.58677869]],[[137.1254,34.58684639],[137.1254,34.58684639]],[[137.13202803,34.58686941],[137.13202803,34.58686941]],[[137.12339805,34.58685805],[137.12339805,34.58685805]],[[137.12245022,34.58696575],[137.12245022,34.58696575]],[[137.12320348,34.58695413],[137.12320348,34.58695413]],[[137.13059616,34.58692805],[137.13059616,34.58692805]],[[137.12512,34.586945],[137.12512,34.586945]],[[137.12483722,34.58696861],[137.12483722,34.58696861]],[[137.12310458,34.58701036],[137.12310458,34.58701036]],[[137.12420501,34.58706536],[137.12420501,34.58706536]],[[137.12255525,34.58710311],[137.12255525,34.58710311]],[[137.13192645,34.58715203],[137.13192645,34.58715203]],[[137.13067678,34.58710036],[137.13067678,34.58710036]],[[137.12402095,34.58715764],[137.12402095,34.58715764]],[[137.1233655,34.58712675],[137.1233655,34.58712675]],[[137.12254594,34.58713383],[137.12254594,34.58713383]],[[137.12269594,34.58714083],[137.12269594,34.58714083]],[[137.12256503,34.58716161],[137.12256503,34.58716161]],[[137.13052139,34.58712167],[137.13052139,34.58712167]],[[137.12254616,34.58717449],[137.12254616,34.58717449]],[[137.13257908,34.58715131],[137.13257908,34.58715131]],[[137.13174925,34.58728061],[137.13174925,34.58728061]],[[137.12277503,34.5872558],[137.12277503,34.5872558]],[[137.12269686,34.58725613],[137.12269686,34.58725613]],[[137.12336348,34.58723708],[137.12336348,34.58723708]],[[137.12360958,34.5872818],[137.12360958,34.5872818]],[[137.13190703,34.58739777],[137.13190703,34.58739777]],[[137.12404633,34.58738303],[137.12404633,34.58738303]],[[137.13020889,34.58738475],[137.13020889,34.58738475]],[[137.12616694,34.58749889],[137.12616694,34.58749889]],[[137.12978528,34.58754916],[137.12978528,34.58754916]],[[137.12477117,34.58754897],[137.12477117,34.58754897]],[[137.13062445,34.58772416],[137.13062445,34.58772416]],[[137.12537564,34.58775922],[137.12537564,34.58775922]],[[137.12579128,34.58780877],[137.12579128,34.58780877]],[[137.12915694,34.58775277],[137.12915694,34.58775277]],[[137.12631377,34.58779408],[137.12631377,34.58779408]],[[137.12971008,34.58783761],[137.12971008,34.58783761]],[[137.12658397,34.58788025],[137.12658397,34.58788025]],[[137.12589044,34.58785072],[137.12589044,34.58785072]],[[137.12549134,34.58791659],[137.12549134,34.58791659]],[[137.12880278,34.58791361],[137.12880278,34.58791361]],[[137.12598306,34.58794336],[137.12598306,34.58794336]],[[137.12854745,34.58813928],[137.12854745,34.58813928]],[[137.12840659,34.58820072],[137.12840659,34.58820072]],[[137.12933455,34.58826583],[137.12933455,34.58826583]],[[137.12845898,34.58829386],[137.12845898,34.58829386]],[[137.13797153,34.588526],[137.13797153,34.588526]],[[137.13808236,34.58856787],[137.13808236,34.58856787]],[[137.13733584,34.58895453],[137.13733584,34.58895453]],[[137.13692722,34.5890178],[137.13692722,34.5890178]],[[137.13622811,34.58911777],[137.13622811,34.58911777]],[[137.13719428,34.58911605],[137.13719428,34.58911605]],[[137.13634244,34.58912792],[137.13634244,34.58912792]],[[137.13950375,34.5892712],[137.13950375,34.5892712]],[[137.14148872,34.58936069],[137.14148872,34.58936069]],[[137.13926635,34.589516],[137.13926635,34.589516]],[[137.13912256,34.58952787],[137.13912256,34.58952787]],[[137.14095725,34.589529],[137.14095725,34.589529]],[[137.14108358,34.58957067],[137.14108358,34.58957067]],[[137.14035983,34.58962056],[137.14035983,34.58962056]],[[137.14106306,34.58964495],[137.14106306,34.58964495]],[[137.13967161,34.58967033],[137.13967161,34.58967033]],[[137.1423665,34.5897488],[137.1423665,34.5897488]],[[137.14124542,34.58970583],[137.14124542,34.58970583]],[[137.13970591,34.58974705],[137.13970591,34.58974705]],[[137.14176178,34.58978049],[137.14176178,34.58978049]],[[137.1420718,34.58986431],[137.1420718,34.58986431]],[[137.14256031,34.58981439],[137.14256031,34.58981439]],[[137.14213163,34.5899158],[137.14213163,34.5899158]],[[137.13363064,34.64012536],[137.13363064,34.64012536]],[[137.12308428,34.64568492],[137.12308428,34.64568492]],[[137.12632261,34.64927977],[137.12632261,34.64927977]],[[137.13504253,34.6505288],[137.13504253,34.6505288]],[[137.12585814,34.65278487],[137.12585814,34.65278487]],[[137.12741876,34.65321575],[137.12741876,34.65321575]],[[137.13561603,34.65605441],[137.13561603,34.65605441]],[[137.13255464,34.65647956],[137.13255464,34.65647956]],[[137.12543917,34.65802028],[137.12543917,34.65802028]],[[137.12342083,34.65896195],[137.12342083,34.65896195]],[[137.14247114,34.7705752],[137.14247114,34.7705752]],[[137.12343519,34.78354072],[137.12343519,34.78354072]],[[137.12340538,34.78353828],[137.12340538,34.78353828]],[[137.13355322,34.78386364],[137.13355322,34.78386364]],[[137.13724333,34.78496397],[137.14318248,34.78526053],[137.13724333,34.78496397]],[[137.14302875,34.58933639],[137.14302875,34.58933639]],[[137.14280192,34.58932508],[137.14280192,34.58932508]],[[137.1442693,34.58938731],[137.1442693,34.58938731]],[[137.14288623,34.58955328],[137.14288623,34.58955328]],[[137.14276586,34.58997641],[137.14276586,34.58997641]],[[137.14319175,34.59008289],[137.14319175,34.59008289]],[[137.14594419,34.59014433],[137.14594419,34.59014433]],[[137.14555141,34.59016059],[137.14555141,34.59016059]],[[137.14447103,34.59039156],[137.14447103,34.59039156]],[[137.14425725,34.59041675],[137.14425725,34.59041675]],[[137.14401064,34.59051047],[137.14401064,34.59051047]],[[137.14596484,34.5904332],[137.14596484,34.5904332]],[[137.14530739,34.59044389],[137.14530739,34.59044389]],[[137.14600481,34.59059277],[137.14600481,34.59059277]],[[137.1451865,34.59074714],[137.1451865,34.59074714]],[[137.145378,34.59090405],[137.145378,34.59090405]],[[137.14558795,34.59102831],[137.14558795,34.59102831]],[[137.14667956,34.59124353],[137.14667956,34.59124353]],[[137.1465353,34.59133969],[137.1465353,34.59133969]],[[137.14695355,34.59149987],[137.14695355,34.59149987]],[[137.14686167,34.59152508],[137.14686167,34.59152508]],[[137.15138722,34.59175528],[137.15138722,34.59175528]],[[137.15027586,34.59173531],[137.15027586,34.59173531]],[[137.14703581,34.59177341],[137.14703581,34.59177341]],[[137.15109423,34.59188786],[137.15109423,34.59188786]],[[137.1473372,34.59187939],[137.1473372,34.59187939]],[[137.14752306,34.59199003],[137.14752306,34.59199003]],[[137.15076956,34.59194749],[137.15076956,34.59194749]],[[137.15135397,34.59199869],[137.15135397,34.59199869]],[[137.15104119,34.59202164],[137.15104119,34.59202164]],[[137.152162,34.59203583],[137.152162,34.59203583]],[[137.15080759,34.59203539],[137.15080759,34.59203539]],[[137.15142287,34.59204414],[137.15142287,34.59204414]],[[137.14798341,34.59204969],[137.14798341,34.59204969]],[[137.15112122,34.59207808],[137.15112122,34.59207808]],[[137.15171525,34.5920768],[137.15171525,34.5920768]],[[137.15195562,34.59210253],[137.15195562,34.59210253]],[[137.151381,34.59210787],[137.151381,34.59210787]],[[137.15093586,34.592151],[137.15093586,34.592151]],[[137.14956589,34.59209672],[137.14956589,34.59209672]],[[137.15114691,34.59215039],[137.15114691,34.59215039]],[[137.15133825,34.59215049],[137.15133825,34.59215049]],[[137.15124394,34.59215689],[137.15124394,34.59215689]],[[137.15164678,34.59216],[137.15164678,34.59216]],[[137.15056392,34.59217367],[137.15056392,34.59217367]],[[137.15175066,34.59215433],[137.15175066,34.59215433]],[[137.15195102,34.59218431],[137.15195102,34.59218431]],[[137.15134575,34.59221164],[137.15134575,34.59221164]],[[137.15108947,34.59220789],[137.15108947,34.59220789]],[[137.15076973,34.59223436],[137.15076973,34.59223436]],[[137.15191297,34.59226849],[137.15191297,34.59226849]],[[137.15066419,34.59226067],[137.15066419,34.59226067]],[[137.14920489,34.59228716],[137.14920489,34.59228716]],[[137.15184341,34.59227922],[137.15184341,34.59227922]],[[137.14989453,34.59231447],[137.14989453,34.59231447]],[[137.15198272,34.59232041],[137.15198272,34.59232041]],[[137.15171922,34.5923578],[137.15171922,34.5923578]],[[137.14977253,34.59233853],[137.14977253,34.59233853]],[[137.15023856,34.59235222],[137.15023856,34.59235222]],[[137.14985733,34.592337],[137.14985733,34.592337]],[[137.15178419,34.59237623],[137.15178419,34.59237623]],[[137.15197105,34.59237011],[137.15197105,34.59237011]],[[137.14975311,34.59239369],[137.14975311,34.59239369]],[[137.15027236,34.59240008],[137.15027236,34.59240008]],[[137.1501725,34.59240305],[137.1501725,34.59240305]],[[137.14985961,34.59241328],[137.14985961,34.59241328]],[[137.15014589,34.59242133],[137.15014589,34.59242133]],[[137.15209241,34.59274425],[137.15209241,34.59274425]],[[137.14230538,34.77031175],[137.14230538,34.77031175]],[[137.14296322,34.77050903],[137.14296322,34.77050903]],[[137.14433103,34.77052408],[137.14433103,34.77052408]],[[137.14447,34.77052022],[137.14447,34.77052022]],[[137.14303073,34.7706212],[137.14303073,34.7706212]],[[137.14512175,34.77064853],[137.14512175,34.77064853]],[[137.14514209,34.77067541],[137.14514209,34.77067541]],[[137.14502289,34.77069928],[137.14502289,34.77069928]],[[137.14458642,34.77069053],[137.14458642,34.77069053]],[[137.14688186,34.77075747],[137.14688186,34.77075747]],[[137.14696105,34.77083789],[137.14696105,34.77083789]],[[137.1443592,34.77104678],[137.1443592,34.77104678]],[[137.14428783,34.77108283],[137.14428783,34.77108283]],[[137.14637942,34.77256725],[137.14637942,34.77256725]],[[137.14742891,34.77295192],[137.14742891,34.77295192]],[[137.14760992,34.77312313],[137.14760992,34.77312313]],[[137.14753462,34.77319975],[137.14753462,34.77319975]],[[137.14762158,34.77322664],[137.14762158,34.77322664]],[[137.1476017,34.77326305],[137.1476017,34.77326305]],[[137.15195051,34.77835041],[137.15195051,34.77835041]],[[137.15229703,34.77861675],[137.15229703,34.77861675]],[[137.14569051,34.78018911],[137.14569051,34.78018911]],[[137.15245044,34.77920195],[137.15245044,34.77920195]],[[137.15222713,34.77958522],[137.15222713,34.77958522]],[[137.1527393,34.78056695],[137.1527393,34.78056695]],[[137.14794514,34.78405514],[137.14794514,34.78405514]],[[137.14689861,34.78483703],[137.14689861,34.78483703]],[[137.15742489,34.59271105],[137.15742489,34.59271105]],[[137.15731586,34.59272511],[137.15731586,34.59272511]],[[137.15716083,34.59286056],[137.15716083,34.59286056]],[[137.15715842,34.59290233],[137.15715842,34.59290233]],[[137.15722109,34.5929842],[137.15722109,34.5929842]],[[137.15639365,34.59318636],[137.15639365,34.59318636]],[[137.15314283,34.59323489],[137.15314283,34.59323489]],[[137.15308025,34.59328133],[137.15308025,34.59328133]],[[137.15317728,34.59330253],[137.15317728,34.59330253]],[[137.15704628,34.59346111],[137.15704628,34.59346111]],[[137.1570985,34.59351897],[137.1570985,34.59351897]],[[137.15633134,34.59356697],[137.15633134,34.59356697]],[[137.15588917,34.59361175],[137.15588917,34.59361175]],[[137.15712056,34.59360056],[137.15712056,34.59360056]],[[137.15552744,34.59359972],[137.15552744,34.59359972]],[[137.15541655,34.59362064],[137.15541655,34.59362064]],[[137.15451433,34.59365056],[137.15451433,34.59365056]],[[137.15521486,34.59368867],[137.15521486,34.59368867]],[[137.15493786,34.593679],[137.15493786,34.593679]],[[137.15541141,34.59368059],[137.15541141,34.59368059]],[[137.15449742,34.59368408],[137.15449742,34.59368408]],[[137.15482044,34.5937192],[137.15482044,34.5937192]],[[137.15447866,34.59375703],[137.15447866,34.59375703]],[[137.15446231,34.59377128],[137.15446231,34.59377128]],[[137.15510136,34.59383264],[137.15510136,34.59383264]],[[137.15549555,34.59384375],[137.15549555,34.59384375]],[[137.15550647,34.59387053],[137.15550647,34.59387053]],[[137.15578597,34.593904],[137.15578597,34.593904]],[[137.15525375,34.59391975],[137.15525375,34.59391975]],[[137.15550219,34.59392725],[137.15550219,34.59392725]],[[137.15558528,34.59395828],[137.15558528,34.59395828]],[[137.15546633,34.59393528],[137.15546633,34.59393528]],[[137.15569416,34.59399695],[137.15569416,34.59399695]],[[137.15709625,34.59413014],[137.15709625,34.59413014]],[[137.15755847,34.59421592],[137.15755847,34.59421592]],[[137.15718333,34.59423525],[137.15718333,34.59423525]],[[137.1572337,34.59428764],[137.1572337,34.59428764]],[[137.15718584,34.5942898],[137.15718584,34.5942898]],[[137.15718956,34.59435356],[137.15718956,34.59435356]],[[137.15734511,34.59443189],[137.15734511,34.59443189]],[[137.1574092,34.59449383],[137.1574092,34.59449383]],[[137.15748289,34.59454533],[137.15748289,34.59454533]],[[137.15763531,34.59460259],[137.15763531,34.59460259]],[[137.15771314,34.594651],[137.15771314,34.594651]],[[137.15800878,34.59472992],[137.15800878,34.59472992]],[[137.15803834,34.59477372],[137.15803834,34.59477372]],[[137.158397,34.59481341],[137.158397,34.59481341]],[[137.15830869,34.59482964],[137.15830869,34.59482964]],[[137.15842272,34.59485064],[137.15842272,34.59485064]],[[137.15845608,34.59490825],[137.15845608,34.59490825]],[[137.15899287,34.59509159],[137.15899287,34.59509159]],[[137.15949992,34.59512631],[137.15949992,34.59512631]],[[137.15944791,34.59514605],[137.15944791,34.59514605]],[[137.15955572,34.59516516],[137.15955572,34.59516516]],[[137.15940942,34.59525216],[137.15940942,34.59525216]],[[137.15951047,34.59525613],[137.15951047,34.59525613]],[[137.16035975,34.59530441],[137.16035975,34.59530441]],[[137.16032878,34.59547408],[137.16032878,34.59547408]],[[137.16084322,34.59545311],[137.16084322,34.59545311]],[[137.16096992,34.59556256],[137.16096992,34.59556256]],[[137.16059053,34.59559453],[137.16059053,34.59559453]],[[137.16063642,34.59561356],[137.16063642,34.59561356]],[[137.16088314,34.59561961],[137.16088314,34.59561961]],[[137.16080409,34.59563008],[137.16080409,34.59563008]],[[137.16100947,34.59564928],[137.16100947,34.59564928]],[[137.16141406,34.59567472],[137.16141406,34.59567472]],[[137.16122883,34.59573475],[137.16122883,34.59573475]],[[137.16155839,34.59572314],[137.16155839,34.59572314]],[[137.16147128,34.59573072],[137.16147128,34.59573072]],[[137.16116241,34.59576831],[137.16116241,34.59576831]],[[137.16151477,34.59577389],[137.16151477,34.59577389]],[[137.16121684,34.5957838],[137.16121684,34.5957838]],[[137.16140783,34.59578192],[137.16140783,34.59578192]],[[137.16117083,34.59577859],[137.16117083,34.59577859]],[[137.16133217,34.59577849],[137.16133217,34.59577849]],[[137.16154214,34.59581383],[137.16154214,34.59581383]],[[137.16165575,34.59583041],[137.16165575,34.59583041]],[[137.16145361,34.59584872],[137.16145361,34.59584872]],[[137.16176148,34.59597647],[137.16176148,34.59597647]],[[137.16168309,34.59598369],[137.16168309,34.59598369]],[[137.16211613,34.596056],[137.16211613,34.596056]],[[137.16204472,34.59607953],[137.16204472,34.59607953]],[[137.16241636,34.59609489],[137.16241636,34.59609489]],[[137.16223047,34.59609513],[137.16223047,34.59609513]],[[137.16214197,34.59611714],[137.16214197,34.59611714]],[[137.16208581,34.59613533],[137.16208581,34.59613533]],[[137.16215558,34.59619792],[137.16215558,34.59619792]],[[137.16245606,34.59622759],[137.16245606,34.59622759]],[[137.15895399,34.65585969],[137.15895399,34.65585969]],[[137.15937995,34.65670183],[137.15937995,34.65670183]],[[137.15788533,34.78310031],[137.15788533,34.78310031]],[[137.15781258,34.78312753],[137.15781258,34.78312753]],[[137.15878492,34.78317708],[137.15878492,34.78317708]],[[137.15911927,34.78320197],[137.15911927,34.78320197]],[[137.16278725,34.59609056],[137.16278725,34.59609056]],[[137.16278051,34.59619703],[137.16278051,34.59619703]],[[137.162557,34.596223],[137.162557,34.596223]],[[137.16269163,34.59628178],[137.16269163,34.59628178]],[[137.16409039,34.59625053],[137.16409039,34.59625053]],[[137.16290664,34.59626772],[137.16290664,34.59626772]],[[137.16284241,34.59630233],[137.16284241,34.59630233]],[[137.16296092,34.59637978],[137.16296092,34.59637978]],[[137.16324163,34.59640314],[137.16324163,34.59640314]],[[137.16410389,34.59643705],[137.16410389,34.59643705]],[[137.16308739,34.59645083],[137.16308739,34.59645083]],[[137.1641862,34.59648459],[137.1641862,34.59648459]],[[137.16328733,34.59649772],[137.16328733,34.59649772]],[[137.16316555,34.59652664],[137.16316555,34.59652664]],[[137.16384095,34.59651323],[137.16384095,34.59651323]],[[137.16411175,34.59653353],[137.16411175,34.59653353]],[[137.16378195,34.59656264],[137.16378195,34.59656264]],[[137.16443966,34.59661414],[137.16443966,34.59661414]],[[137.16391681,34.59658914],[137.16391681,34.59658914]],[[137.16422511,34.59662169],[137.16422511,34.59662169]],[[137.164538,34.59677305],[137.164538,34.59677305]],[[137.16416438,34.59672933],[137.16416438,34.59672933]],[[137.16412603,34.59676864],[137.16412603,34.59676864]],[[137.16407097,34.59681364],[137.16407097,34.59681364]],[[137.16473601,34.59680967],[137.16473601,34.59680967]],[[137.16474089,34.59694561],[137.16474089,34.59694561]],[[137.16492864,34.59697223],[137.16492864,34.59697223]],[[137.16463905,34.59702433],[137.16463905,34.59702433]],[[137.16507014,34.59702811],[137.16507014,34.59702811]],[[137.16513623,34.59704931],[137.16513623,34.59704931]],[[137.1650625,34.59705941],[137.1650625,34.59705941]],[[137.165066,34.59711756],[137.165066,34.59711756]],[[137.16514122,34.59712956],[137.16514122,34.59712956]],[[137.16575436,34.59725783],[137.16575436,34.59725783]],[[137.16591713,34.59734664],[137.16591713,34.59734664]],[[137.16602594,34.59737747],[137.16602594,34.59737747]],[[137.16612722,34.5974212],[137.16612722,34.5974212]],[[137.16610173,34.59745653],[137.16610173,34.59745653]],[[137.16636272,34.59757995],[137.16636272,34.59757995]],[[137.16757506,34.5976398],[137.16757506,34.5976398]],[[137.16718453,34.59794769],[137.16718453,34.59794769]],[[137.16723914,34.59793841],[137.16723914,34.59793841]],[[137.16732636,34.59797725],[137.16732636,34.59797725]],[[137.16770109,34.59810753],[137.16770109,34.59810753]],[[137.16954514,34.59887975],[137.16954514,34.59887975]],[[137.22046531,34.61293472],[137.22046531,34.61293472]],[[137.22053167,34.61303278],[137.22053167,34.61303278]],[[137.22049616,34.61309553],[137.22049616,34.61309553]],[[137.22034633,34.61309687],[137.22034633,34.61309687]],[[137.22033425,34.61314033],[137.22033425,34.61314033]],[[137.22041189,34.61314741],[137.22041189,34.61314741]],[[137.22061866,34.61316778],[137.22061866,34.61316778]],[[137.22027453,34.61316711],[137.22027453,34.61316711]],[[137.22073185,34.6131745],[137.22073185,34.6131745]],[[137.22065039,34.61318328],[137.22065039,34.61318328]],[[137.22019647,34.61322225],[137.22019647,34.61322225]],[[137.22069601,34.61321516],[137.22069601,34.61321516]],[[137.22080886,34.61321077],[137.22080886,34.61321077]],[[137.2209515,34.61321803],[137.2209515,34.61321803]],[[137.22012669,34.6132202],[137.22012669,34.6132202]],[[137.22085151,34.61323122],[137.22085151,34.61323122]],[[137.22025636,34.61323844],[137.22025636,34.61323844]],[[137.22103122,34.61324108],[137.22103122,34.61324108]],[[137.22082317,34.61325289],[137.22082317,34.61325289]],[[137.22010839,34.61326547],[137.22010839,34.61326547]],[[137.22092012,34.61327403],[137.22092012,34.61327403]],[[137.22008681,34.61328025],[137.22008681,34.61328025]],[[137.21999514,34.61330841],[137.21999514,34.61330841]],[[137.22003645,34.61329316],[137.22003645,34.61329316]],[[137.21999864,34.61332275],[137.21999864,34.61332275]],[[137.21997953,34.61331808],[137.21997953,34.61331808]],[[137.22003986,34.61334653],[137.22003986,34.61334653]],[[137.21990389,34.6133658],[137.21990389,34.6133658]],[[137.21999172,34.61344833],[137.21999172,34.61344833]],[[137.21981608,34.61349161],[137.21981608,34.61349161]],[[137.21988555,34.61349941],[137.21988555,34.61349941]],[[137.21985995,34.61350692],[137.21985995,34.61350692]],[[137.21985525,34.61351683],[137.21985525,34.61351683]],[[137.21987,34.61357669],[137.21987,34.61357669]],[[137.21980708,34.613575],[137.21980708,34.613575]],[[137.20702608,34.67848589],[137.20702608,34.67848589]],[[137.20734822,34.67848814],[137.20734822,34.67848814]],[[137.16836708,34.76781736],[137.16836708,34.76781736]],[[137.17223448,34.77036039],[137.17223448,34.77036039]],[[137.17310241,34.77239739],[137.17310241,34.77239739]],[[137.172639,34.77449875],[137.172639,34.77449875]],[[137.17431361,34.77855875],[137.17431361,34.77855875]],[[137.17516297,34.7804315],[137.17516297,34.7804315]],[[137.18815975,34.78648261],[137.18815975,34.78648261]],[[137.19200852,34.7873172],[137.1921849,34.79409323],[137.19200852,34.7873172]],[[137.19166655,34.79419772],[137.19166655,34.79419772]],[[137.21342541,34.80295141],[137.21342541,34.80295141]],[[137.19888808,34.80722772],[137.19888808,34.80722772]],[[137.21767733,34.81055667],[137.21767733,34.81055667]],[[137.22197447,34.61230775],[137.22197447,34.61230775]],[[137.22149552,34.61290567],[137.22149552,34.61290567]],[[137.22229136,34.61296769],[137.22229136,34.61296769]],[[137.22140092,34.61296595],[137.22140092,34.61296595]],[[137.22149394,34.61297689],[137.22149394,34.61297689]],[[137.22133888,34.613015],[137.22133888,34.613015]],[[137.22167095,34.61301531],[137.22167095,34.61301531]],[[137.22138022,34.61303067],[137.22138022,34.61303067]],[[137.22147053,34.61303847],[137.22147053,34.61303847]],[[137.22213244,34.61307967],[137.22213244,34.61307967]],[[137.22136306,34.61309189],[137.22136306,34.61309189]],[[137.2215083,34.61310878],[137.2215083,34.61310878]],[[137.22202635,34.61310956],[137.22202635,34.61310956]],[[137.22230956,34.61308887],[137.22230956,34.61308887]],[[137.22132197,34.61312428],[137.22132197,34.61312428]],[[137.22167275,34.61313783],[137.22167275,34.61313783]],[[137.22149655,34.61315369],[137.22149655,34.61315369]],[[137.22176219,34.61315159],[137.22176219,34.61315159]],[[137.22173209,34.61314547],[137.22173209,34.61314547]],[[137.22192523,34.61316205],[137.22192523,34.61316205]],[[137.22142766,34.61317456],[137.22142766,34.61317456]],[[137.22153538,34.61318233],[137.22153538,34.61318233]],[[137.22186034,34.61318516],[137.22186034,34.61318516]],[[137.22113311,34.61315467],[137.22113311,34.61315467]],[[137.22171706,34.61318847],[137.22171706,34.61318847]],[[137.22195008,34.61318503],[137.22195008,34.61318503]],[[137.2220235,34.61320383],[137.2220235,34.61320383]],[[137.22228606,34.61318687],[137.22228606,34.61318687]],[[137.22108594,34.61322275],[137.22108594,34.61322275]],[[137.22125703,34.61319753],[137.22125703,34.61319753]],[[137.22105781,34.61321844],[137.22105781,34.61321844]],[[137.22196506,34.61321569],[137.22196506,34.61321569]],[[137.22210601,34.61330747],[137.22210601,34.61330747]],[[137.2224255,34.61346203],[137.2224255,34.61346203]],[[137.22235733,34.61347586],[137.22235733,34.61347586]],[[137.22323659,34.61382075],[137.22323659,34.61382075]],[[137.22516811,34.67693505],[137.22516811,34.67693505]],[[137.2253327,34.67662836],[137.2253327,34.67662836]],[[137.22576722,34.6769142],[137.22576722,34.6769142]],[[137.22638558,34.67728967],[137.22638558,34.67728967]],[[137.22660064,34.67755486],[137.22660064,34.67755486]],[[137.22672283,34.67766525],[137.22672283,34.67766525]],[[137.23475742,34.68916541],[137.23475742,34.68916541]],[[137.31615406,34.6973008],[137.31615406,34.6973008]],[[137.31180066,34.69685],[137.31180066,34.69685]],[[137.31614336,34.69942256],[137.31614336,34.69942256]],[[137.24652306,34.71056941],[137.24652306,34.71056941]],[[137.24655419,34.71181753],[137.24655419,34.71181753]],[[137.24950292,34.71070095],[137.25336791,34.71563639],[137.24950292,34.71070095]],[[137.26869608,34.72064839],[137.26869608,34.72064839]],[[137.27215154,34.73315186],[137.27549447,34.72962431],[137.27215154,34.73315186]],[[137.30972274,34.74035256],[137.31916547,34.74848972],[137.31868789,34.7331192],[137.30805875,34.73505122],[137.30972274,34.74035256]],[[137.27091148,34.73763972],[137.29056551,34.74881739],[137.27091148,34.73763972]],[[137.23216306,34.78012777],[137.23216306,34.78012777]],[[137.23652514,34.78382503],[137.23652514,34.78382503]],[[137.23640678,34.78444236],[137.23640678,34.78444236]],[[137.23631795,34.78483214],[137.23631795,34.78483214]],[[137.22919639,34.78657097],[137.22919639,34.78657097]],[[137.23300497,34.78683413],[137.23300497,34.78683413]],[[137.23109761,34.78677603],[137.23109761,34.78677603]],[[137.23134635,34.78686028],[137.23134635,34.78686028]],[[137.23182389,34.78687392],[137.23182389,34.78687392]],[[137.22891292,34.78688536],[137.22891292,34.78688536]],[[137.22872728,34.7882322],[137.22872728,34.7882322]],[[137.22867577,34.78833005],[137.22867577,34.78833005]],[[137.22877331,34.78838967],[137.22877331,34.78838967]],[[137.22874431,34.78847408],[137.22874431,34.78847408]],[[137.23413744,34.79030125],[137.22902783,34.78682697],[137.23413744,34.79030125]],[[137.29927542,34.80391731],[137.29862844,34.80990367],[137.3113735,34.79906369],[137.30113565,34.79511614],[137.29927542,34.80391731]],[[137.26189027,34.80300897],[137.26189027,34.80300897]],[[137.25702263,34.80335903],[137.25702263,34.80335903]],[[137.29835655,34.80821206],[137.29835655,34.80821206]],[[137.29972367,34.80813214],[137.29972367,34.80813214]],[[137.24627492,34.80923469],[137.24627492,34.80923469]],[[137.23141973,34.81205247],[137.23141973,34.81205247]],[[137.22503917,34.81484172],[137.2305427,34.81506495],[137.22503917,34.81484172]]]}}]}