{"type": "FeatureCollection", "features": [{"type": "Feature", "properties": {}, "geometry": {"type": "MultiLineString", "coordinates": [[[139.090406, 37.044917], [139.091487, 37.039862], [139.088836, 37.028929], [139.091195, 37.019969], [139.080504, 37.00864], [139.073541, 37.00853], [139.065561, 37.004909], [139.062433, 37.001523], [139.05463, 36.998512], [139.050117, 36.994867], [139.047731, 36.98767], [139.030327, 36.983703], [139.015499, 36.988286], [139.000645, 36.979213], [138.990409, 36.98027], [138.983584, 36.979864], [138.969846, 36.981414], [138.966479, 36.97884], [138.967748, 36.973412], [138.965759, 36.967867], [138.966097, 36.957608], [138.963802, 36.95277], [138.9657, 36.943301], [138.966801, 36.930793], [138.976691, 36.920791], [138.974396, 36.913148], [138.979735, 36.904459], [138.979168, 36.891176], [138.971554, 36.887268], [138.967049, 36.891049], [138.953717, 36.895195], [138.949658, 36.893058], [138.940398, 36.895123], [138.932443, 36.893551], [138.93053, 36.886967], [138.923006, 36.883385], [138.922021, 36.878759], [138.917168, 36.870373], [138.921488, 36.865611], [138.922115, 36.861037], [138.91794, 36.856843], [138.91705, 36.848938], [138.924048, 36.847233], [138.929796, 36.837504], [138.929067, 36.832644], [138.902597, 36.827116], [138.884896, 36.826186], [138.87953, 36.824977], [138.875583, 36.818589], [138.86458, 36.816303], [138.857312, 36.812088], [138.850947, 36.812032], [138.83957, 36.817176], [138.836367, 36.815437], [138.829544, 36.817789], [138.821744, 36.817626], [138.821592, 36.813088], [138.826152, 36.805372], [138.829102, 36.79537], [138.829704, 36.78589], [138.828696, 36.781067], [138.825055, 36.775775], [138.826923, 36.772291], [138.821109, 36.763859], [138.81777, 36.761586], [138.810361, 36.765086], [138.806287, 36.764533], [138.795345, 36.758137], [138.792663, 36.752641], [138.792708, 36.747937], [138.789419, 36.744874], [138.777957, 36.747702], [138.770344, 36.746165], [138.761278, 36.749057], [138.753325, 36.754983], [138.746014, 36.758594], [138.740579, 36.759349], [138.734913, 36.762813], [138.727027, 36.764169], [138.72139, 36.759236], [138.721874, 36.74969], [138.715776, 36.74575], [138.713074, 36.739218], [138.705285, 36.736576], [138.697371, 36.737641], [138.694859, 36.743838], [138.691948, 36.746119], [138.691529, 36.758575], [138.688, 36.765848], [138.680011, 36.766436], [138.669544, 36.773661], [138.669002, 36.779075], [138.671714, 36.78359], [138.684211, 36.787924], [138.689452, 36.793572], [138.68915, 36.798439], [138.695788, 36.809056], [138.689977, 36.812893], [138.68718, 36.818052], [138.68028, 36.820147], [138.680672, 36.824161], [138.690012, 36.832351], [138.691649, 36.841473], [138.690353, 36.845659], [138.693559, 36.852433], [138.68845, 36.860628], [138.681658, 36.865348], [138.676498, 36.867251], [138.666705, 36.866615], [138.657356, 36.868046], [138.650972, 36.874421], [138.641806, 36.875645], [138.640911, 36.878579], [138.623421, 36.884664], [138.617812, 36.891884], [138.617737, 36.897209], [138.621015, 36.904082], [138.612867, 36.908549], [138.596188, 36.907114], [138.589291, 36.915452], [138.592006, 36.925412], [138.587158, 36.926126], [138.584517, 36.931891], [138.586557, 36.954034], [138.585513, 36.95741], [138.588165, 36.976938], [138.586302, 36.986888], [138.581236, 36.992899], [138.575664, 36.996625], [138.573237, 37.004539], [138.570987, 37.005404], [138.5698, 37.015461], [138.565889, 37.021261], [138.552537, 37.023624], [138.548506, 37.02119], [138.536511, 37.020927], [138.528756, 37.024772], [138.524667, 37.030378], [138.519859, 37.027826], [138.512794, 37.027799], [138.501434, 37.025067], [138.497438, 37.026446], [138.491723, 37.02046], [138.482673, 37.019824], [138.481412, 37.021554], [138.468005, 37.017829], [138.455132, 37.019615], [138.450943, 37.014996], [138.44265, 37.013024], [138.431379, 37.006078], [138.422557, 37.005303], [138.411895, 37.002032], [138.411041, 36.998655], [138.400429, 36.997856], [138.393829, 36.995119], [138.390662, 36.988454], [138.384195, 36.983082], [138.378695, 36.980437], [138.382274, 36.976421], [138.376046, 36.972296], [138.374445, 36.968426], [138.369516, 36.964011], [138.368197, 36.957279], [138.363784, 36.953373], [138.364521, 36.944277], [138.359713, 36.93998], [138.357711, 36.933848], [138.348967, 36.929008], [138.343204, 36.920797], [138.337597, 36.924886], [138.329321, 36.926882], [138.317569, 36.925185], [138.315393, 36.922511], [138.309031, 36.920324], [138.296325, 36.91082], [138.294038, 36.900925], [138.290289, 36.896812], [138.294555, 36.89304], [138.295284, 36.888488], [138.299368, 36.886722], [138.292997, 36.878125], [138.293332, 36.873307], [138.288567, 36.868443], [138.296235, 36.858253], [138.29561, 36.85509], [138.288749, 36.851023], [138.287612, 36.845707], [138.274901, 36.840855], [138.270531, 36.844244], [138.271724, 36.855045], [138.268356, 36.860457], [138.258024, 36.863981], [138.254877, 36.869943], [138.249314, 36.865335], [138.242373, 36.864027], [138.22937, 36.864176], [138.2169, 36.866517], [138.213034, 36.868296], [138.206407, 36.862989], [138.205739, 36.859118], [138.195594, 36.853673], [138.177825, 36.851806], [138.176646, 36.848423], [138.169017, 36.845073], [138.162818, 36.844298], [138.150269, 36.846468], [138.147744, 36.849222], [138.141507, 36.847172], [138.131838, 36.850671], [138.125326, 36.848062], [138.115052, 36.850393], [138.106346, 36.843784], [138.099287, 36.843509], [138.093339, 36.8402], [138.090608, 36.836395], [138.081447, 36.829922], [138.077523, 36.822321], [138.073016, 36.816847], [138.075234, 36.810499], [138.068168, 36.803838], [138.064816, 36.804428], [138.052224, 36.79996], [138.051845, 36.80746], [138.044957, 36.809785], [138.038756, 36.807707], [138.033797, 36.808834], [138.028878, 36.817114], [138.021901, 36.81945], [138.01704, 36.818827], [138.01104, 36.82343], [138.003461, 36.826414], [138.014203, 36.83871], [138.020065, 36.842221], [138.018875, 36.850438], [138.015833, 36.852395], [138.016591, 36.860404], [138.020959, 36.863488], [138.026412, 36.873534], [138.031623, 36.878139], [138.032849, 36.886192], [138.031062, 36.891362], [138.025707, 36.892254], [138.021742, 36.890523], [138.015577, 36.893214], [138.015698, 36.9014], [138.013737, 36.904021], [138.002855, 36.90501], [137.994617, 36.908072], [137.99157, 36.910688], [137.976445, 36.908292], [137.969574, 36.910813], [137.965972, 36.904568], [137.962353, 36.902112], [137.953213, 36.905006], [137.947372, 36.91303], [137.93212, 36.914272], [137.925117, 36.918594], [137.919741, 36.91987], [137.910979, 36.917864], [137.902757, 36.914267], [137.900719, 36.911588], [137.893259, 36.90996], [137.878608, 36.912707], [137.87465, 36.915853], [137.868135, 36.915898], [137.86347, 36.912895], [137.862615, 36.906953], [137.871433, 36.902696], [137.868604, 36.897424], [137.865015, 36.896243], [137.861665, 36.890779], [137.866261, 36.887221], [137.868296, 36.877786], [137.87785, 36.87319], [137.873397, 36.863577], [137.868177, 36.862731], [137.855922, 36.849503], [137.856864, 36.843827], [137.851366, 36.837838], [137.845222, 36.834619], [137.843742, 36.829681], [137.840179, 36.827689], [137.831048, 36.817813], [137.832572, 36.811507], [137.830975, 36.808013], [137.822781, 36.805984], [137.819982, 36.798222], [137.799429, 36.788385], [137.793275, 36.786657], [137.791496, 36.779197], [137.781935, 36.772982], [137.775733, 36.773641], [137.767418, 36.770525], [137.764805, 36.767639], [137.757844, 36.774496], [137.749672, 36.779713], [137.750856, 36.791314], [137.754293, 36.79659], [137.750973, 36.800557], [137.749254, 36.809694], [137.744871, 36.815219], [137.73199, 36.82364], [137.730068, 36.826765], [137.734438, 36.8314], [137.732649, 36.836138], [137.734156, 36.842197], [137.73287, 36.845036], [137.73516, 36.855191], [137.732065, 36.873688], [137.72491, 36.877903], [137.712983, 36.893759], [137.71418, 36.899925], [137.712571, 36.904081], [137.71784, 36.907804], [137.717931, 36.922641], [137.720456, 36.92669], [137.713373, 36.935053], [137.711154, 36.944235], [137.698643, 36.942269], [137.687463, 36.943201], [137.679842, 36.948356], [137.666206, 36.953694], [137.657738, 36.95983], [137.651536, 36.969021], [137.637673, 36.976549], [137.636322, 36.979775], [137.651155, 36.980639], [137.658386, 36.984884], [137.668048, 36.985883], [137.680047, 36.990609], [137.700429, 36.994451], [137.711162, 36.998617], [137.726547, 37.002278], [137.728765, 37.004193], [137.74165, 37.008305], [137.767298, 37.017547], [137.791513, 37.024865], [137.813233, 37.030896], [137.82858, 37.039745], [137.833738, 37.041017], [137.840601, 37.040401], [137.846074, 37.044471], [137.885009, 37.05225], [137.912478, 37.060909], [137.928914, 37.0705], [137.940347, 37.075375], [137.942858, 37.080871], [137.949248, 37.085885], [137.961438, 37.088517], [137.973405, 37.094601], [137.974479, 37.097474], [137.980606, 37.1015], [137.989309, 37.104814], [137.995313, 37.110121], [138.005081, 37.115233], [138.013616, 37.115722], [138.017178, 37.114097], [138.027506, 37.11667], [138.032641, 37.120631], [138.038264, 37.122029], [138.048715, 37.12791], [138.052968, 37.134511], [138.057937, 37.13787], [138.05996, 37.143362], [138.067769, 37.148167], [138.082936, 37.158009], [138.091514, 37.170167], [138.101788, 37.174058], [138.106368, 37.172535], [138.122799, 37.170259], [138.131689, 37.164181], [138.147802, 37.163231], [138.151632, 37.161131], [138.166225, 37.161988], [138.177218, 37.164146], [138.196719, 37.170133], [138.205356, 37.169678], [138.207232, 37.168046], [138.216257, 37.169271], [138.231679, 37.174168], [138.237048, 37.176879], [138.246915, 37.184015], [138.254894, 37.1918], [138.264929, 37.197784], [138.267409, 37.194937], [138.275795, 37.198328], [138.270079, 37.204179], [138.271692, 37.208068], [138.277586, 37.211791], [138.285396, 37.204071], [138.315624, 37.224702], [138.355818, 37.255115], [138.376768, 37.272306], [138.381915, 37.275716], [138.388255, 37.282372], [138.393405, 37.285929], [138.411947, 37.300985], [138.418097, 37.306587], [138.437046, 37.322218], [138.436709, 37.324612], [138.446288, 37.324164], [138.461201, 37.336484], [138.464601, 37.335646], [138.485763, 37.346215], [138.488671, 37.351465], [138.500347, 37.351934], [138.512752, 37.355922], [138.528186, 37.366049], [138.534712, 37.366859], [138.54145, 37.369727], [138.543332, 37.372815], [138.551898, 37.375793], [138.564716, 37.389664], [138.578017, 37.407415], [138.582733, 37.415251], [138.587844, 37.420833], [138.591548, 37.428823], [138.608694, 37.454711], [138.611204, 37.461371], [138.617598, 37.473204], [138.61732, 37.484072], [138.625933, 37.485083], [138.630064, 37.487023], [138.634582, 37.495354], [138.640349, 37.49854], [138.647419, 37.506227], [138.647968, 37.509071], [138.654873, 37.516315], [138.654852, 37.519897], [138.660215, 37.523524], [138.665275, 37.529847], [138.67628, 37.538331], [138.690717, 37.544874], [138.699521, 37.550978], [138.709061, 37.555307], [138.717401, 37.56372], [138.727291, 37.577792], [138.731761, 37.587325], [138.731481, 37.589601], [138.748293, 37.605703], [138.750179, 37.612147], [138.759561, 37.629669], [138.759929, 37.635055], [138.766902, 37.644154], [138.761304, 37.647842], [138.770033, 37.652587], [138.782551, 37.692298], [138.785983, 37.704511], [138.78555, 37.70724], [138.787235, 37.710296], [138.784827, 37.715166], [138.788264, 37.725402], [138.795127, 37.734592], [138.795674, 37.744122], [138.801166, 37.752746], [138.809146, 37.767605], [138.810238, 37.772124], [138.815827, 37.781145], [138.815299, 37.783155], [138.819262, 37.79315], [138.822404, 37.794585], [138.832893, 37.805829], [138.834199, 37.810337], [138.860198, 37.831536], [138.869623, 37.838725], [138.8826, 37.847052], [138.898388, 37.856062], [138.917899, 37.865361], [138.925574, 37.871255], [138.937752, 37.875808], [138.940259, 37.878603], [138.94778, 37.880443], [138.967764, 37.890507], [138.988912, 37.902389], [139.000764, 37.908267], [139.005363, 37.912832], [139.00987, 37.914316], [139.036858, 37.930345], [139.053608, 37.941096], [139.058028, 37.946488], [139.066262, 37.944386], [139.06918, 37.94846], [139.075575, 37.951601], [139.090584, 37.954308], [139.094408, 37.95853], [139.109401, 37.958458], [139.123152, 37.962169], [139.129641, 37.96018], [139.16759, 37.973087], [139.186006, 37.977189], [139.201078, 37.982461], [139.204838, 37.98849], [139.215134, 37.993036], [139.221252, 37.989405], [139.228355, 37.975496], [139.219343, 37.969487], [139.221706, 37.967665], [139.227821, 37.971121], [139.233071, 37.965767], [139.233956, 37.971719], [139.238491, 37.972044], [139.23061, 37.980715], [139.225536, 37.991975], [139.230399, 37.994288], [139.22744, 37.999026], [139.241316, 38.006857], [139.24596, 38.004498], [139.258552, 38.011324], [139.27472, 38.021189], [139.288419, 38.030475], [139.302885, 38.040443], [139.313573, 38.049468], [139.330838, 38.063561], [139.346353, 38.078001], [139.382741, 38.117703], [139.396926, 38.134873], [139.399856, 38.140331], [139.409034, 38.149763], [139.41206, 38.153163], [139.414208, 38.159662], [139.424766, 38.1722], [139.430868, 38.184395], [139.432194, 38.189957], [139.428814, 38.191008], [139.42815, 38.200042], [139.432179, 38.208381], [139.440803, 38.220201], [139.449233, 38.234302], [139.450072, 38.240682], [139.441696, 38.245544], [139.44415, 38.256811], [139.446687, 38.262014], [139.44556, 38.267763], [139.448959, 38.273835], [139.447892, 38.283467], [139.449108, 38.292693], [139.446622, 38.293983], [139.450658, 38.303928], [139.450906, 38.310065], [139.448819, 38.312942], [139.448874, 38.319319], [139.451199, 38.324942], [139.451215, 38.338775], [139.452625, 38.347976], [139.450253, 38.35603], [139.45092, 38.361478], [139.454591, 38.367834], [139.460201, 38.381642], [139.456739, 38.38424], [139.455037, 38.389821], [139.457289, 38.397536], [139.462506, 38.401123], [139.462506, 38.405918], [139.467218, 38.410587], [139.467672, 38.417269], [139.475782, 38.427358], [139.482572, 38.433615], [139.481881, 38.439931], [139.487834, 38.44781], [139.494946, 38.454366], [139.501342, 38.469119], [139.507171, 38.477155], [139.507963, 38.484477], [139.51443, 38.490644], [139.520825, 38.500707], [139.521833, 38.505678], [139.527157, 38.51089], [139.537791, 38.524265], [139.549908, 38.543278], [139.550036, 38.551215], [139.556596, 38.545244], [139.565087, 38.54256], [139.571761, 38.538514], [139.577139, 38.53962], [139.582829, 38.532534], [139.595474, 38.526821], [139.599446, 38.522219], [139.613893, 38.526252], [139.621676, 38.525397], [139.626851, 38.522132], [139.631392, 38.52178], [139.640521, 38.510832], [139.647358, 38.51059], [139.653064, 38.506968], [139.662027, 38.508456], [139.667114, 38.506498], [139.682882, 38.504959], [139.692911, 38.50683], [139.701623, 38.5016], [139.702528, 38.499163], [139.710244, 38.499459], [139.720722, 38.496346], [139.720832, 38.492158], [139.725758, 38.486564], [139.716046, 38.479026], [139.71227, 38.479207], [139.712037, 38.471729], [139.715965, 38.467207], [139.715147, 38.459438], [139.720133, 38.450692], [139.716509, 38.432132], [139.718555, 38.429219], [139.717041, 38.420989], [139.712043, 38.412701], [139.705885, 38.407578], [139.703389, 38.400218], [139.704801, 38.393561], [139.709528, 38.387488], [139.712327, 38.386937], [139.722063, 38.394025], [139.725805, 38.391637], [139.726235, 38.387353], [139.731119, 38.381447], [139.728945, 38.376838], [139.732878, 38.371417], [139.752283, 38.35897], [139.761629, 38.361061], [139.770722, 38.352906], [139.775016, 38.353969], [139.78394, 38.352969], [139.789643, 38.348711], [139.798157, 38.351574], [139.803572, 38.355067], [139.816491, 38.356012], [139.819974, 38.351903], [139.825451, 38.35034], [139.827236, 38.345003], [139.838724, 38.342786], [139.848378, 38.342799], [139.84773, 38.33658], [139.856893, 38.332279], [139.86532, 38.325773], [139.86688, 38.321626], [139.875034, 38.316649], [139.879326, 38.303429], [139.888523, 38.300959], [139.898888, 38.293152], [139.899824, 38.287444], [139.898025, 38.278035], [139.899905, 38.275806], [139.888685, 38.269419], [139.884164, 38.265017], [139.876598, 38.261789], [139.875695, 38.252128], [139.868577, 38.247986], [139.863918, 38.238862], [139.863855, 38.234894], [139.860185, 38.231066], [139.846975, 38.224558], [139.838625, 38.223548], [139.819281, 38.212793], [139.810954, 38.211516], [139.806886, 38.207048], [139.802296, 38.206566], [139.800194, 38.202381], [139.790497, 38.198003], [139.78648, 38.194172], [139.781171, 38.194241], [139.776059, 38.198152], [139.770077, 38.197225], [139.763741, 38.198958], [139.758245, 38.193036], [139.746904, 38.196368], [139.738652, 38.2021], [139.731377, 38.200833], [139.713224, 38.206644], [139.708876, 38.204312], [139.698636, 38.202946], [139.702605, 38.199478], [139.698367, 38.195059], [139.696372, 38.186586], [139.692345, 38.182494], [139.687898, 38.182386], [139.68751, 38.178064], [139.682456, 38.169609], [139.685529, 38.166494], [139.684727, 38.159421], [139.690521, 38.155284], [139.691567, 38.145235], [139.688369, 38.134655], [139.690553, 38.119272], [139.693893, 38.115885], [139.692147, 38.113001], [139.682671, 38.108074], [139.674787, 38.091577], [139.672344, 38.076933], [139.681809, 38.075382], [139.686466, 38.076886], [139.691566, 38.071192], [139.68655, 38.06598], [139.692726, 38.057029], [139.690274, 38.052431], [139.682053, 38.049526], [139.680149, 38.043265], [139.674832, 38.040585], [139.662674, 38.040015], [139.657559, 38.037399], [139.656765, 38.028518], [139.652391, 38.020565], [139.654408, 38.014744], [139.652626, 38.002962], [139.654294, 37.996507], [139.643513, 37.994549], [139.64497, 37.991888], [139.63934, 37.984367], [139.644256, 37.979776], [139.638607, 37.968654], [139.642915, 37.967113], [139.645247, 37.962627], [139.642296, 37.959313], [139.640101, 37.952339], [139.642996, 37.946834], [139.639386, 37.934717], [139.631786, 37.930305], [139.627046, 37.924338], [139.62499, 37.918395], [139.628613, 37.912444], [139.626344, 37.90917], [139.631974, 37.898967], [139.629317, 37.893657], [139.63184, 37.889274], [139.637953, 37.883775], [139.638458, 37.880023], [139.650445, 37.875879], [139.656702, 37.87174], [139.657131, 37.863538], [139.679003, 37.85153], [139.681853, 37.846743], [139.697751, 37.847693], [139.71069, 37.854394], [139.71497, 37.852597], [139.716192, 37.846407], [139.720556, 37.839568], [139.727161, 37.83488], [139.728936, 37.83128], [139.735978, 37.827919], [139.741505, 37.817713], [139.738839, 37.815638], [139.729038, 37.813437], [139.721621, 37.809423], [139.71354, 37.798992], [139.704948, 37.795839], [139.69656, 37.785122], [139.68019, 37.775044], [139.67769, 37.770088], [139.668706, 37.763265], [139.666501, 37.756999], [139.657888, 37.755007], [139.659101, 37.750415], [139.657232, 37.74085], [139.652361, 37.737943], [139.649613, 37.729062], [139.642948, 37.727608], [139.640338, 37.722957], [139.635275, 37.719858], [139.624488, 37.708349], [139.621719, 37.699821], [139.628318, 37.691946], [139.627278, 37.688365], [139.617834, 37.688826], [139.609412, 37.684271], [139.605315, 37.674771], [139.600923, 37.668831], [139.593831, 37.665076], [139.58866, 37.667248], [139.584805, 37.66232], [139.579993, 37.660871], [139.568493, 37.653134], [139.563058, 37.653814], [139.558843, 37.651464], [139.549321, 37.649093], [139.552597, 37.642492], [139.551691, 37.636823], [139.547728, 37.633998], [139.54604, 37.628891], [139.547888, 37.62176], [139.55215, 37.618754], [139.548104, 37.613647], [139.548508, 37.609865], [139.554367, 37.602396], [139.56235, 37.60011], [139.565706, 37.59281], [139.564154, 37.588831], [139.570403, 37.579512], [139.571832, 37.56827], [139.567591, 37.56275], [139.570225, 37.550531], [139.565737, 37.54611], [139.570628, 37.543999], [139.570199, 37.539064], [139.576563, 37.53457], [139.578532, 37.530158], [139.585515, 37.527767], [139.590585, 37.527941], [139.586959, 37.520227], [139.585106, 37.512897], [139.578414, 37.509687], [139.567032, 37.502346], [139.55594, 37.50429], [139.555235, 37.50607], [139.542846, 37.512025], [139.539157, 37.511158], [139.531644, 37.512858], [139.520095, 37.513837], [139.513788, 37.508624], [139.508364, 37.510746], [139.496737, 37.51257], [139.485986, 37.51031], [139.483758, 37.506924], [139.475798, 37.502583], [139.471778, 37.506383], [139.466098, 37.50833], [139.463605, 37.512901], [139.457199, 37.517868], [139.450647, 37.517358], [139.438951, 37.513189], [139.428429, 37.51425], [139.414216, 37.508297], [139.410655, 37.50202], [139.414032, 37.496801], [139.407891, 37.492461], [139.406967, 37.486675], [139.409851, 37.483886], [139.405787, 37.477572], [139.404696, 37.468036], [139.406362, 37.466206], [139.397513, 37.459839], [139.385523, 37.463614], [139.37961, 37.463109], [139.368536, 37.465407], [139.36255, 37.469968], [139.351254, 37.465556], [139.34583, 37.460271], [139.335143, 37.457789], [139.327536, 37.459965], [139.326471, 37.462386], [139.315221, 37.459216], [139.310482, 37.45565], [139.307125, 37.458601], [139.286512, 37.452245], [139.282029, 37.449831], [139.27722, 37.452826], [139.258916, 37.447064], [139.256332, 37.450922], [139.25122, 37.45244], [139.237469, 37.445148], [139.222999, 37.448616], [139.213033, 37.438653], [139.213623, 37.436609], [139.207532, 37.428909], [139.206735, 37.424126], [139.208371, 37.417075], [139.198689, 37.413027], [139.197246, 37.410767], [139.201954, 37.408662], [139.207604, 37.400603], [139.207712, 37.396218], [139.215301, 37.391264], [139.221937, 37.393334], [139.22732, 37.388655], [139.231665, 37.387375], [139.231461, 37.380232], [139.234974, 37.378768], [139.238032, 37.372948], [139.237587, 37.368128], [139.233554, 37.357014], [139.234845, 37.350766], [139.233622, 37.343607], [139.228149, 37.343276], [139.221868, 37.335717], [139.21787, 37.33403], [139.221093, 37.323676], [139.224221, 37.321434], [139.222113, 37.31501], [139.215691, 37.308643], [139.217707, 37.305246], [139.215254, 37.300266], [139.214675, 37.292122], [139.21229, 37.286209], [139.205411, 37.283613], [139.197578, 37.275391], [139.192964, 37.273304], [139.191775, 37.269337], [139.183565, 37.263797], [139.17469, 37.256349], [139.173236, 37.252606], [139.164757, 37.239428], [139.165904, 37.232166], [139.172545, 37.224948], [139.18306, 37.217392], [139.187129, 37.209714], [139.194795, 37.203963], [139.196721, 37.194014], [139.205266, 37.194217], [139.213093, 37.19964], [139.217848, 37.209495], [139.221778, 37.204478], [139.226241, 37.203531], [139.228439, 37.19709], [139.235649, 37.188493], [139.240408, 37.18754], [139.244581, 37.18114], [139.243216, 37.17038], [139.246419, 37.166277], [139.25116, 37.165918], [139.252986, 37.161254], [139.249885, 37.156421], [139.249839, 37.151582], [139.245672, 37.144861], [139.243301, 37.127163], [139.237465, 37.119528], [139.235373, 37.113944], [139.235739, 37.10246], [139.240876, 37.093738], [139.238646, 37.090507], [139.242566, 37.084902], [139.248733, 37.081373], [139.247023, 37.070794], [139.257343, 37.055935], [139.259555, 37.043298], [139.254622, 37.040251], [139.253201, 37.034309], [139.248541, 37.030901], [139.248512, 37.023949], [139.243367, 37.015135], [139.25103, 37.004619], [139.253787, 36.990332], [139.253197, 36.98369], [139.247179, 36.980203], [139.252148, 36.976569], [139.248067, 36.971415], [139.251163, 36.962032], [139.249919, 36.955901], [139.246242, 36.955534], [139.241817, 36.949075], [139.243395, 36.944615], [139.240417, 36.941251], [139.231453, 36.955393], [139.228715, 36.961198], [139.218661, 36.960709], [139.214537, 36.957821], [139.205448, 36.955941], [139.198429, 36.957673], [139.193519, 36.961047], [139.186487, 36.959916], [139.183106, 36.961485], [139.176462, 36.969559], [139.175233, 36.973604], [139.177188, 36.985359], [139.179447, 36.990758], [139.174079, 36.995763], [139.170996, 37.001979], [139.162066, 37.004089], [139.149578, 37.010222], [139.145334, 37.018938], [139.139404, 37.02319], [139.131906, 37.025728], [139.129054, 37.034015], [139.124456, 37.04096], [139.122949, 37.047144], [139.115389, 37.047519], [139.111305, 37.055214], [139.097016, 37.058626], [139.090406, 37.044917]], [[138.259624, 37.841634], [138.269209, 37.847839], [138.280167, 37.862858], [138.285442, 37.874579], [138.283463, 37.877307], [138.289855, 37.885459], [138.289444, 37.896901], [138.282139, 37.901942], [138.27846, 37.907465], [138.28145, 37.909198], [138.2848, 37.915412], [138.285181, 37.920225], [138.292591, 37.923985], [138.300787, 37.931469], [138.305427, 37.939699], [138.322861, 37.946405], [138.32932, 37.949792], [138.332602, 37.956135], [138.340756, 37.959882], [138.343691, 37.965454], [138.341308, 37.977842], [138.328223, 37.991438], [138.318627, 37.999166], [138.3065, 38.005316], [138.298731, 38.007049], [138.286305, 38.0066], [138.274202, 38.002204], [138.272815, 37.992424], [138.265842, 37.988515], [138.261984, 37.98465], [138.257343, 37.972996], [138.257797, 37.969787], [138.253105, 37.964245], [138.248262, 37.968295], [138.235653, 37.974516], [138.233184, 37.974161], [138.227183, 37.979719], [138.226707, 37.982781], [138.234629, 37.98387], [138.233424, 37.991135], [138.235352, 37.995397], [138.233134, 38.008929], [138.227321, 38.010234], [138.221401, 38.014471], [138.223794, 38.019455], [138.228009, 38.023049], [138.236197, 38.025391], [138.238923, 38.031473], [138.235052, 38.038861], [138.237961, 38.046923], [138.234855, 38.051446], [138.236169, 38.055212], [138.23319, 38.062194], [138.240694, 38.066871], [138.24786, 38.076025], [138.246964, 38.079392], [138.239666, 38.080686], [138.244084, 38.088949], [138.261231, 38.098052], [138.260139, 38.101861], [138.267839, 38.109274], [138.26808, 38.112704], [138.272264, 38.114825], [138.270977, 38.121579], [138.277213, 38.126268], [138.290046, 38.133869], [138.291294, 38.142713], [138.29523, 38.143892], [138.302106, 38.151959], [138.299334, 38.157245], [138.302822, 38.158529], [138.303496, 38.165557], [138.311708, 38.168777], [138.315348, 38.17861], [138.326245, 38.193985], [138.326134, 38.197295], [138.339744, 38.198961], [138.351095, 38.204399], [138.35496, 38.209448], [138.363892, 38.212948], [138.372579, 38.220442], [138.376315, 38.227443], [138.387539, 38.232482], [138.390343, 38.23914], [138.39934, 38.245331], [138.397729, 38.251384], [138.402383, 38.254352], [138.405048, 38.24953], [138.408708, 38.248553], [138.411808, 38.252319], [138.416575, 38.254055], [138.428661, 38.254323], [138.437267, 38.26204], [138.439254, 38.266937], [138.437018, 38.270001], [138.443857, 38.277579], [138.439979, 38.286762], [138.442032, 38.291377], [138.446492, 38.293039], [138.451546, 38.300565], [138.453079, 38.308452], [138.459255, 38.310366], [138.463846, 38.31492], [138.463495, 38.32339], [138.473334, 38.322204], [138.478595, 38.326161], [138.493992, 38.332113], [138.510654, 38.331083], [138.514972, 38.332052], [138.517096, 38.324971], [138.521013, 38.322334], [138.51224, 38.314646], [138.510575, 38.300426], [138.507951, 38.295507], [138.509219, 38.284899], [138.507673, 38.271116], [138.509846, 38.265542], [138.508067, 38.263463], [138.50325, 38.240743], [138.499444, 38.236081], [138.496498, 38.226997], [138.493781, 38.22502], [138.493539, 38.217033], [138.491143, 38.202205], [138.488573, 38.20186], [138.48176, 38.19262], [138.48124, 38.188202], [138.477603, 38.184498], [138.476694, 38.17997], [138.470899, 38.174481], [138.46007, 38.161549], [138.459166, 38.157428], [138.450075, 38.146119], [138.446972, 38.133761], [138.441511, 38.127801], [138.435162, 38.114846], [138.437662, 38.109004], [138.437776, 38.101747], [138.43435, 38.093862], [138.43433, 38.088157], [138.436535, 38.082125], [138.444224, 38.077764], [138.451109, 38.071898], [138.46711, 38.065687], [138.480184, 38.062329], [138.483688, 38.06296], [138.492018, 38.069867], [138.505793, 38.07232], [138.509343, 38.070322], [138.521148, 38.071372], [138.530559, 38.075181], [138.535736, 38.0786], [138.545014, 38.081155], [138.55316, 38.081205], [138.560918, 38.086304], [138.568704, 38.083956], [138.572596, 38.078647], [138.569535, 38.074341], [138.572667, 38.067505], [138.572565, 38.062302], [138.567328, 38.05588], [138.563035, 38.045927], [138.56358, 38.042176], [138.553542, 38.03119], [138.550693, 38.024173], [138.551328, 38.019447], [138.546409, 38.008027], [138.53919, 38.003238], [138.538135, 37.998574], [138.531032, 37.991512], [138.526847, 37.982757], [138.520873, 37.977704], [138.520665, 37.973471], [138.517136, 37.966623], [138.512153, 37.960266], [138.510675, 37.954197], [138.502864, 37.943911], [138.503723, 37.936899], [138.499034, 37.924723], [138.500135, 37.920862], [138.489938, 37.919634], [138.479036, 37.907266], [138.473003, 37.902818], [138.470664, 37.897027], [138.462532, 37.893091], [138.45711, 37.893962], [138.448663, 37.890337], [138.441693, 37.883283], [138.42725, 37.879768], [138.416847, 37.871504], [138.410956, 37.868994], [138.410656, 37.863222], [138.400323, 37.860679], [138.393185, 37.853693], [138.38585, 37.848745], [138.381488, 37.843296], [138.37737, 37.842495], [138.371296, 37.836987], [138.363987, 37.834555], [138.359561, 37.830484], [138.349566, 37.828996], [138.344437, 37.824992], [138.339339, 37.826658], [138.324728, 37.82445], [138.320829, 37.826798], [138.304401, 37.826617], [138.29776, 37.820946], [138.291814, 37.822059], [138.28154, 37.816124], [138.280316, 37.811316], [138.270745, 37.811085], [138.26408, 37.806144], [138.249667, 37.803086], [138.236295, 37.80766], [138.23055, 37.806249], [138.221256, 37.809731], [138.215131, 37.810516], [138.212675, 37.814142], [138.204492, 37.820241], [138.207493, 37.828372], [138.213677, 37.833727], [138.216732, 37.837244], [138.225108, 37.835479], [138.232006, 37.838762], [138.24535, 37.838119], [138.249673, 37.84329], [138.259624, 37.841634]], [[139.254254, 38.462083], [139.249543, 38.457493], [139.247986, 38.453286], [139.237081, 38.446022], [139.226458, 38.437347], [139.214951, 38.437479], [139.219078, 38.44262], [139.217564, 38.446883], [139.222829, 38.447513], [139.225015, 38.454279], [139.223308, 38.45859], [139.226572, 38.462405], [139.231754, 38.463819], [139.238522, 38.471121], [139.237344, 38.474662], [139.243851, 38.481164], [139.250354, 38.484238], [139.252669, 38.489767], [139.256528, 38.490556], [139.264241, 38.488923], [139.258693, 38.482481], [139.253779, 38.465183], [139.254254, 38.462083]]]}}]}