{"type": "FeatureCollection", "features": [{"type": "Feature", "properties": {}, "geometry": {"type": "MultiLineString", "coordinates": [[[139.136887, 34.225973], [139.136054, 34.233431], [139.137135, 34.241235], [139.143199, 34.243782], [139.148756, 34.239692], [139.156529, 34.239274], [139.167696, 34.234146], [139.170348, 34.231117], [139.171741, 34.219755], [139.174656, 34.206602], [139.170383, 34.20488], [139.168487, 34.208616], [139.157278, 34.205058], [139.153424, 34.201185], [139.155292, 34.195204], [139.146328, 34.195509], [139.144372, 34.188758], [139.139413, 34.186158], [139.130383, 34.184735], [139.124934, 34.189575], [139.120509, 34.19182], [139.121783, 34.199018], [139.131644, 34.20123], [139.132764, 34.210725], [139.128429, 34.221147], [139.136887, 34.225973]], [[139.193923, 34.320267], [139.200722, 34.326576], [139.204359, 34.326721], [139.208801, 34.331204], [139.206088, 34.334681], [139.212836, 34.336952], [139.216761, 34.333666], [139.225506, 34.33093], [139.226645, 34.327722], [139.213447, 34.316223], [139.208081, 34.317495], [139.202837, 34.320988], [139.197846, 34.316101], [139.193923, 34.320267]], [[139.255594, 34.383833], [139.257274, 34.392462], [139.25572, 34.40028], [139.267154, 34.408189], [139.268688, 34.415386], [139.276433, 34.415773], [139.279551, 34.418025], [139.282683, 34.430468], [139.2906, 34.424148], [139.291559, 34.418446], [139.286604, 34.411513], [139.291362, 34.408168], [139.289846, 34.402573], [139.285236, 34.400085], [139.277882, 34.390354], [139.275808, 34.369621], [139.276278, 34.347817], [139.273187, 34.340753], [139.271851, 34.330889], [139.262406, 34.333764], [139.25256, 34.339299], [139.249162, 34.345074], [139.244488, 34.348492], [139.24524, 34.35896], [139.242042, 34.363863], [139.252459, 34.376441], [139.255594, 34.383833]], [[139.289519, 34.474539], [139.297426, 34.472999], [139.29466, 34.469778], [139.289519, 34.474539]], [[139.292843, 34.523841], [139.291048, 34.520727], [139.281684, 34.512181], [139.274856, 34.511424], [139.268211, 34.51731], [139.267396, 34.521152], [139.269378, 34.527773], [139.273662, 34.531836], [139.283071, 34.532403], [139.289954, 34.529158], [139.292843, 34.523841]], [[139.356231, 34.743261], [139.353226, 34.74617], [139.353133, 34.750334], [139.349099, 34.75903], [139.348915, 34.766044], [139.351975, 34.769519], [139.349336, 34.775003], [139.350395, 34.783876], [139.353701, 34.789256], [139.358782, 34.793214], [139.360424, 34.798865], [139.368143, 34.79639], [139.372302, 34.798436], [139.375839, 34.794943], [139.3805, 34.794334], [139.38422, 34.789998], [139.391617, 34.78973], [139.407973, 34.786193], [139.411982, 34.786828], [139.417942, 34.781949], [139.424698, 34.778674], [139.433201, 34.772365], [139.436793, 34.767631], [139.443374, 34.747697], [139.448132, 34.744422], [139.448078, 34.738282], [139.443882, 34.731986], [139.444821, 34.725205], [139.448783, 34.719598], [139.448692, 34.71313], [139.444897, 34.710688], [139.443704, 34.70298], [139.449541, 34.698276], [139.444299, 34.688584], [139.44474, 34.684535], [139.438685, 34.678669], [139.431206, 34.678531], [139.425265, 34.682668], [139.416097, 34.681107], [139.401989, 34.681943], [139.395725, 34.683931], [139.379484, 34.696165], [139.374872, 34.697461], [139.372573, 34.699621], [139.359192, 34.702], [139.361046, 34.710302], [139.352504, 34.719165], [139.353103, 34.730862], [139.356836, 34.735057], [139.356231, 34.743261]], [[139.493927, 35.582782], [139.499216, 35.58097], [139.505457, 35.574787], [139.506575, 35.571716], [139.500602, 35.570443], [139.496267, 35.56464], [139.491031, 35.561426], [139.483749, 35.571958], [139.489869, 35.583579], [139.484983, 35.584609], [139.482203, 35.581721], [139.476006, 35.580732], [139.473252, 35.573851], [139.469667, 35.569498], [139.468292, 35.563296], [139.47041, 35.560405], [139.479728, 35.559389], [139.48199, 35.555629], [139.482393, 35.547416], [139.480333, 35.543146], [139.486713, 35.535606], [139.487798, 35.527882], [139.486471, 35.520301], [139.483283, 35.519153], [139.476987, 35.511214], [139.481131, 35.505311], [139.476383, 35.501354], [139.467801, 35.502267], [139.468268, 35.506206], [139.464848, 35.510902], [139.463285, 35.517838], [139.456128, 35.520322], [139.454823, 35.522741], [139.45825, 35.52805], [139.448651, 35.535248], [139.445097, 35.541131], [139.428719, 35.550377], [139.422441, 35.559435], [139.413427, 35.566247], [139.408977, 35.57533], [139.401243, 35.577534], [139.399148, 35.58465], [139.391085, 35.58526], [139.370474, 35.594394], [139.363076, 35.59904], [139.359247, 35.598602], [139.337891, 35.604347], [139.329485, 35.603682], [139.320564, 35.606516], [139.314035, 35.604353], [139.304772, 35.604688], [139.2992, 35.606229], [139.292605, 35.611808], [139.282874, 35.613266], [139.279879, 35.611481], [139.268799, 35.609355], [139.265842, 35.607351], [139.264775, 35.602459], [139.257705, 35.604231], [139.252224, 35.601667], [139.24687, 35.605221], [139.238638, 35.606977], [139.23798, 35.60935], [139.229881, 35.614568], [139.228875, 35.620226], [139.22545, 35.623753], [139.220232, 35.625572], [139.221434, 35.629466], [139.215459, 35.636943], [139.215735, 35.64556], [139.211461, 35.649117], [139.19803, 35.652949], [139.192559, 35.650374], [139.191534, 35.647398], [139.184056, 35.645089], [139.179163, 35.645568], [139.175246, 35.649732], [139.169337, 35.651475], [139.167169, 35.661832], [139.161604, 35.667907], [139.153598, 35.666022], [139.14716, 35.666817], [139.136731, 35.672412], [139.131036, 35.672045], [139.126851, 35.676863], [139.112615, 35.684964], [139.105625, 35.691016], [139.097108, 35.692266], [139.092245, 35.690571], [139.08166, 35.695517], [139.072109, 35.695408], [139.064861, 35.698155], [139.063118, 35.700463], [139.052022, 35.704904], [139.046673, 35.709484], [139.038715, 35.711287], [139.034778, 35.714959], [139.028978, 35.716768], [139.022528, 35.721991], [139.020899, 35.727281], [139.013795, 35.734989], [139.012291, 35.738669], [139.005155, 35.750452], [138.998828, 35.751138], [138.992432, 35.755518], [138.989362, 35.76349], [138.984397, 35.767765], [138.986425, 35.782253], [138.985045, 35.785268], [138.976876, 35.789029], [138.977105, 35.792752], [138.971796, 35.798998], [138.970322, 35.804584], [138.972059, 35.813697], [138.96977, 35.815853], [138.970479, 35.827357], [138.969297, 35.831383], [138.962195, 35.829608], [138.953262, 35.836517], [138.947339, 35.843297], [138.948548, 35.849544], [138.943933, 35.854819], [138.942868, 35.860162], [138.949262, 35.869019], [138.954395, 35.874179], [138.965204, 35.877786], [138.968022, 35.882214], [138.972487, 35.88198], [138.978928, 35.885011], [138.985259, 35.881185], [138.988751, 35.881147], [138.995881, 35.884447], [139.000763, 35.884], [139.006657, 35.889625], [139.006805, 35.893638], [139.010548, 35.8971], [139.018399, 35.898424], [139.02356, 35.897358], [139.02933, 35.892908], [139.037611, 35.889094], [139.048327, 35.881209], [139.049842, 35.878833], [139.05782, 35.877497], [139.061447, 35.873707], [139.072553, 35.871724], [139.077762, 35.87534], [139.082539, 35.874873], [139.091657, 35.869034], [139.099091, 35.868674], [139.102677, 35.866579], [139.116013, 35.864455], [139.135361, 35.865387], [139.147543, 35.862711], [139.159401, 35.857065], [139.163531, 35.850868], [139.174358, 35.848312], [139.183628, 35.843575], [139.192442, 35.840272], [139.203138, 35.841199], [139.207468, 35.84642], [139.212649, 35.846611], [139.219333, 35.842521], [139.232535, 35.836636], [139.237214, 35.840211], [139.242528, 35.836787], [139.252255, 35.838249], [139.260504, 35.836001], [139.271892, 35.839688], [139.281846, 35.83952], [139.282884, 35.837169], [139.290911, 35.837957], [139.296314, 35.83514], [139.301169, 35.83496], [139.302592, 35.82405], [139.306777, 35.823029], [139.311472, 35.825279], [139.316159, 35.823668], [139.315025, 35.814269], [139.316752, 35.812689], [139.322246, 35.799608], [139.325729, 35.795212], [139.330366, 35.793617], [139.332783, 35.79189], [139.338499, 35.794594], [139.346708, 35.796405], [139.350265, 35.793406], [139.356655, 35.793477], [139.359842, 35.791622], [139.368714, 35.790289], [139.367495, 35.784378], [139.369911, 35.781542], [139.380137, 35.778747], [139.381541, 35.774496], [139.379026, 35.771197], [139.380223, 35.766375], [139.384844, 35.765218], [139.389602, 35.767136], [139.391685, 35.763354], [139.39845, 35.764405], [139.400282, 35.767751], [139.404885, 35.76916], [139.419561, 35.765905], [139.422212, 35.767803], [139.431554, 35.766344], [139.440772, 35.767002], [139.444968, 35.76666], [139.451349, 35.769327], [139.458561, 35.769677], [139.461253, 35.773382], [139.471155, 35.773404], [139.479499, 35.779937], [139.484985, 35.780802], [139.489579, 35.779147], [139.493494, 35.7817], [139.496779, 35.7787], [139.499381, 35.782173], [139.506703, 35.78277], [139.511905, 35.785081], [139.51404, 35.788501], [139.520283, 35.78837], [139.529264, 35.794129], [139.53686, 35.803943], [139.541695, 35.807307], [139.547199, 35.802658], [139.544087, 35.796496], [139.537579, 35.790759], [139.543793, 35.788194], [139.542979, 35.779807], [139.532234, 35.773415], [139.523049, 35.771936], [139.516375, 35.765573], [139.521378, 35.76757], [139.530302, 35.768349], [139.547838, 35.77398], [139.54698, 35.760303], [139.544584, 35.754761], [139.547158, 35.753384], [139.562786, 35.761595], [139.574591, 35.766228], [139.578165, 35.770851], [139.582243, 35.771207], [139.588761, 35.778529], [139.604384, 35.775017], [139.603167, 35.77086], [139.617233, 35.770348], [139.617729, 35.766648], [139.622992, 35.766872], [139.624714, 35.779826], [139.627875, 35.784658], [139.634231, 35.790335], [139.63941, 35.792849], [139.640568, 35.797692], [139.648238, 35.79763], [139.653362, 35.800226], [139.669766, 35.800241], [139.678382, 35.798823], [139.687832, 35.800841], [139.69686, 35.798904], [139.709196, 35.792017], [139.722241, 35.790727], [139.724462, 35.787274], [139.733872, 35.790047], [139.738537, 35.787404], [139.738049, 35.780221], [139.748856, 35.786], [139.755001, 35.786896], [139.755596, 35.790029], [139.760769, 35.79741], [139.750656, 35.806669], [139.750773, 35.810171], [139.761274, 35.812888], [139.766219, 35.817475], [139.771755, 35.816875], [139.779234, 35.808249], [139.792431, 35.805291], [139.798841, 35.806194], [139.802304, 35.808553], [139.813298, 35.808321], [139.819654, 35.81178], [139.824927, 35.811905], [139.820752, 35.805535], [139.820486, 35.797539], [139.82605, 35.79336], [139.832765, 35.79568], [139.838008, 35.800806], [139.843387, 35.799798], [139.846748, 35.796506], [139.856485, 35.790959], [139.859895, 35.795333], [139.863849, 35.794828], [139.870771, 35.797317], [139.876605, 35.793828], [139.871341, 35.785577], [139.877249, 35.781166], [139.88724, 35.784019], [139.893778, 35.782746], [139.893417, 35.778316], [139.882847, 35.773535], [139.879462, 35.767524], [139.883208, 35.758623], [139.889982, 35.750765], [139.899451, 35.744386], [139.900886, 35.737458], [139.897939, 35.731872], [139.898654, 35.723451], [139.903982, 35.71959], [139.908123, 35.713862], [139.916211, 35.708001], [139.918735, 35.697709], [139.908646, 35.685506], [139.903789, 35.683116], [139.893558, 35.682003], [139.886432, 35.678566], [139.88565, 35.672074], [139.887233, 35.668791], [139.887389, 35.656166], [139.883494, 35.645119], [139.871461, 35.638642], [139.862423, 35.638562], [139.849426, 35.642805], [139.840978, 35.64298], [139.840254, 35.633892], [139.833675, 35.634625], [139.83448, 35.644068], [139.821673, 35.642941], [139.820415, 35.641631], [139.808124, 35.640462], [139.80699, 35.636901], [139.801369, 35.636359], [139.800334, 35.631065], [139.802193, 35.626224], [139.79857, 35.621815], [139.792021, 35.62987], [139.787331, 35.62733], [139.77872, 35.637117], [139.776129, 35.642411], [139.792419, 35.652934], [139.789592, 35.656259], [139.772788, 35.646039], [139.764531, 35.656117], [139.7613, 35.652466], [139.760426, 35.636778], [139.755533, 35.639047], [139.752626, 35.634423], [139.75199, 35.626343], [139.750253, 35.624824], [139.751831, 35.62475], [139.750461, 35.605765], [139.747716, 35.602719], [139.746541, 35.590169], [139.747845, 35.588691], [139.756355, 35.569071], [139.750238, 35.567378], [139.752964, 35.563382], [139.758592, 35.564368], [139.763733, 35.560463], [139.770997, 35.568974], [139.785437, 35.570561], [139.801255, 35.548304], [139.809166, 35.53907], [139.794908, 35.532136], [139.784417, 35.53538], [139.782074, 35.538694], [139.776496, 35.53447], [139.768079, 35.539339], [139.756487, 35.544553], [139.746777, 35.543828], [139.739407, 35.545125], [139.734638, 35.540983], [139.726112, 35.54347], [139.717302, 35.538004], [139.705742, 35.536246], [139.699932, 35.538362], [139.698446, 35.545402], [139.703534, 35.549411], [139.703076, 35.553322], [139.697784, 35.556129], [139.689618, 35.557287], [139.67879, 35.562988], [139.676407, 35.566038], [139.669309, 35.584719], [139.66333, 35.589866], [139.655139, 35.590146], [139.639888, 35.60013], [139.631166, 35.607238], [139.617941, 35.613877], [139.612192, 35.615853], [139.604737, 35.615825], [139.600068, 35.618399], [139.590236, 35.618431], [139.586386, 35.620455], [139.577346, 35.621821], [139.571118, 35.624411], [139.561971, 35.632591], [139.549428, 35.634375], [139.547721, 35.636693], [139.525389, 35.642648], [139.521183, 35.63677], [139.52326, 35.63217], [139.517456, 35.630661], [139.51437, 35.62466], [139.503419, 35.622862], [139.494881, 35.617391], [139.495781, 35.612359], [139.500023, 35.60728], [139.497575, 35.604869], [139.489069, 35.604667], [139.486551, 35.608434], [139.481268, 35.610057], [139.476712, 35.615328], [139.476237, 35.618887], [139.467862, 35.620522], [139.464158, 35.624514], [139.452414, 35.615783], [139.449281, 35.611776], [139.452872, 35.607448], [139.463798, 35.609161], [139.471192, 35.60106], [139.476884, 35.599545], [139.494459, 35.586307], [139.493927, 35.582782]], [[139.699985, 33.118378], [139.68883, 33.116168], [139.684949, 33.117624], [139.681625, 33.123574], [139.675403, 33.130759], [139.676517, 33.134756], [139.685975, 33.136402], [139.689533, 33.131652], [139.695257, 33.129246], [139.699015, 33.124547], [139.699985, 33.118378]], [[139.579195, 33.860417], [139.576723, 33.866497], [139.5767, 33.877682], [139.578089, 33.882468], [139.590896, 33.89807], [139.600361, 33.900735], [139.605414, 33.900788], [139.618334, 33.89232], [139.625039, 33.883876], [139.631657, 33.871902], [139.631276, 33.867757], [139.623845, 33.85538], [139.620012, 33.851848], [139.603783, 33.854599], [139.591, 33.854858], [139.579195, 33.860417]], [[139.474554, 34.073936], [139.474007, 34.078347], [139.481686, 34.08317], [139.48094, 34.086837], [139.483252, 34.091938], [139.488388, 34.095984], [139.488342, 34.100728], [139.493951, 34.105543], [139.489212, 34.112535], [139.492791, 34.119627], [139.49851, 34.121813], [139.506541, 34.122683], [139.51101, 34.120348], [139.519231, 34.123855], [139.527478, 34.125203], [139.539335, 34.123814], [139.54676, 34.119796], [139.558959, 34.110892], [139.563356, 34.10549], [139.565245, 34.093758], [139.561675, 34.087013], [139.563893, 34.079442], [139.56272, 34.068701], [139.555204, 34.063365], [139.550991, 34.058769], [139.540404, 34.056221], [139.534553, 34.053153], [139.533404, 34.048884], [139.528628, 34.046767], [139.525355, 34.049438], [139.521724, 34.047178], [139.51233, 34.048815], [139.499916, 34.046775], [139.493378, 34.048299], [139.489811, 34.051429], [139.482378, 34.05149], [139.477614, 34.060198], [139.480175, 34.070642], [139.474554, 34.073936]], [[139.780792, 32.457137], [139.781099, 32.45025], [139.776301, 32.44569], [139.768347, 32.443007], [139.764081, 32.445866], [139.757902, 32.446949], [139.75469, 32.451504], [139.754295, 32.463644], [139.755226, 32.47177], [139.758854, 32.473552], [139.76964, 32.469007], [139.777497, 32.461613], [139.780792, 32.457137]], [[139.739813, 33.131417], [139.738324, 33.138483], [139.738988, 33.14552], [139.743835, 33.153334], [139.749145, 33.156991], [139.759399, 33.159567], [139.77595, 33.156259], [139.783476, 33.14887], [139.796077, 33.142474], [139.798033, 33.133517], [139.802845, 33.132894], [139.805569, 33.12944], [139.814474, 33.128307], [139.817216, 33.120499], [139.830406, 33.117122], [139.836064, 33.118141], [139.84487, 33.116286], [139.848965, 33.11164], [139.851556, 33.104628], [139.857398, 33.098386], [139.854648, 33.090766], [139.859254, 33.083758], [139.857499, 33.078922], [139.849949, 33.078009], [139.845409, 33.075625], [139.84003, 33.076003], [139.83741, 33.070124], [139.833151, 33.065722], [139.834341, 33.062573], [139.833467, 33.054744], [139.836913, 33.050632], [139.831629, 33.045994], [139.82001, 33.057906], [139.807614, 33.05934], [139.802084, 33.06385], [139.796197, 33.062558], [139.79301, 33.065933], [139.784285, 33.069708], [139.78027, 33.075638], [139.780096, 33.083369], [139.778831, 33.095856], [139.767012, 33.101734], [139.757566, 33.102619], [139.751834, 33.110119], [139.750977, 33.11581], [139.744579, 33.122655], [139.739813, 33.131417]], [[139.826028, 35.54157], [139.810964, 35.528198], [139.808333, 35.532211], [139.819802, 35.542383], [139.826028, 35.54157]], [[139.765611, 35.564896], [139.758137, 35.569223], [139.757608, 35.57446], [139.77347, 35.574884], [139.765611, 35.564896]], [[139.754074, 35.57834], [139.749475, 35.588862], [139.749004, 35.600728], [139.751673, 35.604691], [139.753019, 35.617648], [139.757995, 35.617673], [139.761946, 35.614649], [139.763479, 35.608717], [139.773149, 35.595757], [139.778534, 35.586484], [139.787408, 35.580058], [139.783005, 35.577099], [139.755918, 35.577067], [139.754074, 35.57834]], [[139.804426, 35.59764], [139.805614, 35.596159], [139.807435, 35.597143], [139.805596, 35.599405], [139.820322, 35.607395], [139.827062, 35.596938], [139.832194, 35.588936], [139.813426, 35.578728], [139.805832, 35.585448], [139.794477, 35.592182], [139.804426, 35.59764]], [[139.791141, 35.597134], [139.798948, 35.606874], [139.810593, 35.613184], [139.818704, 35.608667], [139.792146, 35.594253], [139.790624, 35.592412], [139.791141, 35.597134]], [[139.792628, 35.609579], [139.78673, 35.60184], [139.773168, 35.618505], [139.773441, 35.620266], [139.767657, 35.622077], [139.768732, 35.626436], [139.777167, 35.631419], [139.782376, 35.629509], [139.784947, 35.626349], [139.780992, 35.623883], [139.792628, 35.609579]], [[139.797918, 35.617732], [139.794378, 35.613942], [139.78552, 35.625257], [139.789878, 35.627623], [139.797918, 35.617732]], [[139.759226, 35.633654], [139.759413, 35.628], [139.75975, 35.619353], [139.753213, 35.618995], [139.753507, 35.624049], [139.755244, 35.633628], [139.759226, 35.633654]], [[141.472008, 24.233132], [141.468809, 24.227182], [141.457247, 24.225082], [141.453733, 24.226894], [141.45361, 24.236407], [141.455037, 24.241874], [141.46208, 24.245103], [141.470965, 24.241851], [141.472919, 24.239568], [141.472008, 24.233132]], [[153.972444, 24.286566], [153.977763, 24.290803], [153.983577, 24.297468], [153.986554, 24.28396], [153.984428, 24.280864], [153.97326, 24.284095], [153.972444, 24.286566]], [[141.286289, 24.790492], [141.289963, 24.794879], [141.301789, 24.80201], [141.304469, 24.806811], [141.312216, 24.81145], [141.32011, 24.81361], [141.330329, 24.81332], [141.33718, 24.808817], [141.346983, 24.796057], [141.350186, 24.786088], [141.349324, 24.778528], [141.345757, 24.77299], [141.337865, 24.769658], [141.332052, 24.768534], [141.327051, 24.76547], [141.29639, 24.753358], [141.288207, 24.746029], [141.285039, 24.750095], [141.284781, 24.752838], [141.289152, 24.761819], [141.292002, 24.772976], [141.290774, 24.783054], [141.285089, 24.785913], [141.286289, 24.790492]], [[141.290476, 25.422379], [141.281776, 25.418924], [141.278365, 25.418788], [141.274684, 25.422251], [141.272226, 25.429388], [141.273717, 25.44167], [141.280135, 25.447969], [141.288148, 25.447333], [141.293178, 25.43647], [141.293281, 25.425718], [141.290476, 25.422379]], [[142.157667, 26.543764], [142.151292, 26.546614], [142.154829, 26.549304], [142.152169, 26.563506], [142.1603, 26.561539], [142.159014, 26.555853], [142.161114, 26.549078], [142.157667, 26.543764]], [[142.204064, 26.554372], [142.201566, 26.556655], [142.209538, 26.563999], [142.216076, 26.563887], [142.2179, 26.561681], [142.215287, 26.556814], [142.204064, 26.554372]], [[142.234967, 26.571038], [142.23189, 26.566426], [142.225829, 26.566426], [142.229483, 26.575121], [142.234967, 26.571038]], [[142.12748, 26.610423], [142.132754, 26.610106], [142.13593, 26.601396], [142.132918, 26.596394], [142.128929, 26.595007], [142.124116, 26.603927], [142.12748, 26.610423]], [[142.128704, 26.698996], [142.123278, 26.705754], [142.1226, 26.710612], [142.124689, 26.714471], [142.1299, 26.70941], [142.131055, 26.703923], [142.136257, 26.700428], [142.141324, 26.701372], [142.145514, 26.706249], [142.154855, 26.708641], [142.160285, 26.701705], [142.151254, 26.697231], [142.150927, 26.694241], [142.1458, 26.693383], [142.147152, 26.687357], [142.149745, 26.683683], [142.159321, 26.686865], [142.164913, 26.686847], [142.167035, 26.680953], [142.161644, 26.672882], [142.163536, 26.66257], [142.167571, 26.657925], [142.179211, 26.655461], [142.181981, 26.659389], [142.188277, 26.658689], [142.188427, 26.655438], [142.180276, 26.653116], [142.17434, 26.654371], [142.17457, 26.647961], [142.17123, 26.643434], [142.172726, 26.636127], [142.180445, 26.631081], [142.181859, 26.622669], [142.181618, 26.61008], [142.178823, 26.607978], [142.173628, 26.609934], [142.177862, 26.615495], [142.176146, 26.623859], [142.173245, 26.625686], [142.169543, 26.632272], [142.161834, 26.630326], [142.160708, 26.639919], [142.156434, 26.635679], [142.154012, 26.637275], [142.148434, 26.654628], [142.145214, 26.658241], [142.14924, 26.662061], [142.148239, 26.667191], [142.142868, 26.666338], [142.145127, 26.674928], [142.136452, 26.681528], [142.136575, 26.684179], [142.130806, 26.689075], [142.128704, 26.698996]], [[142.181691, 27.100407], [142.187116, 27.10552], [142.193477, 27.103826], [142.204404, 27.105458], [142.211438, 27.103455], [142.217673, 27.100132], [142.219537, 27.095821], [142.224766, 27.08983], [142.22315, 27.085934], [142.232855, 27.077508], [142.230772, 27.069041], [142.231861, 27.056816], [142.237234, 27.053916], [142.235286, 27.049542], [142.229679, 27.054548], [142.225059, 27.053556], [142.226303, 27.049822], [142.22274, 27.04423], [142.228437, 27.03889], [142.229389, 27.035946], [142.21956, 27.036268], [142.21737, 27.041605], [142.213111, 27.039535], [142.208756, 27.040165], [142.206285, 27.04412], [142.198334, 27.045527], [142.194591, 27.041961], [142.185119, 27.045742], [142.188944, 27.0486], [142.18952, 27.055514], [142.194854, 27.06286], [142.193283, 27.067154], [142.186659, 27.072718], [142.192216, 27.075421], [142.198761, 27.075162], [142.202021, 27.072929], [142.205804, 27.074863], [142.208216, 27.084209], [142.201965, 27.087438], [142.203746, 27.093649], [142.19815, 27.096052], [142.192181, 27.093002], [142.190406, 27.089266], [142.182574, 27.093138], [142.181691, 27.100407]], [[142.171777, 27.116359], [142.165084, 27.115941], [142.165162, 27.121364], [142.168376, 27.121599], [142.171777, 27.116359]], [[142.205029, 27.128863], [142.216457, 27.132541], [142.222558, 27.126296], [142.226617, 27.124063], [142.226069, 27.11694], [142.228981, 27.114501], [142.235344, 27.114166], [142.233884, 27.1091], [142.226038, 27.111138], [142.220038, 27.108878], [142.206744, 27.109144], [142.200585, 27.111271], [142.205722, 27.11604], [142.198401, 27.123188], [142.194113, 27.123268], [142.190353, 27.120645], [142.19081, 27.124773], [142.187949, 27.12976], [142.193111, 27.133513], [142.194576, 27.137842], [142.202199, 27.133124], [142.205029, 27.128863]], [[142.19992, 27.181374], [142.195291, 27.179122], [142.195116, 27.173288], [142.202161, 27.169136], [142.200331, 27.162634], [142.196257, 27.154566], [142.192391, 27.150619], [142.187921, 27.150184], [142.187269, 27.144722], [142.180641, 27.14645], [142.18119, 27.150818], [142.186351, 27.154653], [142.184446, 27.156884], [142.184106, 27.168306], [142.187687, 27.172312], [142.185676, 27.179974], [142.187575, 27.182096], [142.185077, 27.187235], [142.188332, 27.189164], [142.191224, 27.185853], [142.19992, 27.181374]], [[140.884063, 27.237157], [140.874777, 27.237803], [140.869271, 27.243981], [140.873355, 27.253708], [140.880395, 27.253372], [140.886026, 27.251266], [140.890016, 27.245655], [140.886671, 27.238924], [140.884063, 27.237157]], [[142.211471, 27.494739], [142.205431, 27.496381], [142.20714, 27.500487], [142.212733, 27.500885], [142.211471, 27.494739]], [[142.174378, 27.624038], [142.171284, 27.630986], [142.173797, 27.635199], [142.183094, 27.630383], [142.187244, 27.622509], [142.185419, 27.619457], [142.179046, 27.624954], [142.174378, 27.624038]], [[142.139663, 27.672075], [142.138896, 27.678904], [142.131452, 27.679396], [142.124345, 27.68335], [142.125213, 27.686991], [142.131008, 27.689262], [142.143194, 27.686366], [142.148127, 27.683623], [142.148814, 27.673546], [142.145676, 27.670588], [142.139663, 27.672075]], [[140.313847, 30.481939], [140.308903, 30.474643], [140.298214, 30.472914], [140.290405, 30.478823], [140.289249, 30.481352], [140.286473, 30.483315], [140.292067, 30.492308], [140.298348, 30.495095], [140.307067, 30.495094], [140.314334, 30.487228], [140.313847, 30.481939]], [[139.828117, 35.612108], [139.832447, 35.616267], [139.827417, 35.619798], [139.825851, 35.630699], [139.840111, 35.632067], [139.8386, 35.61416], [139.832487, 35.616227], [139.828117, 35.612108]], [[139.820437, 35.639087], [139.826817, 35.639771], [139.825549, 35.634484], [139.821158, 35.634061], [139.820437, 35.639087]]]}}]}