{"type": "FeatureCollection", "features": [{"type": "Feature", "properties": {}, "geometry": {"type": "MultiLineString", "coordinates": [[[139.727542, 36.205843], [139.71603, 36.20987], [139.707494, 36.210836], [139.708342, 36.206829], [139.706473, 36.201857], [139.693622, 36.206489], [139.688847, 36.202073], [139.677335, 36.201481], [139.674911, 36.208288], [139.668637, 36.206936], [139.663975, 36.208696], [139.669451, 36.212583], [139.669571, 36.215134], [139.664879, 36.223471], [139.6612, 36.224122], [139.658944, 36.231413], [139.650572, 36.239136], [139.642385, 36.241347], [139.635598, 36.250798], [139.63072, 36.254841], [139.636531, 36.261879], [139.633908, 36.270228], [139.616955, 36.274044], [139.608603, 36.268095], [139.584574, 36.269218], [139.578135, 36.266961], [139.570383, 36.268088], [139.56127, 36.26713], [139.553525, 36.273884], [139.555915, 36.276615], [139.549172, 36.280446], [139.54403, 36.275784], [139.536463, 36.281726], [139.534587, 36.279022], [139.525608, 36.284703], [139.520549, 36.280899], [139.515073, 36.281145], [139.509003, 36.278675], [139.503222, 36.281066], [139.50062, 36.276256], [139.492861, 36.273787], [139.485575, 36.275221], [139.482549, 36.272028], [139.463878, 36.271521], [139.458783, 36.277102], [139.467459, 36.280495], [139.457065, 36.289193], [139.443649, 36.288361], [139.443533, 36.293694], [139.437105, 36.297009], [139.434788, 36.29299], [139.430364, 36.295686], [139.431523, 36.30101], [139.426715, 36.30395], [139.4157, 36.31587], [139.414861, 36.324318], [139.420472, 36.323118], [139.426562, 36.324351], [139.422793, 36.332256], [139.417944, 36.336559], [139.413511, 36.337713], [139.396937, 36.345821], [139.391511, 36.349434], [139.388436, 36.354645], [139.378146, 36.359989], [139.368599, 36.367318], [139.366315, 36.379421], [139.360978, 36.38368], [139.368136, 36.392801], [139.369942, 36.397765], [139.375459, 36.400309], [139.376863, 36.411028], [139.378643, 36.414559], [139.38587, 36.421523], [139.391737, 36.42431], [139.395031, 36.430919], [139.394391, 36.434222], [139.402526, 36.436815], [139.406504, 36.44571], [139.412308, 36.450704], [139.4111, 36.458435], [139.414741, 36.461856], [139.420403, 36.457074], [139.427838, 36.459112], [139.436475, 36.465975], [139.437693, 36.474335], [139.431709, 36.472158], [139.42966, 36.481946], [139.425935, 36.484515], [139.428081, 36.490418], [139.42147, 36.490518], [139.417928, 36.494639], [139.419029, 36.502278], [139.42299, 36.504419], [139.421685, 36.508744], [139.427677, 36.510635], [139.434414, 36.51936], [139.434646, 36.522069], [139.439912, 36.525401], [139.441509, 36.530598], [139.437468, 36.532463], [139.436289, 36.538065], [139.439299, 36.550963], [139.443907, 36.552511], [139.452236, 36.549595], [139.456773, 36.552986], [139.460758, 36.553247], [139.465619, 36.56362], [139.474025, 36.56673], [139.473909, 36.573132], [139.482634, 36.578163], [139.483041, 36.583278], [139.47384, 36.590456], [139.474705, 36.594645], [139.471446, 36.602891], [139.465358, 36.606494], [139.450984, 36.60648], [139.445042, 36.607293], [139.436275, 36.601733], [139.426865, 36.601133], [139.415002, 36.605819], [139.412373, 36.608124], [139.405679, 36.608769], [139.406547, 36.604786], [139.398704, 36.602189], [139.395163, 36.603497], [139.386689, 36.611983], [139.37944, 36.613117], [139.371775, 36.611952], [139.363226, 36.614333], [139.352288, 36.61509], [139.347611, 36.619119], [139.345733, 36.623347], [139.338697, 36.62719], [139.329654, 36.627589], [139.328119, 36.633651], [139.330534, 36.642264], [139.326566, 36.650696], [139.326702, 36.657112], [139.330653, 36.663799], [139.334522, 36.665691], [139.33493, 36.674514], [139.33926, 36.678334], [139.336715, 36.682389], [139.339127, 36.684987], [139.336918, 36.69213], [139.348747, 36.699832], [139.356342, 36.707098], [139.355432, 36.709856], [139.359745, 36.716742], [139.364874, 36.71973], [139.366934, 36.724589], [139.364809, 36.729055], [139.367515, 36.734811], [139.367994, 36.741376], [139.370277, 36.744952], [139.365771, 36.747918], [139.356076, 36.750453], [139.354499, 36.753394], [139.355279, 36.760246], [139.35082, 36.76345], [139.354447, 36.769087], [139.353399, 36.774111], [139.359914, 36.775158], [139.362284, 36.780727], [139.367551, 36.783789], [139.374331, 36.784291], [139.378041, 36.79207], [139.375678, 36.800414], [139.377935, 36.804449], [139.388612, 36.805268], [139.393702, 36.809679], [139.391073, 36.814433], [139.394409, 36.818377], [139.401245, 36.821518], [139.4067, 36.82694], [139.40451, 36.831436], [139.397338, 36.834694], [139.39092, 36.832656], [139.386668, 36.835516], [139.366461, 36.842054], [139.363825, 36.847315], [139.352618, 36.849072], [139.348705, 36.852559], [139.355627, 36.85844], [139.358206, 36.87221], [139.36241, 36.877514], [139.367872, 36.87718], [139.371887, 36.882819], [139.370632, 36.889595], [139.379421, 36.897987], [139.393903, 36.903279], [139.395596, 36.906102], [139.393289, 36.910796], [139.399143, 36.920091], [139.407851, 36.926506], [139.412191, 36.927606], [139.420237, 36.924122], [139.426901, 36.924166], [139.434956, 36.935867], [139.434449, 36.941854], [139.440664, 36.944663], [139.456675, 36.953836], [139.459044, 36.959438], [139.458434, 36.965771], [139.461165, 36.970721], [139.472692, 36.971355], [139.484332, 36.975437], [139.494287, 36.967933], [139.503862, 36.969568], [139.515136, 36.977844], [139.532721, 36.981759], [139.535287, 36.980604], [139.544727, 36.990888], [139.554464, 36.992492], [139.556721, 36.996782], [139.56463, 36.99688], [139.579535, 37.004946], [139.581893, 37.014902], [139.588054, 37.015347], [139.598694, 37.012045], [139.602837, 37.015971], [139.611628, 37.013795], [139.619322, 37.016631], [139.618825, 37.019726], [139.625525, 37.025986], [139.623054, 37.028953], [139.624971, 37.032721], [139.631, 37.033811], [139.635648, 37.031875], [139.642942, 37.035544], [139.651634, 37.037307], [139.655744, 37.041917], [139.664954, 37.040531], [139.671237, 37.048203], [139.6726, 37.057151], [139.676729, 37.056739], [139.692064, 37.062548], [139.700531, 37.059375], [139.711006, 37.068422], [139.717778, 37.06825], [139.724157, 37.069908], [139.732963, 37.068668], [139.737282, 37.072029], [139.752712, 37.070587], [139.754929, 37.074294], [139.762859, 37.075686], [139.763517, 37.078208], [139.770651, 37.083512], [139.774911, 37.091894], [139.777858, 37.088829], [139.787951, 37.090702], [139.809506, 37.084845], [139.811243, 37.085972], [139.822093, 37.085137], [139.819732, 37.087967], [139.818254, 37.096666], [139.821127, 37.108737], [139.816148, 37.111159], [139.815189, 37.116151], [139.819036, 37.121778], [139.827929, 37.126291], [139.831773, 37.133641], [139.839767, 37.135429], [139.847836, 37.139452], [139.8518, 37.137152], [139.860965, 37.14082], [139.866289, 37.147228], [139.877568, 37.146127], [139.894644, 37.153259], [139.902432, 37.154272], [139.906507, 37.149532], [139.916336, 37.147626], [139.924437, 37.151879], [139.930464, 37.151473], [139.933796, 37.153737], [139.943696, 37.152588], [139.954615, 37.154941], [139.96138, 37.153176], [139.963124, 37.148484], [139.967322, 37.147795], [139.97925, 37.146879], [139.990493, 37.142715], [139.995559, 37.143881], [140.014555, 37.140124], [140.024449, 37.143007], [140.026989, 37.140055], [140.033048, 37.140199], [140.047074, 37.135437], [140.04925, 37.131436], [140.057511, 37.126034], [140.065963, 37.127344], [140.089359, 37.121588], [140.093736, 37.124196], [140.100437, 37.123429], [140.102672, 37.121048], [140.119134, 37.11003], [140.125876, 37.107845], [140.128049, 37.104172], [140.134835, 37.103613], [140.137022, 37.106464], [140.146472, 37.099287], [140.150794, 37.094329], [140.156233, 37.091389], [140.153535, 37.087125], [140.158355, 37.080578], [140.164366, 37.079412], [140.172827, 37.070255], [140.184823, 37.069209], [140.193062, 37.065504], [140.194504, 37.06001], [140.190651, 37.056666], [140.199783, 37.047693], [140.198486, 37.038196], [140.199272, 37.028413], [140.203334, 37.02387], [140.208987, 37.022947], [140.211904, 37.019872], [140.219735, 37.018511], [140.224655, 37.023805], [140.23211, 37.02315], [140.242444, 37.023879], [140.248932, 37.025874], [140.248944, 37.018497], [140.251269, 37.009081], [140.246255, 37.009457], [140.246016, 37.005199], [140.240213, 37.000275], [140.244029, 36.991325], [140.249392, 36.988472], [140.250976, 36.983375], [140.244201, 36.978991], [140.243905, 36.973178], [140.252326, 36.966672], [140.25309, 36.962968], [140.244495, 36.95697], [140.240635, 36.949846], [140.243037, 36.943486], [140.25351, 36.941235], [140.255336, 36.938365], [140.261737, 36.937527], [140.264257, 36.933315], [140.257773, 36.932679], [140.253467, 36.929693], [140.248385, 36.921315], [140.250103, 36.917286], [140.248718, 36.90886], [140.254281, 36.891142], [140.252879, 36.885659], [140.254274, 36.877007], [140.256715, 36.8731], [140.254175, 36.869275], [140.254307, 36.860081], [140.251536, 36.852457], [140.256682, 36.848096], [140.254989, 36.841914], [140.257205, 36.838336], [140.261484, 36.837892], [140.262256, 36.832896], [140.265692, 36.828978], [140.266616, 36.813109], [140.263713, 36.811291], [140.264604, 36.804134], [140.267038, 36.799522], [140.264536, 36.794562], [140.266442, 36.791059], [140.26161, 36.786558], [140.253815, 36.783655], [140.257425, 36.777232], [140.253672, 36.774516], [140.261067, 36.767593], [140.256861, 36.766113], [140.254945, 36.760222], [140.259628, 36.754766], [140.262206, 36.748284], [140.269124, 36.742101], [140.277465, 36.738749], [140.283336, 36.734139], [140.287671, 36.72537], [140.285981, 36.712497], [140.282306, 36.708113], [140.271054, 36.706731], [140.267819, 36.702271], [140.258441, 36.701572], [140.246697, 36.702271], [140.244177, 36.69779], [140.233392, 36.700247], [140.229879, 36.698826], [140.226813, 36.692393], [140.22042, 36.687147], [140.22346, 36.683557], [140.225018, 36.677778], [140.221566, 36.674286], [140.231418, 36.670118], [140.232734, 36.665474], [140.229309, 36.662278], [140.235685, 36.657215], [140.24093, 36.650923], [140.239109, 36.645564], [140.241562, 36.642947], [140.242715, 36.636559], [140.234314, 36.634628], [140.234696, 36.623851], [140.239537, 36.625008], [140.245275, 36.617504], [140.248392, 36.610937], [140.24914, 36.599404], [140.246094, 36.594381], [140.243374, 36.584581], [140.245575, 36.582456], [140.244688, 36.576101], [140.246967, 36.567534], [140.243782, 36.56282], [140.25154, 36.55458], [140.246969, 36.548016], [140.248156, 36.544809], [140.247747, 36.53449], [140.253375, 36.527168], [140.252575, 36.524915], [140.260176, 36.51763], [140.247613, 36.515067], [140.248931, 36.507662], [140.242444, 36.507529], [140.24151, 36.503147], [140.230644, 36.502974], [140.22957, 36.490885], [140.223398, 36.481673], [140.216619, 36.478978], [140.212067, 36.470714], [140.2129, 36.467038], [140.208305, 36.464431], [140.207359, 36.457025], [140.202877, 36.454437], [140.202786, 36.450744], [140.206187, 36.44648], [140.201347, 36.438144], [140.203261, 36.420743], [140.1983, 36.415575], [140.192491, 36.404578], [140.186103, 36.401117], [140.185157, 36.398338], [140.165603, 36.400105], [140.156197, 36.398154], [140.14857, 36.406662], [140.144261, 36.414045], [140.141431, 36.412094], [140.131833, 36.414921], [140.121717, 36.413227], [140.114097, 36.410809], [140.109585, 36.407301], [140.111221, 36.398055], [140.101692, 36.397008], [140.095584, 36.398728], [140.092286, 36.401643], [140.087951, 36.398285], [140.083102, 36.402883], [140.076488, 36.404178], [140.066504, 36.403813], [140.065196, 36.39687], [140.06914, 36.389032], [140.063612, 36.382058], [140.048166, 36.375583], [140.03979, 36.375005], [140.03552, 36.377764], [140.026162, 36.375428], [140.012785, 36.376416], [140.009042, 36.375087], [140.000432, 36.376633], [140.003853, 36.370602], [140.001565, 36.368065], [139.99131, 36.36949], [139.989929, 36.367208], [139.979244, 36.369766], [139.97457, 36.374544], [139.965285, 36.367479], [139.965734, 36.36021], [139.964501, 36.350942], [139.946167, 36.349187], [139.943781, 36.346851], [139.93514, 36.343495], [139.922654, 36.341582], [139.913027, 36.334984], [139.911673, 36.332645], [139.912556, 36.325042], [139.910309, 36.309818], [139.914777, 36.307857], [139.910754, 36.301201], [139.904266, 36.297926], [139.894289, 36.301934], [139.899054, 36.306308], [139.896642, 36.309754], [139.891676, 36.309086], [139.887215, 36.311503], [139.88185, 36.309779], [139.87852, 36.314009], [139.882414, 36.319713], [139.881439, 36.322633], [139.874671, 36.323164], [139.872478, 36.315079], [139.862597, 36.313079], [139.856873, 36.310487], [139.849953, 36.311789], [139.839537, 36.300231], [139.835211, 36.291803], [139.841733, 36.27733], [139.835954, 36.271437], [139.831861, 36.265062], [139.826821, 36.247566], [139.821807, 36.23977], [139.7857, 36.227797], [139.76004, 36.219235], [139.748278, 36.211088], [139.729021, 36.202285], [139.727542, 36.205843]]]}}]}