{"type": "FeatureCollection", "features": [{"type": "Feature", "properties": {}, "geometry": {"type": "MultiLineString", "coordinates": [[[136.416962, 35.011238], [136.421364, 35.000056], [136.413486, 34.995427], [136.416357, 34.99213], [136.415874, 34.980801], [136.403146, 34.969152], [136.399122, 34.963143], [136.394788, 34.951423], [136.387709, 34.953081], [136.37269, 34.942257], [136.375353, 34.939892], [136.371903, 34.934588], [136.373913, 34.923779], [136.367812, 34.921901], [136.365152, 34.912686], [136.366097, 34.905006], [136.360193, 34.904116], [136.357357, 34.900482], [136.350331, 34.898966], [136.346046, 34.894728], [136.339409, 34.895472], [136.330729, 34.892434], [136.326342, 34.888642], [136.319057, 34.889566], [136.313226, 34.886972], [136.312918, 34.880627], [136.305019, 34.875182], [136.298766, 34.875366], [136.297098, 34.872757], [136.289061, 34.869573], [136.275967, 34.871827], [136.268894, 34.867905], [136.267897, 34.864467], [136.250675, 34.857728], [136.235387, 34.861474], [136.227832, 34.860972], [136.212014, 34.866021], [136.209073, 34.868121], [136.198074, 34.869862], [136.187076, 34.87839], [136.182197, 34.87817], [136.178255, 34.882583], [136.180779, 34.88579], [136.166898, 34.887894], [136.153572, 34.884581], [136.148546, 34.882016], [136.144076, 34.885406], [136.136439, 34.888209], [136.131533, 34.883134], [136.120446, 34.89144], [136.11628, 34.892157], [136.112297, 34.90188], [136.106269, 34.900085], [136.101785, 34.896144], [136.098378, 34.889534], [136.094786, 34.887801], [136.086223, 34.889128], [136.085373, 34.886765], [136.0896, 34.8825], [136.085163, 34.878784], [136.08698, 34.876356], [136.098892, 34.870581], [136.113239, 34.869304], [136.122132, 34.872752], [136.125857, 34.870019], [136.122771, 34.866321], [136.126382, 34.862022], [136.121035, 34.859789], [136.117409, 34.855887], [136.113386, 34.856139], [136.108301, 34.852824], [136.107396, 34.845239], [136.104403, 34.840566], [136.095078, 34.840177], [136.087555, 34.83045], [136.095187, 34.819104], [136.090798, 34.815841], [136.090616, 34.812227], [136.081804, 34.807748], [136.075507, 34.807852], [136.072993, 34.804212], [136.063691, 34.801608], [136.055117, 34.802073], [136.051554, 34.799091], [136.041171, 34.798458], [136.038481, 34.793939], [136.034661, 34.794266], [136.028429, 34.79068], [136.019834, 34.792119], [136.011331, 34.795806], [136.010271, 34.799553], [136.015051, 34.809146], [136.029034, 34.81739], [136.027711, 34.821802], [136.01549, 34.826599], [136.012166, 34.825174], [136.005383, 34.826556], [136.002328, 34.832762], [136.00527, 34.84311], [136.000751, 34.845086], [135.994803, 34.84226], [135.977777, 34.838461], [135.971471, 34.838494], [135.972054, 34.846049], [135.962733, 34.850434], [135.962884, 34.853127], [135.957134, 34.854776], [135.949585, 34.85158], [135.947035, 34.853521], [135.940988, 34.863739], [135.943627, 34.872794], [135.943235, 34.878177], [135.940078, 34.880276], [135.941182, 34.884733], [135.936026, 34.891641], [135.923951, 34.884906], [135.912656, 34.883516], [135.90946, 34.876897], [135.899669, 34.871404], [135.888723, 34.875496], [135.885538, 34.87823], [135.888721, 34.881287], [135.884179, 34.884512], [135.875865, 34.886286], [135.867521, 34.893337], [135.867289, 34.896869], [135.863131, 34.903696], [135.871178, 34.909949], [135.869053, 34.920171], [135.870713, 34.926004], [135.879924, 34.934525], [135.876028, 34.94323], [135.878679, 34.947206], [135.875427, 34.953665], [135.863878, 34.957602], [135.86322, 34.96056], [135.852275, 34.971347], [135.85676, 34.980002], [135.855026, 34.984742], [135.849118, 34.984812], [135.849267, 34.991734], [135.8423, 34.989942], [135.827475, 34.991119], [135.832572, 34.999101], [135.836559, 35.001226], [135.832682, 35.009425], [135.824097, 35.008824], [135.824946, 35.012351], [135.835464, 35.012329], [135.834518, 35.022081], [135.826421, 35.023614], [135.828112, 35.028381], [135.824617, 35.035638], [135.821704, 35.036054], [135.815417, 35.042151], [135.815901, 35.047369], [135.826983, 35.053853], [135.831556, 35.052592], [135.834853, 35.055554], [135.835847, 35.06233], [135.831892, 35.071456], [135.834219, 35.076074], [135.838317, 35.079079], [135.83984, 35.086137], [135.835046, 35.091327], [135.837895, 35.097444], [135.842938, 35.102515], [135.843263, 35.109903], [135.847351, 35.11426], [135.849813, 35.12054], [135.849606, 35.126939], [135.852294, 35.134267], [135.84871, 35.141852], [135.852614, 35.14618], [135.856153, 35.159437], [135.846813, 35.162387], [135.84063, 35.180066], [135.841908, 35.18984], [135.839821, 35.191439], [135.835241, 35.20221], [135.835494, 35.206697], [135.831087, 35.210417], [135.829816, 35.21613], [135.830864, 35.222761], [135.837352, 35.225957], [135.837532, 35.237547], [135.835223, 35.23964], [135.839924, 35.243851], [135.84236, 35.253199], [135.846089, 35.257112], [135.844667, 35.261308], [135.847535, 35.266665], [135.852479, 35.268959], [135.854532, 35.275328], [135.860755, 35.28296], [135.858537, 35.287097], [135.851681, 35.285968], [135.849616, 35.280282], [135.841783, 35.278124], [135.834609, 35.274079], [135.829623, 35.276735], [135.820053, 35.29107], [135.821403, 35.296835], [135.814967, 35.301258], [135.814364, 35.307112], [135.810672, 35.308317], [135.811249, 35.31353], [135.808782, 35.316878], [135.803644, 35.317251], [135.790871, 35.323803], [135.790034, 35.328219], [135.785733, 35.330719], [135.780819, 35.340562], [135.774314, 35.34282], [135.764073, 35.344558], [135.770069, 35.359976], [135.777749, 35.365939], [135.779146, 35.373525], [135.783924, 35.377014], [135.789979, 35.378367], [135.79196, 35.381116], [135.790894, 35.386639], [135.79524, 35.387385], [135.799104, 35.38492], [135.807529, 35.385362], [135.810075, 35.391771], [135.808092, 35.395241], [135.810559, 35.403261], [135.81076, 35.409467], [135.813214, 35.412978], [135.819234, 35.412549], [135.826695, 35.41465], [135.832037, 35.412241], [135.838373, 35.414223], [135.846026, 35.411355], [135.855371, 35.409497], [135.854339, 35.400778], [135.860433, 35.395252], [135.864532, 35.394423], [135.875554, 35.397405], [135.880287, 35.400602], [135.89057, 35.403175], [135.893546, 35.410734], [135.892982, 35.419848], [135.900977, 35.425759], [135.902711, 35.429433], [135.908076, 35.429522], [135.914162, 35.432106], [135.912455, 35.448686], [135.915577, 35.456119], [135.914853, 35.459136], [135.917328, 35.466755], [135.91601, 35.470578], [135.921691, 35.47612], [135.923738, 35.481702], [135.922294, 35.485818], [135.924825, 35.489971], [135.929834, 35.491961], [135.933214, 35.502308], [135.938022, 35.511162], [135.939647, 35.520543], [135.947022, 35.520476], [135.95182, 35.511224], [135.95237, 35.506221], [135.957586, 35.505961], [135.96258, 35.501333], [135.967187, 35.502984], [135.972646, 35.500106], [135.980951, 35.486689], [135.989507, 35.492682], [135.99319, 35.491587], [136.006665, 35.491819], [136.011686, 35.497617], [136.011727, 35.504841], [136.015964, 35.512272], [136.020132, 35.511896], [136.023535, 35.519233], [136.028842, 35.523428], [136.028276, 35.529068], [136.040938, 35.532182], [136.046377, 35.530176], [136.048347, 35.534532], [136.060717, 35.531867], [136.062352, 35.528148], [136.069233, 35.526247], [136.077047, 35.530541], [136.076697, 35.534434], [136.083228, 35.540558], [136.093557, 35.537343], [136.105623, 35.528818], [136.107198, 35.530366], [136.106088, 35.538639], [136.109406, 35.545119], [136.10905, 35.549658], [136.10545, 35.555419], [136.110096, 35.559287], [136.108894, 35.567197], [136.112599, 35.573411], [136.11222, 35.579838], [136.12158, 35.576164], [136.132817, 35.574528], [136.138687, 35.575673], [136.14333, 35.571149], [136.150868, 35.572881], [136.16324, 35.571144], [136.16688, 35.565352], [136.17033, 35.571088], [136.166466, 35.582654], [136.177486, 35.594984], [136.17437, 35.603592], [136.170803, 35.608677], [136.16689, 35.618625], [136.159866, 35.625228], [136.159774, 35.634959], [136.157307, 35.641259], [136.151544, 35.648277], [136.150401, 35.658855], [136.147815, 35.66252], [136.137487, 35.665076], [136.134494, 35.669823], [136.143494, 35.683039], [136.150261, 35.691123], [136.151357, 35.69843], [136.156754, 35.700369], [136.166044, 35.697251], [136.166775, 35.702215], [136.174593, 35.703737], [136.178357, 35.70181], [136.185285, 35.703726], [136.193091, 35.700762], [136.198503, 35.689574], [136.204191, 35.686791], [136.208043, 35.687695], [136.211811, 35.682446], [136.219471, 35.684354], [136.227679, 35.68047], [136.234407, 35.682462], [136.24465, 35.673788], [136.250373, 35.676245], [136.257476, 35.67128], [136.264031, 35.67106], [136.26936, 35.668728], [136.280534, 35.661275], [136.276566, 35.651476], [136.281613, 35.64755], [136.283103, 35.643736], [136.279164, 35.636686], [136.287407, 35.627948], [136.288559, 35.620588], [136.298166, 35.617477], [136.306493, 35.622265], [136.315561, 35.623396], [136.323676, 35.616516], [136.320544, 35.610719], [136.315044, 35.605691], [136.319061, 35.603803], [136.321692, 35.598256], [136.32275, 35.570007], [136.318915, 35.565591], [136.316263, 35.555939], [136.317503, 35.547397], [136.3221, 35.544347], [136.325461, 35.548788], [136.329751, 35.550956], [136.33732, 35.550255], [136.340027, 35.543826], [136.340928, 35.537283], [136.345882, 35.536109], [136.356662, 35.539914], [136.359126, 35.548784], [136.361083, 35.550633], [136.362516, 35.558481], [136.365624, 35.559918], [136.373564, 35.559394], [136.375771, 35.551236], [136.380268, 35.546069], [136.380996, 35.537659], [136.384253, 35.533091], [136.400405, 35.530082], [136.401765, 35.525814], [136.399272, 35.52112], [136.402504, 35.518972], [136.40229, 35.513252], [136.39722, 35.509662], [136.387834, 35.496833], [136.38688, 35.488406], [136.392846, 35.485463], [136.398005, 35.480929], [136.401956, 35.473473], [136.401767, 35.469941], [136.420364, 35.466235], [136.421466, 35.455639], [136.424597, 35.453328], [136.426169, 35.448161], [136.422205, 35.442558], [136.423119, 35.439734], [136.415729, 35.433422], [136.418887, 35.427776], [136.411839, 35.422406], [136.411808, 35.418598], [136.420306, 35.412908], [136.424337, 35.404882], [136.427965, 35.400785], [136.440889, 35.393862], [136.444143, 35.388655], [136.436893, 35.379132], [136.426085, 35.373318], [136.415575, 35.37356], [136.411912, 35.369896], [136.413528, 35.359973], [136.409616, 35.356664], [136.410976, 35.352217], [136.416165, 35.35475], [136.421423, 35.353917], [136.422325, 35.34839], [136.418732, 35.340644], [136.415346, 35.336533], [136.411174, 35.327942], [136.412264, 35.315563], [136.406782, 35.309998], [136.406848, 35.305264], [136.403241, 35.303442], [136.396148, 35.294261], [136.39115, 35.290197], [136.391729, 35.287111], [136.395735, 35.280945], [136.39585, 35.274764], [136.393541, 35.261913], [136.39694, 35.25791], [136.389154, 35.249767], [136.379126, 35.247388], [136.379743, 35.240937], [136.383737, 35.239531], [136.385686, 35.235115], [136.391381, 35.234379], [136.399134, 35.226059], [136.408271, 35.223678], [136.416799, 35.214389], [136.416137, 35.205484], [136.412623, 35.195911], [136.412707, 35.192053], [136.408653, 35.187183], [136.419442, 35.182722], [136.424461, 35.18451], [136.435724, 35.176503], [136.439777, 35.171496], [136.443871, 35.171701], [136.448536, 35.166824], [136.452554, 35.165839], [136.454653, 35.161418], [136.454998, 35.152415], [136.450394, 35.149499], [136.446041, 35.149871], [136.443184, 35.145174], [136.442948, 35.139057], [136.437951, 35.136564], [136.435639, 35.130655], [136.444656, 35.126614], [136.448023, 35.123841], [136.444519, 35.119007], [136.439966, 35.116632], [136.442514, 35.110854], [136.440823, 35.107749], [136.441911, 35.101577], [136.438699, 35.096368], [136.442109, 35.086154], [136.435267, 35.082487], [136.441598, 35.066719], [136.431041, 35.059233], [136.42472, 35.056984], [136.42221, 35.051383], [136.417853, 35.049503], [136.416455, 35.037295], [136.418839, 35.02991], [136.423828, 35.029771], [136.421284, 35.021271], [136.418167, 35.018123], [136.416962, 35.011238]]]}}]}