{
  "type": "FeatureCollection",
  "features": [
    {
      "type": "Feature",
      "geometry": {
        "type": "Polygon",
        "coordinates": [
          [
            [
              130.691881,
              32.779134
            ],
            [
              130.729736,
              32.769388
            ],
            [
              130.738326,
              32.779086
            ],
            [
              130.739755,
              32.777846
            ],
            [
              130.741836,
              32.779119
            ],
            [
              130.74198,
              32.77928
            ],
            [
              130.757341,
              32.79886
            ],
            [
              130.746948,
              32.819648
            ],
            [
              130.708382,
              32.82031
            ],
            [
              130.689865,
              32.804422
            ],
            [
              130.691881,
              32.779134
            ]
          ]
        ]
      },
      "properties": {
        "N03_001": "熊本県",
        "N03_002": null,
        "N03_003": null,
        "N03_004": "熊本市",
        "N03_005": "中央区",
        "N03_007": "43101"
      }
    },
    {
      "type": "Feature",
      "geometry": {
        "type": "Polygon",
        "coordinates": [
          [
            [
              130.729736,
              32.769388
            ],
            [
              130.728946,
              32.750285
            ],
            [
              130.757826,
              32.763228
            ],
            [
              130.779363,
              32.7628
            ],
            [
              130.787256,
              32.79964
            ],
            [
              130.828473,
              32.824978
            ],
            [
              130.80495,
              32.852168
            ],
            [
              130.790489,
              32.853368
            ],
            [
              130.772766,
              32.847401
            ],
            [
              130.746948,
              32.819648
            ],
            [
              130.757341,
              32.79886
            ],
            [
              130.74198,
              32.77928
            ],
            [
              130.741836,
              32.779119
            ],
            [
              130.739755,
              32.777846
            ],
            [
              130.738326,
              32.779086
            ],
            [
              130.729736,
              32.769388
            ]
          ]
        ]
      },
      "properties": {
        "N03_001": "熊本県",
        "N03_002": null,
        "N03_003": null,
        "N03_004": "熊本市",
        "N03_005": "東区",
        "N03_007": "43102"
      }
    },
    {
      "type": "Feature",
      "geometry": {
        "type": "Polygon",
        "coordinates": [
          [
            [
              130.708382,
              32.82031
            ],
            [
              130.675578,
              32.836584
            ],
            [
              130.669553,
              32.861868
            ],
            [
              130.634853,
              32.861037
            ],
            [
              130.625329,
              32.863054
            ],
            [
              130.613672,
              32.843036
            ],
            [
              130.573185,
              32.852724
            ],
            [
              130.610575,
              32.796651
            ],
            [
              130.59771,
              32.776459
            ],
            [
              130.606699,
              32.754228
            ],
            [
              130.646335,
              32.769692
            ],
            [
              130.691881,
              32.779134
            ],
            [
              130.689865,
              32.804422
            ],
            [
              130.708382,
              32.82031
            ]
          ]
        ]
      },
      "properties": {
        "N03_001": "熊本県",
        "N03_002": null,
        "N03_003": null,
        "N03_004": "熊本市",
        "N03_005": "西区",
        "N03_007": "43103"
      }
    },
    {
      "type": "Feature",
      "geometry": {
        "type": "Polygon",
        "coordinates": [
          [
            [
              130.691881,
              32.779134
            ],
            [
              130.646335,
              32.769692
            ],
            [
              130.606699,
              32.754228
            ],
            [
              130.607558,
              32.715787
            ],
            [
              130.64398,
              32.71731
            ],
            [
              130.672269,
              32.694046
            ],
            [
              130.716487,
              32.68192
            ],
            [
              130.735775,
              32.660666
            ],
            [
              130.777113,
              32.667595
            ],
            [
              130.753638,
              32.699899
            ],
            [
              130.760223,
              32.720205
            ],
            [
              130.757047,
              32.728332
            ],
            [
              130.725343,
              32.737148
            ],
            [
              130.728946,
              32.750285
            ],
            [
              130.729736,
              32.769388
            ],
            [
              130.691881,
              32.779134
            ]
          ]
        ]
      },
      "properties": {
        "N03_001": "熊本県",
        "N03_002": null,
        "N03_003": null,
        "N03_004": "熊本市",
        "N03_005": "南区",
        "N03_007": "43104"
      }
    },
    {
      "type": "Feature",
      "geometry": {
        "type": "Polygon",
        "coordinates": [
          [
            [
              130.746948,
              32.819648
            ],
            [
              130.772766,
              32.847401
            ],
            [
              130.790489,
              32.853368
            ],
            [
              130.748734,
              32.857692
            ],
            [
              130.720686,
              32.897407
            ],
            [
              130.731518,
              32.92664
            ],
            [
              130.733613,
              32.971969
            ],
            [
              130.709243,
              32.972531
            ],
            [
              130.651291,
              32.932509
            ],
            [
              130.635583,
              32.917516
            ],
            [
              130.649716,
              32.902701
            ],
            [
              130.634853,
              32.861037
            ],
            [
              130.669553,
              32.861868
            ],
            [
              130.675578,
              32.836584
            ],
            [
              130.708382,
              32.82031
            ],
            [
              130.746948,
              32.819648
            ]
          ]
        ]
      },
      "properties": {
        "N03_001": "熊本県",
        "N03_002": null,
        "N03_003": null,
        "N03_004": "熊本市",
        "N03_005": "北区",
        "N03_007": "43105"
      }
    },
    {
      "type": "Feature",
      "geometry": {
        "type": "Polygon",
        "coordinates": [
          [
            [
              130.782314,
              32.595734
            ],
            [
              130.766769,
              32.575007
            ],
            [
              130.742175,
              32.558889
            ],
            [
              130.72387,
              32.558607
            ],
            [
              130.686653,
              32.527615
            ],
            [
              130.670574,
              32.551531
            ],
            [
              130.674033,
              32.568097
            ],
            [
              130.654153,
              32.584492
            ],
            [
              130.632782,
              32.602117
            ],
            [
              130.59354,
              32.579877
            ],
            [
              130.562399,
              32.537905
            ],
            [
              130.536157,
              32.525857
            ],
            [
              130.573477,
              32.509358
            ],
            [
              130.546971,
              32.500255
            ],
            [
              130.544461,
              32.47879
            ],
            [
              130.564951,
              32.476001
            ],
            [
              130.573788,
              32.439577
            ],
            [
              130.538062,
              32.410277
            ],
            [
              130.526933,
              32.382763
            ],
            [
              130.538453,
              32.364677
            ],
            [
              130.559084,
              32.382578
            ],
            [
              130.577756,
              32.371701
            ],
            [
              130.610011,
              32.375825
            ],
            [
              130.642193,
              32.364888
            ],
            [
              130.657251,
              32.363142
            ],
            [
              130.669962,
              32.340931
            ],
            [
              130.693845,
              32.342189
            ],
            [
              130.720782,
              32.386502
            ],
            [
              130.739074,
              32.392966
            ],
            [
              130.724212,
              32.405645
            ],
            [
              130.729382,
              32.42792
            ],
            [
              130.72274,
              32.450384
            ],
            [
              130.736609,
              32.471179
            ],
            [
              130.839984,
              32.499021
            ],
            [
              130.862732,
              32.493659
            ],
            [
              130.901162,
              32.467773
            ],
            [
              130.904416,
              32.441657
            ],
            [
              130.941105,
              32.438507
            ],
            [
              130.958896,
              32.450355
            ],
            [
              130.987472,
              32.447144
            ],
            [
              131.014352,
              32.462679
            ],
            [
              131.006959,
              32.490058
            ],
            [
              131.009234,
              32.514651
            ],
            [
              131.025615,
              32.521109
            ],
            [
              131.019474,
              32.549224
            ],
            [
              131.011192,
              32.564457
            ],
            [
              130.972129,
              32.579959
            ],
            [
              130.953082,
              32.578629
            ],
            [
              130.897872,
              32.571224
            ],
            [
              130.842212,
              32.570824
            ],
            [
              130.82102,
              32.560772
            ],
            [
              130.803861,
              32.568265
            ],
            [
              130.782314,
              32.595734
            ]
          ]
        ]
      },
      "properties": {
        "N03_001": "熊本県",
        "N03_002": null,
        "N03_003": null,
        "N03_004": "八代市",
        "N03_005": null,
        "N03_007": "43202"
      }
    },
    {
      "type": "Feature",
      "geometry": {
        "type": "Polygon",
        "coordinates": [
          [
            [
              130.651682,
              32.151382
            ],
            [
              130.654777,
              32.135867
            ],
            [
              130.699073,
              32.106999
            ],
            [
              130.735236,
              32.108948
            ],
            [
              130.820797,
              32.094924
            ],
            [
              130.838701,
              32.107265
            ],
            [
              130.857448,
              32.099693
            ],
            [
              130.877965,
              32.121618
            ],
            [
              130.827374,
              32.135633
            ],
            [
              130.805322,
              32.181956
            ],
            [
              130.781766,
              32.20519
            ],
            [
              130.787039,
              32.231782
            ],
            [
              130.758237,
              32.232259
            ],
            [
              130.730788,
              32.289684
            ],
            [
              130.716915,
              32.295481
            ],
            [
              130.710889,
              32.284861
            ],
            [
              130.734226,
              32.255802
            ],
            [
              130.713537,
              32.227536
            ],
            [
              130.700743,
              32.227807
            ],
            [
              130.66506,
              32.183661
            ],
            [
              130.651682,
              32.151382
            ]
          ]
        ]
      },
      "properties": {
        "N03_001": "熊本県",
        "N03_002": null,
        "N03_003": null,
        "N03_004": "人吉市",
        "N03_005": null,
        "N03_007": "43203"
      }
    },
    {
      "type": "Feature",
      "geometry": {
        "type": "Polygon",
        "coordinates": [
          [
            [
              130.497669,
              32.935212
            ],
            [
              130.529817,
              32.97557
            ],
            [
              130.527859,
              32.988372
            ],
            [
              130.516317,
              33.011448
            ],
            [
              130.484183,
              33.001533
            ],
            [
              130.428136,
              33.005361
            ],
            [
              130.431932,
              32.959218
            ],
            [
              130.452815,
              32.945898
            ],
            [
              130.497458,
              32.946244
            ],
            [
              130.497669,
              32.935212
            ]
          ]
        ]
      },
      "properties": {
        "N03_001": "熊本県",
        "N03_002": null,
        "N03_003": null,
        "N03_004": "荒尾市",
        "N03_005": null,
        "N03_007": "43204"
      }
    },
    {
      "type": "Feature",
      "geometry": {
        "type": "Polygon",
        "coordinates": [
          [
            [
              130.579504,
              32.194287
            ],
            [
              130.552043,
              32.196003
            ],
            [
              130.514594,
              32.18252
            ],
            [
              130.468465,
              32.20976
            ],
            [
              130.439604,
              32.215151
            ],
            [
              130.433141,
              32.230255
            ],
            [
              130.402455,
              32.235432
            ],
            [
              130.373282,
              32.204715
            ],
            [
              130.378019,
              32.176451
            ],
            [
              130.361361,
              32.167194
            ],
            [
              130.386624,
              32.147452
            ],
            [
              130.402671,
              32.120203
            ],
            [
              130.428837,
              32.113825
            ],
            [
              130.473502,
              32.118613
            ],
            [
              130.476902,
              32.138988
            ],
            [
              130.540293,
              32.136676
            ],
            [
              130.541958,
              32.149485
            ],
            [
              130.582678,
              32.154914
            ],
            [
              130.58988,
              32.18586
            ],
            [
              130.579504,
              32.194287
            ]
          ]
        ]
      },
      "properties": {
        "N03_001": "熊本県",
        "N03_002": null,
        "N03_003": null,
        "N03_004": "水俣市",
        "N03_005": null,
        "N03_007": "43205"
      }
    },
    {
      "type": "Feature",
      "geometry": {
        "type": "Polygon",
        "coordinates": [
          [
            [
              130.625329,
              32.863054
            ],
            [
              130.607535,
              32.877533
            ],
            [
              130.61738,
              32.896757
            ],
            [
              130.608712,
              32.924204
            ],
            [
              130.625773,
              32.94165
            ],
            [
              130.60661,
              32.959906
            ],
            [
              130.601229,
              32.982767
            ],
            [
              130.578385,
              32.988926
            ],
            [
              130.569049,
              32.995085
            ],
            [
              130.527859,
              32.988372
            ],
            [
              130.529817,
              32.97557
            ],
            [
              130.497669,
              32.935212
            ],
            [
              130.497253,
              32.933163
            ],
            [
              130.475667,
              32.903295
            ],
            [
              130.527099,
              32.87675
            ],
            [
              130.523746,
              32.850571
            ],
            [
              130.563919,
              32.841955
            ],
            [
              130.573185,
              32.852724
            ],
            [
              130.613672,
              32.843036
            ],
            [
              130.625329,
              32.863054
            ]
          ]
        ]
      },
      "properties": {
        "N03_001": "熊本県",
        "N03_002": null,
        "N03_003": null,
        "N03_004": "玉名市",
        "N03_005": null,
        "N03_007": "43206"
      }
    },
    {
      "type": "Feature",
      "geometry": {
        "type": "Polygon",
        "coordinates": [
          [
            [
              130.733613,
              32.971969
            ],
            [
              130.766264,
              32.996371
            ],
            [
              130.782217,
              32.992915
            ],
            [
              130.806283,
              33.011923
            ],
            [
              130.815755,
              33.065122
            ],
            [
              130.844406,
              33.087663
            ],
            [
              130.839823,
              33.104054
            ],
            [
              130.792012,
              33.123694
            ],
            [
              130.770889,
              33.124333
            ],
            [
              130.73254,
              33.154421
            ],
            [
              130.666509,
              33.155047
            ],
            [
              130.659678,
              33.109564
            ],
            [
              130.651488,
              33.103674
            ],
            [
              130.650608,
              33.083285
            ],
            [
              130.63235,
              33.073411
            ],
            [
              130.635252,
              33.053787
            ],
            [
              130.653139,
              33.048119
            ],
            [
              130.647463,
              33.004593
            ],
            [
              130.629464,
              32.944686
            ],
            [
              130.651291,
              32.932509
            ],
            [
              130.709243,
              32.972531
            ],
            [
              130.733613,
              32.971969
            ]
          ]
        ]
      },
      "properties": {
        "N03_001": "熊本県",
        "N03_002": null,
        "N03_003": null,
        "N03_004": "山鹿市",
        "N03_005": null,
        "N03_007": "43208"
      }
    },
    {
      "type": "Feature",
      "geometry": {
        "type": "Polygon",
        "coordinates": [
          [
            [
              130.731518,
              32.92664
            ],
            [
              130.752045,
              32.926988
            ],
            [
              130.79095,
              32.910135
            ],
            [
              130.82682,
              32.9074
            ],
            [
              130.840151,
              32.926306
            ],
            [
              130.924526,
              32.934538
            ],
            [
              130.956196,
              32.953666
            ],
            [
              130.955683,
              33.004242
            ],
            [
              130.970273,
              33.023766
            ],
            [
              130.94682,
              33.052837
            ],
            [
              130.915851,
              33.053489
            ],
            [
              130.897191,
              33.065422
            ],
            [
              130.88717,
              33.086687
            ],
            [
              130.863364,
              33.095315
            ],
            [
              130.844406,
              33.087663
            ],
            [
              130.815755,
              33.065122
            ],
            [
              130.806283,
              33.011923
            ],
            [
              130.782217,
              32.992915
            ],
            [
              130.766264,
              32.996371
            ],
            [
              130.733613,
              32.971969
            ],
            [
              130.731518,
              32.92664
            ]
          ]
        ]
      },
      "properties": {
        "N03_001": "熊本県",
        "N03_002": null,
        "N03_003": null,
        "N03_004": "菊池市",
        "N03_005": null,
        "N03_007": "43210"
      }
    },
    {
      "type": "Feature",
      "geometry": {
        "type": "Polygon",
        "coordinates": [
          [
            [
              130.607558,
              32.715787
            ],
            [
              130.567796,
              32.699222
            ],
            [
              130.537927,
              32.665002
            ],
            [
              130.501242,
              32.647423
            ],
            [
              130.564418,
              32.656729
            ],
            [
              130.586585,
              32.653337
            ],
            [
              130.61516,
              32.671149
            ],
            [
              130.644587,
              32.668534
            ],
            [
              130.677129,
              32.657499
            ],
            [
              130.695511,
              32.677011
            ],
            [
              130.716487,
              32.68192
            ],
            [
              130.672269,
              32.694046
            ],
            [
              130.64398,
              32.71731
            ],
            [
              130.607558,
              32.715787
            ]
          ]
        ]
      },
      "properties": {
        "N03_001": "熊本県",
        "N03_002": null,
        "N03_003": null,
        "N03_004": "宇土市",
        "N03_005": null,
        "N03_007": "43211"
      }
    },
    {
      "type": "Feature",
      "geometry": {
        "type": "MultiPolygon",
        "coordinates": [
          [
            [
              [
                130.442951,
                32.625828
              ],
              [
                130.417785,
                32.616807
              ],
              [
                130.393534,
                32.588415
              ],
              [
                130.422618,
                32.545735
              ],
              [
                130.453388,
                32.554299
              ],
              [
                130.444953,
                32.591848
              ],
              [
                130.45802,
                32.614409
              ],
              [
                130.442951,
                32.625828
              ]
            ]
          ],
          [
            [
              [
                130.38922,
                32.503975
              ],
              [
                130.379445,
                32.478768
              ],
              [
                130.344861,
                32.481987
              ],
              [
                130.337412,
                32.461058
              ],
              [
                130.348466,
                32.445183
              ],
              [
                130.383759,
                32.443175
              ],
              [
                130.361906,
                32.401581
              ],
              [
                130.382039,
                32.38716
              ],
              [
                130.403743,
                32.394404
              ],
              [
                130.40775,
                32.435228
              ],
              [
                130.437489,
                32.469496
              ],
              [
                130.43761,
                32.486256
              ],
              [
                130.457883,
                32.515518
              ],
              [
                130.402441,
                32.514566
              ],
              [
                130.38922,
                32.503975
              ]
            ]
          ]
        ]
      },
      "properties": {
        "N03_001": "熊本県",
        "N03_002": null,
        "N03_003": null,
        "N03_004": "上天草市",
        "N03_005": null,
        "N03_007": "43212"
      }
    },
    {
      "type": "Feature",
      "geometry": {
        "type": "Polygon",
        "coordinates": [
          [
            [
              130.716487,
              32.68192
            ],
            [
              130.695511,
              32.677011
            ],
            [
              130.677129,
              32.657499
            ],
            [
              130.644587,
              32.668534
            ],
            [
              130.61516,
              32.671149
            ],
            [
              130.586585,
              32.653337
            ],
            [
              130.564418,
              32.656729
            ],
            [
              130.501242,
              32.647423
            ],
            [
              130.462009,
              32.634443
            ],
            [
              130.451035,
              32.624081
            ],
            [
              130.46503,
              32.60477
            ],
            [
              130.509787,
              32.611354
            ],
            [
              130.557042,
              32.624967
            ],
            [
              130.576856,
              32.620571
            ],
            [
              130.609294,
              32.630993
            ],
            [
              130.63047,
              32.622688
            ],
            [
              130.6793,
              32.597581
            ],
            [
              130.72387,
              32.558607
            ],
            [
              130.742175,
              32.558889
            ],
            [
              130.766769,
              32.575007
            ],
            [
              130.782314,
              32.595734
            ],
            [
              130.776347,
              32.663325
            ],
            [
              130.790994,
              32.658285
            ],
            [
              130.777113,
              32.667595
            ],
            [
              130.735775,
              32.660666
            ],
            [
              130.716487,
              32.68192
            ]
          ]
        ]
      },
      "properties": {
        "N03_001": "熊本県",
        "N03_002": null,
        "N03_003": null,
        "N03_004": "宇城市",
        "N03_005": null,
        "N03_007": "43213"
      }
    },
    {
      "type": "Feature",
      "geometry": {
        "type": "Polygon",
        "coordinates": [
          [
            [
              130.956196,
              32.953666
            ],
            [
              130.966753,
              32.903271
            ],
            [
              130.992019,
              32.909486
            ],
            [
              131.03566,
              32.897104
            ],
            [
              131.066223,
              32.880379
            ],
            [
              131.096516,
              32.883824
            ],
            [
              131.142648,
              32.882904
            ],
            [
              131.161554,
              32.888514
            ],
            [
              131.178102,
              32.87454
            ],
            [
              131.206927,
              32.884682
            ],
            [
              131.230371,
              32.902153
            ],
            [
              131.253796,
              32.908652
            ],
            [
              131.245384,
              32.960716
            ],
            [
              131.219253,
              32.962327
            ],
            [
              131.188481,
              32.975676
            ],
            [
              131.185284,
              32.999534
            ],
            [
              131.151327,
              33.023222
            ],
            [
              131.16464,
              33.039407
            ],
            [
              131.127081,
              33.045725
            ],
            [
              131.094436,
              33.031516
            ],
            [
              131.062501,
              33.030044
            ],
            [
              131.007435,
              33.019334
            ],
            [
              130.998607,
              33.027908
            ],
            [
              130.970273,
              33.023766
            ],
            [
              130.955683,
              33.004242
            ],
            [
              130.956196,
              32.953666
            ]
          ]
        ]
      },
      "properties": {
        "N03_001": "熊本県",
        "N03_002": null,
        "N03_003": null,
        "N03_004": "阿蘇市",
        "N03_005": null,
        "N03_007": "43214"
      }
    },
    {
      "type": "Feature",
      "geometry": {
        "type": "MultiPolygon",
        "coordinates": [
          [
            [
              [
                130.38922,
                32.503975
              ],
              [
                130.367262,
                32.528003
              ],
              [
                130.314501,
                32.516868
              ],
              [
                130.285947,
                32.487603
              ],
              [
                130.20525,
                32.452182
              ],
              [
                130.208567,
                32.472261
              ],
              [
                130.192146,
                32.496202
              ],
              [
                130.198658,
                32.509929
              ],
              [
                130.186171,
                32.546835
              ],
              [
                130.159789,
                32.551123
              ],
              [
                130.118735,
                32.539644
              ],
              [
                130.115717,
                32.491772
              ],
              [
                130.094567,
                32.479378
              ],
              [
                130.077623,
                32.439351
              ],
              [
                130.043166,
                32.433929
              ],
              [
                130.018089,
                32.439253
              ],
              [
                130.003693,
                32.424556
              ],
              [
                129.996461,
                32.391396
              ],
              [
                129.974807,
                32.355906
              ],
              [
                129.976884,
                32.329139
              ],
              [
                129.994221,
                32.306538
              ],
              [
                130.040639,
                32.314937
              ],
              [
                130.045386,
                32.297699
              ],
              [
                130.010894,
                32.298391
              ],
              [
                129.981013,
                32.267773
              ],
              [
                129.967197,
                32.243124
              ],
              [
                130.003905,
                32.235283
              ],
              [
                129.990636,
                32.197233
              ],
              [
                130.022936,
                32.188726
              ],
              [
                130.072491,
                32.223724
              ],
              [
                130.102058,
                32.235077
              ],
              [
                130.122743,
                32.278362
              ],
              [
                130.160884,
                32.289665
              ],
              [
                130.209192,
                32.336755
              ],
              [
                130.225696,
                32.368618
              ],
              [
                130.219393,
                32.392546
              ],
              [
                130.197772,
                32.405395
              ],
              [
                130.21273,
                32.420434
              ],
              [
                130.273828,
                32.40924
              ],
              [
                130.30694,
                32.394625
              ],
              [
                130.342773,
                32.405211
              ],
              [
                130.361906,
                32.401581
              ],
              [
                130.383759,
                32.443175
              ],
              [
                130.348466,
                32.445183
              ],
              [
                130.337412,
                32.461058
              ],
              [
                130.344861,
                32.481987
              ],
              [
                130.379445,
                32.478768
              ],
              [
                130.38922,
                32.503975
              ]
            ]
          ],
          [
            [
              [
                130.32933,
                32.333238
              ],
              [
                130.348962,
                32.31504
              ],
              [
                130.374267,
                32.343234
              ],
              [
                130.355665,
                32.3527
              ],
              [
                130.32933,
                32.333238
              ]
            ]
          ]
        ]
      },
      "properties": {
        "N03_001": "熊本県",
        "N03_002": null,
        "N03_003": null,
        "N03_004": "天草市",
        "N03_005": null,
        "N03_007": "43215"
      }
    },
    {
      "type": "Feature",
      "geometry": {
        "type": "Polygon",
        "coordinates": [
          [
            [
              130.748734,
              32.857692
            ],
            [
              130.771748,
              32.860715
            ],
            [
              130.789382,
              32.879052
            ],
            [
              130.818481,
              32.880686
            ],
            [
              130.844671,
              32.8933
            ],
            [
              130.82682,
              32.9074
            ],
            [
              130.79095,
              32.910135
            ],
            [
              130.752045,
              32.926988
            ],
            [
              130.731518,
              32.92664
            ],
            [
              130.720686,
              32.897407
            ],
            [
              130.748734,
              32.857692
            ]
          ]
        ]
      },
      "properties": {
        "N03_001": "熊本県",
        "N03_002": null,
        "N03_003": null,
        "N03_004": "合志市",
        "N03_005": null,
        "N03_007": "43216"
      }
    },
    {
      "type": "Feature",
      "geometry": {
        "type": "Polygon",
        "coordinates": [
          [
            [
              130.953082,
              32.578629
            ],
            [
              130.966724,
              32.603673
            ],
            [
              130.960148,
              32.625293
            ],
            [
              130.939338,
              32.657406
            ],
            [
              130.904542,
              32.664422
            ],
            [
              130.876119,
              32.664174
            ],
            [
              130.868084,
              32.647002
            ],
            [
              130.812884,
              32.630009
            ],
            [
              130.790994,
              32.658285
            ],
            [
              130.776347,
              32.663325
            ],
            [
              130.782314,
              32.595734
            ],
            [
              130.803861,
              32.568265
            ],
            [
              130.82102,
              32.560772
            ],
            [
              130.842212,
              32.570824
            ],
            [
              130.897872,
              32.571224
            ],
            [
              130.953082,
              32.578629
            ]
          ]
        ]
      },
      "properties": {
        "N03_001": "熊本県",
        "N03_002": null,
        "N03_003": "下益城郡",
        "N03_004": "美里町",
        "N03_005": null,
        "N03_007": "43348"
      }
    },
    {
      "type": "Feature",
      "geometry": {
        "type": "Polygon",
        "coordinates": [
          [
            [
              130.634853,
              32.861037
            ],
            [
              130.649716,
              32.902701
            ],
            [
              130.635583,
              32.917516
            ],
            [
              130.651291,
              32.932509
            ],
            [
              130.629464,
              32.944686
            ],
            [
              130.625773,
              32.94165
            ],
            [
              130.608712,
              32.924204
            ],
            [
              130.61738,
              32.896757
            ],
            [
              130.607535,
              32.877533
            ],
            [
              130.625329,
              32.863054
            ],
            [
              130.634853,
              32.861037
            ]
          ]
        ]
      },
      "properties": {
        "N03_001": "熊本県",
        "N03_002": null,
        "N03_003": "玉名郡",
        "N03_004": "玉東町",
        "N03_005": null,
        "N03_007": "43364"
      }
    },
    {
      "type": "Feature",
      "geometry": {
        "type": "Polygon",
        "coordinates": [
          [
            [
              130.527859,
              32.988372
            ],
            [
              130.569049,
              32.995085
            ],
            [
              130.578385,
              32.988926
            ],
            [
              130.601172,
              33.029837
            ],
            [
              130.583663,
              33.05097
            ],
            [
              130.565746,
              33.087231
            ],
            [
              130.541367,
              33.082011
            ],
            [
              130.494902,
              33.048981
            ],
            [
              130.516317,
              33.011448
            ],
            [
              130.527859,
              32.988372
            ]
          ]
        ]
      },
      "properties": {
        "N03_001": "熊本県",
        "N03_002": null,
        "N03_003": "玉名郡",
        "N03_004": "南関町",
        "N03_005": null,
        "N03_007": "43367"
      }
    },
    {
      "type": "Feature",
      "geometry": {
        "type": "Polygon",
        "coordinates": [
          [
            [
              130.452815,
              32.945898
            ],
            [
              130.439428,
              32.921448
            ],
            [
              130.470921,
              32.900409
            ],
            [
              130.497253,
              32.933163
            ],
            [
              130.497669,
              32.935212
            ],
            [
              130.497458,
              32.946244
            ],
            [
              130.452815,
              32.945898
            ]
          ]
        ]
      },
      "properties": {
        "N03_001": "熊本県",
        "N03_002": null,
        "N03_003": "玉名郡",
        "N03_004": "長洲町",
        "N03_005": null,
        "N03_007": "43368"
      }
    },
    {
      "type": "Feature",
      "geometry": {
        "type": "Polygon",
        "coordinates": [
          [
            [
              130.625773,
              32.94165
            ],
            [
              130.629464,
              32.944686
            ],
            [
              130.647463,
              33.004593
            ],
            [
              130.653139,
              33.048119
            ],
            [
              130.635252,
              33.053787
            ],
            [
              130.63235,
              33.073411
            ],
            [
              130.650608,
              33.083285
            ],
            [
              130.651488,
              33.103674
            ],
            [
              130.639938,
              33.113508
            ],
            [
              130.613097,
              33.108588
            ],
            [
              130.580199,
              33.116019
            ],
            [
              130.561842,
              33.104254
            ],
            [
              130.565746,
              33.087231
            ],
            [
              130.583663,
              33.05097
            ],
            [
              130.601172,
              33.029837
            ],
            [
              130.578385,
              32.988926
            ],
            [
              130.601229,
              32.982767
            ],
            [
              130.60661,
              32.959906
            ],
            [
              130.625773,
              32.94165
            ]
          ]
        ]
      },
      "properties": {
        "N03_001": "熊本県",
        "N03_002": null,
        "N03_003": "玉名郡",
        "N03_004": "和水町",
        "N03_005": null,
        "N03_007": "43369"
      }
    },
    {
      "type": "Feature",
      "geometry": {
        "type": "Polygon",
        "coordinates": [
          [
            [
              130.82682,
              32.9074
            ],
            [
              130.844671,
              32.8933
            ],
            [
              130.853972,
              32.884736
            ],
            [
              130.855073,
              32.853095
            ],
            [
              130.874401,
              32.840071
            ],
            [
              130.875275,
              32.836851
            ],
            [
              130.902419,
              32.857515
            ],
            [
              130.951273,
              32.866986
            ],
            [
              130.977819,
              32.862618
            ],
            [
              130.948586,
              32.877181
            ],
            [
              130.966753,
              32.903271
            ],
            [
              130.956196,
              32.953666
            ],
            [
              130.924526,
              32.934538
            ],
            [
              130.840151,
              32.926306
            ],
            [
              130.82682,
              32.9074
            ]
          ]
        ]
      },
      "properties": {
        "N03_001": "熊本県",
        "N03_002": null,
        "N03_003": "菊池郡",
        "N03_004": "大津町",
        "N03_005": null,
        "N03_007": "43403"
      }
    },
    {
      "type": "Feature",
      "geometry": {
        "type": "Polygon",
        "coordinates": [
          [
            [
              130.828473,
              32.824978
            ],
            [
              130.874401,
              32.840071
            ],
            [
              130.855073,
              32.853095
            ],
            [
              130.853972,
              32.884736
            ],
            [
              130.844671,
              32.8933
            ],
            [
              130.818481,
              32.880686
            ],
            [
              130.789382,
              32.879052
            ],
            [
              130.771748,
              32.860715
            ],
            [
              130.748734,
              32.857692
            ],
            [
              130.790489,
              32.853368
            ],
            [
              130.80495,
              32.852168
            ],
            [
              130.828473,
              32.824978
            ]
          ]
        ]
      },
      "properties": {
        "N03_001": "熊本県",
        "N03_002": null,
        "N03_003": "菊池郡",
        "N03_004": "菊陽町",
        "N03_005": null,
        "N03_007": "43404"
      }
    },
    {
      "type": "Feature",
      "geometry": {
        "type": "Polygon",
        "coordinates": [
          [
            [
              131.16464,
              33.039407
            ],
            [
              131.171143,
              33.051979
            ],
            [
              131.18576,
              33.073901
            ],
            [
              131.173168,
              33.10464
            ],
            [
              131.139128,
              33.097061
            ],
            [
              131.086535,
              33.096205
            ],
            [
              131.077517,
              33.113064
            ],
            [
              131.051719,
              33.114207
            ],
            [
              131.019246,
              33.095892
            ],
            [
              131.010665,
              33.069976
            ],
            [
              131.014537,
              33.04757
            ],
            [
              130.998607,
              33.027908
            ],
            [
              131.007435,
              33.019334
            ],
            [
              131.062501,
              33.030044
            ],
            [
              131.094436,
              33.031516
            ],
            [
              131.127081,
              33.045725
            ],
            [
              131.16464,
              33.039407
            ]
          ]
        ]
      },
      "properties": {
        "N03_001": "熊本県",
        "N03_002": null,
        "N03_003": "阿蘇郡",
        "N03_004": "南小国町",
        "N03_005": null,
        "N03_007": "43423"
      }
    },
    {
      "type": "Feature",
      "geometry": {
        "type": "Polygon",
        "coordinates": [
          [
            [
              131.173168,
              33.10464
            ],
            [
              131.161217,
              33.140768
            ],
            [
              131.117072,
              33.178634
            ],
            [
              131.06002,
              33.195175
            ],
            [
              131.039635,
              33.194392
            ],
            [
              131.015543,
              33.177454
            ],
            [
              130.999625,
              33.180394
            ],
            [
              130.983214,
              33.156534
            ],
            [
              130.993513,
              33.120158
            ],
            [
              131.019246,
              33.095892
            ],
            [
              131.051719,
              33.114207
            ],
            [
              131.077517,
              33.113064
            ],
            [
              131.086535,
              33.096205
            ],
            [
              131.139128,
              33.097061
            ],
            [
              131.173168,
              33.10464
            ]
          ]
        ]
      },
      "properties": {
        "N03_001": "熊本県",
        "N03_002": null,
        "N03_003": "阿蘇郡",
        "N03_004": "小国町",
        "N03_005": null,
        "N03_007": "43424"
      }
    },
    {
      "type": "Feature",
      "geometry": {
        "type": "Polygon",
        "coordinates": [
          [
            [
              131.245384,
              32.960716
            ],
            [
              131.26372,
              32.975583
            ],
            [
              131.227972,
              33.010425
            ],
            [
              131.216724,
              33.053458
            ],
            [
              131.196615,
              33.071056
            ],
            [
              131.171143,
              33.051979
            ],
            [
              131.16464,
              33.039407
            ],
            [
              131.151327,
              33.023222
            ],
            [
              131.185284,
              32.999534
            ],
            [
              131.188481,
              32.975676
            ],
            [
              131.219253,
              32.962327
            ],
            [
              131.245384,
              32.960716
            ]
          ]
        ]
      },
      "properties": {
        "N03_001": "熊本県",
        "N03_002": null,
        "N03_003": "阿蘇郡",
        "N03_004": "産山村",
        "N03_005": null,
        "N03_007": "43425"
      }
    },
    {
      "type": "Feature",
      "geometry": {
        "type": "Polygon",
        "coordinates": [
          [
            [
              131.096516,
              32.883824
            ],
            [
              131.094513,
              32.873641
            ],
            [
              131.11553,
              32.829985
            ],
            [
              131.11522,
              32.795553
            ],
            [
              131.141831,
              32.804837
            ],
            [
              131.148778,
              32.820771
            ],
            [
              131.195855,
              32.800654
            ],
            [
              131.200451,
              32.774732
            ],
            [
              131.216049,
              32.756133
            ],
            [
              131.233974,
              32.753474
            ],
            [
              131.265182,
              32.826461
            ],
            [
              131.322898,
              32.828652
            ],
            [
              131.31404,
              32.851072
            ],
            [
              131.294241,
              32.85712
            ],
            [
              131.263838,
              32.879396
            ],
            [
              131.253796,
              32.908652
            ],
            [
              131.230371,
              32.902153
            ],
            [
              131.206927,
              32.884682
            ],
            [
              131.178102,
              32.87454
            ],
            [
              131.161554,
              32.888514
            ],
            [
              131.142648,
              32.882904
            ],
            [
              131.096516,
              32.883824
            ]
          ]
        ]
      },
      "properties": {
        "N03_001": "熊本県",
        "N03_002": null,
        "N03_003": "阿蘇郡",
        "N03_004": "高森町",
        "N03_005": null,
        "N03_007": "43428"
      }
    },
    {
      "type": "Feature",
      "geometry": {
        "type": "Polygon",
        "coordinates": [
          [
            [
              130.875275,
              32.836851
            ],
            [
              130.873326,
              32.799822
            ],
            [
              130.889864,
              32.785258
            ],
            [
              130.933196,
              32.779522
            ],
            [
              130.960389,
              32.784438
            ],
            [
              130.996679,
              32.804347
            ],
            [
              130.97186,
              32.834238
            ],
            [
              130.977819,
              32.862618
            ],
            [
              130.951273,
              32.866986
            ],
            [
              130.902419,
              32.857515
            ],
            [
              130.875275,
              32.836851
            ]
          ]
        ]
      },
      "properties": {
        "N03_001": "熊本県",
        "N03_002": null,
        "N03_003": "阿蘇郡",
        "N03_004": "西原村",
        "N03_005": null,
        "N03_007": "43432"
      }
    },
    {
      "type": "Feature",
      "geometry": {
        "type": "Polygon",
        "coordinates": [
          [
            [
              130.966753,
              32.903271
            ],
            [
              130.948586,
              32.877181
            ],
            [
              130.977819,
              32.862618
            ],
            [
              130.97186,
              32.834238
            ],
            [
              130.996679,
              32.804347
            ],
            [
              131.008859,
              32.787156
            ],
            [
              131.11522,
              32.795553
            ],
            [
              131.11553,
              32.829985
            ],
            [
              131.094513,
              32.873641
            ],
            [
              131.096516,
              32.883824
            ],
            [
              131.066223,
              32.880379
            ],
            [
              131.03566,
              32.897104
            ],
            [
              130.992019,
              32.909486
            ],
            [
              130.966753,
              32.903271
            ]
          ]
        ]
      },
      "properties": {
        "N03_001": "熊本県",
        "N03_002": null,
        "N03_003": "阿蘇郡",
        "N03_004": "南阿蘇村",
        "N03_005": null,
        "N03_007": "43433"
      }
    },
    {
      "type": "Feature",
      "geometry": {
        "type": "Polygon",
        "coordinates": [
          [
            [
              130.760223,
              32.720205
            ],
            [
              130.782121,
              32.714629
            ],
            [
              130.814596,
              32.693796
            ],
            [
              130.858261,
              32.688985
            ],
            [
              130.876119,
              32.664174
            ],
            [
              130.904542,
              32.664422
            ],
            [
              130.893744,
              32.682597
            ],
            [
              130.891331,
              32.743646
            ],
            [
              130.957909,
              32.777614
            ],
            [
              130.960389,
              32.784438
            ],
            [
              130.933196,
              32.779522
            ],
            [
              130.889864,
              32.785258
            ],
            [
              130.88762,
              32.775963
            ],
            [
              130.8442,
              32.765787
            ],
            [
              130.834694,
              32.741162
            ],
            [
              130.816671,
              32.731311
            ],
            [
              130.797041,
              32.749998
            ],
            [
              130.757047,
              32.728332
            ],
            [
              130.760223,
              32.720205
            ]
          ]
        ]
      },
      "properties": {
        "N03_001": "熊本県",
        "N03_002": null,
        "N03_003": "上益城郡",
        "N03_004": "御船町",
        "N03_005": null,
        "N03_007": "43441"
      }
    },
    {
      "type": "Feature",
      "geometry": {
        "type": "Polygon",
        "coordinates": [
          [
            [
              130.728946,
              32.750285
            ],
            [
              130.725343,
              32.737148
            ],
            [
              130.757047,
              32.728332
            ],
            [
              130.797041,
              32.749998
            ],
            [
              130.779363,
              32.7628
            ],
            [
              130.757826,
              32.763228
            ],
            [
              130.728946,
              32.750285
            ]
          ]
        ]
      },
      "properties": {
        "N03_001": "熊本県",
        "N03_002": null,
        "N03_003": "上益城郡",
        "N03_004": "嘉島町",
        "N03_005": null,
        "N03_007": "43442"
      }
    },
    {
      "type": "Feature",
      "geometry": {
        "type": "Polygon",
        "coordinates": [
          [
            [
              130.779363,
              32.7628
            ],
            [
              130.797041,
              32.749998
            ],
            [
              130.816671,
              32.731311
            ],
            [
              130.834694,
              32.741162
            ],
            [
              130.8442,
              32.765787
            ],
            [
              130.88762,
              32.775963
            ],
            [
              130.889864,
              32.785258
            ],
            [
              130.873326,
              32.799822
            ],
            [
              130.875275,
              32.836851
            ],
            [
              130.874401,
              32.840071
            ],
            [
              130.828473,
              32.824978
            ],
            [
              130.787256,
              32.79964
            ],
            [
              130.779363,
              32.7628
            ]
          ]
        ]
      },
      "properties": {
        "N03_001": "熊本県",
        "N03_002": null,
        "N03_003": "上益城郡",
        "N03_004": "益城町",
        "N03_005": null,
        "N03_007": "43443"
      }
    },
    {
      "type": "Feature",
      "geometry": {
        "type": "Polygon",
        "coordinates": [
          [
            [
              130.777113,
              32.667595
            ],
            [
              130.790994,
              32.658285
            ],
            [
              130.812884,
              32.630009
            ],
            [
              130.868084,
              32.647002
            ],
            [
              130.876119,
              32.664174
            ],
            [
              130.858261,
              32.688985
            ],
            [
              130.814596,
              32.693796
            ],
            [
              130.782121,
              32.714629
            ],
            [
              130.760223,
              32.720205
            ],
            [
              130.753638,
              32.699899
            ],
            [
              130.777113,
              32.667595
            ]
          ]
        ]
      },
      "properties": {
        "N03_001": "熊本県",
        "N03_002": null,
        "N03_003": "上益城郡",
        "N03_004": "甲佐町",
        "N03_005": null,
        "N03_007": "43444"
      }
    },
    {
      "type": "Feature",
      "geometry": {
        "type": "Polygon",
        "coordinates": [
          [
            [
              131.019474,
              32.549224
            ],
            [
              131.038962,
              32.554426
            ],
            [
              131.051924,
              32.587634
            ],
            [
              131.091176,
              32.578633
            ],
            [
              131.119688,
              32.599053
            ],
            [
              131.115549,
              32.642105
            ],
            [
              131.151389,
              32.680057
            ],
            [
              131.162933,
              32.671712
            ],
            [
              131.195026,
              32.725315
            ],
            [
              131.23506,
              32.744378
            ],
            [
              131.233974,
              32.753474
            ],
            [
              131.216049,
              32.756133
            ],
            [
              131.200451,
              32.774732
            ],
            [
              131.195855,
              32.800654
            ],
            [
              131.148778,
              32.820771
            ],
            [
              131.141831,
              32.804837
            ],
            [
              131.11522,
              32.795553
            ],
            [
              131.008859,
              32.787156
            ],
            [
              130.996679,
              32.804347
            ],
            [
              130.960389,
              32.784438
            ],
            [
              130.957909,
              32.777614
            ],
            [
              130.891331,
              32.743646
            ],
            [
              130.893744,
              32.682597
            ],
            [
              130.904542,
              32.664422
            ],
            [
              130.939338,
              32.657406
            ],
            [
              130.960148,
              32.625293
            ],
            [
              130.966724,
              32.603673
            ],
            [
              130.953082,
              32.578629
            ],
            [
              130.972129,
              32.579959
            ],
            [
              131.011192,
              32.564457
            ],
            [
              131.019474,
              32.549224
            ]
          ]
        ]
      },
      "properties": {
        "N03_001": "熊本県",
        "N03_002": null,
        "N03_003": "上益城郡",
        "N03_004": "山都町",
        "N03_005": null,
        "N03_007": "43447"
      }
    },
    {
      "type": "Feature",
      "geometry": {
        "type": "Polygon",
        "coordinates": [
          [
            [
              130.72387,
              32.558607
            ],
            [
              130.6793,
              32.597581
            ],
            [
              130.63047,
              32.622688
            ],
            [
              130.617675,
              32.618996
            ],
            [
              130.654153,
              32.584492
            ],
            [
              130.674033,
              32.568097
            ],
            [
              130.670574,
              32.551531
            ],
            [
              130.686653,
              32.527615
            ],
            [
              130.72387,
              32.558607
            ]
          ]
        ]
      },
      "properties": {
        "N03_001": "熊本県",
        "N03_002": null,
        "N03_003": "八代郡",
        "N03_004": "氷川町",
        "N03_005": null,
        "N03_007": "43468"
      }
    },
    {
      "type": "Feature",
      "geometry": {
        "type": "Polygon",
        "coordinates": [
          [
            [
              130.538062,
              32.410277
            ],
            [
              130.486253,
              32.363218
            ],
            [
              130.466153,
              32.322206
            ],
            [
              130.480848,
              32.300272
            ],
            [
              130.468295,
              32.269758
            ],
            [
              130.489611,
              32.250003
            ],
            [
              130.492352,
              32.214344
            ],
            [
              130.468465,
              32.20976
            ],
            [
              130.514594,
              32.18252
            ],
            [
              130.552043,
              32.196003
            ],
            [
              130.579504,
              32.194287
            ],
            [
              130.590425,
              32.262118
            ],
            [
              130.608178,
              32.270912
            ],
            [
              130.598623,
              32.294781
            ],
            [
              130.612445,
              32.310597
            ],
            [
              130.603521,
              32.341878
            ],
            [
              130.642193,
              32.364888
            ],
            [
              130.610011,
              32.375825
            ],
            [
              130.577756,
              32.371701
            ],
            [
              130.559084,
              32.382578
            ],
            [
              130.538453,
              32.364677
            ],
            [
              130.526933,
              32.382763
            ],
            [
              130.538062,
              32.410277
            ]
          ]
        ]
      },
      "properties": {
        "N03_001": "熊本県",
        "N03_002": null,
        "N03_003": "葦北郡",
        "N03_004": "芦北町",
        "N03_005": null,
        "N03_007": "43482"
      }
    },
    {
      "type": "Feature",
      "geometry": {
        "type": "Polygon",
        "coordinates": [
          [
            [
              130.468465,
              32.20976
            ],
            [
              130.492352,
              32.214344
            ],
            [
              130.489611,
              32.250003
            ],
            [
              130.468295,
              32.269758
            ],
            [
              130.450654,
              32.272185
            ],
            [
              130.42415,
              32.249955
            ],
            [
              130.433141,
              32.230255
            ],
            [
              130.439604,
              32.215151
            ],
            [
              130.468465,
              32.20976
            ]
          ]
        ]
      },
      "properties": {
        "N03_001": "熊本県",
        "N03_002": null,
        "N03_003": "葦北郡",
        "N03_004": "津奈木町",
        "N03_005": null,
        "N03_007": "43484"
      }
    },
    {
      "type": "Feature",
      "geometry": {
        "type": "Polygon",
        "coordinates": [
          [
            [
              130.877965,
              32.121618
            ],
            [
              130.912659,
              32.130271
            ],
            [
              130.895271,
              32.14651
            ],
            [
              130.907889,
              32.161164
            ],
            [
              130.8796,
              32.187988
            ],
            [
              130.858468,
              32.243705
            ],
            [
              130.850989,
              32.250557
            ],
            [
              130.807833,
              32.230148
            ],
            [
              130.812431,
              32.206023
            ],
            [
              130.781766,
              32.20519
            ],
            [
              130.805322,
              32.181956
            ],
            [
              130.827374,
              32.135633
            ],
            [
              130.877965,
              32.121618
            ]
          ]
        ]
      },
      "properties": {
        "N03_001": "熊本県",
        "N03_002": null,
        "N03_003": "球磨郡",
        "N03_004": "錦町",
        "N03_005": null,
        "N03_007": "43501"
      }
    },
    {
      "type": "Feature",
      "geometry": {
        "type": "Polygon",
        "coordinates": [
          [
            [
              130.885344,
              32.326357
            ],
            [
              130.906913,
              32.303624
            ],
            [
              130.91484,
              32.254496
            ],
            [
              130.935854,
              32.253145
            ],
            [
              130.951984,
              32.232806
            ],
            [
              130.983719,
              32.213253
            ],
            [
              130.97634,
              32.191621
            ],
            [
              130.990466,
              32.158417
            ],
            [
              131.012126,
              32.174331
            ],
            [
              131.036934,
              32.170313
            ],
            [
              131.05872,
              32.154837
            ],
            [
              131.097358,
              32.152261
            ],
            [
              131.100531,
              32.201543
            ],
            [
              131.084211,
              32.206213
            ],
            [
              131.071564,
              32.236891
            ],
            [
              131.047044,
              32.240425
            ],
            [
              130.982171,
              32.243506
            ],
            [
              130.968718,
              32.260397
            ],
            [
              130.973242,
              32.285484
            ],
            [
              130.980608,
              32.299793
            ],
            [
              130.954172,
              32.328299
            ],
            [
              130.94505,
              32.356939
            ],
            [
              130.899029,
              32.349933
            ],
            [
              130.885344,
              32.326357
            ]
          ]
        ]
      },
      "properties": {
        "N03_001": "熊本県",
        "N03_002": null,
        "N03_003": "球磨郡",
        "N03_004": "多良木町",
        "N03_005": null,
        "N03_007": "43505"
      }
    },
    {
      "type": "Feature",
      "geometry": {
        "type": "Polygon",
        "coordinates": [
          [
            [
              131.047044,
              32.240425
            ],
            [
              131.050019,
              32.287238
            ],
            [
              131.039124,
              32.301288
            ],
            [
              131.010305,
              32.314049
            ],
            [
              130.99178,
              32.292612
            ],
            [
              130.973242,
              32.285484
            ],
            [
              130.968718,
              32.260397
            ],
            [
              130.982171,
              32.243506
            ],
            [
              131.047044,
              32.240425
            ]
          ]
        ]
      },
      "properties": {
        "N03_001": "熊本県",
        "N03_002": null,
        "N03_003": "球磨郡",
        "N03_004": "湯前町",
        "N03_005": null,
        "N03_007": "43506"
      }
    },
    {
      "type": "Feature",
      "geometry": {
        "type": "Polygon",
        "coordinates": [
          [
            [
              130.941105,
              32.438507
            ],
            [
              130.939251,
              32.425108
            ],
            [
              130.960789,
              32.400268
            ],
            [
              130.94505,
              32.356939
            ],
            [
              130.954172,
              32.328299
            ],
            [
              130.980608,
              32.299793
            ],
            [
              130.973242,
              32.285484
            ],
            [
              130.99178,
              32.292612
            ],
            [
              131.010305,
              32.314049
            ],
            [
              131.039124,
              32.301288
            ],
            [
              131.050019,
              32.287238
            ],
            [
              131.075432,
              32.280429
            ],
            [
              131.090496,
              32.293985
            ],
            [
              131.111917,
              32.329956
            ],
            [
              131.078032,
              32.355112
            ],
            [
              131.079857,
              32.374287
            ],
            [
              131.068121,
              32.407483
            ],
            [
              131.043343,
              32.408423
            ],
            [
              131.019892,
              32.438673
            ],
            [
              131.014352,
              32.462679
            ],
            [
              130.987472,
              32.447144
            ],
            [
              130.958896,
              32.450355
            ],
            [
              130.941105,
              32.438507
            ]
          ]
        ]
      },
      "properties": {
        "N03_001": "熊本県",
        "N03_002": null,
        "N03_003": "球磨郡",
        "N03_004": "水上村",
        "N03_005": null,
        "N03_007": "43507"
      }
    },
    {
      "type": "Feature",
      "geometry": {
        "type": "Polygon",
        "coordinates": [
          [
            [
              130.781766,
              32.20519
            ],
            [
              130.812431,
              32.206023
            ],
            [
              130.807833,
              32.230148
            ],
            [
              130.850989,
              32.250557
            ],
            [
              130.84782,
              32.272209
            ],
            [
              130.875182,
              32.292858
            ],
            [
              130.869601,
              32.3117
            ],
            [
              130.885344,
              32.326357
            ],
            [
              130.899029,
              32.349933
            ],
            [
              130.835998,
              32.355889
            ],
            [
              130.805005,
              32.37916
            ],
            [
              130.778785,
              32.372272
            ],
            [
              130.793153,
              32.349341
            ],
            [
              130.794969,
              32.322044
            ],
            [
              130.813737,
              32.312115
            ],
            [
              130.8047,
              32.290319
            ],
            [
              130.803567,
              32.25854
            ],
            [
              130.787039,
              32.231782
            ],
            [
              130.781766,
              32.20519
            ]
          ]
        ]
      },
      "properties": {
        "N03_001": "熊本県",
        "N03_002": null,
        "N03_003": "球磨郡",
        "N03_004": "相良村",
        "N03_005": null,
        "N03_007": "43510"
      }
    },
    {
      "type": "Feature",
      "geometry": {
        "type": "Polygon",
        "coordinates": [
          [
            [
              130.739074,
              32.392966
            ],
            [
              130.765613,
              32.386539
            ],
            [
              130.778785,
              32.372272
            ],
            [
              130.805005,
              32.37916
            ],
            [
              130.835998,
              32.355889
            ],
            [
              130.899029,
              32.349933
            ],
            [
              130.94505,
              32.356939
            ],
            [
              130.960789,
              32.400268
            ],
            [
              130.939251,
              32.425108
            ],
            [
              130.941105,
              32.438507
            ],
            [
              130.904416,
              32.441657
            ],
            [
              130.901162,
              32.467773
            ],
            [
              130.862732,
              32.493659
            ],
            [
              130.839984,
              32.499021
            ],
            [
              130.736609,
              32.471179
            ],
            [
              130.72274,
              32.450384
            ],
            [
              130.729382,
              32.42792
            ],
            [
              130.724212,
              32.405645
            ],
            [
              130.739074,
              32.392966
            ]
          ]
        ]
      },
      "properties": {
        "N03_001": "熊本県",
        "N03_002": null,
        "N03_003": "球磨郡",
        "N03_004": "五木村",
        "N03_005": null,
        "N03_007": "43511"
      }
    },
    {
      "type": "Feature",
      "geometry": {
        "type": "Polygon",
        "coordinates": [
          [
            [
              130.693845,
              32.342189
            ],
            [
              130.713145,
              32.316966
            ],
            [
              130.716915,
              32.295481
            ],
            [
              130.730788,
              32.289684
            ],
            [
              130.758237,
              32.232259
            ],
            [
              130.787039,
              32.231782
            ],
            [
              130.803567,
              32.25854
            ],
            [
              130.8047,
              32.290319
            ],
            [
              130.813737,
              32.312115
            ],
            [
              130.794969,
              32.322044
            ],
            [
              130.793153,
              32.349341
            ],
            [
              130.778785,
              32.372272
            ],
            [
              130.765613,
              32.386539
            ],
            [
              130.739074,
              32.392966
            ],
            [
              130.720782,
              32.386502
            ],
            [
              130.693845,
              32.342189
            ]
          ]
        ]
      },
      "properties": {
        "N03_001": "熊本県",
        "N03_002": null,
        "N03_003": "球磨郡",
        "N03_004": "山江村",
        "N03_005": null,
        "N03_007": "43512"
      }
    },
    {
      "type": "Feature",
      "geometry": {
        "type": "Polygon",
        "coordinates": [
          [
            [
              130.642193,
              32.364888
            ],
            [
              130.603521,
              32.341878
            ],
            [
              130.612445,
              32.310597
            ],
            [
              130.598623,
              32.294781
            ],
            [
              130.608178,
              32.270912
            ],
            [
              130.590425,
              32.262118
            ],
            [
              130.579504,
              32.194287
            ],
            [
              130.58988,
              32.18586
            ],
            [
              130.61063,
              32.18653
            ],
            [
              130.622696,
              32.156058
            ],
            [
              130.651682,
              32.151382
            ],
            [
              130.66506,
              32.183661
            ],
            [
              130.700743,
              32.227807
            ],
            [
              130.713537,
              32.227536
            ],
            [
              130.734226,
              32.255802
            ],
            [
              130.710889,
              32.284861
            ],
            [
              130.716915,
              32.295481
            ],
            [
              130.713145,
              32.316966
            ],
            [
              130.693845,
              32.342189
            ],
            [
              130.669962,
              32.340931
            ],
            [
              130.657251,
              32.363142
            ],
            [
              130.642193,
              32.364888
            ]
          ]
        ]
      },
      "properties": {
        "N03_001": "熊本県",
        "N03_002": null,
        "N03_003": "球磨郡",
        "N03_004": "球磨村",
        "N03_005": null,
        "N03_007": "43513"
      }
    },
    {
      "type": "Feature",
      "geometry": {
        "type": "Polygon",
        "coordinates": [
          [
            [
              130.912659,
              32.130271
            ],
            [
              130.933085,
              32.116082
            ],
            [
              130.974526,
              32.120835
            ],
            [
              130.974777,
              32.137052
            ],
            [
              130.990466,
              32.158417
            ],
            [
              130.97634,
              32.191621
            ],
            [
              130.983719,
              32.213253
            ],
            [
              130.951984,
              32.232806
            ],
            [
              130.935854,
              32.253145
            ],
            [
              130.91484,
              32.254496
            ],
            [
              130.906913,
              32.303624
            ],
            [
              130.885344,
              32.326357
            ],
            [
              130.869601,
              32.3117
            ],
            [
              130.875182,
              32.292858
            ],
            [
              130.84782,
              32.272209
            ],
            [
              130.850989,
              32.250557
            ],
            [
              130.858468,
              32.243705
            ],
            [
              130.8796,
              32.187988
            ],
            [
              130.907889,
              32.161164
            ],
            [
              130.895271,
              32.14651
            ],
            [
              130.912659,
              32.130271
            ]
          ]
        ]
      },
      "properties": {
        "N03_001": "熊本県",
        "N03_002": null,
        "N03_003": "球磨郡",
        "N03_004": "あさぎり町",
        "N03_005": null,
        "N03_007": "43514"
      }
    },
    {
      "type": "Feature",
      "geometry": {
        "type": "Polygon",
        "coordinates": [
          [
            [
              130.118735,
              32.539644
            ],
            [
              130.109078,
              32.541532
            ],
            [
              130.066025,
              32.515885
            ],
            [
              130.04596,
              32.512591
            ],
            [
              130.03795,
              32.466487
            ],
            [
              130.018089,
              32.439253
            ],
            [
              130.043166,
              32.433929
            ],
            [
              130.077623,
              32.439351
            ],
            [
              130.094567,
              32.479378
            ],
            [
              130.115717,
              32.491772
            ],
            [
              130.118735,
              32.539644
            ]
          ]
        ]
      },
      "properties": {
        "N03_001": "熊本県",
        "N03_002": null,
        "N03_003": "天草郡",
        "N03_004": "苓北町",
        "N03_005": null,
        "N03_007": "43531"
      }
    }
  ]
}