{"type": "FeatureCollection", "features": [{"type": "Feature", "properties": {"name": "熊本県"}, "geometry": {"type": "MultiLineString", "coordinates": [[[130.562592, 32.155159], [130.541958, 32.149485], [130.540293, 32.136676], [130.520741, 32.135239], [130.505518, 32.140659], [130.491851, 32.133586], [130.476902, 32.138988], [130.473502, 32.118613], [130.46331, 32.118815], [130.453735, 32.112905], [130.448821, 32.11678], [130.428837, 32.113825], [130.42289, 32.117777], [130.402671, 32.120203], [130.40333, 32.124365], [130.392026, 32.134156], [130.386624, 32.147452], [130.361361, 32.167194], [130.363342, 32.174552], [130.378019, 32.176451], [130.374633, 32.187242], [130.379799, 32.194952], [130.373282, 32.204715], [130.388083, 32.218213], [130.402455, 32.235432], [130.410356, 32.230605], [130.42012, 32.235236], [130.433141, 32.230255], [130.431405, 32.240868], [130.42415, 32.249955], [130.436079, 32.253661], [130.433379, 32.263641], [130.450654, 32.272185], [130.458899, 32.290595], [130.463912, 32.274171], [130.468295, 32.269758], [130.467871, 32.285773], [130.481332, 32.288879], [130.480848, 32.300272], [130.473217, 32.308599], [130.466153, 32.322206], [130.479991, 32.333859], [130.482586, 32.34479], [130.507046, 32.353689], [130.507607, 32.358148], [130.486253, 32.363218], [130.538062, 32.410277], [130.543675, 32.418816], [130.561476, 32.42831], [130.573788, 32.439577], [130.565033, 32.456019], [130.569284, 32.464618], [130.564951, 32.476001], [130.544461, 32.47879], [130.541684, 32.49132], [130.546971, 32.500255], [130.56274, 32.498637], [130.565139, 32.505438], [130.531153, 32.520033], [130.53259, 32.522809], [130.556817, 32.510126], [130.573477, 32.509358], [130.536157, 32.525857], [130.543838, 32.538238], [130.562399, 32.537905], [130.59354, 32.579877], [130.608868, 32.593225], [130.615937, 32.588382], [130.632782, 32.602117], [130.654153, 32.584492], [130.617675, 32.618996], [130.63047, 32.622688], [130.640613, 32.623636], [130.653896, 32.612837], [130.656691, 32.618357], [130.651662, 32.642626], [130.63624, 32.633367], [130.609294, 32.630993], [130.606535, 32.626383], [130.59163, 32.626247], [130.576856, 32.620571], [130.557042, 32.624967], [130.543745, 32.624976], [130.536923, 32.619258], [130.52912, 32.620864], [130.519001, 32.613152], [130.509787, 32.611354], [130.486179, 32.612695], [130.46503, 32.60477], [130.459345, 32.607375], [130.46137, 32.617295], [130.451035, 32.624081], [130.462009, 32.634443], [130.477869, 32.639321], [130.499474, 32.654], [130.501242, 32.647423], [130.523153, 32.663306], [130.537927, 32.665002], [130.554035, 32.687866], [130.567796, 32.699222], [130.607558, 32.715787], [130.606699, 32.754228], [130.602559, 32.752911], [130.59771, 32.776459], [130.610575, 32.796651], [130.603656, 32.800634], [130.60173, 32.810346], [130.592975, 32.814941], [130.591125, 32.825271], [130.581148, 32.831809], [130.579917, 32.84102], [130.573185, 32.852724], [130.563919, 32.841955], [130.523746, 32.850571], [130.52276, 32.869211], [130.527099, 32.87675], [130.508147, 32.889585], [130.475667, 32.903295], [130.496652, 32.930204], [130.497253, 32.933163], [130.477892, 32.907168], [130.470921, 32.900409], [130.462596, 32.901444], [130.443398, 32.915286], [130.439428, 32.921448], [130.437781, 32.941901], [130.452815, 32.945898], [130.438477, 32.942108], [130.431932, 32.959218], [130.430611, 32.987538], [130.417514, 32.993058], [130.414137, 33.002314], [130.428136, 33.005361], [130.484183, 33.001533], [130.516317, 33.011448], [130.512286, 33.021642], [130.504695, 33.027023], [130.504473, 33.036789], [130.494902, 33.048981], [130.516874, 33.065567], [130.531439, 33.063971], [130.535368, 33.078052], [130.541367, 33.082011], [130.565746, 33.087231], [130.561842, 33.104254], [130.5708, 33.106739], [130.580199, 33.116019], [130.602559, 33.114808], [130.613097, 33.108588], [130.639938, 33.113508], [130.651488, 33.103674], [130.659678, 33.109564], [130.662923, 33.134322], [130.6689, 33.138954], [130.666509, 33.155047], [130.678665, 33.164042], [130.69077, 33.164066], [130.692054, 33.151548], [130.71218, 33.155321], [130.722268, 33.15178], [130.73254, 33.154421], [130.737637, 33.14601], [130.763229, 33.132794], [130.770889, 33.124333], [130.792012, 33.123694], [130.806778, 33.116012], [130.818295, 33.114432], [130.820379, 33.106571], [130.839823, 33.104054], [130.844406, 33.087663], [130.847586, 33.093757], [130.863364, 33.095315], [130.88717, 33.086687], [130.897191, 33.065422], [130.908002, 33.064178], [130.915851, 33.053489], [130.94682, 33.052837], [130.959006, 33.044378], [130.959686, 33.035864], [130.970273, 33.023766], [130.990852, 33.023824], [130.998607, 33.027908], [131.004865, 33.039805], [131.014537, 33.04757], [131.012645, 33.054387], [131.017744, 33.063694], [131.010665, 33.069976], [131.014498, 33.079758], [131.024051, 33.087544], [131.019246, 33.095892], [131.008982, 33.108588], [130.993513, 33.120158], [130.994609, 33.129297], [130.986434, 33.142001], [130.983214, 33.156534], [130.987344, 33.169788], [130.999625, 33.180394], [131.015543, 33.177454], [131.039635, 33.194392], [131.06002, 33.195175], [131.09469, 33.185167], [131.103304, 33.187234], [131.117072, 33.178634], [131.119887, 33.168705], [131.129892, 33.16631], [131.145299, 33.150685], [131.161217, 33.140768], [131.166929, 33.128738], [131.163586, 33.11649], [131.173168, 33.10464], [131.17229, 33.089301], [131.175698, 33.081597], [131.18576, 33.073901], [131.198637, 33.073373], [131.171143, 33.051979], [131.196615, 33.071056], [131.204268, 33.061594], [131.216724, 33.053458], [131.221126, 33.030031], [131.227972, 33.010425], [131.23483, 33.008964], [131.247302, 32.995871], [131.246078, 32.985926], [131.26372, 32.975583], [131.256115, 32.963502], [131.245384, 32.960716], [131.252629, 32.946458], [131.245802, 32.939675], [131.25298, 32.924512], [131.253796, 32.908652], [131.253503, 32.896491], [131.263838, 32.879396], [131.273392, 32.881677], [131.273437, 32.870996], [131.286832, 32.865598], [131.294241, 32.85712], [131.31404, 32.851072], [131.326446, 32.838939], [131.322898, 32.828652], [131.291551, 32.827799], [131.285802, 32.831422], [131.265182, 32.826461], [131.257166, 32.813947], [131.255256, 32.804668], [131.246613, 32.798993], [131.24537, 32.786551], [131.234532, 32.780814], [131.246421, 32.769631], [131.233974, 32.753474], [131.23506, 32.744378], [131.212346, 32.72888], [131.195026, 32.725315], [131.179967, 32.712078], [131.180407, 32.700127], [131.17247, 32.684748], [131.175103, 32.671932], [131.162933, 32.671712], [131.151389, 32.680057], [131.143535, 32.67628], [131.140191, 32.664647], [131.127048, 32.654129], [131.123543, 32.644467], [131.115549, 32.642105], [131.119871, 32.629147], [131.115937, 32.620949], [131.119688, 32.599053], [131.108037, 32.581756], [131.091176, 32.578633], [131.074777, 32.584783], [131.051924, 32.587634], [131.041629, 32.579894], [131.037724, 32.564727], [131.038962, 32.554426], [131.023948, 32.553334], [131.019474, 32.549224], [131.025615, 32.521109], [131.009234, 32.514651], [131.006959, 32.490058], [131.014028, 32.479881], [131.01733, 32.46733], [131.014352, 32.462679], [131.019892, 32.438673], [131.043343, 32.408423], [131.068121, 32.407483], [131.073244, 32.391417], [131.069118, 32.388348], [131.079857, 32.374287], [131.073989, 32.365914], [131.078032, 32.355112], [131.090887, 32.349546], [131.111917, 32.329956], [131.106096, 32.324483], [131.090496, 32.293985], [131.075432, 32.280429], [131.058942, 32.286844], [131.050019, 32.287238], [131.054245, 32.267064], [131.044511, 32.263048], [131.042414, 32.25], [131.047044, 32.240425], [131.057198, 32.245895], [131.071564, 32.236891], [131.068965, 32.225714], [131.077372, 32.22124], [131.084211, 32.206213], [131.100531, 32.201543], [131.104435, 32.191649], [131.101444, 32.172705], [131.109056, 32.160665], [131.097358, 32.152261], [131.071799, 32.160283], [131.05872, 32.154837], [131.036934, 32.170313], [131.019596, 32.169508], [131.012126, 32.174331], [131.00225, 32.16942], [130.997725, 32.159592], [130.990466, 32.158417], [130.992636, 32.148042], [130.974777, 32.137052], [130.974526, 32.120835], [130.961658, 32.120164], [130.955414, 32.115382], [130.944259, 32.119644], [130.933085, 32.116082], [130.9273, 32.122707], [130.912659, 32.130271], [130.90074, 32.132383], [130.897238, 32.125918], [130.877965, 32.121618], [130.869093, 32.114895], [130.863196, 32.102772], [130.857448, 32.099693], [130.838701, 32.107265], [130.827575, 32.103132], [130.820797, 32.094924], [130.809253, 32.09921], [130.779229, 32.099466], [130.767129, 32.101575], [130.759418, 32.096808], [130.751624, 32.104069], [130.741992, 32.097883], [130.735236, 32.108948], [130.724475, 32.100938], [130.699073, 32.106999], [130.670238, 32.129103], [130.654777, 32.135867], [130.651682, 32.151382], [130.622696, 32.156058], [130.614603, 32.167655], [130.616741, 32.173594], [130.61063, 32.18653], [130.58988, 32.18586], [130.596769, 32.175968], [130.582678, 32.154914], [130.562592, 32.155159]], [[130.015269, 32.171672], [130.017825, 32.178018], [130.019237, 32.186022], [130.031816, 32.19092], [130.03811, 32.178695], [130.048664, 32.167727], [130.043446, 32.162951], [130.032231, 32.175168], [130.022664, 32.165943], [130.015269, 32.171672]], [[130.133711, 32.272201], [130.140986, 32.278108], [130.150688, 32.271627], [130.135191, 32.262555], [130.133711, 32.272201]], [[130.348962, 32.31504], [130.328786, 32.304307], [130.327706, 32.311436], [130.333697, 32.316628], [130.33447, 32.32883], [130.32933, 32.333238], [130.340429, 32.341422], [130.34718, 32.350568], [130.355665, 32.3527], [130.363531, 32.345878], [130.374267, 32.343234], [130.348962, 32.31504]], [[130.327803, 32.364688], [130.339245, 32.347315], [130.32957, 32.347856], [130.321436, 32.340437], [130.313726, 32.347134], [130.30192, 32.350674], [130.320047, 32.363442], [130.327803, 32.364688]], [[130.349892, 32.373425], [130.355332, 32.364752], [130.348978, 32.360552], [130.341336, 32.367068], [130.349892, 32.373425]], [[130.286018, 32.39741], [130.273828, 32.40924], [130.261532, 32.41056], [130.261263, 32.402471], [130.246837, 32.385501], [130.240927, 32.393061], [130.243335, 32.413568], [130.228669, 32.411957], [130.21273, 32.420434], [130.209492, 32.413612], [130.197772, 32.405395], [130.201899, 32.399507], [130.219393, 32.392546], [130.21835, 32.382958], [130.225696, 32.368618], [130.218576, 32.364918], [130.206813, 32.34818], [130.209192, 32.336755], [130.201645, 32.327221], [130.193751, 32.323551], [130.181537, 32.311081], [130.172913, 32.310421], [130.163876, 32.329098], [130.157023, 32.312365], [130.142996, 32.317314], [130.142342, 32.302441], [130.163439, 32.301828], [130.160884, 32.289665], [130.144518, 32.28147], [130.134102, 32.285156], [130.122743, 32.278362], [130.106756, 32.253529], [130.09156, 32.254101], [130.099728, 32.243994], [130.102058, 32.235077], [130.088947, 32.233008], [130.072491, 32.223724], [130.080815, 32.218462], [130.077614, 32.212103], [130.057093, 32.211003], [130.048032, 32.204913], [130.028949, 32.214465], [130.032119, 32.195622], [130.022936, 32.188726], [130.013006, 32.189538], [129.990636, 32.197233], [129.998013, 32.205465], [129.996574, 32.217332], [130.014703, 32.222418], [130.011097, 32.239037], [130.003905, 32.235283], [129.988334, 32.240148], [129.983317, 32.246236], [129.973693, 32.23973], [129.967197, 32.243124], [129.981013, 32.267773], [129.993791, 32.282881], [130.003961, 32.287989], [130.010894, 32.298391], [130.034877, 32.302355], [130.045386, 32.297699], [130.051517, 32.288036], [130.051731, 32.278761], [130.063741, 32.280709], [130.067005, 32.295361], [130.065698, 32.305777], [130.040639, 32.314937], [130.03698, 32.304999], [130.03073, 32.303167], [130.018231, 32.309368], [130.017517, 32.314209], [129.994221, 32.306538], [129.994521, 32.322254], [129.981263, 32.324336], [129.976884, 32.329139], [129.981069, 32.341745], [129.974807, 32.355906], [129.985349, 32.374065], [129.98826, 32.383774], [129.996461, 32.391396], [129.997237, 32.404832], [130.003693, 32.424556], [130.018089, 32.439253], [130.03795, 32.466487], [130.035137, 32.476004], [130.040502, 32.489817], [130.047416, 32.49163], [130.033869, 32.519532], [130.027145, 32.520203], [130.012683, 32.528975], [130.021018, 32.536055], [130.037747, 32.535986], [130.034181, 32.521732], [130.04596, 32.512591], [130.066025, 32.515885], [130.07057, 32.520896], [130.083136, 32.524088], [130.109078, 32.541532], [130.118735, 32.539644], [130.11837, 32.548276], [130.134197, 32.546037], [130.159789, 32.551123], [130.186171, 32.546835], [130.1913, 32.539054], [130.198658, 32.509929], [130.192146, 32.496202], [130.205615, 32.479723], [130.208567, 32.472261], [130.19696, 32.458503], [130.20525, 32.452182], [130.25096, 32.470283], [130.259034, 32.479003], [130.269774, 32.479352], [130.285947, 32.487603], [130.293933, 32.497938], [130.310077, 32.50931], [130.314501, 32.516868], [130.33478, 32.521891], [130.343261, 32.521643], [130.367262, 32.528003], [130.37007, 32.512851], [130.378374, 32.516752], [130.390339, 32.51444], [130.38922, 32.503975], [130.395937, 32.500377], [130.402441, 32.514566], [130.416659, 32.5187], [130.428938, 32.518043], [130.437934, 32.527654], [130.455165, 32.52228], [130.457883, 32.515518], [130.43761, 32.486256], [130.437489, 32.469496], [130.428926, 32.455291], [130.417371, 32.448632], [130.40775, 32.435228], [130.423977, 32.432632], [130.404242, 32.408556], [130.403743, 32.394404], [130.392166, 32.394836], [130.382039, 32.38716], [130.366718, 32.389717], [130.361572, 32.380624], [130.353849, 32.387045], [130.34806, 32.398896], [130.350778, 32.402563], [130.361906, 32.401581], [130.342773, 32.405211], [130.30694, 32.394625], [130.291628, 32.401215], [130.286018, 32.39741]], [[130.409756, 32.383367], [130.407989, 32.391105], [130.414885, 32.399309], [130.423196, 32.393945], [130.432876, 32.382224], [130.430528, 32.374288], [130.409756, 32.383367]], [[130.462542, 32.579995], [130.476077, 32.586861], [130.487519, 32.570474], [130.463831, 32.539322], [130.466117, 32.555569], [130.461698, 32.560767], [130.462542, 32.579995]], [[130.453388, 32.554299], [130.440872, 32.547838], [130.422618, 32.545735], [130.411238, 32.553196], [130.407515, 32.568136], [130.414707, 32.569888], [130.415795, 32.579915], [130.393534, 32.588415], [130.412069, 32.605824], [130.417785, 32.616807], [130.430859, 32.613871], [130.442951, 32.625828], [130.451935, 32.61535], [130.45802, 32.614409], [130.444953, 32.591848], [130.455144, 32.586644], [130.450605, 32.574102], [130.453388, 32.554299]], [[130.486503, 32.582735], [130.490292, 32.592256], [130.473529, 32.603902], [130.491239, 32.609645], [130.509234, 32.607143], [130.511179, 32.593435], [130.493082, 32.576755], [130.486503, 32.582735]], [[130.593388, 32.768177], [130.591472, 32.762326], [130.573219, 32.762872], [130.574068, 32.768474], [130.593388, 32.768177]]]}}], "name": "熊本県"}