{"type": "FeatureCollection", "features": [{"type": "Feature", "properties": {"name": "神奈川県"}, "geometry": {"type": "MultiLineString", "coordinates": [[[139.143266, 35.161511], [139.145708, 35.152336], [139.15047, 35.146783], [139.157682, 35.147278], [139.161807, 35.141582], [139.151445, 35.14033], [139.149253, 35.14399], [139.137223, 35.148591], [139.123038, 35.15043], [139.112125, 35.141379], [139.089844, 35.140195], [139.048228, 35.149703], [139.029006, 35.150161], [139.028411, 35.154874], [139.031226, 35.156986], [139.026351, 35.159981], [139.029482, 35.16519], [139.026136, 35.173259], [139.041999, 35.177591], [139.024991, 35.176067], [139.021487, 35.182105], [139.009336, 35.183245], [138.987678, 35.200881], [138.988353, 35.211346], [138.982282, 35.217585], [138.983524, 35.222904], [138.976074, 35.235553], [138.97874, 35.239393], [138.974431, 35.247914], [138.974321, 35.257119], [138.975471, 35.263753], [138.985318, 35.277795], [138.997208, 35.288702], [139.004729, 35.289843], [139.009633, 35.313649], [139.018528, 35.329846], [139.01059, 35.338411], [139.008115, 35.350304], [139.013353, 35.35867], [139.006839, 35.361386], [139.005916, 35.375385], [138.998618, 35.38404], [139.001789, 35.398806], [138.99991, 35.401652], [138.97182, 35.405176], [138.966612, 35.40193], [138.943256, 35.399188], [138.916403, 35.400614], [138.918066, 35.411339], [138.93017, 35.420871], [138.930645, 35.426329], [138.926198, 35.432391], [138.927404, 35.437645], [138.93737, 35.448868], [138.958727, 35.462086], [138.973463, 35.466545], [138.978769, 35.463742], [138.988822, 35.473641], [139.007873, 35.474498], [139.014593, 35.479831], [139.027549, 35.480968], [139.03062, 35.488702], [139.037317, 35.491108], [139.043701, 35.498942], [139.048172, 35.510247], [139.060081, 35.507499], [139.066038, 35.509408], [139.08579, 35.512086], [139.091004, 35.519244], [139.104001, 35.526784], [139.113966, 35.538601], [139.111961, 35.549794], [139.129179, 35.563875], [139.127771, 35.581], [139.121438, 35.586988], [139.129333, 35.594596], [139.133105, 35.606701], [139.127797, 35.612899], [139.134414, 35.61651], [139.123491, 35.623952], [139.123303, 35.632841], [139.127553, 35.641081], [139.117168, 35.654538], [139.131913, 35.672377], [139.14716, 35.666817], [139.161604, 35.667907], [139.16836, 35.658556], [139.166955, 35.651066], [139.174951, 35.649889], [139.179086, 35.645572], [139.189825, 35.646534], [139.198258, 35.653], [139.211461, 35.649117], [139.215456, 35.646122], [139.215371, 35.637076], [139.221434, 35.629466], [139.219641, 35.625895], [139.225906, 35.623477], [139.229881, 35.614568], [139.238638, 35.606977], [139.252224, 35.601667], [139.257705, 35.604231], [139.264775, 35.602459], [139.266156, 35.608111], [139.285248, 35.613389], [139.303689, 35.604703], [139.32075, 35.606526], [139.330234, 35.603153], [139.339901, 35.605546], [139.36136, 35.599051], [139.356204, 35.589143], [139.361852, 35.599215], [139.384369, 35.587608], [139.399797, 35.584426], [139.401623, 35.576887], [139.409104, 35.575221], [139.418194, 35.561766], [139.422185, 35.55962], [139.427369, 35.5512], [139.445099, 35.542072], [139.448956, 35.534887], [139.458317, 35.527989], [139.455479, 35.520326], [139.463285, 35.517838], [139.468087, 35.506782], [139.464783, 35.497437], [139.467723, 35.502373], [139.488375, 35.502594], [139.481061, 35.505355], [139.476973, 35.511396], [139.486387, 35.51993], [139.486816, 35.535526], [139.492262, 35.538083], [139.484532, 35.536098], [139.480333, 35.543146], [139.48186, 35.555956], [139.476486, 35.562552], [139.47474, 35.559605], [139.468292, 35.563296], [139.469926, 35.569893], [139.472558, 35.570626], [139.470305, 35.570358], [139.476385, 35.581941], [139.489847, 35.584229], [139.483749, 35.571958], [139.478245, 35.571303], [139.485033, 35.57002], [139.491031, 35.561426], [139.500602, 35.570443], [139.506451, 35.571602], [139.506898, 35.574958], [139.505503, 35.574777], [139.493936, 35.58273], [139.493678, 35.589076], [139.487115, 35.590022], [139.48391, 35.595298], [139.480303, 35.594695], [139.478021, 35.598974], [139.47106, 35.601158], [139.466049, 35.609501], [139.453442, 35.604488], [139.449281, 35.611776], [139.453017, 35.618558], [139.463208, 35.624915], [139.467588, 35.620634], [139.475467, 35.619701], [139.476044, 35.61324], [139.479659, 35.613264], [139.489586, 35.604312], [139.499765, 35.605467], [139.494389, 35.616287], [139.501128, 35.621741], [139.51458, 35.624727], [139.517273, 35.630516], [139.523492, 35.632394], [139.520963, 35.637632], [139.524283, 35.641528], [139.530888, 35.641958], [139.562511, 35.632384], [139.56563, 35.627202], [139.575765, 35.62226], [139.596623, 35.618499], [139.618601, 35.613752], [139.643244, 35.598156], [139.655496, 35.589977], [139.664493, 35.589522], [139.669309, 35.584719], [139.676407, 35.566038], [139.681593, 35.561249], [139.704179, 35.551826], [139.697762, 35.543757], [139.703472, 35.536591], [139.717302, 35.538004], [139.726563, 35.543575], [139.733648, 35.540866], [139.739595, 35.545156], [139.756854, 35.544502], [139.776496, 35.53447], [139.774464, 35.532224], [139.796077, 35.518631], [139.791639, 35.513506], [139.794185, 35.511765], [139.791875, 35.507074], [139.78019, 35.513311], [139.776223, 35.509557], [139.771017, 35.513228], [139.760958, 35.530274], [139.751727, 35.533283], [139.755876, 35.527786], [139.737864, 35.514713], [139.746461, 35.515557], [139.748771, 35.506844], [139.733812, 35.500604], [139.731767, 35.515564], [139.731368, 35.499064], [139.720084, 35.494134], [139.713915, 35.502968], [139.711206, 35.50396], [139.718033, 35.493631], [139.712087, 35.49076], [139.708791, 35.495315], [139.711457, 35.490801], [139.696301, 35.484044], [139.69462, 35.489455], [139.687976, 35.495305], [139.687052, 35.490859], [139.692801, 35.481406], [139.681772, 35.478356], [139.681774, 35.47289], [139.668418, 35.467829], [139.667905, 35.473563], [139.67314, 35.475132], [139.668479, 35.48229], [139.662591, 35.489], [139.669191, 35.47752], [139.653895, 35.476644], [139.651452, 35.481516], [139.648324, 35.480384], [139.651565, 35.476398], [139.640539, 35.47438], [139.638123, 35.465179], [139.616361, 35.468683], [139.638388, 35.463784], [139.639377, 35.458476], [139.633277, 35.452425], [139.645507, 35.45779], [139.643454, 35.449083], [139.651856, 35.445125], [139.65727, 35.448955], [139.660376, 35.447734], [139.656977, 35.44434], [139.660281, 35.441259], [139.664117, 35.442796], [139.670358, 35.451302], [139.673121, 35.450897], [139.668546, 35.440225], [139.671151, 35.438843], [139.675297, 35.445713], [139.681499, 35.441576], [139.675346, 35.431588], [139.678306, 35.43038], [139.685366, 35.44203], [139.690603, 35.439274], [139.686861, 35.430111], [139.681333, 35.425115], [139.679861, 35.418786], [139.683334, 35.41678], [139.679446, 35.410855], [139.66911, 35.402587], [139.666613, 35.404095], [139.669229, 35.406517], [139.665888, 35.408532], [139.658766, 35.407893], [139.652579, 35.413019], [139.642392, 35.411601], [139.634588, 35.407798], [139.631295, 35.410272], [139.627717, 35.409141], [139.630787, 35.404981], [139.641988, 35.406969], [139.645482, 35.402979], [139.626023, 35.401637], [139.621984, 35.395347], [139.624428, 35.391713], [139.629886, 35.393948], [139.633847, 35.393842], [139.638371, 35.390922], [139.627429, 35.386207], [139.628332, 35.383439], [139.632613, 35.38219], [139.645681, 35.390539], [139.653233, 35.387262], [139.647893, 35.379681], [139.643253, 35.378956], [139.650521, 35.373078], [139.654058, 35.374768], [139.656514, 35.36654], [139.650936, 35.366417], [139.650978, 35.359838], [139.656927, 35.353494], [139.656953, 35.341935], [139.63802, 35.340298], [139.633804, 35.335986], [139.637462, 35.33312], [139.629343, 35.32944], [139.631603, 35.325205], [139.634483, 35.321973], [139.634462, 35.322059], [139.634461, 35.322059], [139.634461, 35.322066], [139.634671, 35.322276], [139.640732, 35.330373], [139.648904, 35.327262], [139.661873, 35.328268], [139.661225, 35.32226], [139.655692, 35.321571], [139.656066, 35.317595], [139.648942, 35.318404], [139.651209, 35.315687], [139.644877, 35.312662], [139.644029, 35.308083], [139.636678, 35.311721], [139.642284, 35.303891], [139.638876, 35.303757], [139.638956, 35.300677], [139.634942, 35.298477], [139.633523, 35.295642], [139.639669, 35.295007], [139.643357, 35.298368], [139.649067, 35.288053], [139.651751, 35.28809], [139.653877, 35.285217], [139.660804, 35.282882], [139.662724, 35.284849], [139.656974, 35.292651], [139.664614, 35.289488], [139.665428, 35.292535], [139.661338, 35.300215], [139.673967, 35.300578], [139.680204, 35.295047], [139.677426, 35.292211], [139.685079, 35.288589], [139.671997, 35.28667], [139.679065, 35.284653], [139.67732, 35.280051], [139.687407, 35.274836], [139.690205, 35.271151], [139.690995, 35.266484], [139.721081, 35.263172], [139.727732, 35.2647], [139.732673, 35.265835], [139.73308, 35.261577], [139.739271, 35.261667], [139.747011, 35.253491], [139.734181, 35.24798], [139.736405, 35.246472], [139.73322, 35.24084], [139.72444, 35.239565], [139.71668, 35.24612], [139.72423, 35.235981], [139.729483, 35.232823], [139.728769, 35.223723], [139.721984, 35.223894], [139.722373, 35.227086], [139.717661, 35.228347], [139.713392, 35.22386], [139.713306, 35.22044], [139.720057, 35.221999], [139.715292, 35.217344], [139.722763, 35.218279], [139.725059, 35.211342], [139.689866, 35.208711], [139.664783, 35.19306], [139.656248, 35.184528], [139.655318, 35.174609], [139.660156, 35.171515], [139.663365, 35.159404], [139.679375, 35.156924], [139.681299, 35.146403], [139.676281, 35.144832], [139.678964, 35.140917], [139.670949, 35.142096], [139.666074, 35.146597], [139.664525, 35.139612], [139.66006, 35.140674], [139.657069, 35.137303], [139.651476, 35.142333], [139.64658, 35.137757], [139.639771, 35.137931], [139.637905, 35.142101], [139.630117, 35.13989], [139.630163, 35.137199], [139.619441, 35.138702], [139.611842, 35.142187], [139.607797, 35.142878], [139.617305, 35.147597], [139.606807, 35.154838], [139.619306, 35.154551], [139.614055, 35.157542], [139.61109, 35.157578], [139.610686, 35.163464], [139.630125, 35.163592], [139.616825, 35.1653], [139.616572, 35.171513], [139.619381, 35.175619], [139.619347, 35.175664], [139.619211, 35.175852], [139.61915, 35.175935], [139.61655, 35.179505], [139.6165, 35.179573], [139.616424, 35.179676], [139.616404, 35.179705], [139.613932, 35.183097], [139.616257, 35.18537], [139.615717, 35.189934], [139.60938, 35.190202], [139.608005, 35.19476], [139.599742, 35.193638], [139.598894, 35.195741], [139.606325, 35.199415], [139.603616, 35.2027], [139.609511, 35.210183], [139.623055, 35.20761], [139.626946, 35.216735], [139.62408, 35.21775], [139.620783, 35.221455], [139.603783, 35.223349], [139.604078, 35.231574], [139.599023, 35.234553], [139.599951, 35.238744], [139.585915, 35.251494], [139.57803, 35.253264], [139.577484, 35.253195], [139.576838, 35.253113], [139.579785, 35.256353], [139.575509, 35.264648], [139.567381, 35.267295], [139.570664, 35.269238], [139.571025, 35.276241], [139.568838, 35.2826], [139.574196, 35.282441], [139.569437, 35.285982], [139.573423, 35.287204], [139.571665, 35.292771], [139.557649, 35.291785], [139.556459, 35.296316], [139.550204, 35.296219], [139.552382, 35.299794], [139.560088, 35.307268], [139.551905, 35.299406], [139.551327, 35.303878], [139.539512, 35.309385], [139.525455, 35.301603], [139.501545, 35.30622], [139.490386, 35.304746], [139.492612, 35.306856], [139.488702, 35.308334], [139.491182, 35.312608], [139.483012, 35.304327], [139.478921, 35.304772], [139.47832, 35.309927], [139.470782, 35.314323], [139.438045, 35.319146], [139.414864, 35.314959], [139.402817, 35.318127], [139.397091, 35.315549], [139.394758, 35.316295], [139.374627, 35.31558], [139.369438, 35.323266], [139.374361, 35.315333], [139.3642, 35.312297], [139.358365, 35.315085], [139.330043, 35.312119], [139.316835, 35.30605], [139.312019, 35.305921], [139.269275, 35.297288], [139.234081, 35.286443], [139.207875, 35.277285], [139.157905, 35.2432], [139.146552, 35.239688], [139.146743, 35.236322], [139.142423, 35.229743], [139.142593, 35.208735], [139.137707, 35.192478], [139.140262, 35.188838], [139.135847, 35.178624], [139.137198, 35.178816], [139.143393, 35.172835], [139.145302, 35.167515], [139.140174, 35.162273], [139.143266, 35.161511]], [[139.488037, 35.298934], [139.481059, 35.297512], [139.474953, 35.298376], [139.483183, 35.30354], [139.488037, 35.298934]], [[139.630144, 35.129069], [139.608339, 35.13489], [139.609742, 35.13787], [139.626417, 35.134213], [139.630144, 35.129069]], [[139.650253, 35.29428], [139.643914, 35.300587], [139.651842, 35.307418], [139.656959, 35.301991], [139.651354, 35.298978], [139.652914, 35.2967], [139.650253, 35.29428]], [[139.629765, 35.329026], [139.639193, 35.328947], [139.634266, 35.323547], [139.629765, 35.329026]], [[139.68225, 35.404502], [139.676382, 35.399762], [139.671263, 35.401747], [139.680189, 35.410188], [139.684173, 35.408977], [139.688878, 35.412794], [139.692138, 35.410081], [139.687345, 35.406206], [139.692006, 35.402336], [139.690735, 35.399913], [139.682372, 35.393159], [139.67795, 35.395324], [139.685373, 35.401909], [139.68225, 35.404502]], [[139.670153, 35.463097], [139.670575, 35.464499], [139.67803, 35.467414], [139.692397, 35.472012], [139.694868, 35.463767], [139.684858, 35.458627], [139.688427, 35.457001], [139.698061, 35.461646], [139.702248, 35.455121], [139.695488, 35.449825], [139.670153, 35.463097]], [[139.652279, 35.466973], [139.648904, 35.466667], [139.642128, 35.468381], [139.641833, 35.471861], [139.650392, 35.474446], [139.655961, 35.470224], [139.652279, 35.466973]], [[139.738957, 35.489064], [139.735066, 35.48736], [139.741844, 35.477025], [139.725328, 35.469796], [139.712707, 35.464254], [139.707553, 35.472038], [139.700266, 35.478685], [139.714588, 35.486045], [139.734481, 35.494826], [139.738957, 35.489064]], [[139.736283, 35.494454], [139.761189, 35.505732], [139.771203, 35.506218], [139.776091, 35.503456], [139.778676, 35.499553], [139.761561, 35.49189], [139.758914, 35.495321], [139.756113, 35.494077], [139.75819, 35.490588], [139.745611, 35.485013], [139.736283, 35.494454]], [[139.748968, 35.51995], [139.75696, 35.526659], [139.766033, 35.513564], [139.753828, 35.508575], [139.749867, 35.514472], [139.748968, 35.51995]]]}}], "name": "神奈川県"}