{"type": "FeatureCollection", "features": [{"type": "Feature", "properties": {"name": "福島県"}, "geometry": {"type": "MultiLineString", "coordinates": [[[139.43035, 36.925932], [139.420238, 36.924122], [139.408003, 36.926569], [139.399403, 36.920383], [139.393289, 36.910796], [139.383302, 36.911403], [139.372975, 36.918407], [139.3494, 36.91304], [139.350015, 36.918364], [139.342387, 36.927533], [139.33316, 36.924559], [139.314226, 36.925393], [139.314286, 36.929198], [139.308926, 36.929085], [139.304605, 36.930915], [139.306422, 36.932831], [139.303469, 36.93425], [139.300095, 36.934081], [139.294819, 36.935776], [139.293703, 36.934471], [139.281711, 36.931147], [139.266135, 36.941154], [139.254895, 36.932421], [139.240847, 36.929321], [139.238878, 36.934189], [139.234693, 36.934352], [139.23497, 36.937373], [139.230577, 36.936936], [139.230347, 36.94045], [139.24162, 36.941549], [139.244115, 36.947867], [139.241838, 36.949909], [139.246498, 36.95588], [139.249898, 36.955814], [139.24855, 36.96134], [139.251418, 36.963827], [139.248003, 36.965881], [139.247716, 36.970987], [139.252693, 36.973547], [139.247176, 36.980486], [139.255665, 36.988749], [139.25103, 37.004619], [139.243367, 37.015135], [139.248512, 37.023949], [139.248541, 37.030901], [139.253201, 37.034309], [139.252821, 37.039812], [139.259555, 37.043298], [139.260327, 37.04769], [139.257271, 37.049755], [139.254549, 37.062312], [139.247411, 37.070399], [139.247808, 37.075205], [139.250325, 37.079155], [139.256034, 37.078068], [139.250339, 37.082562], [139.246574, 37.083436], [139.244304, 37.085119], [139.240281, 37.090551], [139.243066, 37.093543], [139.240697, 37.09797], [139.23728, 37.100384], [139.236879, 37.104294], [139.238523, 37.107394], [139.238039, 37.112798], [139.239311, 37.11709], [139.242707, 37.11295], [139.246728, 37.111514], [139.248207, 37.109129], [139.251889, 37.109556], [139.247121, 37.114191], [139.247678, 37.116078], [139.2447, 37.116597], [139.243373, 37.120738], [139.246585, 37.126572], [139.247846, 37.131047], [139.247656, 37.133959], [139.249266, 37.135029], [139.249294, 37.141398], [139.250222, 37.142693], [139.248394, 37.145425], [139.251698, 37.149423], [139.254588, 37.147734], [139.259516, 37.149069], [139.25735, 37.154087], [139.254111, 37.152714], [139.250194, 37.153559], [139.252983, 37.158434], [139.250296, 37.163714], [139.253849, 37.164909], [139.246419, 37.166277], [139.247337, 37.169692], [139.243216, 37.17038], [139.244392, 37.182092], [139.240955, 37.184834], [139.241948, 37.187562], [139.238148, 37.188292], [139.232804, 37.192903], [139.231912, 37.195576], [139.22585, 37.199362], [139.227858, 37.202745], [139.227028, 37.20444], [139.221764, 37.205673], [139.222474, 37.211334], [139.218949, 37.211975], [139.217593, 37.209389], [139.208385, 37.195773], [139.196584, 37.194028], [139.194399, 37.204665], [139.165885, 37.232219], [139.164757, 37.239428], [139.174748, 37.256435], [139.213283, 37.287816], [139.217711, 37.305275], [139.215748, 37.309068], [139.224286, 37.319985], [139.217868, 37.33415], [139.228149, 37.343276], [139.233622, 37.343607], [139.233579, 37.358296], [139.238057, 37.37263], [139.231461, 37.380232], [139.231502, 37.387878], [139.222606, 37.393257], [139.212134, 37.392094], [139.204589, 37.406155], [139.197246, 37.410767], [139.208433, 37.416791], [139.207532, 37.428909], [139.215138, 37.441988], [139.223307, 37.449044], [139.235521, 37.444819], [139.25145, 37.452521], [139.258558, 37.44701], [139.278823, 37.453203], [139.283967, 37.44991], [139.3048, 37.458839], [139.310725, 37.455646], [139.326471, 37.462386], [139.335143, 37.457789], [139.34583, 37.460271], [139.351641, 37.468074], [139.36255, 37.469968], [139.373852, 37.463833], [139.397513, 37.459839], [139.40633, 37.466046], [139.404623, 37.475051], [139.409942, 37.483576], [139.406955, 37.486463], [139.407891, 37.492461], [139.414032, 37.496801], [139.410626, 37.503053], [139.414249, 37.510156], [139.457199, 37.517868], [139.476115, 37.502554], [139.485794, 37.510277], [139.496737, 37.51257], [139.513665, 37.50858], [139.523437, 37.51454], [139.5431, 37.512055], [139.564749, 37.501674], [139.585394, 37.512981], [139.588054, 37.512222], [139.584315, 37.514535], [139.590547, 37.528033], [139.578708, 37.530017], [139.570199, 37.539064], [139.570949, 37.543761], [139.565767, 37.546015], [139.570299, 37.550717], [139.567572, 37.562883], [139.572369, 37.570231], [139.571183, 37.577009], [139.564195, 37.588443], [139.564968, 37.597427], [139.554131, 37.60256], [139.548616, 37.609378], [139.548104, 37.613647], [139.5522, 37.618574], [139.546011, 37.628464], [139.555297, 37.640912], [139.549321, 37.649093], [139.568493, 37.653134], [139.58866, 37.667248], [139.59642, 37.665864], [139.60499, 37.674134], [139.604479, 37.679295], [139.609412, 37.684271], [139.617649, 37.688804], [139.627203, 37.688284], [139.628208, 37.692406], [139.621548, 37.700112], [139.624092, 37.710249], [139.632751, 37.716428], [139.631768, 37.719851], [139.649613, 37.729062], [139.652177, 37.737779], [139.658865, 37.744954], [139.657888, 37.755007], [139.666712, 37.75703], [139.668706, 37.763265], [139.680305, 37.775394], [139.69656, 37.785122], [139.705211, 37.796071], [139.71354, 37.798992], [139.721621, 37.809423], [139.728332, 37.812241], [139.738839, 37.815638], [139.740822, 37.820256], [139.735978, 37.827919], [139.720556, 37.839568], [139.715654, 37.847027], [139.71482, 37.852811], [139.71069, 37.854394], [139.697852, 37.847711], [139.697283, 37.848734], [139.706408, 37.855994], [139.715637, 37.854158], [139.7159, 37.847282], [139.718832, 37.845063], [139.720856, 37.839687], [139.736223, 37.828109], [139.741307, 37.820293], [139.755422, 37.822132], [139.782954, 37.831969], [139.794743, 37.817817], [139.803417, 37.815162], [139.804237, 37.805419], [139.809758, 37.803261], [139.821614, 37.811994], [139.837875, 37.814495], [139.857717, 37.826539], [139.872595, 37.816815], [139.876422, 37.81733], [139.879447, 37.81027], [139.886552, 37.809164], [139.898831, 37.81028], [139.90738, 37.815427], [139.924827, 37.813514], [139.930085, 37.822471], [139.927615, 37.827075], [139.932599, 37.829394], [139.949618, 37.816493], [139.958044, 37.814681], [139.96213, 37.805803], [139.959362, 37.797679], [139.968782, 37.788466], [139.967361, 37.783543], [139.978946, 37.773552], [139.97804, 37.766241], [139.992569, 37.7587], [139.998547, 37.761359], [140.001994, 37.7594], [140.010101, 37.763995], [140.019282, 37.76196], [140.031451, 37.768881], [140.037298, 37.767901], [140.051427, 37.779333], [140.053517, 37.770839], [140.065, 37.767618], [140.069123, 37.757844], [140.08673, 37.758044], [140.102118, 37.737713], [140.124411, 37.733827], [140.133644, 37.738498], [140.140693, 37.738079], [140.14601, 37.75272], [140.171937, 37.756043], [140.199599, 37.752811], [140.204821, 37.74753], [140.237255, 37.746468], [140.240427, 37.753527], [140.25495, 37.764618], [140.266175, 37.779177], [140.276288, 37.781768], [140.276856, 37.787637], [140.282425, 37.79219], [140.282211, 37.798229], [140.298821, 37.807924], [140.291366, 37.814938], [140.287381, 37.813828], [140.278308, 37.821073], [140.268994, 37.823788], [140.262116, 37.834416], [140.265223, 37.83887], [140.262741, 37.842041], [140.267339, 37.847566], [140.265467, 37.862155], [140.269962, 37.866546], [140.26995, 37.874361], [140.264916, 37.879518], [140.264766, 37.885956], [140.27072, 37.890737], [140.26453, 37.911937], [140.276505, 37.926351], [140.278147, 37.939287], [140.281004, 37.941348], [140.275289, 37.947247], [140.278075, 37.952629], [140.272492, 37.957929], [140.271297, 37.966818], [140.280003, 37.976644], [140.29165, 37.970355], [140.30242, 37.969032], [140.308527, 37.963589], [140.314206, 37.964412], [140.316452, 37.958111], [140.328508, 37.95837], [140.334175, 37.95139], [140.336038, 37.955108], [140.348591, 37.950157], [140.353975, 37.951078], [140.35498, 37.95771], [140.358874, 37.95897], [140.384491, 37.952217], [140.38567, 37.96501], [140.39857, 37.974421], [140.407452, 37.973673], [140.409121, 37.963814], [140.429127, 37.954414], [140.444651, 37.956983], [140.448195, 37.950956], [140.461617, 37.952591], [140.47488, 37.946782], [140.46743, 37.938169], [140.468342, 37.923469], [140.472885, 37.911721], [140.484177, 37.901527], [140.481763, 37.900271], [140.484503, 37.901546], [140.487883, 37.899851], [140.498348, 37.90036], [140.503381, 37.90558], [140.513597, 37.903066], [140.521887, 37.90883], [140.531666, 37.905216], [140.561489, 37.910777], [140.566379, 37.922791], [140.57436, 37.916588], [140.59098, 37.906257], [140.598149, 37.907222], [140.600531, 37.910397], [140.610208, 37.911094], [140.61165, 37.915163], [140.61573, 37.914768], [140.627342, 37.899073], [140.644672, 37.895449], [140.647292, 37.898796], [140.660348, 37.900896], [140.666976, 37.895058], [140.690081, 37.888213], [140.690889, 37.883674], [140.682883, 37.879512], [140.68187, 37.875924], [140.687457, 37.871388], [140.685818, 37.867938], [140.691441, 37.861354], [140.692007, 37.850863], [140.685607, 37.846886], [140.686889, 37.842046], [140.679234, 37.836338], [140.684377, 37.830523], [140.685387, 37.815556], [140.695308, 37.804516], [140.695047, 37.803263], [140.702485, 37.80324], [140.723002, 37.792535], [140.72697, 37.781479], [140.74515, 37.788463], [140.748989, 37.7853], [140.77522, 37.781817], [140.794717, 37.773313], [140.803191, 37.779901], [140.794923, 37.780906], [140.783067, 37.791495], [140.779407, 37.790949], [140.772339, 37.797417], [140.765205, 37.79605], [140.765016, 37.79827], [140.777777, 37.806307], [140.81018, 37.795535], [140.821617, 37.798887], [140.830507, 37.794765], [140.852107, 37.795438], [140.857967, 37.803102], [140.853716, 37.807029], [140.853954, 37.811741], [140.858253, 37.814749], [140.853657, 37.821014], [140.855977, 37.828813], [140.85231, 37.82986], [140.85509, 37.833776], [140.854177, 37.84193], [140.85081, 37.850725], [140.858779, 37.856378], [140.861559, 37.862754], [140.85458, 37.874518], [140.861123, 37.879401], [140.85654, 37.882605], [140.859938, 37.888664], [140.856669, 37.891228], [140.900221, 37.90433], [140.90112, 37.897638], [140.914866, 37.898029], [140.92021, 37.891997], [140.931014, 37.896171], [140.932805, 37.881488], [140.937641, 37.876078], [140.938531, 37.87421], [140.939546, 37.86542], [140.946431, 37.853218], [140.949792, 37.858146], [140.962417, 37.860869], [140.967786, 37.859415], [140.955856, 37.859368], [140.956873, 37.856403], [140.949376, 37.855243], [140.958775, 37.845046], [140.953125, 37.842989], [140.953912, 37.840693], [140.958718, 37.841159], [140.958513, 37.841011], [140.955118, 37.838559], [140.962277, 37.830473], [140.963065, 37.831385], [140.970068, 37.828326], [140.972422, 37.831614], [140.975466, 37.827583], [140.981047, 37.825548], [140.982221, 37.824419], [140.987222, 37.822836], [140.989167, 37.771559], [140.991604, 37.766979], [141.000494, 37.763039], [141.000518, 37.757931], [141.004748, 37.750559], [141.008151, 37.749919], [141.010899, 37.74101], [141.011319, 37.721808], [141.011207, 37.688432], [141.013392, 37.68647], [141.014888, 37.673837], [141.01701, 37.671453], [141.019068, 37.671758], [141.022252, 37.664283], [141.033074, 37.666949], [141.029428, 37.664264], [141.019828, 37.662565], [141.018746, 37.657266], [141.02437, 37.641573], [141.022407, 37.621058], [141.027092, 37.603013], [141.02572, 37.569676], [141.034602, 37.514049], [140.993922, 37.50816], [141.03421, 37.513651], [141.038578, 37.503326], [141.039505, 37.484627], [141.041664, 37.483894], [141.036614, 37.466394], [141.031965, 37.464517], [141.036553, 37.466356], [141.035642, 37.457661], [141.03924, 37.453357], [141.034845, 37.42689], [141.03656, 37.419754], [141.03382, 37.416418], [141.035742, 37.373287], [141.020248, 37.376992], [141.035585, 37.373109], [141.03618, 37.365489], [141.039093, 37.363922], [141.034271, 37.359916], [141.032213, 37.344128], [141.027313, 37.338191], [141.029716, 37.335431], [141.02649, 37.333657], [141.025254, 37.324952], [141.02775, 37.322244], [141.028121, 37.316395], [141.029188, 37.313598], [141.025554, 37.313554], [141.02274, 37.309502], [141.02613, 37.304059], [141.013025, 37.249835], [141.011341, 37.241014], [141.020602, 37.240388], [141.023108, 37.234801], [141.016114, 37.233696], [141.019172, 37.229409], [141.012409, 37.22843], [141.004392, 37.208815], [141.000426, 37.183643], [140.968816, 37.189229], [141.001395, 37.182842], [141.000463, 37.155499], [141.002529, 37.151102], [140.999905, 37.149216], [141.005489, 37.144493], [141.0013, 37.144209], [140.998351, 37.135434], [141.000599, 37.108896], [140.998958, 37.110599], [140.994799, 37.105606], [141.000169, 37.108139], [140.996779, 37.102598], [140.99056, 37.102384], [140.98272, 37.089278], [140.973663, 37.053231], [140.973561, 37.016467], [140.975755, 37.011337], [140.98109, 37.010636], [140.979047, 37.006656], [140.983052, 36.995417], [140.971487, 36.989826], [140.966722, 36.980177], [140.969571, 36.973393], [140.965611, 36.972181], [140.966914, 36.970267], [140.958795, 36.969768], [140.957136, 36.965355], [140.949133, 36.960401], [140.94944, 36.95649], [140.951064, 36.955074], [140.940912, 36.954563], [140.934224, 36.95029], [140.925585, 36.941047], [140.924914, 36.935396], [140.908685, 36.934202], [140.910199, 36.935755], [140.914949, 36.936428], [140.910304, 36.939192], [140.916197, 36.940693], [140.909301, 36.945473], [140.905167, 36.941032], [140.901807, 36.941327], [140.897959, 36.943177], [140.893186, 36.94174], [140.891131, 36.936846], [140.889027, 36.939699], [140.884981, 36.938428], [140.88828, 36.934435], [140.879058, 36.933065], [140.882756, 36.929048], [140.880491, 36.927707], [140.875862, 36.9332], [140.873426, 36.931643], [140.874069, 36.926594], [140.869073, 36.926335], [140.861631, 36.921743], [140.864923, 36.916252], [140.859964, 36.918519], [140.856885, 36.918456], [140.853942, 36.920162], [140.841453, 36.908798], [140.828107, 36.912869], [140.819835, 36.909983], [140.800039, 36.89396], [140.789894, 36.874739], [140.789118, 36.865165], [140.793392, 36.859207], [140.78973, 36.856484], [140.78558, 36.856843], [140.786417, 36.862108], [140.772069, 36.868599], [140.771544, 36.863066], [140.765381, 36.862075], [140.767332, 36.865108], [140.765369, 36.867432], [140.762956, 36.864416], [140.759856, 36.866724], [140.760106, 36.872365], [140.757931, 36.872373], [140.758381, 36.867299], [140.740846, 36.875556], [140.734208, 36.871593], [140.724535, 36.874217], [140.721306, 36.87089], [140.705488, 36.878394], [140.706164, 36.881366], [140.698991, 36.883586], [140.695037, 36.888788], [140.656081, 36.897151], [140.654959, 36.901042], [140.636214, 36.897572], [140.62799, 36.902857], [140.614917, 36.903687], [140.615637, 36.906745], [140.607193, 36.912766], [140.601248, 36.92281], [140.59267, 36.926743], [140.59446, 36.938054], [140.589299, 36.939481], [140.585991, 36.945949], [140.568147, 36.93737], [140.561652, 36.944398], [140.570581, 36.931482], [140.565024, 36.912701], [140.571804, 36.912473], [140.580774, 36.904408], [140.579943, 36.893401], [140.593282, 36.880033], [140.591985, 36.87302], [140.588755, 36.874911], [140.582729, 36.867953], [140.575332, 36.869073], [140.572488, 36.864156], [140.560527, 36.863473], [140.556912, 36.860054], [140.538286, 36.858973], [140.535122, 36.852113], [140.527825, 36.848119], [140.52739, 36.842874], [140.528483, 36.839995], [140.519104, 36.83624], [140.513915, 36.823443], [140.504755, 36.823293], [140.502926, 36.819034], [140.488, 36.818363], [140.489323, 36.809577], [140.48059, 36.803736], [140.47862, 36.796942], [140.464193, 36.791402], [140.438501, 36.821542], [140.43097, 36.817039], [140.423066, 36.820519], [140.415099, 36.832026], [140.392869, 36.832447], [140.377206, 36.837925], [140.37689, 36.847049], [140.368407, 36.86123], [140.368591, 36.867085], [140.372433, 36.871254], [140.365212, 36.884325], [140.346381, 36.885045], [140.326698, 36.891188], [140.323914, 36.893477], [140.322022, 36.907419], [140.317419, 36.91316], [140.30759, 36.919317], [140.303, 36.926885], [140.283754, 36.936199], [140.289634, 36.940672], [140.272975, 36.930155], [140.240592, 36.946173], [140.244541, 36.957087], [140.25309, 36.962968], [140.243712, 36.973688], [140.244201, 36.978991], [140.251053, 36.983725], [140.250224, 36.9887], [140.245866, 36.989759], [140.240803, 36.996686], [140.24022, 37.000385], [140.246016, 37.005199], [140.244895, 37.010241], [140.26523, 37.001112], [140.252008, 37.008218], [140.249917, 37.015548], [140.248932, 37.025874], [140.224655, 37.023805], [140.219984, 37.018488], [140.20308, 37.023962], [140.195593, 37.036526], [140.198486, 37.038196], [140.199783, 37.047693], [140.190651, 37.056666], [140.194586, 37.060236], [140.19339, 37.065107], [140.172782, 37.070276], [140.166034, 37.078375], [140.152961, 37.086], [140.157443, 37.089077], [140.156233, 37.091389], [140.149244, 37.092713], [140.154832, 37.096647], [140.150794, 37.094329], [140.137298, 37.106472], [140.133852, 37.103426], [140.127693, 37.105437], [140.09756, 37.124346], [140.089067, 37.12151], [140.065484, 37.127486], [140.059473, 37.125475], [140.045608, 37.136758], [140.028521, 37.139574], [140.023255, 37.143325], [140.016738, 37.13958], [139.962845, 37.148559], [139.963108, 37.158382], [139.961261, 37.153296], [139.933796, 37.153737], [139.915895, 37.147612], [139.907341, 37.149089], [139.902432, 37.154272], [139.874757, 37.146248], [139.866289, 37.147228], [139.857413, 37.138197], [139.847653, 37.139471], [139.838978, 37.133153], [139.831773, 37.133641], [139.82832, 37.126651], [139.815169, 37.116859], [139.816182, 37.111081], [139.821298, 37.108324], [139.818245, 37.096874], [139.822093, 37.085137], [139.809419, 37.084851], [139.787951, 37.090702], [139.777981, 37.088807], [139.774911, 37.091894], [139.763096, 37.075807], [139.754545, 37.074104], [139.751817, 37.070228], [139.739752, 37.072619], [139.732852, 37.068658], [139.719248, 37.07095], [139.717935, 37.068287], [139.711006, 37.068422], [139.70044, 37.059327], [139.692064, 37.062548], [139.673049, 37.057651], [139.671237, 37.048203], [139.664651, 37.039841], [139.655845, 37.041977], [139.638757, 37.032132], [139.625557, 37.033224], [139.623054, 37.028953], [139.625525, 37.025986], [139.616686, 37.015176], [139.602713, 37.015981], [139.595773, 37.011741], [139.582052, 37.015082], [139.576423, 37.002078], [139.556803, 36.996841], [139.55445, 36.992473], [139.547879, 36.993638], [139.53526, 36.980584], [139.523598, 36.981492], [139.504009, 36.969618], [139.494165, 36.967906], [139.484207, 36.975472], [139.46288, 36.971095], [139.457115, 36.970605], [139.459977, 36.968461], [139.457083, 36.954214], [139.434449, 36.941854], [139.435033, 36.936093], [139.43035, 36.925932]], [[140.907164, 36.916447], [140.883276, 36.908023], [140.886327, 36.91072], [140.907164, 36.916447]], [[140.899846, 36.936565], [140.902785, 36.931574], [140.897775, 36.926122], [140.892562, 36.928763], [140.897966, 36.935824], [140.899846, 36.936565]]]}}], "name": "福島県"}