{"type": "FeatureCollection", "features": [{"type": "Feature", "properties": {"name": "秋田県"}, "geometry": {"type": "MultiLineString", "coordinates": [[[139.948052, 39.117167], [139.945654, 39.112831], [139.90604, 39.118828], [139.869698, 39.118379], [139.87214, 39.12133], [139.877984, 39.121079], [139.877118, 39.125142], [139.885071, 39.133117], [139.881428, 39.139116], [139.8833, 39.145234], [139.894932, 39.156051], [139.904919, 39.181375], [139.905021, 39.197346], [139.897301, 39.20312], [139.892837, 39.202455], [139.892585, 39.212931], [139.902973, 39.22411], [139.910454, 39.237531], [139.911124, 39.246176], [139.914967, 39.249141], [139.909714, 39.254321], [139.912755, 39.2553], [139.909839, 39.259057], [139.912029, 39.261779], [139.915728, 39.275572], [139.930626, 39.289202], [139.949974, 39.290034], [139.959883, 39.293719], [139.966084, 39.295136], [139.980115, 39.313091], [140.010001, 39.372206], [140.014825, 39.387296], [140.010606, 39.38921], [140.015067, 39.391711], [140.016422, 39.396333], [140.024449, 39.415487], [140.045032, 39.498699], [140.044959, 39.502155], [140.050748, 39.530981], [140.051152, 39.539633], [140.053799, 39.55331], [140.059657, 39.597788], [140.063019, 39.653559], [140.059253, 39.720663], [140.054041, 39.73887], [140.048528, 39.740667], [140.046281, 39.749505], [140.048673, 39.749864], [140.047882, 39.757514], [140.050741, 39.761235], [140.04818, 39.767974], [140.050277, 39.770631], [140.04932, 39.774103], [140.042844, 39.772839], [140.046082, 39.763497], [140.043041, 39.761999], [140.037214, 39.767676], [140.040824, 39.768435], [140.039674, 39.771962], [140.036627, 39.771418], [140.033387, 39.781027], [140.042335, 39.78285], [140.040611, 39.786703], [140.034547, 39.785492], [140.033145, 39.789685], [140.037792, 39.792849], [140.034043, 39.804488], [140.021132, 39.827892], [140.005876, 39.847372], [139.968488, 39.879212], [139.970139, 39.881086], [139.967886, 39.88], [139.950375, 39.889817], [139.924917, 39.899504], [139.895609, 39.90212], [139.891649, 39.898953], [139.858515, 39.896009], [139.859708, 39.894526], [139.850784, 39.886766], [139.861338, 39.88742], [139.857551, 39.881616], [139.856904, 39.877997], [139.84691, 39.878422], [139.851576, 39.87062], [139.858749, 39.872308], [139.861249, 39.866332], [139.848383, 39.862815], [139.837954, 39.862958], [139.838482, 39.86707], [139.830004, 39.868852], [139.821614, 39.863655], [139.820994, 39.858559], [139.814533, 39.85734], [139.792829, 39.867693], [139.786839, 39.862076], [139.784134, 39.865573], [139.78087, 39.860022], [139.774681, 39.86085], [139.771652, 39.864747], [139.76179, 39.86238], [139.756567, 39.858726], [139.753085, 39.859352], [139.75504, 39.863433], [139.746598, 39.865315], [139.740273, 39.87145], [139.740987, 39.876867], [139.736298, 39.883609], [139.738933, 39.885293], [139.734978, 39.888392], [139.734924, 39.905352], [139.728576, 39.91009], [139.725175, 39.907546], [139.71757, 39.909001], [139.717706, 39.9152], [139.708495, 39.923343], [139.711195, 39.926505], [139.705685, 39.928062], [139.707546, 39.931277], [139.703834, 39.936313], [139.705416, 39.940028], [139.701718, 39.94225], [139.709662, 39.947026], [139.718908, 39.946033], [139.721167, 39.95427], [139.715095, 39.960295], [139.711557, 39.960699], [139.708202, 39.956326], [139.70161, 39.961006], [139.701892, 39.976036], [139.694224, 39.979538], [139.697973, 39.984524], [139.693995, 39.988886], [139.697353, 39.998011], [139.69525, 39.998654], [139.702615, 40.006543], [139.723466, 39.981635], [139.734437, 39.983858], [139.742165, 39.978427], [139.765719, 39.974865], [139.770857, 39.970271], [139.782422, 39.967843], [139.787784, 39.962986], [139.786009, 39.960855], [139.793681, 39.957698], [139.813374, 39.958701], [139.845145, 39.970944], [139.868871, 39.98871], [139.872739, 39.988771], [139.909973, 40.024681], [139.914578, 40.030385], [139.945374, 40.073032], [139.972578, 40.125143], [139.992624, 40.179841], [139.992108, 40.182247], [139.983974, 40.18353], [139.98842, 40.200209], [139.994989, 40.199251], [139.99783, 40.210037], [139.993553, 40.210709], [139.994196, 40.213629], [140.005225, 40.211367], [140.002801, 40.217371], [140.025588, 40.217092], [140.00087, 40.220235], [140.004789, 40.224242], [140.015645, 40.264447], [140.03029, 40.263072], [140.015664, 40.264462], [140.024241, 40.315116], [140.025781, 40.349768], [140.02283, 40.357909], [140.014686, 40.363637], [140.012017, 40.373551], [139.999544, 40.378412], [139.999487, 40.379626], [139.981545, 40.386021], [139.978226, 40.398482], [139.973669, 40.397406], [139.958174, 40.407526], [139.956169, 40.410805], [139.947027, 40.412679], [139.944116, 40.422819], [139.93631, 40.428204], [139.94212, 40.429999], [139.950873, 40.430915], [139.959544, 40.434863], [139.969847, 40.427451], [139.981208, 40.427377], [139.995055, 40.435047], [140.019443, 40.419842], [140.017368, 40.427044], [140.022126, 40.429816], [140.026055, 40.439237], [140.020172, 40.448123], [140.036172, 40.461618], [140.048688, 40.4601], [140.054077, 40.464336], [140.05362, 40.46779], [140.068346, 40.468857], [140.074129, 40.464618], [140.079243, 40.466788], [140.093582, 40.458925], [140.099501, 40.453074], [140.099174, 40.443969], [140.107616, 40.435896], [140.10378, 40.433836], [140.13673, 40.439617], [140.151939, 40.43498], [140.185467, 40.443306], [140.194052, 40.43478], [140.209203, 40.438639], [140.220822, 40.431189], [140.245381, 40.438097], [140.250054, 40.442994], [140.266867, 40.440743], [140.278857, 40.445994], [140.291041, 40.446583], [140.306443, 40.442531], [140.310727, 40.436287], [140.317612, 40.439683], [140.335216, 40.439383], [140.340667, 40.443229], [140.343371, 40.461662], [140.347017, 40.461559], [140.347808, 40.467548], [140.361301, 40.478392], [140.377948, 40.47654], [140.387708, 40.487102], [140.394133, 40.485024], [140.396613, 40.478355], [140.402237, 40.474907], [140.427077, 40.482592], [140.434765, 40.480439], [140.437269, 40.478455], [140.43346, 40.467702], [140.437019, 40.46547], [140.439955, 40.450082], [140.464382, 40.456448], [140.481012, 40.451636], [140.484322, 40.446222], [140.481212, 40.44183], [140.498134, 40.436398], [140.508363, 40.428548], [140.529194, 40.430759], [140.529823, 40.420286], [140.524269, 40.419666], [140.523809, 40.410213], [140.532346, 40.411234], [140.540325, 40.402801], [140.547703, 40.40401], [140.558622, 40.397109], [140.569369, 40.400736], [140.556414, 40.414835], [140.553213, 40.419985], [140.554873, 40.422525], [140.562083, 40.427046], [140.587218, 40.429293], [140.589731, 40.436113], [140.611238, 40.42386], [140.625781, 40.423999], [140.625476, 40.421525], [140.633042, 40.417631], [140.636291, 40.409485], [140.632468, 40.404013], [140.634199, 40.402264], [140.640884, 40.405174], [140.66148, 40.404449], [140.666025, 40.4115], [140.675956, 40.412708], [140.675913, 40.413689], [140.68717, 40.418302], [140.687913, 40.427349], [140.699228, 40.429416], [140.715549, 40.427882], [140.717467, 40.421109], [140.723016, 40.416611], [140.73357, 40.415803], [140.735858, 40.42786], [140.731202, 40.431108], [140.735479, 40.433974], [140.732739, 40.435936], [140.733892, 40.439505], [140.75206, 40.438755], [140.762414, 40.451035], [140.769326, 40.453899], [140.772413, 40.451228], [140.78714, 40.457195], [140.793215, 40.449405], [140.803649, 40.448646], [140.811395, 40.476987], [140.810629, 40.48713], [140.820026, 40.49533], [140.826945, 40.49608], [140.845021, 40.50736], [140.852587, 40.505217], [140.880062, 40.510246], [140.876789, 40.498087], [140.869916, 40.496839], [140.862541, 40.499789], [140.854327, 40.498854], [140.8429, 40.495768], [140.838384, 40.491939], [140.833625, 40.49034], [140.832321, 40.48445], [140.833741, 40.483123], [140.827989, 40.479185], [140.828439, 40.476398], [140.836484, 40.466381], [140.83759, 40.461055], [140.844596, 40.455576], [140.844154, 40.453623], [140.839653, 40.450818], [140.839646, 40.447124], [140.847256, 40.438374], [140.846689, 40.436297], [140.849518, 40.43316], [140.855473, 40.430209], [140.857206, 40.419191], [140.859922, 40.416533], [140.865124, 40.414208], [140.876957, 40.413048], [140.886022, 40.415779], [140.892677, 40.420886], [140.892326, 40.423352], [140.911499, 40.423306], [140.920029, 40.427305], [140.926774, 40.421106], [140.922332, 40.420293], [140.933717, 40.421682], [140.941955, 40.430201], [140.951264, 40.426308], [140.972207, 40.43085], [140.984393, 40.428097], [140.985551, 40.421714], [140.978759, 40.41598], [140.982738, 40.413511], [140.981404, 40.405646], [140.985758, 40.403193], [140.987681, 40.397094], [140.984409, 40.388427], [140.994103, 40.376405], [140.995013, 40.37017], [140.990961, 40.366989], [140.991183, 40.361064], [140.995432, 40.353365], [140.980899, 40.343268], [140.971859, 40.343709], [140.968354, 40.350866], [140.962081, 40.347134], [140.968171, 40.338722], [140.967417, 40.333662], [140.96255, 40.32817], [140.962578, 40.323162], [140.95734, 40.324516], [140.956896, 40.304718], [140.943974, 40.296259], [140.944598, 40.288138], [140.952393, 40.287419], [140.957514, 40.282426], [140.94571, 40.258075], [140.955074, 40.247628], [140.944494, 40.246164], [140.940166, 40.240476], [140.94096, 40.226898], [140.905159, 40.221919], [140.904035, 40.217913], [140.895787, 40.213646], [140.899109, 40.212387], [140.898686, 40.208054], [140.889525, 40.200536], [140.892694, 40.192458], [140.85919, 40.171426], [140.868792, 40.159516], [140.881005, 40.159978], [140.883607, 40.157317], [140.882371, 40.150846], [140.866989, 40.132368], [140.874037, 40.122386], [140.871203, 40.115952], [140.881027, 40.113726], [140.877331, 40.098086], [140.871925, 40.090996], [140.862827, 40.084706], [140.85492, 40.085163], [140.851325, 40.077855], [140.844478, 40.074591], [140.855618, 40.043934], [140.855223, 40.037137], [140.850409, 40.03171], [140.855862, 40.015705], [140.848999, 40.008068], [140.850807, 39.993754], [140.845313, 39.974959], [140.847842, 39.959888], [140.853959, 39.957032], [140.857382, 39.952619], [140.856918, 39.944201], [140.852223, 39.93613], [140.857571, 39.930082], [140.854695, 39.923289], [140.868054, 39.911661], [140.867262, 39.900199], [140.874764, 39.894229], [140.879352, 39.884516], [140.87799, 39.874355], [140.858474, 39.870325], [140.852924, 39.865787], [140.843173, 39.871212], [140.844241, 39.873574], [140.832487, 39.875145], [140.834032, 39.881214], [140.825817, 39.886238], [140.81565, 39.879351], [140.799227, 39.881636], [140.782212, 39.867706], [140.783086, 39.860649], [140.787651, 39.858951], [140.783886, 39.856314], [140.789096, 39.850184], [140.783018, 39.831239], [140.788287, 39.826496], [140.786649, 39.823399], [140.804002, 39.815106], [140.811345, 39.818327], [140.821319, 39.815423], [140.825034, 39.809741], [140.841647, 39.804921], [140.848271, 39.793251], [140.825576, 39.774327], [140.822208, 39.774543], [140.816127, 39.762886], [140.80533, 39.756645], [140.807007, 39.753133], [140.803727, 39.744752], [140.774822, 39.734553], [140.783998, 39.729078], [140.783341, 39.725686], [140.788716, 39.722903], [140.794461, 39.709596], [140.805303, 39.710795], [140.809904, 39.708023], [140.81135, 39.695538], [140.822576, 39.688175], [140.818409, 39.680099], [140.822568, 39.669126], [140.820172, 39.653132], [140.822304, 39.649953], [140.815347, 39.646117], [140.807105, 39.632197], [140.808388, 39.624263], [140.802572, 39.618848], [140.805014, 39.612813], [140.802858, 39.609383], [140.796298, 39.603153], [140.782196, 39.603969], [140.778753, 39.598367], [140.780662, 39.590326], [140.764269, 39.587854], [140.754297, 39.57072], [140.737935, 39.564978], [140.730359, 39.565843], [140.727479, 39.555954], [140.739708, 39.546598], [140.741359, 39.536186], [140.737839, 39.522398], [140.724681, 39.518594], [140.721129, 39.514057], [140.72434, 39.511184], [140.723966, 39.504419], [140.719779, 39.504802], [140.713684, 39.499201], [140.713271, 39.494057], [140.72443, 39.48068], [140.721855, 39.478819], [140.708571, 39.475071], [140.698154, 39.467785], [140.689527, 39.464809], [140.676821, 39.447948], [140.685595, 39.437263], [140.685125, 39.424665], [140.67967, 39.417068], [140.676879, 39.418907], [140.658381, 39.415095], [140.65755, 39.411158], [140.662816, 39.40811], [140.66371, 39.40367], [140.654287, 39.393669], [140.653125, 39.390998], [140.656044, 39.388988], [140.666099, 39.384086], [140.675432, 39.385796], [140.679968, 39.381567], [140.67564, 39.368342], [140.682581, 39.362045], [140.692731, 39.358597], [140.688453, 39.347525], [140.703236, 39.343586], [140.709371, 39.330117], [140.698587, 39.32843], [140.697524, 39.321762], [140.694044, 39.319764], [140.692639, 39.313629], [140.697225, 39.310286], [140.693586, 39.299593], [140.70402, 39.30187], [140.710797, 39.295803], [140.717327, 39.296508], [140.717829, 39.272609], [140.743711, 39.261754], [140.751349, 39.262807], [140.75723, 39.254791], [140.76892, 39.252463], [140.777169, 39.241573], [140.788706, 39.238327], [140.78602, 39.234225], [140.787624, 39.226785], [140.770227, 39.223408], [140.762963, 39.213057], [140.766618, 39.208525], [140.764703, 39.198037], [140.770858, 39.193529], [140.778722, 39.194763], [140.789092, 39.188516], [140.797393, 39.189956], [140.808196, 39.180417], [140.803274, 39.176258], [140.78853, 39.172675], [140.783743, 39.165413], [140.774131, 39.167853], [140.759191, 39.143714], [140.752881, 39.142578], [140.748941, 39.138122], [140.751263, 39.133071], [140.758112, 39.13366], [140.769981, 39.124165], [140.766606, 39.120218], [140.755955, 39.118302], [140.755931, 39.112187], [140.763247, 39.108858], [140.7527, 39.086196], [140.770467, 39.07888], [140.778345, 39.082093], [140.794146, 39.077021], [140.802387, 39.077895], [140.80082, 39.073955], [140.804098, 39.072047], [140.803904, 39.06718], [140.799532, 39.060974], [140.81025, 39.057409], [140.80083, 39.049445], [140.799381, 39.044395], [140.793559, 39.041861], [140.795287, 39.029429], [140.780112, 39.014722], [140.778688, 39.008145], [140.764033, 39.000192], [140.767902, 38.994711], [140.764573, 38.985388], [140.774957, 38.970417], [140.772177, 38.966636], [140.773848, 38.958458], [140.755561, 38.958294], [140.745251, 38.956372], [140.730894, 38.94845], [140.722449, 38.932949], [140.717424, 38.927748], [140.711816, 38.926877], [140.707337, 38.920321], [140.700393, 38.923817], [140.685648, 38.917605], [140.673016, 38.903607], [140.671115, 38.897131], [140.653341, 38.891604], [140.654077, 38.889013], [140.645014, 38.888635], [140.638546, 38.883073], [140.630004, 38.889279], [140.61359, 38.893912], [140.609553, 38.892429], [140.607145, 38.886603], [140.597823, 38.885057], [140.590327, 38.889175], [140.585621, 38.880054], [140.579912, 38.881345], [140.561986, 38.873013], [140.554264, 38.876211], [140.553056, 38.882815], [140.537952, 38.900369], [140.525996, 38.897452], [140.515822, 38.900356], [140.505213, 38.894937], [140.499153, 38.895684], [140.482441, 38.91655], [140.471627, 38.914856], [140.461864, 38.919718], [140.458308, 38.933885], [140.451502, 38.937684], [140.449583, 38.945595], [140.453723, 38.952521], [140.453693, 38.958839], [140.449835, 38.963325], [140.451087, 38.972146], [140.44634, 38.973203], [140.4463, 38.979592], [140.437867, 38.981945], [140.43201, 38.991807], [140.41357, 38.989997], [140.410611, 38.994053], [140.394675, 38.991223], [140.376225, 38.994458], [140.364034, 39.009495], [140.360734, 39.019898], [140.36221, 39.025955], [140.354718, 39.023852], [140.344252, 39.025825], [140.329057, 39.034242], [140.332043, 39.04026], [140.329102, 39.034802], [140.318796, 39.031262], [140.318736, 39.025125], [140.310896, 39.013713], [140.293908, 39.018218], [140.286635, 39.028093], [140.26621, 39.031288], [140.260565, 39.035235], [140.252877, 39.028225], [140.245441, 39.030901], [140.231582, 39.026958], [140.217519, 39.033091], [140.20155, 39.035027], [140.204766, 39.053496], [140.198107, 39.061257], [140.175146, 39.057433], [140.171157, 39.051032], [140.162196, 39.05419], [140.157501, 39.049105], [140.151864, 39.048396], [140.14389, 39.061344], [140.137796, 39.065568], [140.124462, 39.063988], [140.116863, 39.068231], [140.114725, 39.078199], [140.102164, 39.083337], [140.076101, 39.086099], [140.062457, 39.092885], [140.067218, 39.099313], [140.061455, 39.113388], [140.062439, 39.133499], [140.007766, 39.12304], [139.997641, 39.115839], [139.994447, 39.105516], [139.948052, 39.117167]], [[140.032715, 39.760323], [140.014414, 39.772922], [140.038827, 39.758432], [140.032715, 39.760323]]]}}], "name": "秋田県"}