{"type": "FeatureCollection", "features": [{"type": "Feature", "properties": {"name": "群馬県"}, "geometry": {"type": "MultiLineString", "coordinates": [[[138.754411, 36.034526], [138.749185, 36.016722], [138.736537, 36.006317], [138.734039, 35.999865], [138.726065, 35.994477], [138.716809, 35.992904], [138.71255, 35.985333], [138.701167, 35.988011], [138.688695, 35.991775], [138.679584, 36.011714], [138.661988, 36.011504], [138.661332, 36.016427], [138.646038, 36.019928], [138.641893, 36.025847], [138.631965, 36.027054], [138.644191, 36.049689], [138.642815, 36.068742], [138.630339, 36.086363], [138.630626, 36.091328], [138.637283, 36.097121], [138.645183, 36.098807], [138.647549, 36.105921], [138.640181, 36.11735], [138.645054, 36.119611], [138.637569, 36.123833], [138.634324, 36.133947], [138.622479, 36.131932], [138.600768, 36.135512], [138.594298, 36.144194], [138.593241, 36.153227], [138.587556, 36.160775], [138.580654, 36.161942], [138.577275, 36.168073], [138.581447, 36.17764], [138.589313, 36.179002], [138.588225, 36.172863], [138.59266, 36.166985], [138.609665, 36.16142], [138.608452, 36.165386], [138.613167, 36.168732], [138.630908, 36.172782], [138.636069, 36.171257], [138.635896, 36.17726], [138.629454, 36.183311], [138.622797, 36.196928], [138.630413, 36.203504], [138.634803, 36.205597], [138.641653, 36.199057], [138.634563, 36.208292], [138.633031, 36.216316], [138.622245, 36.214586], [138.611762, 36.229503], [138.612497, 36.240918], [138.602118, 36.249053], [138.605952, 36.266795], [138.600336, 36.2784], [138.607179, 36.279596], [138.612509, 36.285655], [138.644504, 36.293256], [138.653452, 36.303044], [138.653751, 36.307168], [138.647808, 36.314772], [138.653306, 36.32426], [138.64965, 36.338443], [138.650081, 36.352483], [138.657163, 36.368902], [138.65149, 36.373008], [138.649559, 36.379238], [138.652187, 36.395393], [138.648464, 36.399799], [138.648387, 36.407468], [138.644475, 36.412334], [138.637151, 36.417216], [138.624752, 36.415716], [138.613, 36.422622], [138.599221, 36.424163], [138.570939, 36.419564], [138.555008, 36.417774], [138.540315, 36.402729], [138.529347, 36.403043], [138.505164, 36.41487], [138.491823, 36.413076], [138.488957, 36.400934], [138.477868, 36.40445], [138.45965, 36.40475], [138.461173, 36.407741], [138.457715, 36.411574], [138.456965, 36.42024], [138.44697, 36.419315], [138.400789, 36.435009], [138.403461, 36.452048], [138.398698, 36.453156], [138.403349, 36.46687], [138.397026, 36.489528], [138.406032, 36.507364], [138.403927, 36.521285], [138.412797, 36.529329], [138.412389, 36.541486], [138.418095, 36.543338], [138.428841, 36.556225], [138.426162, 36.560394], [138.428429, 36.568696], [138.420295, 36.573965], [138.42703, 36.587752], [138.426596, 36.594528], [138.431984, 36.599281], [138.441297, 36.599689], [138.438943, 36.605576], [138.441583, 36.610669], [138.450336, 36.610677], [138.454974, 36.613851], [138.460576, 36.626472], [138.458598, 36.634379], [138.467065, 36.637208], [138.473097, 36.644048], [138.481209, 36.645248], [138.490082, 36.641196], [138.525113, 36.65126], [138.534617, 36.665638], [138.526127, 36.668687], [138.518272, 36.676209], [138.519899, 36.689194], [138.514069, 36.690481], [138.52813, 36.696882], [138.537085, 36.69713], [138.543639, 36.703835], [138.559777, 36.707038], [138.574769, 36.707234], [138.584056, 36.701198], [138.595729, 36.714536], [138.610862, 36.706381], [138.622578, 36.720508], [138.630331, 36.71951], [138.648925, 36.72712], [138.676159, 36.730601], [138.684704, 36.736422], [138.712401, 36.738757], [138.715776, 36.74575], [138.721874, 36.74969], [138.72139, 36.759236], [138.727027, 36.764169], [138.748179, 36.757777], [138.767349, 36.746516], [138.78942, 36.744874], [138.795345, 36.758137], [138.807408, 36.764889], [138.81777, 36.761586], [138.826924, 36.772291], [138.825055, 36.775775], [138.831764, 36.793899], [138.826738, 36.799851], [138.821744, 36.817626], [138.83957, 36.817176], [138.856445, 36.811644], [138.875584, 36.818589], [138.881891, 36.825785], [138.908814, 36.827872], [138.929698, 36.833174], [138.924971, 36.846457], [138.916019, 36.850838], [138.922115, 36.861037], [138.917069, 36.871049], [138.923149, 36.883599], [138.93053, 36.886967], [138.932277, 36.893483], [138.940635, 36.895158], [138.949497, 36.893032], [138.954686, 36.895333], [138.97147, 36.887213], [138.979531, 36.891779], [138.979633, 36.905111], [138.974396, 36.913041], [138.976691, 36.920791], [138.966657, 36.931154], [138.963799, 36.951425], [138.966555, 36.979075], [138.970775, 36.981435], [139.000269, 36.97913], [139.015499, 36.988286], [139.030616, 36.983564], [139.047389, 36.987293], [139.054231, 36.998313], [139.073541, 37.00853], [139.080683, 37.008704], [139.091131, 37.019733], [139.088699, 37.030878], [139.090353, 37.044572], [139.097016, 37.058626], [139.111305, 37.055214], [139.115389, 37.047519], [139.122949, 37.047144], [139.131906, 37.025728], [139.14322, 37.021283], [139.150694, 37.009249], [139.170915, 37.002067], [139.179447, 36.990758], [139.175216, 36.973296], [139.180184, 36.964396], [139.186215, 36.960006], [139.193519, 36.961047], [139.205791, 36.955874], [139.228715, 36.961198], [139.237953, 36.946571], [139.229812, 36.938272], [139.23497, 36.937373], [139.234693, 36.934352], [139.238878, 36.934189], [139.240847, 36.929321], [139.254895, 36.932421], [139.266135, 36.941154], [139.281711, 36.931147], [139.293703, 36.934471], [139.295626, 36.931896], [139.295767, 36.928741], [139.297801, 36.925852], [139.298103, 36.923959], [139.301435, 36.923982], [139.304914, 36.920558], [139.309284, 36.920141], [139.311978, 36.922214], [139.312293, 36.923943], [139.314226, 36.925393], [139.33316, 36.924559], [139.342387, 36.927533], [139.350015, 36.918364], [139.349346, 36.913058], [139.373132, 36.918394], [139.383302, 36.911403], [139.393289, 36.910796], [139.39559, 36.906867], [139.393903, 36.903279], [139.373881, 36.893967], [139.370195, 36.888243], [139.370234, 36.878231], [139.36241, 36.877514], [139.360956, 36.874164], [139.356147, 36.877814], [139.358206, 36.87221], [139.355681, 36.858541], [139.348526, 36.85274], [139.352829, 36.848981], [139.363825, 36.847315], [139.366358, 36.841242], [139.39092, 36.832656], [139.397756, 36.834617], [139.406296, 36.829622], [139.402981, 36.822802], [139.391073, 36.814433], [139.393702, 36.809679], [139.388612, 36.805268], [139.377648, 36.80426], [139.37646, 36.786366], [139.362365, 36.780828], [139.358839, 36.774558], [139.346829, 36.776682], [139.353057, 36.773609], [139.354514, 36.769276], [139.350783, 36.763535], [139.355279, 36.760246], [139.355916, 36.750566], [139.372486, 36.746452], [139.368119, 36.741814], [139.364771, 36.730459], [139.366934, 36.724589], [139.359745, 36.716742], [139.361131, 36.713499], [139.348747, 36.699832], [139.336946, 36.692354], [139.339315, 36.678427], [139.33493, 36.674514], [139.334522, 36.665691], [139.326702, 36.657112], [139.330528, 36.642512], [139.328809, 36.634625], [139.312607, 36.623672], [139.328149, 36.633422], [139.330694, 36.627066], [139.345689, 36.62587], [139.347138, 36.619568], [139.352288, 36.61509], [139.386689, 36.611983], [139.397899, 36.602082], [139.406547, 36.604786], [139.404992, 36.608855], [139.427766, 36.600972], [139.43614, 36.601684], [139.445901, 36.607519], [139.452674, 36.603575], [139.465242, 36.606582], [139.471446, 36.602891], [139.47384, 36.590456], [139.483529, 36.581882], [139.48255, 36.577978], [139.473909, 36.573132], [139.472517, 36.565157], [139.465442, 36.563444], [139.460758, 36.553247], [139.451101, 36.549707], [139.449472, 36.550956], [139.439046, 36.550685], [139.437831, 36.535995], [139.434486, 36.533742], [139.435059, 36.532665], [139.442848, 36.531583], [139.430261, 36.51321], [139.421727, 36.509005], [139.423968, 36.506329], [139.418144, 36.4975], [139.417928, 36.494639], [139.422645, 36.493575], [139.42147, 36.490518], [139.428081, 36.490418], [139.425911, 36.484595], [139.42966, 36.481946], [139.430986, 36.471471], [139.438026, 36.474915], [139.436475, 36.465975], [139.429642, 36.461502], [139.431173, 36.457569], [139.42589, 36.459316], [139.420616, 36.456995], [139.414741, 36.461856], [139.408238, 36.457969], [139.411987, 36.454649], [139.411786, 36.449789], [139.405003, 36.445029], [139.402526, 36.436815], [139.394481, 36.43437], [139.391815, 36.424377], [139.378485, 36.41437], [139.375459, 36.400309], [139.369783, 36.39762], [139.361025, 36.385234], [139.367795, 36.375813], [139.368809, 36.364944], [139.370346, 36.366082], [139.388017, 36.355047], [139.393456, 36.347754], [139.422793, 36.332256], [139.426709, 36.324707], [139.423178, 36.325328], [139.421714, 36.322472], [139.419047, 36.327078], [139.414837, 36.325186], [139.418199, 36.321417], [139.415459, 36.319122], [139.416733, 36.3137], [139.429163, 36.306178], [139.426715, 36.30395], [139.431445, 36.301237], [139.430487, 36.295584], [139.43551, 36.291984], [139.437105, 36.297009], [139.443533, 36.293694], [139.443649, 36.288361], [139.434786, 36.28765], [139.434152, 36.286952], [139.458674, 36.28866], [139.468485, 36.279196], [139.458481, 36.276303], [139.469136, 36.270599], [139.472255, 36.27085], [139.471482, 36.275741], [139.473768, 36.27634], [139.48091, 36.271313], [139.487668, 36.275891], [139.492402, 36.273761], [139.500124, 36.276093], [139.495272, 36.261504], [139.503222, 36.281066], [139.512781, 36.278257], [139.525965, 36.284714], [139.534587, 36.279022], [139.539247, 36.280758], [139.53978, 36.277055], [139.54403, 36.275784], [139.548592, 36.280759], [139.555194, 36.278043], [139.553525, 36.273884], [139.56127, 36.26713], [139.589751, 36.268625], [139.608603, 36.268095], [139.61901, 36.274394], [139.632492, 36.271165], [139.636913, 36.264016], [139.643052, 36.26609], [139.63072, 36.254841], [139.642061, 36.242031], [139.641516, 36.235459], [139.645495, 36.240467], [139.653497, 36.236954], [139.654103, 36.231582], [139.663091, 36.230559], [139.659632, 36.228514], [139.659053, 36.221209], [139.665356, 36.223442], [139.66995, 36.213246], [139.664425, 36.207061], [139.661221, 36.208254], [139.663936, 36.211817], [139.659975, 36.214901], [139.650782, 36.212092], [139.651166, 36.197669], [139.62872, 36.195079], [139.624792, 36.186584], [139.601065, 36.205467], [139.587932, 36.210342], [139.572924, 36.204001], [139.52638, 36.191354], [139.493468, 36.192166], [139.46991, 36.189166], [139.456639, 36.190681], [139.428854, 36.208561], [139.419455, 36.211209], [139.41625, 36.220171], [139.416866, 36.217958], [139.390075, 36.229214], [139.382919, 36.237869], [139.376452, 36.244627], [139.350995, 36.254374], [139.347302, 36.253651], [139.340249, 36.243864], [139.322266, 36.236595], [139.305467, 36.238381], [139.297025, 36.24187], [139.298482, 36.243275], [139.27419, 36.249614], [139.282814, 36.253321], [139.266864, 36.249916], [139.266776, 36.242562], [139.254218, 36.245833], [139.244067, 36.244434], [139.235295, 36.247564], [139.224004, 36.258302], [139.2117, 36.256231], [139.210766, 36.261525], [139.198002, 36.262248], [139.182466, 36.268197], [139.171368, 36.273722], [139.163903, 36.278912], [139.135665, 36.278443], [139.12991, 36.283411], [139.111267, 36.284844], [139.129664, 36.283398], [139.118264, 36.269174], [139.104486, 36.260761], [139.111195, 36.258497], [139.080741, 36.213593], [139.063419, 36.196286], [139.064528, 36.18722], [139.056386, 36.18052], [139.058333, 36.164736], [139.063765, 36.15908], [139.062159, 36.152937], [139.048178, 36.152286], [139.042722, 36.148027], [139.042177, 36.128218], [139.033301, 36.126847], [139.02605, 36.130148], [139.02471, 36.1341], [139.022239, 36.132545], [139.018078, 36.133793], [139.018078, 36.136407], [139.01651, 36.138953], [139.01218, 36.137364], [139.010383, 36.135274], [139.003686, 36.135765], [139.00234, 36.133692], [139.002035, 36.131343], [139.003825, 36.12847], [139.001015, 36.126184], [138.993144, 36.127566], [138.991251, 36.125083], [138.991073, 36.122058], [138.985327, 36.115489], [138.977605, 36.116433], [138.96973, 36.124446], [138.960659, 36.124405], [138.958698, 36.12901], [138.957905, 36.107641], [138.945069, 36.094596], [138.931491, 36.088103], [138.916314, 36.093749], [138.910745, 36.090752], [138.902464, 36.091625], [138.880515, 36.083333], [138.864333, 36.077086], [138.859177, 36.069919], [138.846037, 36.066625], [138.842939, 36.055958], [138.82828, 36.042436], [138.829112, 36.041313], [138.828395, 36.037303], [138.790976, 36.0294], [138.773548, 36.038793], [138.754411, 36.034526]]]}}], "name": "群馬県"}