{"type": "FeatureCollection", "features": [{"type": "Feature", "geometry": {"type": "Polygon", "coordinates": [[[139.119989, 36.334228], [139.136179, 36.334343], [139.14168, 36.334503], [139.151175, 36.342191], [139.166522, 36.337524], [139.166488, 36.337582], [139.164084, 36.341751], [139.165779, 36.345036], [139.186979, 36.359842], [139.186545, 36.365045], [139.190127, 36.365461], [139.191632, 36.37294], [139.202974, 36.37522], [139.207058, 36.390779], [139.21611, 36.395304], [139.217182, 36.40056], [139.218567, 36.401932], [139.222095, 36.402756], [139.226545, 36.403797], [139.226376, 36.405536], [139.226136, 36.408024], [139.225477, 36.414842], [139.228902, 36.412994], [139.229587, 36.418785], [139.224605, 36.426271], [139.219666, 36.425791], [139.217227, 36.442909], [139.212201, 36.441716], [139.215761, 36.446765], [139.210891, 36.460431], [139.211086, 36.476526], [139.201766, 36.491799], [139.196365, 36.513938], [139.188684, 36.526066], [139.192585, 36.528888], [139.190071, 36.537832], [139.19523, 36.543708], [139.192705, 36.548196], [139.19344, 36.559428], [139.170568, 36.561583], [139.169341, 36.561699], [139.169344, 36.561696], [139.162446, 36.555402], [139.151878, 36.554447], [139.135392, 36.534305], [139.118375, 36.525975], [139.114819, 36.520636], [139.100922, 36.516924], [139.076164, 36.494043], [139.062474, 36.474878], [139.053222, 36.4692], [139.049322, 36.455734], [139.039992, 36.450226], [139.039627, 36.449152], [139.033911, 36.432332], [139.035472, 36.423037], [139.030208, 36.430294], [139.030645, 36.420618], [139.023472, 36.417184], [139.012651, 36.4326], [139.012571, 36.432713], [139.012537, 36.432722], [139.003895, 36.434956], [139.006021, 36.432764], [139.003607, 36.428278], [139.002121, 36.425518], [139.00192, 36.425144], [139.002255, 36.422848], [139.002425, 36.419463], [139.002767, 36.41934], [139.003373, 36.41912], [139.009745, 36.405436], [139.016323, 36.406422], [139.017186, 36.412299], [139.028244, 36.406636], [139.026347, 36.402814], [139.030514, 36.394363], [139.023106, 36.394882], [139.020512, 36.391476], [139.027561, 36.386433], [139.025478, 36.384091], [139.027453, 36.379442], [139.023796, 36.377066], [139.030858, 36.374596], [139.035705, 36.378853], [139.034639, 36.37108], [139.044297, 36.363903], [139.044733, 36.359173], [139.049463, 36.359243], [139.04858, 36.356316], [139.044635, 36.356229], [139.044686, 36.351394], [139.055213, 36.351374], [139.057681, 36.353497], [139.055526, 36.355727], [139.062576, 36.356143], [139.06324, 36.352724], [139.071258, 36.351738], [139.078069, 36.332173], [139.092367, 36.32551], [139.091853, 36.324066], [139.092324, 36.323804], [139.100439, 36.319284], [139.104129, 36.317228], [139.105435, 36.3165], [139.111595, 36.316602], [139.107924, 36.321268], [139.108752, 36.327086], [139.126449, 36.327369], [139.121527, 36.332661], [139.119989, 36.334228]]]}, "properties": {"N03_001": "群馬県", "N03_002": null, "N03_003": null, "N03_004": "前橋市", "N03_005": null, "N03_007": "10201"}}, {"type": "Feature", "geometry": {"type": "MultiPolygon", "coordinates": [[[[138.937912, 36.274904], [138.939973, 36.274463], [138.938924, 36.268664], [138.945338, 36.26815], [138.945614, 36.268127], [138.948001, 36.263737], [138.952455, 36.26299], [138.951294, 36.256592], [138.954846, 36.25982], [138.957299, 36.257483], [138.957703, 36.256214], [138.956207, 36.253078], [138.953401, 36.247197], [138.960611, 36.23406], [138.95835, 36.228887], [138.962951, 36.223248], [138.953018, 36.218286], [138.942923, 36.199261], [138.943386, 36.199229], [138.952633, 36.198593], [138.966641, 36.2036], [138.975834, 36.201585], [138.981521, 36.206395], [138.983315, 36.215276], [138.991899, 36.216891], [138.997284, 36.223857], [139.018591, 36.222496], [139.016722, 36.232158], [139.027298, 36.246824], [139.026903, 36.24799], [139.024906, 36.253894], [139.024554, 36.254934], [139.024406, 36.254902], [139.021959, 36.254386], [139.020078, 36.25399], [139.02008, 36.254232], [139.022016, 36.257801], [139.032041, 36.2603], [139.032401, 36.260318], [139.032476, 36.260409], [139.040703, 36.270395], [139.049267, 36.269202], [139.056087, 36.272351], [139.057097, 36.285227], [139.081425, 36.290405], [139.096445, 36.288159], [139.096456, 36.288369], [139.096465, 36.288535], [139.096585, 36.290692], [139.100741, 36.299248], [139.087657, 36.312273], [139.09155, 36.323215], [139.092324, 36.323804], [139.091853, 36.324066], [139.092367, 36.32551], [139.078069, 36.332173], [139.071258, 36.351738], [139.06324, 36.352724], [139.062576, 36.356143], [139.055526, 36.355727], [139.057681, 36.353497], [139.055213, 36.351374], [139.044686, 36.351394], [139.044635, 36.356229], [139.04858, 36.356316], [139.049463, 36.359243], [139.044733, 36.359173], [139.044297, 36.363903], [139.034639, 36.37108], [139.035705, 36.378853], [139.030858, 36.374596], [139.023796, 36.377066], [139.027453, 36.379442], [139.025478, 36.384091], [139.027561, 36.386433], [139.020512, 36.391476], [139.023106, 36.394882], [139.030514, 36.394363], [139.026347, 36.402814], [139.028244, 36.406636], [139.017186, 36.412299], [139.016323, 36.406422], [139.009745, 36.405436], [139.003373, 36.41912], [139.002767, 36.41934], [139.002425, 36.419463], [138.983158, 36.426449], [138.987986, 36.424416], [138.988337, 36.420581], [138.985984, 36.416671], [138.982018, 36.418049], [138.981647, 36.413394], [138.978595, 36.416065], [138.975528, 36.41286], [138.974585, 36.413049], [138.972217, 36.414686], [138.967882, 36.417683], [138.966248, 36.418813], [138.962862, 36.41213], [138.957016, 36.418759], [138.960138, 36.423961], [138.958359, 36.426869], [138.958325, 36.426925], [138.95058, 36.426756], [138.924881, 36.448009], [138.901924, 36.457785], [138.89996, 36.463718], [138.904731, 36.464426], [138.909351, 36.471728], [138.911676, 36.470554], [138.907292, 36.474822], [138.900163, 36.474581], [138.89929, 36.480486], [138.896995, 36.481571], [138.89656, 36.481776], [138.895621, 36.48222], [138.883923, 36.480008], [138.883182, 36.479905], [138.881369, 36.480856], [138.878442, 36.482668], [138.878004, 36.482622], [138.876955, 36.483172], [138.866283, 36.481474], [138.866213, 36.481374], [138.860564, 36.473458], [138.850747, 36.477181], [138.826786, 36.473011], [138.791674, 36.47675], [138.791589, 36.476759], [138.780022, 36.473419], [138.780794, 36.468645], [138.773795, 36.46497], [138.775655, 36.477953], [138.760186, 36.478902], [138.754488, 36.477381], [138.737542, 36.476922], [138.733636, 36.477315], [138.723727, 36.481834], [138.723002, 36.482272], [138.722829, 36.482244], [138.722166, 36.482135], [138.714371, 36.480852], [138.711967, 36.479727], [138.697673, 36.47304], [138.687326, 36.473552], [138.687256, 36.473556], [138.681779, 36.465372], [138.670401, 36.462629], [138.670371, 36.462597], [138.662065, 36.453665], [138.657669, 36.453903], [138.655721, 36.451858], [138.655196, 36.451709], [138.646412, 36.442087], [138.642584, 36.438068], [138.642628, 36.437942], [138.647189, 36.42481], [138.643826, 36.413141], [138.644475, 36.412334], [138.648387, 36.407468], [138.682553, 36.415964], [138.687532, 36.414158], [138.70143, 36.408774], [138.702415, 36.40876], [138.705297, 36.40872], [138.70966, 36.408659], [138.713594, 36.41212], [138.720009, 36.414748], [138.751953, 36.406646], [138.778636, 36.390862], [138.819669, 36.377523], [138.823662, 36.373522], [138.828809, 36.374985], [138.843121, 36.370865], [138.862028, 36.374255], [138.886443, 36.365683], [138.915304, 36.350261], [138.925204, 36.352948], [138.934591, 36.349213], [138.939195, 36.341551], [138.93735, 36.339447], [138.950866, 36.334894], [138.950836, 36.334789], [138.936593, 36.333426], [138.945152, 36.324735], [138.953812, 36.305708], [138.950844, 36.302264], [138.949616, 36.30084], [138.948189, 36.299185], [138.948578, 36.284225], [138.937468, 36.274999], [138.937912, 36.274904]]], [[[139.109791, 36.282655], [139.109499, 36.282221], [139.108579, 36.280856], [139.09661, 36.277127], [139.104824, 36.270855], [139.104404, 36.269213], [139.099382, 36.265632], [139.103115, 36.261224], [139.103841, 36.260366], [139.104486, 36.260761], [139.118264, 36.269174], [139.129664, 36.283398], [139.111267, 36.284844], [139.109791, 36.282655]]]]}, "properties": {"N03_001": "群馬県", "N03_002": null, "N03_003": null, "N03_004": "高崎市", "N03_005": null, "N03_007": "10202"}}, {"type": "Feature", "geometry": {"type": "MultiPolygon", "coordinates": [[[[139.226376, 36.405536], [139.23415, 36.404704], [139.232096, 36.397599], [139.235558, 36.396846], [139.236088, 36.392752], [139.245608, 36.405551], [139.25576, 36.408006], [139.254871, 36.405957], [139.255755, 36.407822], [139.262664, 36.412237], [139.264632, 36.413009], [139.271319, 36.41325], [139.273961, 36.412901], [139.273844, 36.413341], [139.273804, 36.413493], [139.270748, 36.424998], [139.266885, 36.426475], [139.267875, 36.430596], [139.260188, 36.437838], [139.264644, 36.440149], [139.264403, 36.451845], [139.258307, 36.454127], [139.253741, 36.461017], [139.247035, 36.461807], [139.236366, 36.468898], [139.239573, 36.47457], [139.236348, 36.475318], [139.231801, 36.486581], [139.237586, 36.482521], [139.248981, 36.484144], [139.251287, 36.480494], [139.26235, 36.478929], [139.263074, 36.479083], [139.263451, 36.479163], [139.268272, 36.480186], [139.283002, 36.492977], [139.293551, 36.489419], [139.296268, 36.490509], [139.297668, 36.491071], [139.298029, 36.491216], [139.30146, 36.497115], [139.304468, 36.502287], [139.295678, 36.506621], [139.29043, 36.509208], [139.28006, 36.514321], [139.283055, 36.518615], [139.290191, 36.518943], [139.291216, 36.526799], [139.296968, 36.534155], [139.314961, 36.544122], [139.318661, 36.560996], [139.319203, 36.561942], [139.318918, 36.562168], [139.308893, 36.570133], [139.306522, 36.579285], [139.299629, 36.584183], [139.300735, 36.593094], [139.297858, 36.595147], [139.297122, 36.594817], [139.288609, 36.589682], [139.280451, 36.587334], [139.274541, 36.591594], [139.268352, 36.589674], [139.260307, 36.592092], [139.255216, 36.588516], [139.242276, 36.588332], [139.236065, 36.580501], [139.230562, 36.577962], [139.228601, 36.577057], [139.223979, 36.574924], [139.192715, 36.569067], [139.189929, 36.566911], [139.189643, 36.566355], [139.189394, 36.565871], [139.19344, 36.559428], [139.192705, 36.548196], [139.19523, 36.543708], [139.190071, 36.537832], [139.192585, 36.528888], [139.188684, 36.526066], [139.196365, 36.513938], [139.201766, 36.491799], [139.211086, 36.476526], [139.210891, 36.460431], [139.215761, 36.446765], [139.212201, 36.441716], [139.217227, 36.442909], [139.219666, 36.425791], [139.224605, 36.426271], [139.229587, 36.418785], [139.228902, 36.412994], [139.225477, 36.414842], [139.226136, 36.408024], [139.226376, 36.405536]]], [[[139.284744, 36.413514], [139.286012, 36.409624], [139.292497, 36.40921], [139.315466, 36.396791], [139.313713, 36.378208], [139.313654, 36.377577], [139.327564, 36.374569], [139.341409, 36.360605], [139.341481, 36.360532], [139.350704, 36.358526], [139.35888, 36.36432], [139.360594, 36.363477], [139.363805, 36.361587], [139.364161, 36.361724], [139.364779, 36.361962], [139.368937, 36.363564], [139.368809, 36.364944], [139.367795, 36.375813], [139.361025, 36.385234], [139.369783, 36.39762], [139.375459, 36.400309], [139.378485, 36.41437], [139.391815, 36.424377], [139.394481, 36.43437], [139.402526, 36.436815], [139.405003, 36.445029], [139.411786, 36.449789], [139.411987, 36.454649], [139.408238, 36.457969], [139.414741, 36.461856], [139.420616, 36.456995], [139.42589, 36.459316], [139.431173, 36.457569], [139.429642, 36.461502], [139.436475, 36.465975], [139.438026, 36.474915], [139.430986, 36.471471], [139.42966, 36.481946], [139.425911, 36.484595], [139.428081, 36.490418], [139.42147, 36.490518], [139.422645, 36.493575], [139.417928, 36.494639], [139.418144, 36.4975], [139.423968, 36.506329], [139.421727, 36.509005], [139.430261, 36.51321], [139.442848, 36.531583], [139.435059, 36.532665], [139.434486, 36.533742], [139.437831, 36.535995], [139.439046, 36.550685], [139.449472, 36.550956], [139.450898, 36.550993], [139.445566, 36.553952], [139.44178, 36.556053], [139.440685, 36.55666], [139.438395, 36.555944], [139.433172, 36.554311], [139.429931, 36.553298], [139.415556, 36.539211], [139.407835, 36.52652], [139.40175, 36.523821], [139.386469, 36.524969], [139.384705, 36.519745], [139.378128, 36.5211], [139.375495, 36.514907], [139.362662, 36.514278], [139.362432, 36.513974], [139.35959, 36.510214], [139.357609, 36.507592], [139.357651, 36.507345], [139.358421, 36.502745], [139.358851, 36.500181], [139.33473, 36.491739], [139.331562, 36.478994], [139.320282, 36.471346], [139.322156, 36.467172], [139.317957, 36.462859], [139.304883, 36.459838], [139.300675, 36.447407], [139.294294, 36.445714], [139.290303, 36.435585], [139.292041, 36.431367], [139.283839, 36.428351], [139.29506, 36.417377], [139.29059, 36.41814], [139.290782, 36.414654], [139.288861, 36.417753], [139.29028, 36.413455], [139.286998, 36.416274], [139.28813, 36.412668], [139.28453, 36.414172], [139.284744, 36.413514]]]]}, "properties": {"N03_001": "群馬県", "N03_002": null, "N03_003": null, "N03_004": "桐生市", "N03_005": null, "N03_007": "10203"}}, {"type": "Feature", "geometry": {"type": "Polygon", "coordinates": [[[139.136179, 36.334343], [139.137756, 36.317963], [139.144042, 36.308612], [139.140752, 36.307735], [139.154332, 36.302831], [139.161448, 36.288016], [139.171745, 36.27742], [139.171368, 36.273722], [139.182466, 36.268197], [139.198002, 36.262248], [139.210766, 36.261525], [139.2117, 36.256231], [139.224004, 36.258302], [139.235295, 36.247564], [139.244067, 36.244434], [139.254218, 36.245833], [139.266776, 36.242562], [139.266864, 36.249916], [139.282814, 36.253321], [139.280249, 36.256649], [139.27165, 36.256459], [139.268755, 36.264685], [139.275864, 36.280086], [139.255762, 36.295036], [139.257713, 36.303064], [139.267489, 36.303209], [139.269048, 36.324207], [139.264167, 36.325367], [139.261758, 36.33035], [139.265554, 36.337537], [139.264589, 36.347548], [139.267293, 36.347605], [139.268949, 36.3526], [139.26716, 36.360961], [139.27165, 36.360302], [139.272893, 36.367578], [139.273082, 36.368685], [139.2692, 36.373584], [139.266635, 36.376822], [139.266689, 36.377668], [139.267598, 36.391776], [139.267639, 36.39242], [139.267641, 36.392446], [139.250382, 36.395612], [139.25, 36.395682], [139.254871, 36.405957], [139.25576, 36.408006], [139.245608, 36.405551], [139.236088, 36.392752], [139.235558, 36.396846], [139.232096, 36.397599], [139.23415, 36.404704], [139.226376, 36.405536], [139.226545, 36.403797], [139.222095, 36.402756], [139.218567, 36.401932], [139.217182, 36.40056], [139.21611, 36.395304], [139.207058, 36.390779], [139.202974, 36.37522], [139.191632, 36.37294], [139.190127, 36.365461], [139.186545, 36.365045], [139.186979, 36.359842], [139.165779, 36.345036], [139.164084, 36.341751], [139.166488, 36.337582], [139.166522, 36.337524], [139.151175, 36.342191], [139.14168, 36.334503], [139.136179, 36.334343]]]}, "properties": {"N03_001": "群馬県", "N03_002": null, "N03_003": null, "N03_004": "伊勢崎市", "N03_005": null, "N03_007": "10204"}}, {"type": "Feature", "geometry": {"type": "Polygon", "coordinates": [[[139.313654, 36.377577], [139.296731, 36.371748], [139.279608, 36.373237], [139.279233, 36.368955], [139.273082, 36.368685], [139.272893, 36.367578], [139.27165, 36.360302], [139.26716, 36.360961], [139.268949, 36.3526], [139.267293, 36.347605], [139.264589, 36.347548], [139.265554, 36.337537], [139.261758, 36.33035], [139.264167, 36.325367], [139.269048, 36.324207], [139.267489, 36.303209], [139.257713, 36.303064], [139.255762, 36.295036], [139.275864, 36.280086], [139.268755, 36.264685], [139.27165, 36.256459], [139.280249, 36.256649], [139.282814, 36.253321], [139.27419, 36.249614], [139.298482, 36.243275], [139.297025, 36.24187], [139.305467, 36.238381], [139.322266, 36.236595], [139.340249, 36.243864], [139.347302, 36.253651], [139.350995, 36.254374], [139.376452, 36.244627], [139.382919, 36.237869], [139.385271, 36.244577], [139.382443, 36.25254], [139.385912, 36.261193], [139.388448, 36.261246], [139.38846, 36.267334], [139.402529, 36.264545], [139.398656, 36.269552], [139.405963, 36.276451], [139.413904, 36.270889], [139.434886, 36.267669], [139.434806, 36.267926], [139.430631, 36.281288], [139.432204, 36.284804], [139.434152, 36.286952], [139.434786, 36.28765], [139.443649, 36.288361], [139.443533, 36.293694], [139.437105, 36.297009], [139.43551, 36.291984], [139.430487, 36.295584], [139.431445, 36.301237], [139.426715, 36.30395], [139.429163, 36.306178], [139.416733, 36.3137], [139.415459, 36.319122], [139.418199, 36.321417], [139.414837, 36.325186], [139.419047, 36.327078], [139.421714, 36.322472], [139.423178, 36.325328], [139.426709, 36.324707], [139.422793, 36.332256], [139.393456, 36.347754], [139.388017, 36.355047], [139.370346, 36.366082], [139.368809, 36.364944], [139.368937, 36.363564], [139.364779, 36.361962], [139.364161, 36.361724], [139.363805, 36.361587], [139.360594, 36.363477], [139.35888, 36.36432], [139.350704, 36.358526], [139.341481, 36.360532], [139.341409, 36.360605], [139.327564, 36.374569], [139.313654, 36.377577]]]}, "properties": {"N03_001": "群馬県", "N03_002": null, "N03_003": null, "N03_004": "太田市", "N03_005": null, "N03_007": "10205"}}, {"type": "Feature", "geometry": {"type": "Polygon", "coordinates": [[[139.19344, 36.559428], [139.189394, 36.565871], [139.189643, 36.566355], [139.189929, 36.566911], [139.192715, 36.569067], [139.223979, 36.574924], [139.228601, 36.577057], [139.230562, 36.577962], [139.236065, 36.580501], [139.242276, 36.588332], [139.255216, 36.588516], [139.260307, 36.592092], [139.268352, 36.589674], [139.274541, 36.591594], [139.280451, 36.587334], [139.288609, 36.589682], [139.297122, 36.594817], [139.297858, 36.595147], [139.297912, 36.595293], [139.298105, 36.595409], [139.305566, 36.615996], [139.312089, 36.623322], [139.312607, 36.623672], [139.328809, 36.634625], [139.330528, 36.642512], [139.326702, 36.657112], [139.334522, 36.665691], [139.33493, 36.674514], [139.339315, 36.678427], [139.336946, 36.692354], [139.348747, 36.699832], [139.361131, 36.713499], [139.359745, 36.716742], [139.366934, 36.724589], [139.364771, 36.730459], [139.368119, 36.741814], [139.372486, 36.746452], [139.355916, 36.750566], [139.355279, 36.760246], [139.350783, 36.763535], [139.354514, 36.769276], [139.353057, 36.773609], [139.346829, 36.776682], [139.346749, 36.776722], [139.346679, 36.776708], [139.332871, 36.774066], [139.331476, 36.769058], [139.302339, 36.76292], [139.273065, 36.741368], [139.258612, 36.744692], [139.252918, 36.746001], [139.24977, 36.744579], [139.249384, 36.744574], [139.241712, 36.742068], [139.23222, 36.742856], [139.232172, 36.742794], [139.220288, 36.727349], [139.208654, 36.718579], [139.207513, 36.710762], [139.20486, 36.713357], [139.200321, 36.717798], [139.199676, 36.718429], [139.198787, 36.718004], [139.196581, 36.718299], [139.196861, 36.717598], [139.182759, 36.710342], [139.177345, 36.707754], [139.177247, 36.707506], [139.173476, 36.697937], [139.160656, 36.697114], [139.145696, 36.684861], [139.138158, 36.689357], [139.110162, 36.687683], [139.106458, 36.672664], [139.09571, 36.669221], [139.093035, 36.674121], [139.075844, 36.663094], [139.074997, 36.662981], [139.075224, 36.663453], [139.07776, 36.668735], [139.0808, 36.675068], [139.084808, 36.683416], [139.087866, 36.689785], [139.082166, 36.690173], [139.079907, 36.701383], [139.084027, 36.704482], [139.084242, 36.725477], [139.084339, 36.734917], [139.086847, 36.74543], [139.089169, 36.750633], [139.097654, 36.762912], [139.11613, 36.778761], [139.11636, 36.778959], [139.1164, 36.778993], [139.116687, 36.779922], [139.12114, 36.794321], [139.108714, 36.796898], [139.08037, 36.790203], [139.073973, 36.793076], [139.069708, 36.789026], [139.059374, 36.793323], [139.059309, 36.793326], [139.057371, 36.789732], [139.056855, 36.789945], [139.052732, 36.791646], [139.052499, 36.791503], [139.048019, 36.788768], [139.047164, 36.788234], [139.046617, 36.786735], [139.045218, 36.782905], [139.045169, 36.782771], [139.03796, 36.781719], [139.037455, 36.773521], [139.037443, 36.773333], [139.037441, 36.773296], [139.036648, 36.773151], [139.025042, 36.770492], [139.024245, 36.765199], [139.02963, 36.756521], [139.025285, 36.746592], [139.033232, 36.741796], [139.023887, 36.734471], [139.029034, 36.728755], [139.022364, 36.728476], [139.017987, 36.719736], [139.026515, 36.711824], [139.023516, 36.704987], [139.028725, 36.692646], [139.026276, 36.687504], [139.030346, 36.683632], [139.030282, 36.683591], [139.023552, 36.679369], [139.021693, 36.674554], [139.023878, 36.673079], [139.021278, 36.671806], [139.023516, 36.670681], [139.017517, 36.666666], [139.01628, 36.665158], [139.014573, 36.659237], [139.014315, 36.659304], [139.014423, 36.65912], [139.010053, 36.66042], [139.009572, 36.657368], [138.997807, 36.650749], [138.991077, 36.652465], [138.985284, 36.645153], [138.985355, 36.644858], [138.987028, 36.637874], [138.991861, 36.633441], [138.986465, 36.625358], [138.990681, 36.607316], [138.988858, 36.597654], [138.997791, 36.591976], [139.003332, 36.584093], [139.004099, 36.583002], [139.005792, 36.583017], [139.014023, 36.583089], [139.015233, 36.583099], [139.036899, 36.589785], [139.057326, 36.584809], [139.057602, 36.584742], [139.057484, 36.584863], [139.050496, 36.592068], [139.050378, 36.59219], [139.050289, 36.592281], [139.049966, 36.60047], [139.049956, 36.60072], [139.043069, 36.609724], [139.043022, 36.610226], [139.046595, 36.621626], [139.046715, 36.621822], [139.060901, 36.629018], [139.065781, 36.641575], [139.073033, 36.648083], [139.094204, 36.657555], [139.116994, 36.658984], [139.127806, 36.652499], [139.128388, 36.647054], [139.124569, 36.645702], [139.128932, 36.634955], [139.142953, 36.621917], [139.146324, 36.601935], [139.15904, 36.588859], [139.162895, 36.578786], [139.161831, 36.570449], [139.161719, 36.569574], [139.169105, 36.561721], [139.169341, 36.561699], [139.170568, 36.561583], [139.19344, 36.559428]]]}, "properties": {"N03_001": "群馬県", "N03_002": null, "N03_003": null, "N03_004": "沼田市", "N03_005": null, "N03_007": "10206"}}, {"type": "Feature", "geometry": {"type": "Polygon", "coordinates": [[[139.473135, 36.224589], [139.463058, 36.226614], [139.45952, 36.2154], [139.460017, 36.215284], [139.459939, 36.215094], [139.464031, 36.21435], [139.479903, 36.211466], [139.486583, 36.210251], [139.50096, 36.210483], [139.50118, 36.210486], [139.501245, 36.210488], [139.509947, 36.216471], [139.532468, 36.217042], [139.537942, 36.221516], [139.545764, 36.217785], [139.561965, 36.216524], [139.574994, 36.2219], [139.579771, 36.218233], [139.580554, 36.223999], [139.580981, 36.227145], [139.580219, 36.228453], [139.574222, 36.238742], [139.574429, 36.239191], [139.574481, 36.239303], [139.581608, 36.244777], [139.593243, 36.249516], [139.593438, 36.2546], [139.597067, 36.251332], [139.600226, 36.255794], [139.603846, 36.249105], [139.616178, 36.25195], [139.621694, 36.249316], [139.625618, 36.252727], [139.589751, 36.268625], [139.56127, 36.26713], [139.553525, 36.273884], [139.555194, 36.278043], [139.548592, 36.280759], [139.54403, 36.275784], [139.53978, 36.277055], [139.539247, 36.280758], [139.534587, 36.279022], [139.525965, 36.284714], [139.512781, 36.278257], [139.503222, 36.281066], [139.495272, 36.261504], [139.489959, 36.263004], [139.488168, 36.260818], [139.495403, 36.256985], [139.48915, 36.255492], [139.489083, 36.255476], [139.485583, 36.250683], [139.479007, 36.241677], [139.497548, 36.243145], [139.499608, 36.242698], [139.503839, 36.236575], [139.49937, 36.241289], [139.491618, 36.239026], [139.49604, 36.228901], [139.480447, 36.225993], [139.476419, 36.219253], [139.473135, 36.224589]]]}, "properties": {"N03_001": "群馬県", "N03_002": null, "N03_003": null, "N03_004": "館林市", "N03_005": null, "N03_007": "10207"}}, {"type": "Feature", "geometry": {"type": "Polygon", "coordinates": [[[139.169341, 36.561699], [139.169105, 36.561721], [139.161719, 36.569574], [139.161831, 36.570449], [139.156173, 36.57704], [139.156051, 36.577047], [139.132546, 36.578427], [139.132387, 36.578437], [139.127862, 36.576606], [139.1208, 36.57386], [139.109464, 36.580219], [139.095434, 36.578984], [139.073089, 36.586557], [139.076344, 36.58263], [139.076042, 36.581934], [139.070132, 36.579789], [139.063856, 36.587019], [139.057484, 36.584863], [139.057602, 36.584742], [139.057326, 36.584809], [139.036899, 36.589785], [139.015233, 36.583099], [139.014023, 36.583089], [139.005792, 36.583017], [139.004099, 36.583002], [139.003332, 36.584093], [138.997791, 36.591976], [138.989279, 36.588787], [138.966947, 36.580421], [138.966641, 36.580337], [138.947443, 36.585727], [138.946483, 36.585596], [138.944396, 36.58531], [138.940231, 36.584741], [138.937478, 36.581201], [138.937178, 36.581023], [138.934584, 36.585604], [138.931231, 36.586712], [138.930318, 36.587014], [138.928823, 36.587508], [138.926061, 36.586667], [138.920698, 36.58623], [138.916484, 36.58386], [138.916415, 36.583821], [138.902492, 36.586635], [138.896297, 36.582805], [138.897915, 36.575885], [138.90425, 36.573114], [138.901455, 36.569678], [138.904813, 36.567084], [138.896964, 36.562271], [138.897063, 36.562108], [138.901034, 36.555619], [138.909704, 36.555722], [138.913588, 36.549955], [138.926368, 36.551555], [138.936829, 36.546506], [138.944094, 36.550324], [138.952592, 36.546354], [138.945313, 36.544768], [138.941094, 36.530408], [138.929882, 36.523075], [138.92256, 36.513448], [138.917979, 36.514535], [138.893126, 36.50284], [138.880877, 36.483079], [138.880776, 36.482915], [138.878442, 36.482668], [138.881369, 36.480856], [138.883182, 36.479905], [138.883923, 36.480008], [138.895621, 36.48222], [138.89656, 36.481776], [138.896995, 36.481571], [138.89929, 36.480486], [138.900163, 36.474581], [138.907292, 36.474822], [138.911676, 36.470554], [138.915953, 36.46639], [138.920628, 36.466033], [138.921208, 36.465988], [138.922204, 36.465912], [138.929418, 36.469904], [138.930134, 36.4703], [138.93962, 36.471599], [138.949922, 36.471016], [138.960044, 36.47407], [138.993704, 36.460852], [139.006266, 36.463147], [139.008296, 36.460102], [139.014792, 36.460666], [139.018636, 36.450788], [139.024388, 36.448386], [139.024399, 36.448392], [139.028996, 36.451115], [139.027084, 36.460491], [139.040422, 36.455494], [139.040438, 36.455422], [139.039627, 36.449152], [139.039992, 36.450226], [139.049322, 36.455734], [139.053222, 36.4692], [139.062474, 36.474878], [139.076164, 36.494043], [139.100922, 36.516924], [139.114819, 36.520636], [139.118375, 36.525975], [139.135392, 36.534305], [139.151878, 36.554447], [139.162446, 36.555402], [139.169344, 36.561696], [139.169341, 36.561699]]]}, "properties": {"N03_001": "群馬県", "N03_002": null, "N03_003": null, "N03_004": "渋川市", "N03_005": null, "N03_007": "10208"}}, {"type": "Feature", "geometry": {"type": "Polygon", "coordinates": [[[139.109791, 36.282655], [139.101893, 36.287279], [139.096465, 36.288535], [139.096456, 36.288369], [139.096445, 36.288159], [139.081425, 36.290405], [139.057097, 36.285227], [139.056087, 36.272351], [139.049267, 36.269202], [139.040703, 36.270395], [139.032476, 36.260409], [139.032401, 36.260318], [139.032041, 36.2603], [139.022016, 36.257801], [139.02008, 36.254232], [139.020078, 36.25399], [139.021959, 36.254386], [139.024406, 36.254902], [139.024554, 36.254934], [139.024906, 36.253894], [139.026903, 36.24799], [139.027298, 36.246824], [139.016722, 36.232158], [139.018591, 36.222496], [138.997284, 36.223857], [138.991899, 36.216891], [138.983315, 36.215276], [138.981521, 36.206395], [138.975834, 36.201585], [138.966641, 36.2036], [138.952633, 36.198593], [138.943386, 36.199229], [138.9432, 36.198861], [138.936807, 36.199042], [138.929896, 36.195876], [138.912669, 36.192928], [138.911678, 36.192819], [138.911582, 36.192742], [138.911369, 36.192573], [138.904706, 36.187283], [138.902129, 36.180783], [138.884792, 36.168615], [138.872239, 36.168656], [138.862233, 36.168688], [138.861595, 36.16869], [138.84433, 36.16013], [138.826687, 36.157974], [138.824884, 36.156183], [138.823788, 36.152528], [138.819528, 36.150865], [138.810671, 36.142068], [138.810283, 36.141562], [138.810196, 36.141597], [138.810054, 36.141456], [138.82118, 36.144586], [138.838389, 36.142735], [138.858813, 36.147146], [138.864584, 36.151698], [138.87562, 36.140404], [138.900384, 36.146594], [138.911449, 36.149361], [138.919959, 36.151488], [138.959183, 36.14505], [138.963347, 36.132342], [138.958698, 36.12901], [138.960659, 36.124405], [138.96973, 36.124446], [138.977605, 36.116433], [138.985327, 36.115489], [138.993539, 36.124878], [139.001385, 36.125026], [139.006434, 36.129238], [139.004857, 36.133412], [139.015409, 36.134112], [139.019856, 36.131045], [139.02471, 36.1341], [139.02605, 36.130148], [139.033301, 36.126847], [139.042177, 36.128218], [139.042722, 36.148027], [139.048178, 36.152286], [139.062159, 36.152937], [139.063765, 36.15908], [139.058333, 36.164736], [139.056386, 36.18052], [139.064528, 36.18722], [139.063419, 36.196286], [139.080741, 36.213593], [139.111195, 36.258497], [139.104486, 36.260761], [139.103841, 36.260366], [139.103115, 36.261224], [139.099382, 36.265632], [139.104404, 36.269213], [139.104824, 36.270855], [139.09661, 36.277127], [139.108579, 36.280856], [139.109499, 36.282221], [139.109791, 36.282655]]]}, "properties": {"N03_001": "群馬県", "N03_002": null, "N03_003": null, "N03_004": "藤岡市", "N03_005": null, "N03_007": "10209"}}, {"type": "Feature", "geometry": {"type": "Polygon", "coordinates": [[[138.950844, 36.302264], [138.940515, 36.305324], [138.928538, 36.303422], [138.921195, 36.307865], [138.901287, 36.296147], [138.90371, 36.292569], [138.903793, 36.292446], [138.903536, 36.292186], [138.900562, 36.289171], [138.89966, 36.288257], [138.878145, 36.287796], [138.857666, 36.276345], [138.835193, 36.279477], [138.835108, 36.279582], [138.834967, 36.27959], [138.830906, 36.284773], [138.813, 36.293976], [138.777421, 36.302818], [138.756438, 36.303042], [138.756133, 36.303016], [138.740327, 36.293765], [138.740015, 36.289966], [138.74335, 36.28848], [138.744609, 36.288683], [138.752824, 36.284256], [138.753761, 36.283751], [138.753868, 36.283694], [138.752734, 36.267414], [138.770496, 36.251425], [138.770074, 36.246172], [138.77526, 36.243288], [138.775921, 36.24292], [138.783224, 36.227006], [138.79277, 36.226586], [138.795418, 36.226469], [138.815923, 36.232528], [138.818673, 36.237112], [138.840527, 36.238647], [138.841706, 36.232849], [138.84174, 36.23268], [138.831028, 36.221016], [138.831012, 36.220908], [138.830166, 36.209397], [138.833364, 36.196509], [138.828687, 36.182781], [138.831121, 36.178478], [138.8321, 36.178645], [138.838476, 36.179733], [138.843548, 36.183684], [138.845677, 36.185344], [138.848543, 36.187576], [138.850641, 36.195377], [138.857972, 36.198187], [138.858549, 36.20318], [138.877321, 36.204081], [138.877748, 36.204101], [138.880402, 36.213868], [138.877009, 36.217463], [138.881078, 36.224908], [138.900614, 36.226276], [138.906298, 36.246652], [138.90835, 36.247509], [138.909515, 36.241513], [138.918533, 36.245172], [138.921968, 36.260033], [138.930988, 36.260851], [138.9343, 36.265648], [138.940715, 36.267152], [138.945338, 36.26815], [138.938924, 36.268664], [138.939973, 36.274463], [138.937912, 36.274904], [138.937468, 36.274999], [138.948578, 36.284225], [138.948189, 36.299185], [138.949616, 36.30084], [138.950844, 36.302264]]]}, "properties": {"N03_001": "群馬県", "N03_002": null, "N03_003": null, "N03_004": "富岡市", "N03_005": null, "N03_007": "10210"}}, {"type": "Feature", "geometry": {"type": "Polygon", "coordinates": [[[138.950844, 36.302264], [138.953812, 36.305708], [138.945152, 36.324735], [138.936593, 36.333426], [138.950836, 36.334789], [138.950866, 36.334894], [138.93735, 36.339447], [138.939195, 36.341551], [138.934591, 36.349213], [138.925204, 36.352948], [138.915304, 36.350261], [138.886443, 36.365683], [138.862028, 36.374255], [138.843121, 36.370865], [138.828809, 36.374985], [138.823662, 36.373522], [138.819669, 36.377523], [138.778636, 36.390862], [138.751953, 36.406646], [138.720009, 36.414748], [138.713594, 36.41212], [138.70966, 36.408659], [138.705297, 36.40872], [138.702415, 36.40876], [138.70143, 36.408774], [138.687532, 36.414158], [138.682553, 36.415964], [138.648387, 36.407468], [138.648464, 36.399799], [138.652187, 36.395393], [138.649559, 36.379238], [138.65149, 36.373008], [138.657163, 36.368902], [138.650081, 36.352483], [138.64965, 36.338443], [138.653306, 36.32426], [138.647808, 36.314772], [138.653751, 36.307168], [138.653452, 36.303044], [138.658414, 36.300357], [138.654335, 36.295635], [138.657285, 36.286827], [138.665904, 36.282849], [138.674337, 36.288293], [138.681305, 36.279961], [138.681362, 36.279893], [138.694342, 36.287349], [138.695459, 36.283454], [138.705122, 36.279852], [138.705178, 36.279831], [138.713097, 36.286142], [138.71914, 36.284579], [138.74335, 36.28848], [138.740015, 36.289966], [138.740327, 36.293765], [138.756133, 36.303016], [138.756438, 36.303042], [138.777421, 36.302818], [138.813, 36.293976], [138.830906, 36.284773], [138.834967, 36.27959], [138.835108, 36.279582], [138.835193, 36.279477], [138.857666, 36.276345], [138.878145, 36.287796], [138.89966, 36.288257], [138.900562, 36.289171], [138.903536, 36.292186], [138.903793, 36.292446], [138.90371, 36.292569], [138.901287, 36.296147], [138.921195, 36.307865], [138.928538, 36.303422], [138.940515, 36.305324], [138.950844, 36.302264]]]}, "properties": {"N03_001": "群馬県", "N03_002": null, "N03_003": null, "N03_004": "安中市", "N03_005": null, "N03_007": "10211"}}, {"type": "Feature", "geometry": {"type": "Polygon", "coordinates": [[[139.449472, 36.550956], [139.451101, 36.549707], [139.460758, 36.553247], [139.465442, 36.563444], [139.472517, 36.565157], [139.473909, 36.573132], [139.48255, 36.577978], [139.483529, 36.581882], [139.47384, 36.590456], [139.471446, 36.602891], [139.465242, 36.606582], [139.452674, 36.603575], [139.445901, 36.607519], [139.43614, 36.601684], [139.427766, 36.600972], [139.404992, 36.608855], [139.406547, 36.604786], [139.397899, 36.602082], [139.386689, 36.611983], [139.352288, 36.61509], [139.347138, 36.619568], [139.345689, 36.62587], [139.330694, 36.627066], [139.328149, 36.633422], [139.312607, 36.623672], [139.312089, 36.623322], [139.305566, 36.615996], [139.298105, 36.595409], [139.297912, 36.595293], [139.297858, 36.595147], [139.300735, 36.593094], [139.299629, 36.584183], [139.306522, 36.579285], [139.308893, 36.570133], [139.318918, 36.562168], [139.319203, 36.561942], [139.318661, 36.560996], [139.314961, 36.544122], [139.296968, 36.534155], [139.291216, 36.526799], [139.290191, 36.518943], [139.283055, 36.518615], [139.28006, 36.514321], [139.29043, 36.509208], [139.295678, 36.506621], [139.304468, 36.502287], [139.30146, 36.497115], [139.298029, 36.491216], [139.297668, 36.491071], [139.296268, 36.490509], [139.293551, 36.489419], [139.283002, 36.492977], [139.268272, 36.480186], [139.263451, 36.479163], [139.263074, 36.479083], [139.26235, 36.478929], [139.251287, 36.480494], [139.248981, 36.484144], [139.237586, 36.482521], [139.231801, 36.486581], [139.236348, 36.475318], [139.239573, 36.47457], [139.236366, 36.468898], [139.247035, 36.461807], [139.253741, 36.461017], [139.258307, 36.454127], [139.264403, 36.451845], [139.264644, 36.440149], [139.260188, 36.437838], [139.267875, 36.430596], [139.266885, 36.426475], [139.270748, 36.424998], [139.273804, 36.413493], [139.273844, 36.413341], [139.273961, 36.412901], [139.271319, 36.41325], [139.264632, 36.413009], [139.262664, 36.412237], [139.255755, 36.407822], [139.254871, 36.405957], [139.25, 36.395682], [139.250382, 36.395612], [139.267641, 36.392446], [139.267639, 36.39242], [139.267598, 36.391776], [139.266689, 36.377668], [139.266635, 36.376822], [139.2692, 36.373584], [139.273082, 36.368685], [139.279233, 36.368955], [139.279608, 36.373237], [139.296731, 36.371748], [139.313654, 36.377577], [139.313713, 36.378208], [139.315466, 36.396791], [139.292497, 36.40921], [139.286012, 36.409624], [139.284744, 36.413514], [139.28453, 36.414172], [139.28813, 36.412668], [139.286998, 36.416274], [139.29028, 36.413455], [139.288861, 36.417753], [139.290782, 36.414654], [139.29059, 36.41814], [139.29506, 36.417377], [139.283839, 36.428351], [139.292041, 36.431367], [139.290303, 36.435585], [139.294294, 36.445714], [139.300675, 36.447407], [139.304883, 36.459838], [139.317957, 36.462859], [139.322156, 36.467172], [139.320282, 36.471346], [139.331562, 36.478994], [139.33473, 36.491739], [139.358851, 36.500181], [139.358421, 36.502745], [139.357651, 36.507345], [139.357609, 36.507592], [139.35959, 36.510214], [139.362432, 36.513974], [139.362662, 36.514278], [139.375495, 36.514907], [139.378128, 36.5211], [139.384705, 36.519745], [139.386469, 36.524969], [139.40175, 36.523821], [139.407835, 36.52652], [139.415556, 36.539211], [139.429931, 36.553298], [139.433172, 36.554311], [139.438395, 36.555944], [139.440685, 36.55666], [139.44178, 36.556053], [139.445566, 36.553952], [139.450898, 36.550993], [139.449472, 36.550956]]]}, "properties": {"N03_001": "群馬県", "N03_002": null, "N03_003": null, "N03_004": "みどり市", "N03_005": null, "N03_007": "10212"}}, {"type": "Feature", "geometry": {"type": "Polygon", "coordinates": [[[139.003607, 36.428278], [139.001948, 36.428959], [139.001902, 36.429881], [138.990161, 36.433795], [138.993206, 36.446189], [138.994234, 36.450373], [138.992799, 36.451061], [138.976203, 36.459032], [138.96669, 36.458439], [138.968248, 36.454659], [138.963972, 36.455017], [138.936866, 36.463715], [138.929418, 36.469904], [138.922204, 36.465912], [138.921208, 36.465988], [138.920628, 36.466033], [138.915953, 36.46639], [138.911676, 36.470554], [138.909351, 36.471728], [138.904731, 36.464426], [138.89996, 36.463718], [138.901924, 36.457785], [138.924881, 36.448009], [138.95058, 36.426756], [138.958325, 36.426925], [138.958359, 36.426869], [138.960138, 36.423961], [138.957016, 36.418759], [138.962862, 36.41213], [138.966248, 36.418813], [138.967882, 36.417683], [138.972217, 36.414686], [138.974585, 36.413049], [138.975528, 36.41286], [138.978595, 36.416065], [138.981647, 36.413394], [138.982018, 36.418049], [138.985984, 36.416671], [138.988337, 36.420581], [138.987986, 36.424416], [138.983158, 36.426449], [139.002425, 36.419463], [139.002255, 36.422848], [139.00192, 36.425144], [139.002121, 36.425518], [139.003607, 36.428278]]]}, "properties": {"N03_001": "群馬県", "N03_002": null, "N03_003": "北群馬郡", "N03_004": "榛東村", "N03_005": null, "N03_007": "10344"}}, {"type": "Feature", "geometry": {"type": "Polygon", "coordinates": [[[139.039627, 36.449152], [139.040438, 36.455422], [139.040422, 36.455494], [139.027084, 36.460491], [139.028996, 36.451115], [139.024399, 36.448392], [139.024388, 36.448386], [139.018636, 36.450788], [139.014792, 36.460666], [139.008296, 36.460102], [139.006266, 36.463147], [138.993704, 36.460852], [138.960044, 36.47407], [138.949922, 36.471016], [138.93962, 36.471599], [138.930134, 36.4703], [138.929418, 36.469904], [138.936866, 36.463715], [138.963972, 36.455017], [138.968248, 36.454659], [138.96669, 36.458439], [138.976203, 36.459032], [138.992799, 36.451061], [138.994234, 36.450373], [138.993206, 36.446189], [138.990161, 36.433795], [139.001902, 36.429881], [139.001948, 36.428959], [139.003607, 36.428278], [139.006021, 36.432764], [139.003895, 36.434956], [139.012537, 36.432722], [139.012571, 36.432713], [139.012651, 36.4326], [139.023472, 36.417184], [139.030645, 36.420618], [139.030208, 36.430294], [139.035472, 36.423037], [139.033911, 36.432332], [139.039627, 36.449152]]]}, "properties": {"N03_001": "群馬県", "N03_002": null, "N03_003": "北群馬郡", "N03_004": "吉岡町", "N03_005": null, "N03_007": "10345"}}, {"type": "Feature", "geometry": {"type": "Polygon", "coordinates": [[[138.667467, 36.11782], [138.65952, 36.11796], [138.645098, 36.119632], [138.645054, 36.119611], [138.640181, 36.11735], [138.647549, 36.105921], [138.645183, 36.098807], [138.637283, 36.097121], [138.630626, 36.091328], [138.630339, 36.086363], [138.642815, 36.068742], [138.644191, 36.049689], [138.631965, 36.027054], [138.641893, 36.025847], [138.646038, 36.019928], [138.661332, 36.016427], [138.661988, 36.011504], [138.679584, 36.011714], [138.688695, 35.991775], [138.701167, 35.988011], [138.71255, 35.985333], [138.716809, 35.992904], [138.726065, 35.994477], [138.734039, 35.999865], [138.736537, 36.006317], [138.749185, 36.016722], [138.754411, 36.034526], [138.773548, 36.038793], [138.790976, 36.0294], [138.828395, 36.037303], [138.829112, 36.041313], [138.82828, 36.042436], [138.81229, 36.064029], [138.818154, 36.078618], [138.80536, 36.083285], [138.80026, 36.090608], [138.799501, 36.097863], [138.787654, 36.101251], [138.781307, 36.103067], [138.781193, 36.1032], [138.779863, 36.123255], [138.771768, 36.124964], [138.771441, 36.132664], [138.769009, 36.131263], [138.767028, 36.130123], [138.757066, 36.129114], [138.742809, 36.119175], [138.742288, 36.118943], [138.737867, 36.123759], [138.737529, 36.123845], [138.736579, 36.124085], [138.72931, 36.125923], [138.719924, 36.126727], [138.719502, 36.126763], [138.719333, 36.126777], [138.706334, 36.122158], [138.6876, 36.127986], [138.667467, 36.11782]]]}, "properties": {"N03_001": "群馬県", "N03_002": null, "N03_003": "多野郡", "N03_004": "上野村", "N03_005": null, "N03_007": "10366"}}, {"type": "Feature", "geometry": {"type": "Polygon", "coordinates": [[[138.810196, 36.141597], [138.806579, 36.14303], [138.805898, 36.1433], [138.807594, 36.140723], [138.803372, 36.137768], [138.780563, 36.138479], [138.774977, 36.138653], [138.773662, 36.139972], [138.772424, 36.141215], [138.767498, 36.146157], [138.767371, 36.147261], [138.766346, 36.156217], [138.766101, 36.158353], [138.764812, 36.160407], [138.764759, 36.159036], [138.765236, 36.15829], [138.764194, 36.144518], [138.764148, 36.143325], [138.767894, 36.140466], [138.772956, 36.136602], [138.772985, 36.13658], [138.772949, 36.136532], [138.769009, 36.131263], [138.771441, 36.132664], [138.771768, 36.124964], [138.779863, 36.123255], [138.781193, 36.1032], [138.781307, 36.103067], [138.787654, 36.101251], [138.799501, 36.097863], [138.80026, 36.090608], [138.80536, 36.083285], [138.818154, 36.078618], [138.81229, 36.064029], [138.82828, 36.042436], [138.842939, 36.055958], [138.846037, 36.066625], [138.859177, 36.069919], [138.864333, 36.077086], [138.880515, 36.083333], [138.902464, 36.091625], [138.910745, 36.090752], [138.916314, 36.093749], [138.931491, 36.088103], [138.945069, 36.094596], [138.957905, 36.107641], [138.958698, 36.12901], [138.963347, 36.132342], [138.959183, 36.14505], [138.919959, 36.151488], [138.911449, 36.149361], [138.900384, 36.146594], [138.87562, 36.140404], [138.864584, 36.151698], [138.858813, 36.147146], [138.838389, 36.142735], [138.82118, 36.144586], [138.810054, 36.141456], [138.810196, 36.141597]]]}, "properties": {"N03_001": "群馬県", "N03_002": null, "N03_003": "多野郡", "N03_004": "神流町", "N03_005": null, "N03_007": "10367"}}, {"type": "Feature", "geometry": {"type": "Polygon", "coordinates": [[[138.810196, 36.141597], [138.810283, 36.141562], [138.810671, 36.142068], [138.819528, 36.150865], [138.823788, 36.152528], [138.824884, 36.156183], [138.826544, 36.161723], [138.828014, 36.166631], [138.826665, 36.17002], [138.830648, 36.172869], [138.831122, 36.178215], [138.831142, 36.17844], [138.831121, 36.178478], [138.828687, 36.182781], [138.833364, 36.196509], [138.830166, 36.209397], [138.831012, 36.220908], [138.831028, 36.221016], [138.84174, 36.23268], [138.841706, 36.232849], [138.840527, 36.238647], [138.818673, 36.237112], [138.815923, 36.232528], [138.795418, 36.226469], [138.79277, 36.226586], [138.783224, 36.227006], [138.775921, 36.24292], [138.77526, 36.243288], [138.770074, 36.246172], [138.770496, 36.251425], [138.752734, 36.267414], [138.753868, 36.283694], [138.753761, 36.283751], [138.752824, 36.284256], [138.744609, 36.288683], [138.74335, 36.28848], [138.71914, 36.284579], [138.713097, 36.286142], [138.705178, 36.279831], [138.705122, 36.279852], [138.695459, 36.283454], [138.694342, 36.287349], [138.681362, 36.279893], [138.681305, 36.279961], [138.674337, 36.288293], [138.665904, 36.282849], [138.657285, 36.286827], [138.654335, 36.295635], [138.658414, 36.300357], [138.653452, 36.303044], [138.644504, 36.293256], [138.612509, 36.285655], [138.607179, 36.279596], [138.600336, 36.2784], [138.605952, 36.266795], [138.602118, 36.249053], [138.612497, 36.240918], [138.611762, 36.229503], [138.622245, 36.214586], [138.633031, 36.216316], [138.634563, 36.208292], [138.641653, 36.199057], [138.641877, 36.198766], [138.641944, 36.198779], [138.660874, 36.202456], [138.664616, 36.198665], [138.67122, 36.197258], [138.674934, 36.199712], [138.681621, 36.196455], [138.690339, 36.203098], [138.690789, 36.210503], [138.707975, 36.214597], [138.70814, 36.214544], [138.735795, 36.20148], [138.736577, 36.201045], [138.737497, 36.191747], [138.74911, 36.194884], [138.753719, 36.18903], [138.762337, 36.190288], [138.758728, 36.179799], [138.75875, 36.179764], [138.758728, 36.179698], [138.765297, 36.168735], [138.763097, 36.16442], [138.762305, 36.162867], [138.762184, 36.162629], [138.762724, 36.162214], [138.764759, 36.159036], [138.764812, 36.160407], [138.766101, 36.158353], [138.766346, 36.156217], [138.767371, 36.147261], [138.767498, 36.146157], [138.772424, 36.141215], [138.773662, 36.139972], [138.774977, 36.138653], [138.780563, 36.138479], [138.803372, 36.137768], [138.807594, 36.140723], [138.805898, 36.1433], [138.806579, 36.14303], [138.810196, 36.141597]]]}, "properties": {"N03_001": "群馬県", "N03_002": null, "N03_003": "甘楽郡", "N03_004": "下仁田町", "N03_005": null, "N03_007": "10382"}}, {"type": "Feature", "geometry": {"type": "Polygon", "coordinates": [[[138.769009, 36.131263], [138.772949, 36.136532], [138.772985, 36.13658], [138.772956, 36.136602], [138.767894, 36.140466], [138.764148, 36.143325], [138.764194, 36.144518], [138.765236, 36.15829], [138.764759, 36.159036], [138.762724, 36.162214], [138.762184, 36.162629], [138.762305, 36.162867], [138.763097, 36.16442], [138.765297, 36.168735], [138.758728, 36.179698], [138.75875, 36.179764], [138.758728, 36.179799], [138.762337, 36.190288], [138.753719, 36.18903], [138.74911, 36.194884], [138.737497, 36.191747], [138.736577, 36.201045], [138.735795, 36.20148], [138.70814, 36.214544], [138.707975, 36.214597], [138.690789, 36.210503], [138.690339, 36.203098], [138.681621, 36.196455], [138.674934, 36.199712], [138.67122, 36.197258], [138.664616, 36.198665], [138.660874, 36.202456], [138.641944, 36.198779], [138.641877, 36.198766], [138.641653, 36.199057], [138.634803, 36.205597], [138.630413, 36.203504], [138.622797, 36.196928], [138.629454, 36.183311], [138.635896, 36.17726], [138.636069, 36.171257], [138.630908, 36.172782], [138.613167, 36.168732], [138.608452, 36.165386], [138.609665, 36.16142], [138.59266, 36.166985], [138.588225, 36.172863], [138.589313, 36.179002], [138.581447, 36.17764], [138.577275, 36.168073], [138.580654, 36.161942], [138.587556, 36.160775], [138.593241, 36.153227], [138.594298, 36.144194], [138.600768, 36.135512], [138.622479, 36.131932], [138.634324, 36.133947], [138.637569, 36.123833], [138.645054, 36.119611], [138.645098, 36.119632], [138.65952, 36.11796], [138.667467, 36.11782], [138.6876, 36.127986], [138.706334, 36.122158], [138.719333, 36.126777], [138.719502, 36.126763], [138.719924, 36.126727], [138.72931, 36.125923], [138.736579, 36.124085], [138.737529, 36.123845], [138.737867, 36.123759], [138.742288, 36.118943], [138.742809, 36.119175], [138.757066, 36.129114], [138.767028, 36.130123], [138.769009, 36.131263]]]}, "properties": {"N03_001": "群馬県", "N03_002": null, "N03_003": "甘楽郡", "N03_004": "南牧村", "N03_005": null, "N03_007": "10383"}}, {"type": "Feature", "geometry": {"type": "Polygon", "coordinates": [[[138.945338, 36.26815], [138.940715, 36.267152], [138.9343, 36.265648], [138.930988, 36.260851], [138.921968, 36.260033], [138.918533, 36.245172], [138.909515, 36.241513], [138.90835, 36.247509], [138.906298, 36.246652], [138.900614, 36.226276], [138.881078, 36.224908], [138.877009, 36.217463], [138.880402, 36.213868], [138.877748, 36.204101], [138.877321, 36.204081], [138.858549, 36.20318], [138.857972, 36.198187], [138.850641, 36.195377], [138.848543, 36.187576], [138.845677, 36.185344], [138.843548, 36.183684], [138.838476, 36.179733], [138.8321, 36.178645], [138.831121, 36.178478], [138.831142, 36.17844], [138.831122, 36.178215], [138.830648, 36.172869], [138.826665, 36.17002], [138.828014, 36.166631], [138.826544, 36.161723], [138.824884, 36.156183], [138.826687, 36.157974], [138.84433, 36.16013], [138.861595, 36.16869], [138.862233, 36.168688], [138.872239, 36.168656], [138.884792, 36.168615], [138.902129, 36.180783], [138.904706, 36.187283], [138.911369, 36.192573], [138.911582, 36.192742], [138.911678, 36.192819], [138.912669, 36.192928], [138.929896, 36.195876], [138.936807, 36.199042], [138.9432, 36.198861], [138.943386, 36.199229], [138.942923, 36.199261], [138.953018, 36.218286], [138.962951, 36.223248], [138.95835, 36.228887], [138.960611, 36.23406], [138.953401, 36.247197], [138.956207, 36.253078], [138.957703, 36.256214], [138.957299, 36.257483], [138.954846, 36.25982], [138.951294, 36.256592], [138.952455, 36.26299], [138.948001, 36.263737], [138.945614, 36.268127], [138.945338, 36.26815]]]}, "properties": {"N03_001": "群馬県", "N03_002": null, "N03_003": "甘楽郡", "N03_004": "甘楽町", "N03_005": null, "N03_007": "10384"}}, {"type": "Feature", "geometry": {"type": "Polygon", "coordinates": [[[138.920698, 36.58623], [138.905559, 36.605561], [138.892782, 36.612383], [138.893702, 36.620337], [138.888007, 36.640154], [138.888353, 36.650353], [138.893052, 36.656933], [138.893203, 36.657144], [138.884655, 36.659739], [138.876248, 36.661919], [138.875856, 36.662409], [138.871389, 36.66801], [138.838218, 36.662958], [138.820744, 36.664731], [138.824728, 36.702473], [138.813167, 36.714418], [138.80294, 36.718774], [138.797482, 36.734843], [138.78942, 36.744874], [138.767349, 36.746516], [138.748179, 36.757777], [138.727027, 36.764169], [138.72139, 36.759236], [138.721874, 36.74969], [138.715776, 36.74575], [138.712401, 36.738757], [138.684704, 36.736422], [138.676159, 36.730601], [138.648925, 36.72712], [138.630331, 36.71951], [138.622578, 36.720508], [138.610862, 36.706381], [138.595729, 36.714536], [138.584056, 36.701198], [138.574769, 36.707234], [138.559777, 36.707038], [138.543639, 36.703835], [138.537085, 36.69713], [138.52813, 36.696882], [138.514069, 36.690481], [138.519899, 36.689194], [138.518272, 36.676209], [138.526127, 36.668687], [138.534617, 36.665638], [138.525113, 36.65126], [138.536695, 36.656324], [138.555849, 36.65431], [138.565741, 36.64782], [138.568655, 36.642195], [138.587796, 36.639881], [138.601034, 36.643681], [138.613092, 36.639123], [138.624186, 36.629424], [138.630255, 36.613827], [138.618463, 36.603189], [138.616202, 36.606475], [138.608036, 36.599056], [138.59394, 36.598954], [138.593857, 36.598571], [138.593594, 36.597359], [138.592973, 36.594495], [138.596045, 36.585936], [138.596783, 36.582496], [138.594385, 36.581749], [138.615676, 36.572727], [138.616462, 36.572346], [138.618578, 36.564432], [138.628595, 36.561266], [138.632159, 36.559195], [138.632806, 36.558819], [138.640629, 36.561237], [138.642247, 36.562589], [138.64816, 36.56753], [138.65132, 36.570171], [138.652032, 36.570766], [138.676112, 36.570185], [138.678135, 36.570137], [138.681643, 36.574939], [138.682859, 36.576605], [138.684495, 36.578844], [138.684041, 36.579485], [138.67406, 36.593577], [138.678262, 36.597857], [138.682384, 36.594951], [138.68157, 36.592351], [138.689779, 36.591427], [138.698406, 36.595181], [138.71704, 36.59009], [138.725344, 36.592506], [138.73085, 36.597938], [138.737799, 36.598579], [138.739175, 36.595238], [138.745691, 36.595118], [138.779486, 36.575845], [138.779732, 36.575705], [138.795488, 36.582246], [138.803265, 36.578466], [138.806233, 36.585958], [138.814197, 36.583917], [138.820553, 36.587158], [138.835946, 36.580551], [138.839829, 36.582874], [138.853854, 36.579072], [138.863306, 36.581083], [138.864139, 36.580572], [138.875005, 36.572805], [138.880709, 36.567563], [138.881055, 36.56697], [138.881517, 36.566819], [138.882853, 36.566385], [138.896459, 36.561961], [138.896964, 36.562271], [138.904813, 36.567084], [138.901455, 36.569678], [138.90425, 36.573114], [138.897915, 36.575885], [138.896297, 36.582805], [138.902492, 36.586635], [138.916415, 36.583821], [138.916484, 36.58386], [138.920698, 36.58623]]]}, "properties": {"N03_001": "群馬県", "N03_002": null, "N03_003": "吾妻郡", "N03_004": "中之条町", "N03_005": null, "N03_007": "10421"}}, {"type": "Feature", "geometry": {"type": "Polygon", "coordinates": [[[138.655196, 36.451709], [138.648109, 36.459381], [138.647396, 36.466264], [138.63999, 36.469792], [138.640275, 36.470652], [138.644662, 36.483915], [138.639986, 36.489396], [138.639824, 36.5046], [138.647528, 36.518391], [138.648328, 36.519824], [138.648941, 36.519725], [138.658846, 36.518133], [138.658985, 36.518276], [138.66266, 36.522039], [138.664236, 36.523653], [138.664266, 36.523683], [138.681418, 36.519906], [138.682378, 36.523252], [138.687226, 36.523741], [138.700263, 36.534879], [138.713544, 36.534414], [138.722246, 36.54356], [138.713859, 36.567133], [138.691874, 36.568181], [138.681922, 36.57432], [138.682063, 36.574662], [138.681643, 36.574939], [138.678135, 36.570137], [138.676112, 36.570185], [138.652032, 36.570766], [138.65132, 36.570171], [138.64816, 36.56753], [138.642247, 36.562589], [138.640629, 36.561237], [138.632806, 36.558819], [138.632159, 36.559195], [138.628595, 36.561266], [138.618578, 36.564432], [138.616462, 36.572346], [138.615676, 36.572727], [138.594385, 36.581749], [138.593892, 36.581958], [138.586333, 36.579241], [138.584558, 36.578603], [138.584453, 36.578565], [138.581858, 36.56993], [138.58223, 36.569592], [138.583665, 36.568665], [138.587317, 36.566305], [138.588853, 36.563561], [138.591322, 36.55915], [138.596568, 36.549778], [138.591849, 36.544207], [138.596028, 36.528086], [138.587203, 36.521318], [138.586343, 36.522265], [138.572164, 36.537875], [138.572098, 36.537821], [138.562673, 36.5301], [138.565095, 36.509204], [138.573648, 36.496513], [138.57484, 36.48899], [138.569335, 36.477687], [138.569041, 36.455378], [138.580779, 36.456041], [138.580623, 36.450581], [138.571911, 36.430931], [138.570939, 36.419564], [138.599221, 36.424163], [138.613, 36.422622], [138.624752, 36.415716], [138.637151, 36.417216], [138.644369, 36.411844], [138.644475, 36.412334], [138.643826, 36.413141], [138.647189, 36.42481], [138.642628, 36.437942], [138.642584, 36.438068], [138.646412, 36.442087], [138.655196, 36.451709]]]}, "properties": {"N03_001": "群馬県", "N03_002": null, "N03_003": "吾妻郡", "N03_004": "長野原町", "N03_005": null, "N03_007": "10424"}}, {"type": "Feature", "geometry": {"type": "Polygon", "coordinates": [[[138.58223, 36.569592], [138.562109, 36.582593], [138.561278, 36.583566], [138.559311, 36.592567], [138.541266, 36.599004], [138.538853, 36.609918], [138.527725, 36.618919], [138.534357, 36.621626], [138.538912, 36.63338], [138.527575, 36.639944], [138.525113, 36.65126], [138.490082, 36.641196], [138.481209, 36.645248], [138.473097, 36.644048], [138.467065, 36.637208], [138.458598, 36.634379], [138.460576, 36.626472], [138.454974, 36.613851], [138.450336, 36.610677], [138.441583, 36.610669], [138.438943, 36.605576], [138.441297, 36.599689], [138.431984, 36.599281], [138.426596, 36.594528], [138.42703, 36.587752], [138.420295, 36.573965], [138.428429, 36.568696], [138.426162, 36.560394], [138.428841, 36.556225], [138.418095, 36.543338], [138.412389, 36.541486], [138.412797, 36.529329], [138.403927, 36.521285], [138.406032, 36.507364], [138.397026, 36.489528], [138.403349, 36.46687], [138.398698, 36.453156], [138.403461, 36.452048], [138.400789, 36.435009], [138.44697, 36.419315], [138.456965, 36.42024], [138.457715, 36.411574], [138.461173, 36.407741], [138.45965, 36.40475], [138.477868, 36.40445], [138.488957, 36.400934], [138.491823, 36.413076], [138.505164, 36.41487], [138.529347, 36.403043], [138.540315, 36.402729], [138.555008, 36.417774], [138.570939, 36.419564], [138.571911, 36.430931], [138.580623, 36.450581], [138.580779, 36.456041], [138.569041, 36.455378], [138.569335, 36.477687], [138.57484, 36.48899], [138.573648, 36.496513], [138.565095, 36.509204], [138.562673, 36.5301], [138.572098, 36.537821], [138.572164, 36.537875], [138.586343, 36.522265], [138.587203, 36.521318], [138.596028, 36.528086], [138.591849, 36.544207], [138.596568, 36.549778], [138.591322, 36.55915], [138.588853, 36.563561], [138.587317, 36.566305], [138.583665, 36.568665], [138.58223, 36.569592]]]}, "properties": {"N03_001": "群馬県", "N03_002": null, "N03_003": "吾妻郡", "N03_004": "嬬恋村", "N03_005": null, "N03_007": "10425"}}, {"type": "Feature", "geometry": {"type": "Polygon", "coordinates": [[[138.525113, 36.65126], [138.527575, 36.639944], [138.538912, 36.63338], [138.534357, 36.621626], [138.527725, 36.618919], [138.538853, 36.609918], [138.541266, 36.599004], [138.559311, 36.592567], [138.561278, 36.583566], [138.562109, 36.582593], [138.58223, 36.569592], [138.581858, 36.56993], [138.584453, 36.578565], [138.584558, 36.578603], [138.586333, 36.579241], [138.593892, 36.581958], [138.594385, 36.581749], [138.596783, 36.582496], [138.596045, 36.585936], [138.592973, 36.594495], [138.593594, 36.597359], [138.593857, 36.598571], [138.59394, 36.598954], [138.608036, 36.599056], [138.616202, 36.606475], [138.618463, 36.603189], [138.630255, 36.613827], [138.624186, 36.629424], [138.613092, 36.639123], [138.601034, 36.643681], [138.587796, 36.639881], [138.568655, 36.642195], [138.565741, 36.64782], [138.555849, 36.65431], [138.536695, 36.656324], [138.525113, 36.65126]]]}, "properties": {"N03_001": "群馬県", "N03_002": null, "N03_003": "吾妻郡", "N03_004": "草津町", "N03_005": null, "N03_007": "10426"}}, {"type": "Feature", "geometry": {"type": "Polygon", "coordinates": [[[138.985355, 36.644858], [138.984972, 36.644915], [138.984714, 36.644596], [138.970095, 36.647137], [138.968675, 36.654742], [138.952154, 36.653643], [138.931476, 36.662294], [138.923615, 36.656543], [138.910376, 36.660171], [138.909465, 36.66], [138.897651, 36.656369], [138.894462, 36.657196], [138.893052, 36.656933], [138.888353, 36.650353], [138.888007, 36.640154], [138.893702, 36.620337], [138.892782, 36.612383], [138.905559, 36.605561], [138.920698, 36.58623], [138.926061, 36.586667], [138.928823, 36.587508], [138.930318, 36.587014], [138.931231, 36.586712], [138.934584, 36.585604], [138.937178, 36.581023], [138.937478, 36.581201], [138.940231, 36.584741], [138.944396, 36.58531], [138.946483, 36.585596], [138.947443, 36.585727], [138.966641, 36.580337], [138.966947, 36.580421], [138.989279, 36.588787], [138.997791, 36.591976], [138.988858, 36.597654], [138.990681, 36.607316], [138.986465, 36.625358], [138.991861, 36.633441], [138.987028, 36.637874], [138.985355, 36.644858]]]}, "properties": {"N03_001": "群馬県", "N03_002": null, "N03_003": "吾妻郡", "N03_004": "高山村", "N03_005": null, "N03_007": "10428"}}, {"type": "Feature", "geometry": {"type": "Polygon", "coordinates": [[[138.878442, 36.482668], [138.880776, 36.482915], [138.880877, 36.483079], [138.893126, 36.50284], [138.917979, 36.514535], [138.92256, 36.513448], [138.929882, 36.523075], [138.941094, 36.530408], [138.945313, 36.544768], [138.952592, 36.546354], [138.944094, 36.550324], [138.936829, 36.546506], [138.926368, 36.551555], [138.913588, 36.549955], [138.909704, 36.555722], [138.901034, 36.555619], [138.897063, 36.562108], [138.896964, 36.562271], [138.896459, 36.561961], [138.882853, 36.566385], [138.881517, 36.566819], [138.881055, 36.56697], [138.880709, 36.567563], [138.875005, 36.572805], [138.864139, 36.580572], [138.863306, 36.581083], [138.853854, 36.579072], [138.839829, 36.582874], [138.835946, 36.580551], [138.820553, 36.587158], [138.814197, 36.583917], [138.806233, 36.585958], [138.803265, 36.578466], [138.795488, 36.582246], [138.779732, 36.575705], [138.779486, 36.575845], [138.745691, 36.595118], [138.739175, 36.595238], [138.737799, 36.598579], [138.73085, 36.597938], [138.725344, 36.592506], [138.71704, 36.59009], [138.698406, 36.595181], [138.689779, 36.591427], [138.68157, 36.592351], [138.682384, 36.594951], [138.678262, 36.597857], [138.67406, 36.593577], [138.684041, 36.579485], [138.684495, 36.578844], [138.682859, 36.576605], [138.681643, 36.574939], [138.682063, 36.574662], [138.681922, 36.57432], [138.691874, 36.568181], [138.713859, 36.567133], [138.722246, 36.54356], [138.713544, 36.534414], [138.700263, 36.534879], [138.687226, 36.523741], [138.682378, 36.523252], [138.681418, 36.519906], [138.664266, 36.523683], [138.664236, 36.523653], [138.66266, 36.522039], [138.658985, 36.518276], [138.658846, 36.518133], [138.648941, 36.519725], [138.648328, 36.519824], [138.647528, 36.518391], [138.639824, 36.5046], [138.639986, 36.489396], [138.644662, 36.483915], [138.640275, 36.470652], [138.63999, 36.469792], [138.647396, 36.466264], [138.648109, 36.459381], [138.655196, 36.451709], [138.655721, 36.451858], [138.657669, 36.453903], [138.662065, 36.453665], [138.670371, 36.462597], [138.670401, 36.462629], [138.681779, 36.465372], [138.687256, 36.473556], [138.687326, 36.473552], [138.697673, 36.47304], [138.711967, 36.479727], [138.714371, 36.480852], [138.722166, 36.482135], [138.722829, 36.482244], [138.723002, 36.482272], [138.723727, 36.481834], [138.733636, 36.477315], [138.737542, 36.476922], [138.754488, 36.477381], [138.760186, 36.478902], [138.775655, 36.477953], [138.773795, 36.46497], [138.780794, 36.468645], [138.780022, 36.473419], [138.791589, 36.476759], [138.791674, 36.47675], [138.826786, 36.473011], [138.850747, 36.477181], [138.860564, 36.473458], [138.866213, 36.481374], [138.866283, 36.481474], [138.876955, 36.483172], [138.878004, 36.482622], [138.878442, 36.482668]]]}, "properties": {"N03_001": "群馬県", "N03_002": null, "N03_003": "吾妻郡", "N03_004": "東吾妻町", "N03_005": null, "N03_007": "10429"}}, {"type": "Feature", "geometry": {"type": "Polygon", "coordinates": [[[139.346829, 36.776682], [139.358839, 36.774558], [139.362365, 36.780828], [139.37646, 36.786366], [139.377648, 36.80426], [139.388612, 36.805268], [139.393702, 36.809679], [139.391073, 36.814433], [139.402981, 36.822802], [139.406296, 36.829622], [139.397756, 36.834617], [139.39092, 36.832656], [139.366358, 36.841242], [139.363825, 36.847315], [139.352829, 36.848981], [139.348526, 36.85274], [139.355681, 36.858541], [139.358206, 36.87221], [139.356147, 36.877814], [139.360956, 36.874164], [139.36241, 36.877514], [139.370234, 36.878231], [139.370195, 36.888243], [139.373881, 36.893967], [139.393903, 36.903279], [139.39559, 36.906867], [139.393289, 36.910796], [139.383302, 36.911403], [139.373132, 36.918394], [139.349346, 36.913058], [139.350015, 36.918364], [139.342387, 36.927533], [139.33316, 36.924559], [139.304455, 36.925824], [139.2944, 36.934664], [139.281711, 36.931147], [139.266135, 36.941154], [139.254895, 36.932421], [139.240847, 36.929321], [139.238878, 36.934189], [139.234693, 36.934352], [139.23497, 36.937373], [139.229812, 36.938272], [139.237953, 36.946571], [139.228715, 36.961198], [139.205791, 36.955874], [139.193519, 36.961047], [139.186215, 36.960006], [139.180184, 36.964396], [139.167024, 36.951722], [139.16625, 36.935784], [139.173244, 36.928029], [139.176159, 36.916246], [139.171379, 36.900284], [139.173325, 36.890925], [139.158013, 36.879745], [139.153244, 36.871973], [139.156814, 36.862735], [139.165355, 36.865486], [139.195429, 36.856048], [139.193703, 36.850371], [139.198153, 36.841287], [139.189827, 36.835366], [139.176102, 36.836717], [139.174956, 36.833098], [139.158931, 36.824312], [139.159088, 36.814994], [139.151276, 36.807907], [139.141516, 36.803886], [139.140272, 36.804051], [139.1391, 36.80364], [139.144201, 36.791742], [139.154424, 36.785675], [139.161938, 36.775787], [139.158166, 36.766683], [139.158934, 36.7582], [139.152795, 36.753765], [139.152791, 36.753744], [139.152781, 36.753686], [139.151689, 36.747435], [139.15276, 36.746263], [139.158261, 36.740248], [139.158422, 36.740071], [139.158457, 36.740088], [139.159763, 36.740717], [139.16741, 36.7444], [139.174088, 36.742876], [139.175673, 36.742478], [139.183186, 36.734591], [139.194974, 36.73332], [139.193359, 36.731426], [139.191959, 36.730158], [139.192131, 36.729986], [139.191986, 36.729815], [139.193875, 36.72508], [139.193109, 36.722304], [139.195537, 36.71844], [139.196581, 36.718299], [139.198787, 36.718004], [139.199676, 36.718429], [139.200321, 36.717798], [139.20486, 36.713357], [139.207513, 36.710762], [139.208654, 36.718579], [139.220288, 36.727349], [139.232172, 36.742794], [139.23222, 36.742856], [139.241712, 36.742068], [139.249384, 36.744574], [139.24977, 36.744579], [139.252918, 36.746001], [139.258612, 36.744692], [139.273065, 36.741368], [139.302339, 36.76292], [139.331476, 36.769058], [139.332871, 36.774066], [139.346679, 36.776708], [139.346749, 36.776722], [139.346829, 36.776682]]]}, "properties": {"N03_001": "群馬県", "N03_002": null, "N03_003": "利根郡", "N03_004": "片品村", "N03_005": null, "N03_007": "10443"}}, {"type": "Feature", "geometry": {"type": "Polygon", "coordinates": [[[139.196581, 36.718299], [139.195537, 36.71844], [139.193109, 36.722304], [139.193875, 36.72508], [139.191986, 36.729815], [139.192131, 36.729986], [139.191959, 36.730158], [139.193359, 36.731426], [139.194974, 36.73332], [139.183186, 36.734591], [139.175673, 36.742478], [139.174088, 36.742876], [139.16741, 36.7444], [139.159763, 36.740717], [139.158457, 36.740088], [139.158422, 36.740071], [139.158261, 36.740248], [139.15276, 36.746263], [139.151689, 36.747435], [139.152781, 36.753686], [139.152791, 36.753744], [139.152795, 36.753765], [139.158934, 36.7582], [139.158166, 36.766683], [139.161938, 36.775787], [139.154424, 36.785675], [139.144201, 36.791742], [139.1391, 36.80364], [139.132051, 36.805033], [139.121792, 36.794961], [139.12114, 36.794321], [139.116687, 36.779922], [139.1164, 36.778993], [139.11636, 36.778959], [139.11613, 36.778761], [139.097654, 36.762912], [139.089169, 36.750633], [139.086847, 36.74543], [139.084339, 36.734917], [139.084242, 36.725477], [139.084027, 36.704482], [139.079907, 36.701383], [139.082166, 36.690173], [139.087866, 36.689785], [139.084808, 36.683416], [139.0808, 36.675068], [139.07776, 36.668735], [139.075224, 36.663453], [139.074997, 36.662981], [139.075844, 36.663094], [139.093035, 36.674121], [139.09571, 36.669221], [139.106458, 36.672664], [139.110162, 36.687683], [139.138158, 36.689357], [139.145696, 36.684861], [139.160656, 36.697114], [139.173476, 36.697937], [139.177247, 36.707506], [139.177345, 36.707754], [139.182759, 36.710342], [139.196861, 36.717598], [139.196581, 36.718299]]]}, "properties": {"N03_001": "群馬県", "N03_002": null, "N03_003": "利根郡", "N03_004": "川場村", "N03_005": null, "N03_007": "10444"}}, {"type": "Feature", "geometry": {"type": "Polygon", "coordinates": [[[139.057484, 36.584863], [139.063856, 36.587019], [139.070132, 36.579789], [139.076042, 36.581934], [139.076344, 36.58263], [139.073089, 36.586557], [139.095434, 36.578984], [139.109464, 36.580219], [139.1208, 36.57386], [139.127862, 36.576606], [139.132387, 36.578437], [139.132546, 36.578427], [139.156051, 36.577047], [139.156173, 36.57704], [139.161831, 36.570449], [139.162895, 36.578786], [139.15904, 36.588859], [139.146324, 36.601935], [139.142953, 36.621917], [139.128932, 36.634955], [139.124569, 36.645702], [139.128388, 36.647054], [139.127806, 36.652499], [139.116994, 36.658984], [139.094204, 36.657555], [139.073033, 36.648083], [139.065781, 36.641575], [139.060901, 36.629018], [139.046715, 36.621822], [139.046595, 36.621626], [139.043022, 36.610226], [139.043069, 36.609724], [139.049956, 36.60072], [139.049966, 36.60047], [139.050289, 36.592281], [139.050378, 36.59219], [139.050496, 36.592068], [139.057484, 36.584863]]]}, "properties": {"N03_001": "群馬県", "N03_002": null, "N03_003": "利根郡", "N03_004": "昭和村", "N03_005": null, "N03_007": "10448"}}, {"type": "Feature", "geometry": {"type": "Polygon", "coordinates": [[[139.12114, 36.794321], [139.121792, 36.794961], [139.132051, 36.805033], [139.1391, 36.80364], [139.140272, 36.804051], [139.141516, 36.803886], [139.151276, 36.807907], [139.159088, 36.814994], [139.158931, 36.824312], [139.174956, 36.833098], [139.176102, 36.836717], [139.189827, 36.835366], [139.198153, 36.841287], [139.193703, 36.850371], [139.195429, 36.856048], [139.165355, 36.865486], [139.156814, 36.862735], [139.153244, 36.871973], [139.158013, 36.879745], [139.173325, 36.890925], [139.171379, 36.900284], [139.176159, 36.916246], [139.173244, 36.928029], [139.16625, 36.935784], [139.167024, 36.951722], [139.180184, 36.964396], [139.180314, 36.964522], [139.175216, 36.973296], [139.179447, 36.990758], [139.170915, 37.002067], [139.150694, 37.009249], [139.14322, 37.021283], [139.131906, 37.025728], [139.122949, 37.047144], [139.115389, 37.047519], [139.111305, 37.055214], [139.097016, 37.058626], [139.090353, 37.044572], [139.088699, 37.030878], [139.091131, 37.019733], [139.080683, 37.008704], [139.073541, 37.00853], [139.054231, 36.998313], [139.047389, 36.987293], [139.030616, 36.983564], [139.015499, 36.988286], [139.000269, 36.97913], [138.970775, 36.981435], [138.966555, 36.979075], [138.963799, 36.951425], [138.966657, 36.931154], [138.976691, 36.920791], [138.974396, 36.913041], [138.979633, 36.905111], [138.979531, 36.891779], [138.97147, 36.887213], [138.954686, 36.895333], [138.949497, 36.893032], [138.940635, 36.895158], [138.932277, 36.893483], [138.93053, 36.886967], [138.923149, 36.883599], [138.917069, 36.871049], [138.922115, 36.861037], [138.916019, 36.850838], [138.924971, 36.846457], [138.929698, 36.833174], [138.908814, 36.827872], [138.881891, 36.825785], [138.875584, 36.818589], [138.856445, 36.811644], [138.83957, 36.817176], [138.821744, 36.817626], [138.826738, 36.799851], [138.831764, 36.793899], [138.825055, 36.775775], [138.826924, 36.772291], [138.81777, 36.761586], [138.807408, 36.764889], [138.795345, 36.758137], [138.78942, 36.744874], [138.797482, 36.734843], [138.80294, 36.718774], [138.813167, 36.714418], [138.824728, 36.702473], [138.820744, 36.664731], [138.838218, 36.662958], [138.871389, 36.66801], [138.875856, 36.662409], [138.876248, 36.661919], [138.884655, 36.659739], [138.893203, 36.657144], [138.893052, 36.656933], [138.894462, 36.657196], [138.897651, 36.656369], [138.909465, 36.66], [138.910376, 36.660171], [138.923615, 36.656543], [138.931476, 36.662294], [138.952154, 36.653643], [138.968675, 36.654742], [138.970095, 36.647137], [138.984714, 36.644596], [138.984972, 36.644915], [138.985355, 36.644858], [138.985284, 36.645153], [138.991077, 36.652465], [138.997807, 36.650749], [139.009572, 36.657368], [139.010053, 36.66042], [139.014423, 36.65912], [139.014315, 36.659304], [139.014573, 36.659237], [139.01628, 36.665158], [139.017517, 36.666666], [139.023516, 36.670681], [139.021278, 36.671806], [139.023878, 36.673079], [139.021693, 36.674554], [139.023552, 36.679369], [139.030282, 36.683591], [139.030346, 36.683632], [139.026276, 36.687504], [139.028725, 36.692646], [139.023516, 36.704987], [139.026515, 36.711824], [139.017987, 36.719736], [139.022364, 36.728476], [139.029034, 36.728755], [139.023887, 36.734471], [139.033232, 36.741796], [139.025285, 36.746592], [139.02963, 36.756521], [139.024245, 36.765199], [139.025042, 36.770492], [139.036648, 36.773151], [139.037441, 36.773296], [139.037443, 36.773333], [139.037455, 36.773521], [139.03796, 36.781719], [139.045169, 36.782771], [139.045218, 36.782905], [139.046617, 36.786735], [139.047164, 36.788234], [139.048019, 36.788768], [139.052499, 36.791503], [139.052732, 36.791646], [139.056855, 36.789945], [139.057371, 36.789732], [139.059309, 36.793326], [139.059374, 36.793323], [139.069708, 36.789026], [139.073973, 36.793076], [139.08037, 36.790203], [139.108714, 36.796898], [139.12114, 36.794321]]]}, "properties": {"N03_001": "群馬県", "N03_002": null, "N03_003": "利根郡", "N03_004": "みなかみ町", "N03_005": null, "N03_007": "10449"}}, {"type": "Feature", "geometry": {"type": "Polygon", "coordinates": [[[139.092324, 36.323804], [139.09155, 36.323215], [139.087657, 36.312273], [139.100741, 36.299248], [139.096585, 36.290692], [139.096465, 36.288535], [139.101893, 36.287279], [139.109791, 36.282655], [139.111267, 36.284844], [139.12991, 36.283411], [139.135665, 36.278443], [139.163903, 36.278912], [139.171368, 36.273722], [139.171745, 36.27742], [139.161448, 36.288016], [139.154332, 36.302831], [139.140752, 36.307735], [139.144042, 36.308612], [139.137756, 36.317963], [139.136179, 36.334343], [139.119989, 36.334228], [139.121527, 36.332661], [139.126449, 36.327369], [139.108752, 36.327086], [139.107924, 36.321268], [139.111595, 36.316602], [139.105435, 36.3165], [139.104129, 36.317228], [139.100439, 36.319284], [139.092324, 36.323804]]]}, "properties": {"N03_001": "群馬県", "N03_002": null, "N03_003": "佐波郡", "N03_004": "玉村町", "N03_005": null, "N03_007": "10464"}}, {"type": "Feature", "geometry": {"type": "Polygon", "coordinates": [[[139.580554, 36.223999], [139.580969, 36.21848], [139.591557, 36.216882], [139.587932, 36.210342], [139.601065, 36.205467], [139.624792, 36.186584], [139.62872, 36.195079], [139.651166, 36.197669], [139.650782, 36.212092], [139.659975, 36.214901], [139.663936, 36.211817], [139.661221, 36.208254], [139.664425, 36.207061], [139.66995, 36.213246], [139.665356, 36.223442], [139.659053, 36.221209], [139.659632, 36.228514], [139.663091, 36.230559], [139.654103, 36.231582], [139.653497, 36.236954], [139.645495, 36.240467], [139.641516, 36.235459], [139.642061, 36.242031], [139.63072, 36.254841], [139.643052, 36.26609], [139.636913, 36.264016], [139.632492, 36.271165], [139.61901, 36.274394], [139.608603, 36.268095], [139.589751, 36.268625], [139.625618, 36.252727], [139.621694, 36.249316], [139.616178, 36.25195], [139.603846, 36.249105], [139.600226, 36.255794], [139.597067, 36.251332], [139.593438, 36.2546], [139.593243, 36.249516], [139.581608, 36.244777], [139.574481, 36.239303], [139.574429, 36.239191], [139.574222, 36.238742], [139.580219, 36.228453], [139.580981, 36.227145], [139.580554, 36.223999]]]}, "properties": {"N03_001": "群馬県", "N03_002": null, "N03_003": "邑楽郡", "N03_004": "板倉町", "N03_005": null, "N03_007": "10521"}}, {"type": "Feature", "geometry": {"type": "Polygon", "coordinates": [[[139.479903, 36.211466], [139.481579, 36.210267], [139.483915, 36.209724], [139.484133, 36.208441], [139.491188, 36.203397], [139.493468, 36.192166], [139.52638, 36.191354], [139.572924, 36.204001], [139.587932, 36.210342], [139.591557, 36.216882], [139.580969, 36.21848], [139.580554, 36.223999], [139.579771, 36.218233], [139.574994, 36.2219], [139.561965, 36.216524], [139.545764, 36.217785], [139.537942, 36.221516], [139.532468, 36.217042], [139.509947, 36.216471], [139.501245, 36.210488], [139.50118, 36.210486], [139.50096, 36.210483], [139.486583, 36.210251], [139.479903, 36.211466]]]}, "properties": {"N03_001": "群馬県", "N03_002": null, "N03_003": "邑楽郡", "N03_004": "明和町", "N03_005": null, "N03_007": "10522"}}, {"type": "Feature", "geometry": {"type": "Polygon", "coordinates": [[[139.423499, 36.239786], [139.409344, 36.234075], [139.417345, 36.227752], [139.415829, 36.221348], [139.41625, 36.220171], [139.419455, 36.211209], [139.428854, 36.208561], [139.456639, 36.190681], [139.46991, 36.189166], [139.493468, 36.192166], [139.491188, 36.203397], [139.484133, 36.208441], [139.483915, 36.209724], [139.481579, 36.210267], [139.479903, 36.211466], [139.464031, 36.21435], [139.459939, 36.215094], [139.460017, 36.215284], [139.45952, 36.2154], [139.463058, 36.226614], [139.454915, 36.22825], [139.455121, 36.232138], [139.451653, 36.23278], [139.44904, 36.229], [139.4415, 36.230977], [139.441367, 36.231011], [139.440219, 36.235907], [139.432919, 36.238757], [139.427826, 36.24506], [139.427639, 36.245293], [139.423499, 36.239786]]]}, "properties": {"N03_001": "群馬県", "N03_002": null, "N03_003": "邑楽郡", "N03_004": "千代田町", "N03_005": null, "N03_007": "10523"}}, {"type": "Feature", "geometry": {"type": "Polygon", "coordinates": [[[139.382919, 36.237869], [139.390075, 36.229214], [139.416866, 36.217958], [139.416234, 36.220057], [139.41625, 36.220171], [139.415829, 36.221348], [139.417345, 36.227752], [139.409344, 36.234075], [139.423499, 36.239786], [139.427639, 36.245293], [139.42662, 36.246554], [139.429454, 36.251077], [139.436981, 36.263088], [139.434886, 36.267669], [139.413904, 36.270889], [139.405963, 36.276451], [139.398656, 36.269552], [139.402529, 36.264545], [139.38846, 36.267334], [139.388448, 36.261246], [139.385912, 36.261193], [139.382443, 36.25254], [139.385271, 36.244577], [139.382919, 36.237869]]]}, "properties": {"N03_001": "群馬県", "N03_002": null, "N03_003": "邑楽郡", "N03_004": "大泉町", "N03_005": null, "N03_007": "10524"}}, {"type": "Feature", "geometry": {"type": "Polygon", "coordinates": [[[139.434886, 36.267669], [139.436981, 36.263088], [139.429454, 36.251077], [139.42662, 36.246554], [139.427639, 36.245293], [139.427826, 36.24506], [139.432919, 36.238757], [139.440219, 36.235907], [139.441367, 36.231011], [139.4415, 36.230977], [139.44904, 36.229], [139.451653, 36.23278], [139.455121, 36.232138], [139.454915, 36.22825], [139.463058, 36.226614], [139.473135, 36.224589], [139.476419, 36.219253], [139.480447, 36.225993], [139.49604, 36.228901], [139.491618, 36.239026], [139.49937, 36.241289], [139.503839, 36.236575], [139.499608, 36.242698], [139.497548, 36.243145], [139.479007, 36.241677], [139.485583, 36.250683], [139.489083, 36.255476], [139.48915, 36.255492], [139.495403, 36.256985], [139.488168, 36.260818], [139.489959, 36.263004], [139.495272, 36.261504], [139.500124, 36.276093], [139.492402, 36.273761], [139.487668, 36.275891], [139.48091, 36.271313], [139.473768, 36.27634], [139.471482, 36.275741], [139.472255, 36.27085], [139.469136, 36.270599], [139.458481, 36.276303], [139.468485, 36.279196], [139.458674, 36.28866], [139.434152, 36.286952], [139.432204, 36.284804], [139.430631, 36.281288], [139.434806, 36.267926], [139.434886, 36.267669]]]}, "properties": {"N03_001": "群馬県", "N03_002": null, "N03_003": "邑楽郡", "N03_004": "邑楽町", "N03_005": null, "N03_007": "10525"}}]}