{"type": "FeatureCollection", "features": [{"type": "Feature", "properties": {"name": "茨城県"}, "geometry": {"type": "MultiLineString", "coordinates": [[[140.127172, 35.872248], [140.092823, 35.883865], [140.073673, 35.876718], [140.061117, 35.888056], [140.043727, 35.893366], [140.020901, 35.909228], [139.995203, 35.909567], [140.003051, 35.920005], [139.996744, 35.913025], [139.9931, 35.910276], [139.977459, 35.922708], [139.937276, 35.941594], [139.931655, 35.950767], [139.93807, 35.962121], [139.934109, 35.968732], [139.934038, 35.968375], [139.923662, 35.970444], [139.923413, 35.974564], [139.922337, 35.990665], [139.923661, 35.970237], [139.915346, 35.970592], [139.899375, 35.97752], [139.882846, 35.990368], [139.876418, 36.010619], [139.857568, 36.029047], [139.841328, 36.037744], [139.82017, 36.057179], [139.843372, 36.063274], [139.819028, 36.058023], [139.809636, 36.067665], [139.799411, 36.094484], [139.784898, 36.104177], [139.776769, 36.097057], [139.772517, 36.083333], [139.765761, 36.080428], [139.746758, 36.087079], [139.73028, 36.087253], [139.726379, 36.112519], [139.713585, 36.126249], [139.710134, 36.135945], [139.720132, 36.132563], [139.708679, 36.137594], [139.695746, 36.157109], [139.691202, 36.172481], [139.694302, 36.190144], [139.687744, 36.196826], [139.690559, 36.205364], [139.698623, 36.206473], [139.698756, 36.203881], [139.706473, 36.201857], [139.706931, 36.210562], [139.718968, 36.211522], [139.720131, 36.207662], [139.727542, 36.205843], [139.727487, 36.201581], [139.76004, 36.219235], [139.821609, 36.239703], [139.82173, 36.238819], [139.831562, 36.264615], [139.841692, 36.275901], [139.835211, 36.291803], [139.839537, 36.300231], [139.848978, 36.311484], [139.857977, 36.310746], [139.864679, 36.315586], [139.870126, 36.313842], [139.874671, 36.323164], [139.880678, 36.322964], [139.882564, 36.320642], [139.878725, 36.310797], [139.896642, 36.309754], [139.899054, 36.306308], [139.894289, 36.301934], [139.903009, 36.298642], [139.899215, 36.294099], [139.910754, 36.301201], [139.914777, 36.307857], [139.910282, 36.310085], [139.911673, 36.332645], [139.914332, 36.336712], [139.946167, 36.349187], [139.964501, 36.350942], [139.965285, 36.367479], [139.97354, 36.378537], [139.979244, 36.369766], [139.989929, 36.367208], [139.991771, 36.369616], [140.002242, 36.368018], [140.003934, 36.370457], [140.000432, 36.376633], [140.011062, 36.372923], [140.014722, 36.377327], [140.015409, 36.374686], [140.035101, 36.378223], [140.041378, 36.37394], [140.041467, 36.375229], [140.063733, 36.38217], [140.069148, 36.388927], [140.065196, 36.39687], [140.066399, 36.403773], [140.081121, 36.403663], [140.087951, 36.398285], [140.092214, 36.401662], [140.10157, 36.396994], [140.111077, 36.397954], [140.109585, 36.407301], [140.125336, 36.414131], [140.140979, 36.412003], [140.144261, 36.414045], [140.156509, 36.397993], [140.165603, 36.400105], [140.185157, 36.398338], [140.203261, 36.420743], [140.202045, 36.432811], [140.201347, 36.438144], [140.206187, 36.44648], [140.202584, 36.453947], [140.207312, 36.456876], [140.207382, 36.462412], [140.213058, 36.467257], [140.212067, 36.471005], [140.216619, 36.478978], [140.227165, 36.485945], [140.231236, 36.497421], [140.229458, 36.502081], [140.235775, 36.504662], [140.241155, 36.502658], [140.242499, 36.50758], [140.249078, 36.507727], [140.247387, 36.51497], [140.260194, 36.517481], [140.254551, 36.522405], [140.249647, 36.530939], [140.246979, 36.548259], [140.251498, 36.554837], [140.243782, 36.56282], [140.246967, 36.567534], [140.242598, 36.574286], [140.245651, 36.582121], [140.243835, 36.588438], [140.249171, 36.599546], [140.248486, 36.610676], [140.239705, 36.624991], [140.234696, 36.623758], [140.233696, 36.634113], [140.24282, 36.636706], [140.239109, 36.645564], [140.24093, 36.650923], [140.229309, 36.662278], [140.232734, 36.665474], [140.23169, 36.669794], [140.221566, 36.674286], [140.221525, 36.677445], [140.225072, 36.677513], [140.22346, 36.683557], [140.220066, 36.684464], [140.229879, 36.698826], [140.234221, 36.700522], [140.243898, 36.69762], [140.246697, 36.702271], [140.268189, 36.702216], [140.271212, 36.706809], [140.280666, 36.707463], [140.285652, 36.712407], [140.291385, 36.713511], [140.287104, 36.71819], [140.287671, 36.72537], [140.283336, 36.734139], [140.262206, 36.748284], [140.254917, 36.759861], [140.255264, 36.764312], [140.261076, 36.76751], [140.253672, 36.774516], [140.257425, 36.777232], [140.253681, 36.783378], [140.263491, 36.785938], [140.266391, 36.790489], [140.264523, 36.794579], [140.267072, 36.79934], [140.263295, 36.81027], [140.267401, 36.817782], [140.262937, 36.836045], [140.255425, 36.840531], [140.256807, 36.847841], [140.251569, 36.852246], [140.256728, 36.87325], [140.248685, 36.909037], [140.248961, 36.923214], [140.257773, 36.932679], [140.272975, 36.930155], [140.285582, 36.935545], [140.303, 36.926885], [140.311221, 36.916062], [140.321857, 36.907783], [140.323914, 36.893477], [140.326698, 36.891188], [140.346381, 36.885045], [140.365212, 36.884325], [140.372433, 36.871254], [140.368591, 36.867085], [140.368407, 36.86123], [140.37689, 36.847049], [140.377206, 36.837925], [140.392869, 36.832447], [140.415099, 36.832026], [140.423066, 36.820519], [140.43097, 36.817039], [140.438501, 36.821542], [140.457116, 36.798475], [140.46193, 36.797025], [140.463244, 36.790973], [140.47862, 36.796942], [140.48059, 36.803736], [140.489323, 36.809577], [140.488, 36.818363], [140.501481, 36.818173], [140.504424, 36.82317], [140.513915, 36.823443], [140.519104, 36.83624], [140.528483, 36.839995], [140.527924, 36.848366], [140.535122, 36.852113], [140.538036, 36.858856], [140.556912, 36.860054], [140.565637, 36.864018], [140.567778, 36.861601], [140.567469, 36.863201], [140.572488, 36.864156], [140.575332, 36.869073], [140.582729, 36.867953], [140.588755, 36.874911], [140.591986, 36.873475], [140.593282, 36.880033], [140.579943, 36.893401], [140.580774, 36.904408], [140.571804, 36.912473], [140.564958, 36.912857], [140.570584, 36.931315], [140.567176, 36.935303], [140.569477, 36.93863], [140.586605, 36.945105], [140.589299, 36.939481], [140.59446, 36.938054], [140.592789, 36.926567], [140.601248, 36.92281], [140.607193, 36.912766], [140.614288, 36.908595], [140.615519, 36.90327], [140.62799, 36.902857], [140.636214, 36.897572], [140.654959, 36.901042], [140.656081, 36.897151], [140.695084, 36.888771], [140.714271, 36.872784], [140.723266, 36.871026], [140.724087, 36.874031], [140.729355, 36.874415], [140.734208, 36.871593], [140.740846, 36.875556], [140.758381, 36.867299], [140.757931, 36.872373], [140.760106, 36.872365], [140.762019, 36.870348], [140.759706, 36.866949], [140.762956, 36.864416], [140.764644, 36.866691], [140.764144, 36.863108], [140.765556, 36.867441], [140.767332, 36.865108], [140.766182, 36.86175], [140.771544, 36.863066], [140.767106, 36.867657], [140.772069, 36.8651], [140.772069, 36.868599], [140.786417, 36.862108], [140.786168, 36.856226], [140.798365, 36.858238], [140.798285, 36.857252], [140.795696, 36.856161], [140.798684, 36.851216], [140.797119, 36.841507], [140.802391, 36.839418], [140.802356, 36.832396], [140.805567, 36.830779], [140.792546, 36.826125], [140.788376, 36.826965], [140.793762, 36.829015], [140.786134, 36.82947], [140.785231, 36.824909], [140.776327, 36.824631], [140.768487, 36.818329], [140.76257, 36.805616], [140.762665, 36.805498], [140.762523, 36.805515], [140.757228, 36.79414], [140.748452, 36.784364], [140.73344, 36.749556], [140.732311, 36.749697], [140.733149, 36.748656], [140.728407, 36.730798], [140.729136, 36.715541], [140.725747, 36.714783], [140.716406, 36.692724], [140.713701, 36.674714], [140.716493, 36.661807], [140.708403, 36.654887], [140.702953, 36.655116], [140.699114, 36.649958], [140.701326, 36.649478], [140.700462, 36.648823], [140.698873, 36.648542], [140.696674, 36.648961], [140.693633, 36.644578], [140.689507, 36.620975], [140.680025, 36.614834], [140.671495, 36.597636], [140.671663, 36.597571], [140.671638, 36.597438], [140.671605, 36.59756], [140.671494, 36.597634], [140.671476, 36.597597], [140.671479, 36.59758], [140.671466, 36.597579], [140.671404, 36.597453], [140.666381, 36.594655], [140.663166, 36.581116], [140.663181, 36.581126], [140.66317, 36.581076], [140.663155, 36.58107], [140.662287, 36.577411], [140.660117, 36.575675], [140.660284, 36.576756], [140.660587, 36.577178], [140.662275, 36.57826], [140.659316, 36.578961], [140.652843, 36.572941], [140.643718, 36.551508], [140.646666, 36.540833], [140.644119, 36.542376], [140.643984, 36.54077], [140.645798, 36.540835], [140.644807, 36.540317], [140.642129, 36.541448], [140.638197, 36.537467], [140.63102, 36.501908], [140.629547, 36.49862], [140.628715, 36.498934], [140.630778, 36.501853], [140.629189, 36.503016], [140.628586, 36.499326], [140.626079, 36.499988], [140.628313, 36.495164], [140.624535, 36.496182], [140.623493, 36.490449], [140.618938, 36.492141], [140.617713, 36.490702], [140.620696, 36.486453], [140.612881, 36.487494], [140.611435, 36.484444], [140.627359, 36.483484], [140.619233, 36.480178], [140.614446, 36.483573], [140.605382, 36.482164], [140.615898, 36.480861], [140.609748, 36.469059], [140.616498, 36.465299], [140.610471, 36.467675], [140.610522, 36.465114], [140.614809, 36.465506], [140.609572, 36.462738], [140.608367, 36.452014], [140.611743, 36.442848], [140.609275, 36.440506], [140.615185, 36.441765], [140.632885, 36.441516], [140.627307, 36.441501], [140.627203, 36.431198], [140.610029, 36.431301], [140.608107, 36.424458], [140.610118, 36.427195], [140.623581, 36.426336], [140.618126, 36.426249], [140.618182, 36.42133], [140.612612, 36.421346], [140.612515, 36.41089], [140.615606, 36.410603], [140.613274, 36.407804], [140.613152, 36.410436], [140.60973, 36.410458], [140.609695, 36.405179], [140.614978, 36.40513], [140.619005, 36.411182], [140.619135, 36.409298], [140.614848, 36.404473], [140.612403, 36.404498], [140.611732, 36.399152], [140.617897, 36.384394], [140.620129, 36.384451], [140.620965, 36.386054], [140.622766, 36.383591], [140.622673, 36.386416], [140.627887, 36.38087], [140.624995, 36.368954], [140.620996, 36.359548], [140.613211, 36.353009], [140.613366, 36.355613], [140.609769, 36.353431], [140.607005, 36.346007], [140.609416, 36.344956], [140.603757, 36.337767], [140.602127, 36.339085], [140.604353, 36.343413], [140.600719, 36.338154], [140.596589, 36.341698], [140.594322, 36.336308], [140.587931, 36.336096], [140.562663, 36.350653], [140.586814, 36.336681], [140.584687, 36.335308], [140.597905, 36.335441], [140.59466, 36.333257], [140.592789, 36.319079], [140.592528, 36.318729], [140.592775, 36.318515], [140.59265, 36.318536], [140.592511, 36.318673], [140.592503, 36.318695], [140.591653, 36.317554], [140.591691, 36.317521], [140.591623, 36.317465], [140.591598, 36.317481], [140.591442, 36.317271], [140.59145, 36.317257], [140.59143, 36.317256], [140.590976, 36.316647], [140.591002, 36.316643], [140.59099, 36.316559], [140.59091, 36.316535], [140.590914, 36.316564], [140.589875, 36.315169], [140.589881, 36.315166], [140.589852, 36.315134], [140.58985, 36.315135], [140.589265, 36.31435], [140.589317, 36.314364], [140.589315, 36.314287], [140.589234, 36.314309], [140.588287, 36.313038], [140.588303, 36.312998], [140.588284, 36.312985], [140.588257, 36.312998], [140.58722, 36.311607], [140.587399, 36.311721], [140.58734, 36.311609], [140.587299, 36.311585], [140.587188, 36.311563], [140.586456, 36.310582], [140.586504, 36.310543], [140.586451, 36.310507], [140.586417, 36.310529], [140.585381, 36.309139], [140.57857, 36.306844], [140.579803, 36.300869], [140.578326, 36.302277], [140.578238, 36.306857], [140.578755, 36.308326], [140.584845, 36.310807], [140.57149, 36.309075], [140.571469, 36.304556], [140.568992, 36.305892], [140.575462, 36.300792], [140.572907, 36.302667], [140.560786, 36.292273], [140.560423, 36.289757], [140.56421, 36.288739], [140.560583, 36.289539], [140.558392, 36.285478], [140.559524, 36.256569], [140.561471, 36.253675], [140.563211, 36.221151], [140.566247, 36.217907], [140.564615, 36.215767], [140.574432, 36.175155], [140.595514, 36.115324], [140.598684, 36.113235], [140.603768, 36.097135], [140.6065, 36.096528], [140.608935, 36.08641], [140.611636, 36.085798], [140.611256, 36.082152], [140.615594, 36.077443], [140.618178, 36.067963], [140.645267, 36.017045], [140.647909, 36.016702], [140.652906, 36.00252], [140.65745, 35.998747], [140.65811, 35.992464], [140.661832, 35.991236], [140.659802, 35.990077], [140.667566, 35.976368], [140.672708, 35.977796], [140.669313, 35.976356], [140.673888, 35.970323], [140.678637, 35.97305], [140.678331, 35.967468], [140.68191, 35.96885], [140.680741, 35.972439], [140.682582, 35.968532], [140.693496, 35.969107], [140.702345, 35.963061], [140.700645, 35.962401], [140.695783, 35.966348], [140.684897, 35.964434], [140.696426, 35.943679], [140.701003, 35.937818], [140.703509, 35.938677], [140.692985, 35.933038], [140.694195, 35.933189], [140.69391, 35.928815], [140.67689, 35.919128], [140.665287, 35.923894], [140.66692, 35.926764], [140.662848, 35.928596], [140.661375, 35.92559], [140.655936, 35.928957], [140.651465, 35.928499], [140.65351, 35.928323], [140.654104, 35.925424], [140.6699, 35.918458], [140.67364, 35.911963], [140.671374, 35.911606], [140.673536, 35.911702], [140.674657, 35.896998], [140.686877, 35.881009], [140.691035, 35.883127], [140.678624, 35.901184], [140.677284, 35.912238], [140.70003, 35.925703], [140.702524, 35.921643], [140.705606, 35.922741], [140.71023, 35.926879], [140.71155, 35.940643], [140.710401, 35.926743], [140.706983, 35.923173], [140.742504, 35.873233], [140.739939, 35.871951], [140.743128, 35.865227], [140.814765, 35.77176], [140.835114, 35.753288], [140.840647, 35.757884], [140.841846, 35.756774], [140.84019, 35.755579], [140.84471, 35.752832], [140.842918, 35.751986], [140.840016, 35.754945], [140.836631, 35.752468], [140.84042, 35.752708], [140.838121, 35.751011], [140.84183, 35.751052], [140.84115, 35.750285], [140.84131, 35.750428], [140.841522, 35.750271], [140.841329, 35.750098], [140.841121, 35.750253], [140.839809, 35.748773], [140.842787, 35.746488], [140.843727, 35.750596], [140.848779, 35.747871], [140.845172, 35.756773], [140.846686, 35.759953], [140.846994, 35.759183], [140.845354, 35.756811], [140.849456, 35.750556], [140.848873, 35.747838], [140.847672, 35.746675], [140.851226, 35.742633], [140.840177, 35.739209], [140.821959, 35.739445], [140.809711, 35.744472], [140.734546, 35.79119], [140.725867, 35.800748], [140.717227, 35.822768], [140.706113, 35.836571], [140.683556, 35.849052], [140.630686, 35.859124], [140.628477, 35.865213], [140.611567, 35.891812], [140.598861, 35.903166], [140.588201, 35.906215], [140.58791, 35.910464], [140.585173, 35.909179], [140.583199, 35.9129], [140.570627, 35.924064], [140.533988, 35.94061], [140.511165, 35.958637], [140.499696, 35.944398], [140.49553, 35.931223], [140.489815, 35.931993], [140.487176, 35.928592], [140.490778, 35.914957], [140.502803, 35.90552], [140.483774, 35.909971], [140.458438, 35.92654], [140.448466, 35.915019], [140.422887, 35.906713], [140.398312, 35.9093], [140.378961, 35.90313], [140.3592, 35.897158], [140.348388, 35.883209], [140.319407, 35.864644], [140.304103, 35.865347], [140.278298, 35.874044], [140.242396, 35.854851], [140.232588, 35.85411], [140.213646, 35.862005], [140.203144, 35.860742], [140.18663, 35.851758], [140.15388, 35.842738], [140.14647, 35.845718], [140.132655, 35.860824], [140.127142, 35.870856], [140.127172, 35.872248]], [[140.585088, 36.301907], [140.58722, 36.290676], [140.585957, 36.292123], [140.58497, 36.293498], [140.585088, 36.301907]], [[140.586204, 36.309657], [140.586166, 36.309683], [140.586147, 36.309731], [140.586243, 36.309663], [140.586204, 36.309657]], [[140.589055, 36.310044], [140.588997, 36.309929], [140.588963, 36.309967], [140.589011, 36.310087], [140.589055, 36.310044]], [[140.587781, 36.310941], [140.587817, 36.310953], [140.587826, 36.3109], [140.587782, 36.310867], [140.587781, 36.310941]], [[140.587968, 36.31115], [140.587987, 36.31103], [140.587922, 36.311033], [140.587934, 36.311131], [140.587968, 36.31115]], [[140.587482, 36.311171], [140.58769, 36.311234], [140.587682, 36.311162], [140.587562, 36.311087], [140.587482, 36.311171]], [[140.587498, 36.311405], [140.58742, 36.311377], [140.587436, 36.311472], [140.587494, 36.311492], [140.587498, 36.311405]], [[140.587167, 36.311508], [140.587174, 36.311439], [140.587149, 36.311395], [140.58712, 36.311391], [140.587167, 36.311508]], [[140.58735, 36.311541], [140.587464, 36.311689], [140.587479, 36.311603], [140.5874, 36.311506], [140.58735, 36.311541]], [[140.587728, 36.3118], [140.58769, 36.311824], [140.587738, 36.311857], [140.587771, 36.311825], [140.587728, 36.3118]], [[140.588119, 36.312518], [140.588078, 36.312511], [140.58808, 36.312549], [140.588116, 36.312555], [140.588119, 36.312518]], [[140.58857, 36.312611], [140.588597, 36.31258], [140.588581, 36.312544], [140.588526, 36.312548], [140.58857, 36.312611]], [[140.588909, 36.312882], [140.588972, 36.312865], [140.588953, 36.31281], [140.588892, 36.312825], [140.588909, 36.312882]], [[140.588274, 36.312887], [140.588269, 36.312909], [140.588293, 36.312934], [140.588327, 36.312919], [140.588274, 36.312887]], [[140.589278, 36.313078], [140.589259, 36.313121], [140.589331, 36.313152], [140.589322, 36.313097], [140.589278, 36.313078]], [[140.588735, 36.313107], [140.588706, 36.313141], [140.588741, 36.313161], [140.588762, 36.313147], [140.588735, 36.313107]], [[140.588654, 36.313129], [140.588627, 36.31315], [140.588634, 36.313185], [140.588677, 36.313155], [140.588654, 36.313129]], [[140.589045, 36.313243], [140.589078, 36.313145], [140.589018, 36.313109], [140.588978, 36.313184], [140.589045, 36.313243]], [[140.588629, 36.31321], [140.58857, 36.313231], [140.588595, 36.313304], [140.588653, 36.313296], [140.588629, 36.31321]], [[140.589181, 36.313299], [140.589205, 36.313351], [140.589242, 36.313322], [140.589273, 36.313252], [140.589181, 36.313299]], [[140.588709, 36.313298], [140.588668, 36.313359], [140.588743, 36.313401], [140.588757, 36.313364], [140.588709, 36.313298]], [[140.589119, 36.313468], [140.58919, 36.313385], [140.589147, 36.313362], [140.589098, 36.313392], [140.589119, 36.313468]], [[140.589113, 36.313802], [140.58916, 36.313799], [140.589156, 36.313734], [140.589114, 36.313722], [140.589113, 36.313802]], [[140.589472, 36.314081], [140.58948, 36.31399], [140.589418, 36.314008], [140.589427, 36.314056], [140.589472, 36.314081]], [[140.589505, 36.314558], [140.589489, 36.314486], [140.589437, 36.314515], [140.58946, 36.314566], [140.589505, 36.314558]], [[140.589558, 36.313231], [140.589524, 36.313208], [140.589487, 36.313233], [140.589549, 36.313274], [140.589558, 36.313231]], [[140.589518, 36.313886], [140.589547, 36.313795], [140.589522, 36.313677], [140.589453, 36.313773], [140.589518, 36.313886]], [[140.589787, 36.313916], [140.589789, 36.313962], [140.589827, 36.313972], [140.589827, 36.313916], [140.589787, 36.313916]], [[140.59007, 36.314819], [140.590034, 36.314804], [140.59002, 36.314837], [140.590055, 36.314855], [140.59007, 36.314819]], [[140.589752, 36.314945], [140.589803, 36.314961], [140.589802, 36.314899], [140.58975, 36.31489], [140.589752, 36.314945]], [[140.591065, 36.315632], [140.591171, 36.315616], [140.591152, 36.315576], [140.591089, 36.315553], [140.591065, 36.315632]], [[140.590221, 36.315603], [140.590263, 36.31568], [140.590314, 36.315665], [140.59028, 36.315609], [140.590221, 36.315603]], [[140.590966, 36.315654], [140.590784, 36.315643], [140.591089, 36.315961], [140.591142, 36.315786], [140.590966, 36.315654]], [[140.591593, 36.316229], [140.591545, 36.316256], [140.591536, 36.316296], [140.591557, 36.31633], [140.591593, 36.316229]], [[140.590897, 36.316335], [140.590948, 36.316386], [140.59099, 36.316351], [140.590929, 36.316238], [140.590897, 36.316335]], [[140.591225, 36.316202], [140.591023, 36.316223], [140.591244, 36.316449], [140.591314, 36.316234], [140.591225, 36.316202]], [[140.59149, 36.316449], [140.591503, 36.316396], [140.591456, 36.316391], [140.591448, 36.316433], [140.59149, 36.316449]], [[140.591095, 36.316477], [140.590988, 36.316433], [140.591028, 36.31651], [140.591098, 36.316493], [140.591095, 36.316477]], [[140.591387, 36.316544], [140.591422, 36.316602], [140.591487, 36.316499], [140.591437, 36.3165], [140.591387, 36.316544]], [[140.591635, 36.316641], [140.591584, 36.316667], [140.591573, 36.316698], [140.591655, 36.3167], [140.591635, 36.316641]], [[140.591353, 36.316894], [140.591383, 36.316858], [140.591334, 36.316812], [140.591301, 36.316828], [140.591353, 36.316894]], [[140.591577, 36.316882], [140.591509, 36.316846], [140.591467, 36.316859], [140.591524, 36.316923], [140.591577, 36.316882]], [[140.591317, 36.316988], [140.591277, 36.316902], [140.591227, 36.31691], [140.591272, 36.316974], [140.591317, 36.316988]], [[140.591432, 36.317004], [140.59148, 36.31709], [140.591593, 36.316956], [140.591494, 36.316969], [140.591432, 36.317004]], [[140.591716, 36.317148], [140.591738, 36.317112], [140.591718, 36.317108], [140.591699, 36.317141], [140.591716, 36.317148]], [[140.591457, 36.317163], [140.591479, 36.317127], [140.59146, 36.317123], [140.59144, 36.317156], [140.591457, 36.317163]], [[140.592205, 36.31826], [140.592242, 36.31829], [140.592233, 36.318189], [140.592192, 36.318191], [140.592205, 36.31826]], [[140.593473, 36.318968], [140.593727, 36.318537], [140.593478, 36.318401], [140.593379, 36.318502], [140.593473, 36.318968]], [[140.593377, 36.319122], [140.593158, 36.319053], [140.593152, 36.31919], [140.593387, 36.319243], [140.593377, 36.319122]], [[140.593657, 36.319549], [140.593545, 36.319409], [140.59346, 36.319432], [140.593505, 36.319611], [140.593657, 36.319549]], [[140.59412, 36.320076], [140.59402, 36.320094], [140.593989, 36.320186], [140.594016, 36.320226], [140.59412, 36.320076]], [[140.593592, 36.320245], [140.59363, 36.320331], [140.593734, 36.320191], [140.593657, 36.320071], [140.593592, 36.320245]], [[140.593981, 36.320828], [140.594387, 36.320345], [140.594262, 36.320157], [140.59399, 36.320404], [140.593981, 36.320828]], [[140.593931, 36.321187], [140.593969, 36.321303], [140.594222, 36.320934], [140.594104, 36.320917], [140.593931, 36.321187]], [[140.594161, 36.321898], [140.594079, 36.321848], [140.594118, 36.321939], [140.59417, 36.32194], [140.594161, 36.321898]], [[140.594205, 36.323325], [140.594214, 36.32339], [140.594287, 36.323405], [140.59425, 36.323319], [140.594205, 36.323325]], [[140.594101, 36.323382], [140.594117, 36.323451], [140.594138, 36.32347], [140.594186, 36.32341], [140.594101, 36.323382]], [[140.594158, 36.323819], [140.594054, 36.323686], [140.594067, 36.323807], [140.594148, 36.323868], [140.594158, 36.323819]], [[140.594051, 36.324039], [140.594071, 36.324085], [140.594125, 36.324104], [140.594169, 36.324073], [140.594051, 36.324039]], [[140.594296, 36.324332], [140.594233, 36.324299], [140.594141, 36.324159], [140.594131, 36.324269], [140.594296, 36.324332]], [[140.679607, 35.973579], [140.679676, 35.973712], [140.680953, 35.973289], [140.680884, 35.97315], [140.679607, 35.973579]], [[140.594516, 36.321067], [140.594566, 36.321036], [140.59456, 36.320818], [140.594455, 36.320722], [140.594516, 36.321067]], [[140.594695, 36.3214], [140.594485, 36.321124], [140.594281, 36.321372], [140.594379, 36.321728], [140.594695, 36.3214]], [[140.594864, 36.32166], [140.594778, 36.321621], [140.594717, 36.321687], [140.594783, 36.321736], [140.594864, 36.32166]], [[140.594423, 36.321863], [140.594434, 36.321812], [140.594289, 36.321771], [140.594225, 36.321797], [140.594423, 36.321863]], [[140.594755, 36.32191], [140.59473, 36.321866], [140.594653, 36.321866], [140.594577, 36.321909], [140.594755, 36.32191]], [[140.594549, 36.322144], [140.594564, 36.322001], [140.594485, 36.321978], [140.594459, 36.322045], [140.594549, 36.322144]], [[140.59452, 36.322267], [140.594544, 36.322265], [140.594543, 36.322241], [140.594501, 36.322251], [140.59452, 36.322267]], [[140.594435, 36.322356], [140.594511, 36.322373], [140.5945, 36.322317], [140.594447, 36.32228], [140.594435, 36.322356]], [[140.594423, 36.322502], [140.594513, 36.322512], [140.594518, 36.322441], [140.594441, 36.322417], [140.594423, 36.322502]], [[140.594755, 36.323379], [140.594762, 36.323463], [140.594802, 36.323525], [140.594837, 36.323403], [140.594755, 36.323379]], [[140.605114, 36.336673], [140.605004, 36.336673], [140.605066, 36.337665], [140.605149, 36.337665], [140.605114, 36.336673]], [[140.600998, 36.336647], [140.602466, 36.337398], [140.601036, 36.336551], [140.597566, 36.337561], [140.594964, 36.337501], [140.596265, 36.33823], [140.600998, 36.336647]], [[140.639955, 36.395187], [140.635709, 36.405085], [140.63637, 36.445552], [140.636331, 36.441667], [140.635963, 36.405091], [140.640238, 36.395268], [140.639955, 36.395187]], [[140.622199, 36.427162], [140.622203, 36.427308], [140.625, 36.427263], [140.625824, 36.427103], [140.622199, 36.427162]], [[140.627481, 36.434121], [140.627479, 36.43759], [140.627797, 36.437588], [140.62776, 36.434119], [140.627481, 36.434121]], [[140.629951, 36.476852], [140.630056, 36.476815], [140.629642, 36.476268], [140.629937, 36.476826], [140.629951, 36.476852]], [[140.637021, 36.482628], [140.63696, 36.474513], [140.636714, 36.474524], [140.636839, 36.482633], [140.637021, 36.482628]], [[140.629795, 36.486248], [140.630537, 36.494889], [140.629952, 36.486257], [140.633519, 36.481669], [140.629795, 36.486248]], [[140.630915, 36.497867], [140.63085, 36.496589], [140.630429, 36.494843], [140.630753, 36.498484], [140.630915, 36.497867]], [[140.638859, 36.499295], [140.638963, 36.499156], [140.638778, 36.499083], [140.638683, 36.499274], [140.638859, 36.499295]], [[140.635268, 36.508502], [140.635406, 36.508655], [140.635491, 36.508405], [140.635309, 36.508106], [140.635268, 36.508502]], [[140.646875, 36.539665], [140.647843, 36.540275], [140.64794, 36.540166], [140.646762, 36.539486], [140.646875, 36.539665]], [[140.650579, 36.544081], [140.650502, 36.544093], [140.650486, 36.544128], [140.650557, 36.544166], [140.650579, 36.544081]], [[140.672068, 36.597514], [140.671851, 36.597441], [140.671877, 36.597519], [140.672124, 36.597636], [140.672068, 36.597514]], [[140.671809, 36.597609], [140.671837, 36.597629], [140.671833, 36.597536], [140.671792, 36.597569], [140.671809, 36.597609]], [[140.671759, 36.597641], [140.671729, 36.597662], [140.671761, 36.597694], [140.671783, 36.597665], [140.671759, 36.597641]], [[140.672113, 36.597683], [140.672154, 36.597673], [140.672149, 36.597665], [140.672118, 36.597668], [140.672113, 36.597683]], [[140.680254, 36.61443], [140.680619, 36.614406], [140.680445, 36.614258], [140.680287, 36.614283], [140.680254, 36.61443]], [[140.68353, 36.615917], [140.683493, 36.615944], [140.683496, 36.615973], [140.68355, 36.615951], [140.68353, 36.615917]], [[140.683298, 36.616333], [140.683292, 36.616306], [140.683102, 36.61639], [140.683155, 36.61645], [140.683298, 36.616333]], [[140.699076, 35.934217], [140.694802, 35.929332], [140.694113, 35.931911], [140.697145, 35.933013], [140.699076, 35.934217]], [[140.697591, 35.934869], [140.697866, 35.934982], [140.698036, 35.934507], [140.697828, 35.9345], [140.697591, 35.934869]], [[140.712873, 35.962222], [140.713099, 35.962217], [140.711312, 35.940544], [140.7114, 35.941665], [140.712873, 35.962222]], [[140.707853, 36.654527], [140.707874, 36.654582], [140.707914, 36.654566], [140.707889, 36.654534], [140.707853, 36.654527]], [[140.708861, 36.654743], [140.70898, 36.654799], [140.708861, 36.654585], [140.708767, 36.65464], [140.708861, 36.654743]], [[140.708614, 36.654805], [140.708554, 36.654768], [140.708552, 36.654868], [140.708618, 36.65487], [140.708614, 36.654805]], [[140.7128, 36.65757], [140.712882, 36.657659], [140.712869, 36.65756], [140.712836, 36.657528], [140.7128, 36.65757]], [[140.744638, 36.712776], [140.7444, 36.712889], [140.744631, 36.71321], [140.744848, 36.712956], [140.744638, 36.712776]], [[140.730222, 36.716275], [140.730299, 36.716134], [140.730201, 36.71605], [140.729985, 36.716185], [140.730222, 36.716275]], [[140.729852, 36.719165], [140.730055, 36.719436], [140.730236, 36.719216], [140.730097, 36.719064], [140.729852, 36.719165]], [[140.733237, 36.720895], [140.733412, 36.720653], [140.733118, 36.720461], [140.732908, 36.720647], [140.733237, 36.720895]], [[140.757141, 36.794028], [140.757645, 36.794078], [140.757771, 36.793671], [140.757197, 36.7937], [140.757141, 36.794028]], [[140.786652, 36.822377], [140.78559, 36.821031], [140.785453, 36.8211], [140.786652, 36.822377]], [[140.792821, 36.825754], [140.785654, 36.822469], [140.787663, 36.824382], [140.789775, 36.825], [140.792821, 36.825754]], [[140.803902, 36.829019], [140.804014, 36.829015], [140.803991, 36.828954], [140.80393, 36.828925], [140.803902, 36.829019]], [[140.804062, 36.829088], [140.804003, 36.829153], [140.804217, 36.829264], [140.804227, 36.829186], [140.804062, 36.829088]], [[140.803611, 36.832989], [140.803581, 36.833122], [140.803688, 36.833137], [140.803691, 36.832981], [140.803611, 36.832989]], [[140.803799, 36.833132], [140.803703, 36.833124], [140.803794, 36.833279], [140.803856, 36.833183], [140.803799, 36.833132]], [[140.803618, 36.833578], [140.803814, 36.833761], [140.803947, 36.833714], [140.803825, 36.833456], [140.803618, 36.833578]], [[140.803364, 36.833699], [140.803397, 36.833763], [140.803428, 36.833698], [140.803373, 36.833677], [140.803364, 36.833699]], [[140.804011, 36.833767], [140.803939, 36.833778], [140.80396, 36.833895], [140.804026, 36.833878], [140.804011, 36.833767]], [[140.803955, 36.834041], [140.804081, 36.834085], [140.804108, 36.833906], [140.804039, 36.833901], [140.803955, 36.834041]], [[140.804123, 36.834297], [140.80415, 36.834309], [140.804172, 36.834298], [140.804136, 36.834268], [140.804123, 36.834297]], [[140.803394, 36.83452], [140.803444, 36.834597], [140.80354, 36.834598], [140.803446, 36.834506], [140.803394, 36.83452]], [[140.804513, 36.834691], [140.804564, 36.834673], [140.804529, 36.834615], [140.80447, 36.834638], [140.804513, 36.834691]], [[140.804173, 36.836068], [140.804306, 36.836081], [140.804292, 36.836032], [140.804212, 36.836005], [140.804173, 36.836068]], [[140.80438, 36.836023], [140.804339, 36.836076], [140.804422, 36.836085], [140.804418, 36.836045], [140.80438, 36.836023]], [[140.803007, 36.837917], [140.802949, 36.837898], [140.802913, 36.837959], [140.802999, 36.837988], [140.803007, 36.837917]], [[140.802486, 36.8392], [140.802449, 36.839342], [140.802529, 36.839311], [140.802587, 36.839242], [140.802486, 36.8392]], [[140.800371, 36.860766], [140.800619, 36.860878], [140.799477, 36.857392], [140.799451, 36.858715], [140.800371, 36.860766]], [[140.797889, 36.859322], [140.796274, 36.859315], [140.796271, 36.85938], [140.79843, 36.859395], [140.797889, 36.859322]]]}}], "name": "茨城県"}