{
  "type": "FeatureCollection",
  "features": [
    {
      "type": "Feature",
      "geometry": {
        "type": "Polygon",
        "coordinates": [
          [
            [
              129.793903,
              32.967673
            ],
            [
              129.740859,
              32.946995
            ],
            [
              129.73763,
              32.913129
            ],
            [
              129.679867,
              32.903187
            ],
            [
              129.668542,
              32.895477
            ],
            [
              129.683681,
              32.85308
            ],
            [
              129.737507,
              32.805688
            ],
            [
              129.782266,
              32.793331
            ],
            [
              129.796565,
              32.765043
            ],
            [
              129.856608,
              32.731419
            ],
            [
              129.837227,
              32.688804
            ],
            [
              129.817712,
              32.706291
            ],
            [
              129.817257,
              32.6547
            ],
            [
              129.802516,
              32.648325
            ],
            [
              129.790618,
              32.614762
            ],
            [
              129.767122,
              32.594858
            ],
            [
              129.784908,
              32.583004
            ],
            [
              129.80451,
              32.590699
            ],
            [
              129.837662,
              32.620751
            ],
            [
              129.834914,
              32.632435
            ],
            [
              129.895789,
              32.661895
            ],
            [
              129.901518,
              32.679406
            ],
            [
              129.956449,
              32.742126
            ],
            [
              129.958338,
              32.765164
            ],
            [
              129.990899,
              32.762895
            ],
            [
              129.993142,
              32.805848
            ],
            [
              129.975678,
              32.818664
            ],
            [
              129.92417,
              32.820871
            ],
            [
              129.860844,
              32.798384
            ],
            [
              129.847816,
              32.813287
            ],
            [
              129.801833,
              32.843186
            ],
            [
              129.797099,
              32.87097
            ],
            [
              129.808424,
              32.886457
            ],
            [
              129.789099,
              32.92076
            ],
            [
              129.816496,
              32.926037
            ],
            [
              129.816869,
              32.953918
            ],
            [
              129.793903,
              32.967673
            ]
          ]
        ]
      },
      "properties": {
        "N03_001": "長崎県",
        "N03_002": null,
        "N03_003": null,
        "N03_004": "長崎市",
        "N03_005": null,
        "N03_007": "42201"
      }
    },
    {
      "type": "Feature",
      "geometry": {
        "type": "MultiPolygon",
        "coordinates": [
          [
            [
              [
                129.776553,
                33.26872
              ],
              [
                129.71651,
                33.287647
              ],
              [
                129.704168,
                33.310499
              ],
              [
                129.666774,
                33.311328
              ],
              [
                129.631354,
                33.342607
              ],
              [
                129.607211,
                33.316009
              ],
              [
                129.588186,
                33.294849
              ],
              [
                129.56669,
                33.247131
              ],
              [
                129.564516,
                33.217952
              ],
              [
                129.611775,
                33.207626
              ],
              [
                129.636709,
                33.196
              ],
              [
                129.639174,
                33.23079
              ],
              [
                129.622106,
                33.255518
              ],
              [
                129.650425,
                33.279103
              ],
              [
                129.683252,
                33.265332
              ],
              [
                129.689622,
                33.234232
              ],
              [
                129.65303,
                33.209802
              ],
              [
                129.643861,
                33.19764
              ],
              [
                129.684482,
                33.147119
              ],
              [
                129.674749,
                33.11247
              ],
              [
                129.719686,
                33.136482
              ],
              [
                129.767319,
                33.124778
              ],
              [
                129.729513,
                33.102039
              ],
              [
                129.742034,
                33.061752
              ],
              [
                129.770931,
                33.06595
              ],
              [
                129.798339,
                33.081894
              ],
              [
                129.816475,
                33.07167
              ],
              [
                129.847178,
                33.091246
              ],
              [
                129.84578,
                33.102763
              ],
              [
                129.858798,
                33.155634
              ],
              [
                129.872678,
                33.165208
              ],
              [
                129.817148,
                33.184536
              ],
              [
                129.806897,
                33.211169
              ],
              [
                129.808439,
                33.243748
              ],
              [
                129.776553,
                33.26872
              ]
            ]
          ],
          [
            [
              [
                129.097288,
                33.285372
              ],
              [
                129.07029,
                33.271326
              ],
              [
                129.097733,
                33.249061
              ],
              [
                129.128144,
                33.246681
              ],
              [
                129.156595,
                33.271218
              ],
              [
                129.124613,
                33.293067
              ],
              [
                129.097288,
                33.285372
              ]
            ]
          ]
        ]
      },
      "properties": {
        "N03_001": "長崎県",
        "N03_002": null,
        "N03_003": null,
        "N03_004": "佐世保市",
        "N03_005": null,
        "N03_007": "42202"
      }
    },
    {
      "type": "Feature",
      "geometry": {
        "type": "Polygon",
        "coordinates": [
          [
            [
              130.285729,
              32.750413
            ],
            [
              130.357357,
              32.7465
            ],
            [
              130.380016,
              32.784511
            ],
            [
              130.340489,
              32.850937
            ],
            [
              130.320686,
              32.86779
            ],
            [
              130.305302,
              32.854623
            ],
            [
              130.293439,
              32.799973
            ],
            [
              130.275896,
              32.783721
            ],
            [
              130.285729,
              32.750413
            ]
          ]
        ]
      },
      "properties": {
        "N03_001": "長崎県",
        "N03_002": null,
        "N03_003": null,
        "N03_004": "島原市",
        "N03_005": null,
        "N03_007": "42203"
      }
    },
    {
      "type": "Feature",
      "geometry": {
        "type": "Polygon",
        "coordinates": [
          [
            [
              129.990899,
              32.762895
            ],
            [
              130.025306,
              32.758732
            ],
            [
              130.067781,
              32.787754
            ],
            [
              130.139941,
              32.797332
            ],
            [
              130.156447,
              32.825545
            ],
            [
              130.148233,
              32.845319
            ],
            [
              130.174241,
              32.870027
            ],
            [
              130.152967,
              32.899126
            ],
            [
              130.203396,
              32.932554
            ],
            [
              130.202863,
              32.958371
            ],
            [
              130.150092,
              32.962591
            ],
            [
              130.086499,
              32.974658
            ],
            [
              130.065314,
              32.95311
            ],
            [
              130.041252,
              32.956308
            ],
            [
              130.020973,
              32.941467
            ],
            [
              130.013275,
              32.893079
            ],
            [
              130.014149,
              32.850565
            ],
            [
              130.003532,
              32.843915
            ],
            [
              129.980879,
              32.840473
            ],
            [
              129.889275,
              32.87058
            ],
            [
              129.890199,
              32.856658
            ],
            [
              129.92417,
              32.820871
            ],
            [
              129.975678,
              32.818664
            ],
            [
              129.993142,
              32.805848
            ],
            [
              129.990899,
              32.762895
            ]
          ]
        ]
      },
      "properties": {
        "N03_001": "長崎県",
        "N03_002": null,
        "N03_003": null,
        "N03_004": "諫早市",
        "N03_005": null,
        "N03_007": "42204"
      }
    },
    {
      "type": "Feature",
      "geometry": {
        "type": "Polygon",
        "coordinates": [
          [
            [
              130.086499,
              32.974658
            ],
            [
              130.043928,
              33.004121
            ],
            [
              130.026576,
              32.999134
            ],
            [
              129.958014,
              32.992239
            ],
            [
              129.928327,
              32.968693
            ],
            [
              129.930702,
              32.923718
            ],
            [
              129.946009,
              32.912228
            ],
            [
              129.965141,
              32.873246
            ],
            [
              130.003532,
              32.843915
            ],
            [
              130.014149,
              32.850565
            ],
            [
              130.013275,
              32.893079
            ],
            [
              130.020973,
              32.941467
            ],
            [
              130.041252,
              32.956308
            ],
            [
              130.065314,
              32.95311
            ],
            [
              130.086499,
              32.974658
            ]
          ]
        ]
      },
      "properties": {
        "N03_001": "長崎県",
        "N03_002": null,
        "N03_003": null,
        "N03_004": "大村市",
        "N03_005": null,
        "N03_007": "42205"
      }
    },
    {
      "type": "Feature",
      "geometry": {
        "type": "MultiPolygon",
        "coordinates": [
          [
            [
              [
                129.631354,
                33.342607
              ],
              [
                129.632929,
                33.362215
              ],
              [
                129.582306,
                33.377267
              ],
              [
                129.562189,
                33.324534
              ],
              [
                129.591308,
                33.304057
              ],
              [
                129.607211,
                33.316009
              ],
              [
                129.631354,
                33.342607
              ]
            ]
          ],
          [
            [
              [
                129.529542,
                33.501042
              ],
              [
                129.524247,
                33.482335
              ],
              [
                129.553428,
                33.469257
              ],
              [
                129.575692,
                33.481461
              ],
              [
                129.556694,
                33.510576
              ],
              [
                129.529542,
                33.501042
              ]
            ]
          ],
          [
            [
              [
                129.408314,
                33.240119
              ],
              [
                129.379397,
                33.22055
              ],
              [
                129.380416,
                33.20799
              ],
              [
                129.433994,
                33.190926
              ],
              [
                129.463535,
                33.213809
              ],
              [
                129.48782,
                33.251165
              ],
              [
                129.501236,
                33.259226
              ],
              [
                129.505475,
                33.298553
              ],
              [
                129.51592,
                33.323665
              ],
              [
                129.570147,
                33.3571
              ],
              [
                129.553113,
                33.369061
              ],
              [
                129.503238,
                33.374059
              ],
              [
                129.498624,
                33.35543
              ],
              [
                129.436893,
                33.344685
              ],
              [
                129.432527,
                33.314386
              ],
              [
                129.441277,
                33.292639
              ],
              [
                129.404295,
                33.271524
              ],
              [
                129.408314,
                33.240119
              ]
            ]
          ],
          [
            [
              [
                129.397404,
                33.361122
              ],
              [
                129.435074,
                33.354821
              ],
              [
                129.437372,
                33.39384
              ],
              [
                129.421639,
                33.408491
              ],
              [
                129.397404,
                33.361122
              ]
            ]
          ]
        ]
      },
      "properties": {
        "N03_001": "長崎県",
        "N03_002": null,
        "N03_003": null,
        "N03_004": "平戸市",
        "N03_005": null,
        "N03_007": "42207"
      }
    },
    {
      "type": "Feature",
      "geometry": {
        "type": "MultiPolygon",
        "coordinates": [
          [
            [
              [
                129.776553,
                33.26872
              ],
              [
                129.758968,
                33.290851
              ],
              [
                129.776617,
                33.332994
              ],
              [
                129.792702,
                33.341064
              ],
              [
                129.78889,
                33.37148
              ],
              [
                129.76535,
                33.355751
              ],
              [
                129.730658,
                33.361706
              ],
              [
                129.714779,
                33.3479
              ],
              [
                129.677741,
                33.353058
              ],
              [
                129.657477,
                33.377538
              ],
              [
                129.632929,
                33.362215
              ],
              [
                129.631354,
                33.342607
              ],
              [
                129.666774,
                33.311328
              ],
              [
                129.704168,
                33.310499
              ],
              [
                129.71651,
                33.287647
              ],
              [
                129.776553,
                33.26872
              ]
            ]
          ],
          [
            [
              [
                129.859867,
                33.378623
              ],
              [
                129.828694,
                33.390619
              ],
              [
                129.803556,
                33.362402
              ],
              [
                129.812431,
                33.348285
              ],
              [
                129.859867,
                33.378623
              ]
            ]
          ]
        ]
      },
      "properties": {
        "N03_001": "長崎県",
        "N03_002": null,
        "N03_003": null,
        "N03_004": "松浦市",
        "N03_005": null,
        "N03_007": "42208"
      }
    },
    {
      "type": "Feature",
      "geometry": {
        "type": "MultiPolygon",
        "coordinates": [
          [
            [
              [
                129.2717,
                34.413928
              ],
              [
                129.270811,
                34.374802
              ],
              [
                129.300117,
                34.379742
              ],
              [
                129.346091,
                34.367841
              ],
              [
                129.355719,
                34.342505
              ],
              [
                129.340375,
                34.313391
              ],
              [
                129.352916,
                34.295533
              ],
              [
                129.388917,
                34.334848
              ],
              [
                129.393379,
                34.362407
              ],
              [
                129.376752,
                34.378446
              ],
              [
                129.393917,
                34.39251
              ],
              [
                129.379483,
                34.411818
              ],
              [
                129.373789,
                34.450669
              ],
              [
                129.420008,
                34.496916
              ],
              [
                129.437071,
                34.50738
              ],
              [
                129.468532,
                34.550172
              ],
              [
                129.47941,
                34.595122
              ],
              [
                129.453685,
                34.60272
              ],
              [
                129.471001,
                34.627459
              ],
              [
                129.486267,
                34.675458
              ],
              [
                129.449686,
                34.706617
              ],
              [
                129.418915,
                34.688841
              ],
              [
                129.378725,
                34.642658
              ],
              [
                129.353265,
                34.650046
              ],
              [
                129.31974,
                34.6472
              ],
              [
                129.304967,
                34.602609
              ],
              [
                129.304648,
                34.564664
              ],
              [
                129.317759,
                34.532987
              ],
              [
                129.306332,
                34.525985
              ],
              [
                129.290369,
                34.487536
              ],
              [
                129.273257,
                34.46605
              ],
              [
                129.2717,
                34.413928
              ]
            ]
          ],
          [
            [
              [
                129.382882,
                34.304176
              ],
              [
                129.347387,
                34.286359
              ],
              [
                129.359803,
                34.270495
              ],
              [
                129.384164,
                34.286393
              ],
              [
                129.382882,
                34.304176
              ]
            ]
          ],
          [
            [
              [
                129.179619,
                34.219518
              ],
              [
                129.178538,
                34.168334
              ],
              [
                129.16759,
                34.141896
              ],
              [
                129.183855,
                34.118664
              ],
              [
                129.229635,
                34.094865
              ],
              [
                129.26424,
                34.126106
              ],
              [
                129.305011,
                34.215026
              ],
              [
                129.325853,
                34.226132
              ],
              [
                129.317149,
                34.261961
              ],
              [
                129.350511,
                34.289648
              ],
              [
                129.313147,
                34.290668
              ],
              [
                129.294655,
                34.320215
              ],
              [
                129.266351,
                34.30518
              ],
              [
                129.227733,
                34.297743
              ],
              [
                129.221238,
                34.331448
              ],
              [
                129.203433,
                34.323613
              ],
              [
                129.191292,
                34.235773
              ],
              [
                129.179619,
                34.219518
              ]
            ]
          ]
        ]
      },
      "properties": {
        "N03_001": "長崎県",
        "N03_002": null,
        "N03_003": null,
        "N03_004": "対馬市",
        "N03_005": null,
        "N03_007": "42209"
      }
    },
    {
      "type": "Feature",
      "geometry": {
        "type": "Polygon",
        "coordinates": [
          [
            [
              129.649823,
              33.759981
            ],
            [
              129.673993,
              33.759045
            ],
            [
              129.676851,
              33.727449
            ],
            [
              129.709041,
              33.710593
            ],
            [
              129.753705,
              33.743849
            ],
            [
              129.779865,
              33.740336
            ],
            [
              129.798449,
              33.763427
            ],
            [
              129.757934,
              33.77569
            ],
            [
              129.763748,
              33.825445
            ],
            [
              129.773023,
              33.841971
            ],
            [
              129.689112,
              33.857242
            ],
            [
              129.656987,
              33.81446
            ],
            [
              129.659188,
              33.776179
            ],
            [
              129.649823,
              33.759981
            ]
          ]
        ]
      },
      "properties": {
        "N03_001": "長崎県",
        "N03_002": null,
        "N03_003": null,
        "N03_004": "壱岐市",
        "N03_005": null,
        "N03_007": "42210"
      }
    },
    {
      "type": "Feature",
      "geometry": {
        "type": "MultiPolygon",
        "coordinates": [
          [
            [
              [
                128.901225,
                32.869881
              ],
              [
                128.892437,
                32.853706
              ],
              [
                128.920078,
                32.843237
              ],
              [
                128.929894,
                32.828274
              ],
              [
                128.954061,
                32.834065
              ],
              [
                128.958371,
                32.869048
              ],
              [
                128.931737,
                32.860925
              ],
              [
                128.901225,
                32.869881
              ]
            ]
          ],
          [
            [
              [
                128.832345,
                32.829445
              ],
              [
                128.836151,
                32.779312
              ],
              [
                128.864534,
                32.763666
              ],
              [
                128.883022,
                32.764743
              ],
              [
                128.901218,
                32.786783
              ],
              [
                128.905841,
                32.813451
              ],
              [
                128.884202,
                32.833861
              ],
              [
                128.832345,
                32.829445
              ]
            ]
          ],
          [
            [
              [
                128.609088,
                32.627471
              ],
              [
                128.636333,
                32.593659
              ],
              [
                128.665639,
                32.608403
              ],
              [
                128.688401,
                32.602523
              ],
              [
                128.735539,
                32.607424
              ],
              [
                128.771736,
                32.573904
              ],
              [
                128.793746,
                32.598798
              ],
              [
                128.773858,
                32.612497
              ],
              [
                128.764936,
                32.634275
              ],
              [
                128.80873,
                32.65539
              ],
              [
                128.826387,
                32.635479
              ],
              [
                128.897392,
                32.650839
              ],
              [
                128.857627,
                32.686154
              ],
              [
                128.842976,
                32.716291
              ],
              [
                128.838538,
                32.756044
              ],
              [
                128.789582,
                32.789339
              ],
              [
                128.76572,
                32.761663
              ],
              [
                128.737031,
                32.757502
              ],
              [
                128.703528,
                32.742338
              ],
              [
                128.6817,
                32.778881
              ],
              [
                128.650975,
                32.775458
              ],
              [
                128.640294,
                32.76116
              ],
              [
                128.653583,
                32.742291
              ],
              [
                128.645891,
                32.721371
              ],
              [
                128.658543,
                32.705602
              ],
              [
                128.652589,
                32.639283
              ],
              [
                128.637045,
                32.624517
              ],
              [
                128.609088,
                32.627471
              ]
            ]
          ]
        ]
      },
      "properties": {
        "N03_001": "長崎県",
        "N03_002": null,
        "N03_003": null,
        "N03_004": "五島市",
        "N03_005": null,
        "N03_007": "42211"
      }
    },
    {
      "type": "Feature",
      "geometry": {
        "type": "MultiPolygon",
        "coordinates": [
          [
            [
              [
                129.793903,
                32.967673
              ],
              [
                129.825119,
                32.974429
              ],
              [
                129.800612,
                33.008376
              ],
              [
                129.761923,
                33.016303
              ],
              [
                129.731477,
                33.00558
              ],
              [
                129.746861,
                33.041127
              ],
              [
                129.729759,
                33.075351
              ],
              [
                129.679053,
                33.099758
              ],
              [
                129.659176,
                33.039682
              ],
              [
                129.651829,
                32.986892
              ],
              [
                129.627609,
                32.96783
              ],
              [
                129.642269,
                32.932722
              ],
              [
                129.662592,
                32.916313
              ],
              [
                129.668542,
                32.895477
              ],
              [
                129.679867,
                32.903187
              ],
              [
                129.73763,
                32.913129
              ],
              [
                129.740859,
                32.946995
              ],
              [
                129.793903,
                32.967673
              ]
            ]
          ],
          [
            [
              [
                129.597802,
                33.052446
              ],
              [
                129.586202,
                33.029921
              ],
              [
                129.609288,
                33.022237
              ],
              [
                129.634487,
                33.050867
              ],
              [
                129.608477,
                33.065394
              ],
              [
                129.597802,
                33.052446
              ]
            ]
          ]
        ]
      },
      "properties": {
        "N03_001": "長崎県",
        "N03_002": null,
        "N03_003": null,
        "N03_004": "西海市",
        "N03_005": null,
        "N03_007": "42212"
      }
    },
    {
      "type": "Feature",
      "geometry": {
        "type": "Polygon",
        "coordinates": [
          [
            [
              130.305302,
              32.854623
            ],
            [
              130.307122,
              32.878464
            ],
            [
              130.245278,
              32.874187
            ],
            [
              130.195237,
              32.848121
            ],
            [
              130.174241,
              32.870027
            ],
            [
              130.148233,
              32.845319
            ],
            [
              130.156447,
              32.825545
            ],
            [
              130.139941,
              32.797332
            ],
            [
              130.179061,
              32.794558
            ],
            [
              130.205792,
              32.755522
            ],
            [
              130.202019,
              32.720448
            ],
            [
              130.133127,
              32.67868
            ],
            [
              130.128902,
              32.655531
            ],
            [
              130.159117,
              32.662106
            ],
            [
              130.173476,
              32.662026
            ],
            [
              130.248878,
              32.710765
            ],
            [
              130.251586,
              32.72438
            ],
            [
              130.287562,
              32.739218
            ],
            [
              130.285729,
              32.750413
            ],
            [
              130.275896,
              32.783721
            ],
            [
              130.293439,
              32.799973
            ],
            [
              130.305302,
              32.854623
            ]
          ]
        ]
      },
      "properties": {
        "N03_001": "長崎県",
        "N03_002": null,
        "N03_003": null,
        "N03_004": "雲仙市",
        "N03_005": null,
        "N03_007": "42213"
      }
    },
    {
      "type": "Feature",
      "geometry": {
        "type": "Polygon",
        "coordinates": [
          [
            [
              130.285729,
              32.750413
            ],
            [
              130.287562,
              32.739218
            ],
            [
              130.251586,
              32.72438
            ],
            [
              130.248878,
              32.710765
            ],
            [
              130.173476,
              32.662026
            ],
            [
              130.159117,
              32.662106
            ],
            [
              130.131302,
              32.655848
            ],
            [
              130.14566,
              32.635587
            ],
            [
              130.189274,
              32.600726
            ],
            [
              130.219216,
              32.605626
            ],
            [
              130.259491,
              32.634316
            ],
            [
              130.276507,
              32.653979
            ],
            [
              130.300497,
              32.651345
            ],
            [
              130.343273,
              32.668489
            ],
            [
              130.357562,
              32.690502
            ],
            [
              130.345622,
              32.708592
            ],
            [
              130.372887,
              32.737508
            ],
            [
              130.357357,
              32.7465
            ],
            [
              130.285729,
              32.750413
            ]
          ]
        ]
      },
      "properties": {
        "N03_001": "長崎県",
        "N03_002": null,
        "N03_003": null,
        "N03_004": "南島原市",
        "N03_005": null,
        "N03_007": "42214"
      }
    },
    {
      "type": "Feature",
      "geometry": {
        "type": "Polygon",
        "coordinates": [
          [
            [
              129.92417,
              32.820871
            ],
            [
              129.890199,
              32.856658
            ],
            [
              129.889275,
              32.87058
            ],
            [
              129.852499,
              32.860797
            ],
            [
              129.868289,
              32.828809
            ],
            [
              129.847816,
              32.813287
            ],
            [
              129.860844,
              32.798384
            ],
            [
              129.92417,
              32.820871
            ]
          ]
        ]
      },
      "properties": {
        "N03_001": "長崎県",
        "N03_002": null,
        "N03_003": "西彼杵郡",
        "N03_004": "長与町",
        "N03_005": null,
        "N03_007": "42307"
      }
    },
    {
      "type": "Feature",
      "geometry": {
        "type": "Polygon",
        "coordinates": [
          [
            [
              129.847816,
              32.813287
            ],
            [
              129.868289,
              32.828809
            ],
            [
              129.852499,
              32.860797
            ],
            [
              129.841017,
              32.842632
            ],
            [
              129.797099,
              32.87097
            ],
            [
              129.801833,
              32.843186
            ],
            [
              129.847816,
              32.813287
            ]
          ]
        ]
      },
      "properties": {
        "N03_001": "長崎県",
        "N03_002": null,
        "N03_003": "西彼杵郡",
        "N03_004": "時津町",
        "N03_005": null,
        "N03_007": "42308"
      }
    },
    {
      "type": "Feature",
      "geometry": {
        "type": "Polygon",
        "coordinates": [
          [
            [
              130.026576,
              32.999134
            ],
            [
              130.000834,
              33.025872
            ],
            [
              129.982873,
              33.057116
            ],
            [
              129.939593,
              33.072886
            ],
            [
              129.924295,
              33.090105
            ],
            [
              129.909903,
              33.072702
            ],
            [
              129.876837,
              33.064371
            ],
            [
              129.945179,
              33.015844
            ],
            [
              129.958014,
              32.992239
            ],
            [
              130.026576,
              32.999134
            ]
          ]
        ]
      },
      "properties": {
        "N03_001": "長崎県",
        "N03_002": null,
        "N03_003": "東彼杵郡",
        "N03_004": "東彼杵町",
        "N03_005": null,
        "N03_007": "42321"
      }
    },
    {
      "type": "Feature",
      "geometry": {
        "type": "Polygon",
        "coordinates": [
          [
            [
              129.816475,
              33.07167
            ],
            [
              129.83762,
              33.059283
            ],
            [
              129.876837,
              33.064371
            ],
            [
              129.909903,
              33.072702
            ],
            [
              129.924295,
              33.090105
            ],
            [
              129.923278,
              33.106199
            ],
            [
              129.84578,
              33.102763
            ],
            [
              129.847178,
              33.091246
            ],
            [
              129.816475,
              33.07167
            ]
          ]
        ]
      },
      "properties": {
        "N03_001": "長崎県",
        "N03_002": null,
        "N03_003": "東彼杵郡",
        "N03_004": "川棚町",
        "N03_005": null,
        "N03_007": "42322"
      }
    },
    {
      "type": "Feature",
      "geometry": {
        "type": "Polygon",
        "coordinates": [
          [
            [
              129.84578,
              33.102763
            ],
            [
              129.923278,
              33.106199
            ],
            [
              129.951489,
              33.110063
            ],
            [
              129.95646,
              33.127873
            ],
            [
              129.941488,
              33.157826
            ],
            [
              129.872678,
              33.165208
            ],
            [
              129.858798,
              33.155634
            ],
            [
              129.84578,
              33.102763
            ]
          ]
        ]
      },
      "properties": {
        "N03_001": "長崎県",
        "N03_002": null,
        "N03_003": "東彼杵郡",
        "N03_004": "波佐見町",
        "N03_005": null,
        "N03_007": "42323"
      }
    },
    {
      "type": "Feature",
      "geometry": {
        "type": "Polygon",
        "coordinates": [
          [
            [
              129.04918,
              33.216121
            ],
            [
              129.028365,
              33.20139
            ],
            [
              129.049658,
              33.182803
            ],
            [
              129.079747,
              33.207944
            ],
            [
              129.04918,
              33.216121
            ]
          ]
        ]
      },
      "properties": {
        "N03_001": "長崎県",
        "N03_002": null,
        "N03_003": "北松浦郡",
        "N03_004": "小値賀町",
        "N03_005": null,
        "N03_007": "42383"
      }
    },
    {
      "type": "Feature",
      "geometry": {
        "type": "Polygon",
        "coordinates": [
          [
            [
              129.639174,
              33.23079
            ],
            [
              129.65303,
              33.209802
            ],
            [
              129.689622,
              33.234232
            ],
            [
              129.683252,
              33.265332
            ],
            [
              129.650425,
              33.279103
            ],
            [
              129.622106,
              33.255518
            ],
            [
              129.639174,
              33.23079
            ]
          ]
        ]
      },
      "properties": {
        "N03_001": "長崎県",
        "N03_002": null,
        "N03_003": "北松浦郡",
        "N03_004": "佐々町",
        "N03_005": null,
        "N03_007": "42391"
      }
    },
    {
      "type": "Feature",
      "geometry": {
        "type": "MultiPolygon",
        "coordinates": [
          [
            [
              [
                129.041289,
                32.859646
              ],
              [
                129.091002,
                32.854894
              ],
              [
                129.097513,
                32.87413
              ],
              [
                129.081174,
                32.895848
              ],
              [
                129.111441,
                32.941207
              ],
              [
                129.140419,
                32.936834
              ],
              [
                129.149976,
                32.957545
              ],
              [
                129.183053,
                32.972856
              ],
              [
                129.169359,
                32.998708
              ],
              [
                129.146889,
                33.00355
              ],
              [
                129.108679,
                32.980967
              ],
              [
                129.096552,
                33.000607
              ],
              [
                129.091254,
                33.03848
              ],
              [
                129.117819,
                33.086677
              ],
              [
                129.085478,
                33.076144
              ],
              [
                129.077394,
                33.036694
              ],
              [
                129.050181,
                33.041167
              ],
              [
                129.041208,
                33.003399
              ],
              [
                129.056812,
                32.980949
              ],
              [
                129.022728,
                32.968441
              ],
              [
                129.014748,
                32.949116
              ],
              [
                129.026214,
                32.919529
              ],
              [
                129.052377,
                32.910492
              ],
              [
                129.056708,
                32.888934
              ],
              [
                129.041289,
                32.859646
              ]
            ]
          ],
          [
            [
              [
                128.975019,
                32.898426
              ],
              [
                128.96929,
                32.882477
              ],
              [
                128.986487,
                32.866675
              ],
              [
                129.029074,
                32.870419
              ],
              [
                129.033341,
                32.895197
              ],
              [
                129.01591,
                32.923644
              ],
              [
                128.989251,
                32.933008
              ],
              [
                128.975019,
                32.898426
              ]
            ]
          ]
        ]
      },
      "properties": {
        "N03_001": "長崎県",
        "N03_002": null,
        "N03_003": "南松浦郡",
        "N03_004": "新上五島町",
        "N03_005": null,
        "N03_007": "42411"
      }
    }
  ]
}