{"type": "FeatureCollection", "features": [{"type": "Feature", "properties": {"name": "長崎県"}, "geometry": {"type": "MultiLineString", "coordinates": [[[128.356164, 32.008365], [128.358425, 32.003179], [128.351678, 31.99575], [128.355168, 31.989319], [128.348625, 31.988931], [128.350144, 31.997197], [128.343771, 32.005383], [128.356164, 32.008365]], [[128.391721, 32.042995], [128.392807, 32.054314], [128.406012, 32.048758], [128.412686, 32.052559], [128.415966, 32.050743], [128.405271, 32.037317], [128.399637, 32.042486], [128.392006, 32.038359], [128.382518, 32.03892], [128.380954, 32.0412], [128.391721, 32.042995]], [[128.893086, 32.570376], [128.90483, 32.56975], [128.907678, 32.566429], [128.90137, 32.560492], [128.893239, 32.56251], [128.891409, 32.566914], [128.893086, 32.570376]], [[128.914829, 32.594935], [128.925544, 32.598719], [128.929926, 32.593171], [128.919937, 32.591485], [128.914829, 32.594935]], [[128.830965, 32.60553], [128.839553, 32.605168], [128.840859, 32.59586], [128.832581, 32.596643], [128.826534, 32.600991], [128.830965, 32.60553]], [[128.63038, 32.658961], [128.62735, 32.654879], [128.634609, 32.654343], [128.636001, 32.646292], [128.629501, 32.645722], [128.629327, 32.637783], [128.621782, 32.637834], [128.616794, 32.646489], [128.6172, 32.660562], [128.62667, 32.669821], [128.627727, 32.677038], [128.634393, 32.679863], [128.640599, 32.673565], [128.634048, 32.669341], [128.640296, 32.663568], [128.627589, 32.664233], [128.63038, 32.658961]], [[128.62268, 32.634183], [128.613219, 32.629621], [128.612484, 32.621128], [128.619193, 32.630859], [128.626403, 32.627313], [128.623113, 32.623733], [128.625166, 32.617502], [128.630578, 32.619758], [128.639036, 32.609384], [128.64194, 32.611927], [128.647534, 32.610731], [128.642672, 32.604261], [128.646809, 32.603751], [128.647628, 32.608944], [128.655799, 32.612671], [128.650645, 32.620186], [128.660198, 32.627411], [128.66218, 32.631231], [128.653282, 32.6295], [128.646416, 32.620333], [128.643359, 32.623096], [128.637045, 32.624517], [128.63634, 32.634406], [128.639923, 32.638742], [128.652589, 32.639283], [128.655087, 32.642147], [128.646196, 32.647476], [128.643805, 32.654033], [128.654841, 32.647351], [128.66186, 32.649212], [128.663152, 32.653351], [128.656186, 32.652494], [128.656146, 32.656774], [128.658976, 32.65961], [128.671423, 32.651274], [128.663345, 32.667008], [128.675732, 32.668431], [128.675712, 32.672933], [128.668433, 32.669539], [128.662363, 32.671997], [128.65884, 32.676716], [128.649478, 32.679773], [128.653651, 32.684791], [128.65313, 32.691286], [128.646824, 32.697685], [128.653257, 32.703397], [128.658543, 32.705602], [128.645891, 32.721371], [128.647604, 32.73647], [128.653583, 32.742291], [128.646644, 32.751], [128.644504, 32.756171], [128.640294, 32.76116], [128.646192, 32.764171], [128.650975, 32.775458], [128.664406, 32.784783], [128.666804, 32.780191], [128.6817, 32.778881], [128.680702, 32.773232], [128.684009, 32.769241], [128.697319, 32.766433], [128.696552, 32.753854], [128.698412, 32.748046], [128.693548, 32.745072], [128.693675, 32.739996], [128.702852, 32.737542], [128.703528, 32.742338], [128.709284, 32.749907], [128.712438, 32.746794], [128.718256, 32.749019], [128.71849, 32.752765], [128.737031, 32.757502], [128.737127, 32.753194], [128.72458, 32.746938], [128.7422, 32.750922], [128.735284, 32.744087], [128.735551, 32.737618], [128.738768, 32.738486], [128.738288, 32.743236], [128.749704, 32.753441], [128.744623, 32.754531], [128.745024, 32.757919], [128.753379, 32.758749], [128.750334, 32.763569], [128.755078, 32.769427], [128.763425, 32.762342], [128.762379, 32.755143], [128.768553, 32.753157], [128.767264, 32.741947], [128.770039, 32.735054], [128.778307, 32.736329], [128.773424, 32.750607], [128.792823, 32.761044], [128.792749, 32.765331], [128.781573, 32.760937], [128.775035, 32.755383], [128.768369, 32.757136], [128.76572, 32.761663], [128.772953, 32.766935], [128.775755, 32.778217], [128.787231, 32.774823], [128.792562, 32.777045], [128.789513, 32.781556], [128.797553, 32.785006], [128.789582, 32.789339], [128.804982, 32.792479], [128.810656, 32.788084], [128.809104, 32.778226], [128.804273, 32.774999], [128.811713, 32.772573], [128.826204, 32.76024], [128.82257, 32.755768], [128.807235, 32.757673], [128.814507, 32.750681], [128.828375, 32.753819], [128.826518, 32.756859], [128.835257, 32.76043], [128.838538, 32.756044], [128.82978, 32.754257], [128.824656, 32.743864], [128.831125, 32.741643], [128.828596, 32.748956], [128.832089, 32.751922], [128.835238, 32.750636], [128.835846, 32.744835], [128.844103, 32.747615], [128.844669, 32.74965], [128.851922, 32.750129], [128.857098, 32.743374], [128.844237, 32.743757], [128.842746, 32.728107], [128.839544, 32.724757], [128.842976, 32.716291], [128.839417, 32.714933], [128.84068, 32.709449], [128.849142, 32.70465], [128.853155, 32.698135], [128.852794, 32.691683], [128.857063, 32.692374], [128.857627, 32.686154], [128.874878, 32.677208], [128.884988, 32.667654], [128.883516, 32.661934], [128.897392, 32.650839], [128.892737, 32.640752], [128.884399, 32.641987], [128.874213, 32.6381], [128.868357, 32.644594], [128.826387, 32.635479], [128.818142, 32.637142], [128.81406, 32.644364], [128.810598, 32.64679], [128.80873, 32.65539], [128.791355, 32.648114], [128.786091, 32.648815], [128.781691, 32.644624], [128.770103, 32.64475], [128.765541, 32.638259], [128.764936, 32.634275], [128.766758, 32.625894], [128.761508, 32.623931], [128.761757, 32.619741], [128.76658, 32.616541], [128.767286, 32.622487], [128.772696, 32.619908], [128.773858, 32.612497], [128.783152, 32.61222], [128.789265, 32.607241], [128.790023, 32.600094], [128.793746, 32.598798], [128.793192, 32.591397], [128.788871, 32.588023], [128.779614, 32.585799], [128.771736, 32.573904], [128.753298, 32.578421], [128.754242, 32.581736], [128.751061, 32.586777], [128.751996, 32.590181], [128.735539, 32.607424], [128.718198, 32.606285], [128.716006, 32.603826], [128.695991, 32.605676], [128.688401, 32.602523], [128.67901, 32.607254], [128.665639, 32.608403], [128.655593, 32.601868], [128.660828, 32.595018], [128.656227, 32.590423], [128.64565, 32.594832], [128.636333, 32.593659], [128.631391, 32.604354], [128.624452, 32.608685], [128.613104, 32.608865], [128.604593, 32.611707], [128.598246, 32.612643], [128.600484, 32.619358], [128.609088, 32.627471], [128.606818, 32.636408], [128.611266, 32.641132], [128.611526, 32.646957], [128.616261, 32.646039], [128.615625, 32.635868], [128.62268, 32.634183]], [[128.903611, 32.708074], [128.905779, 32.704947], [128.898598, 32.702374], [128.902006, 32.695959], [128.896659, 32.694441], [128.893532, 32.705762], [128.897106, 32.711781], [128.903611, 32.708074]], [[128.867168, 32.726396], [128.868184, 32.723192], [128.861895, 32.720188], [128.857622, 32.727102], [128.859581, 32.727969], [128.867168, 32.726396]], [[128.590588, 32.727242], [128.601221, 32.739787], [128.608953, 32.740204], [128.608647, 32.733044], [128.600346, 32.729001], [128.603453, 32.718746], [128.601347, 32.712674], [128.591375, 32.712684], [128.591165, 32.71573], [128.590588, 32.727242]], [[128.881299, 32.750326], [128.878387, 32.740131], [128.874547, 32.738468], [128.872701, 32.743237], [128.8737, 32.748803], [128.881299, 32.750326]], [[128.988038, 32.756564], [128.987718, 32.767434], [128.988714, 32.769847], [128.985369, 32.778254], [128.988758, 32.787207], [128.992348, 32.79143], [128.99894, 32.78683], [129.007587, 32.771748], [129.002476, 32.767886], [129.004638, 32.759958], [129.000614, 32.754831], [129.007327, 32.754692], [129.004258, 32.750497], [128.993707, 32.750238], [128.991182, 32.753862], [128.984938, 32.74873], [128.986074, 32.741831], [128.97932, 32.746094], [128.972423, 32.74381], [128.971823, 32.748276], [128.966503, 32.745428], [128.962664, 32.750423], [128.969956, 32.756603], [128.978577, 32.757421], [128.97917, 32.760449], [128.988038, 32.756564]], [[128.957138, 32.762607], [128.953502, 32.773179], [128.957992, 32.777007], [128.967587, 32.768082], [128.967781, 32.763747], [128.957138, 32.762607]], [[128.93624, 32.799531], [128.930502, 32.799554], [128.929488, 32.807475], [128.935927, 32.80764], [128.93624, 32.799531]], [[128.861236, 32.834903], [128.865093, 32.82299], [128.863646, 32.815949], [128.866121, 32.808162], [128.861764, 32.804158], [128.862605, 32.801836], [128.869624, 32.8024], [128.876288, 32.797668], [128.876723, 32.803077], [128.873187, 32.808484], [128.878711, 32.8111], [128.876008, 32.816468], [128.867709, 32.821677], [128.86939, 32.824417], [128.86568, 32.827354], [128.869149, 32.830977], [128.865166, 32.832834], [128.861609, 32.843614], [128.870586, 32.841872], [128.884202, 32.833861], [128.88527, 32.826193], [128.894167, 32.82509], [128.900643, 32.821649], [128.900256, 32.814612], [128.905841, 32.813451], [128.903046, 32.80284], [128.910574, 32.79694], [128.904273, 32.796266], [128.901218, 32.786783], [128.892865, 32.784417], [128.890889, 32.778647], [128.885751, 32.775585], [128.883022, 32.764743], [128.864534, 32.763666], [128.850956, 32.778286], [128.836151, 32.779312], [128.838173, 32.789759], [128.832781, 32.798132], [128.839632, 32.801044], [128.837799, 32.804328], [128.83787, 32.809197], [128.840294, 32.812791], [128.83587, 32.816653], [128.839619, 32.830551], [128.832345, 32.829445], [128.838098, 32.838371], [128.844023, 32.833477], [128.850088, 32.834047], [128.847924, 32.829417], [128.855663, 32.830677], [128.856045, 32.836482], [128.861236, 32.834903]], [[128.678804, 32.802458], [128.672051, 32.807177], [128.680218, 32.810526], [128.682947, 32.806619], [128.678804, 32.802458]], [[128.928956, 32.845316], [128.928938, 32.839033], [128.936972, 32.849407], [128.932275, 32.852455], [128.931737, 32.860925], [128.92309, 32.866329], [128.922589, 32.870118], [128.927771, 32.872091], [128.934951, 32.862242], [128.935719, 32.855252], [128.940894, 32.851895], [128.942476, 32.862904], [128.949363, 32.873321], [128.9404, 32.883857], [128.94818, 32.881693], [128.958371, 32.869048], [128.964723, 32.851441], [128.956315, 32.84887], [128.953769, 32.846391], [128.957638, 32.842387], [128.954061, 32.834065], [128.96074, 32.830976], [128.954849, 32.828207], [128.947255, 32.83371], [128.941504, 32.827344], [128.945294, 32.818199], [128.950071, 32.818994], [128.952073, 32.81604], [128.945088, 32.808056], [128.943399, 32.800118], [128.939823, 32.800236], [128.939793, 32.80686], [128.937699, 32.816759], [128.939825, 32.823775], [128.935092, 32.828759], [128.932296, 32.81766], [128.914274, 32.820787], [128.915228, 32.825218], [128.920553, 32.821768], [128.928773, 32.823318], [128.929894, 32.828274], [128.922403, 32.837115], [128.920078, 32.843237], [128.912839, 32.839663], [128.913587, 32.844302], [128.910462, 32.847792], [128.900771, 32.85078], [128.903236, 32.855662], [128.895725, 32.85805], [128.891942, 32.863861], [128.888095, 32.862116], [128.892437, 32.853706], [128.889959, 32.851952], [128.880836, 32.853322], [128.877919, 32.866025], [128.879547, 32.867794], [128.889765, 32.866514], [128.888502, 32.877502], [128.895001, 32.878382], [128.901225, 32.869881], [128.906741, 32.874769], [128.91183, 32.869503], [128.916311, 32.870135], [128.92127, 32.861145], [128.926703, 32.85334], [128.924459, 32.848029], [128.928956, 32.845316]], [[128.998587, 32.887433], [128.996764, 32.89505], [128.980442, 32.904149], [128.986129, 32.913233], [128.97976, 32.91358], [128.981496, 32.917053], [128.986845, 32.920182], [128.989539, 32.926981], [128.982526, 32.930138], [128.989251, 32.933008], [128.998944, 32.927506], [129.001211, 32.919624], [129.010703, 32.925967], [129.01591, 32.923644], [129.016626, 32.919484], [129.020852, 32.917539], [129.023777, 32.91273], [129.023813, 32.903403], [129.027971, 32.903907], [129.033341, 32.895197], [129.025143, 32.892994], [129.022338, 32.889051], [129.025903, 32.887099], [129.028934, 32.877252], [129.027143, 32.873584], [129.029074, 32.870419], [129.026657, 32.865345], [129.023191, 32.863586], [129.03027, 32.854352], [129.027639, 32.84488], [129.021068, 32.851933], [129.021274, 32.857723], [129.010629, 32.856668], [129.012906, 32.860947], [129.022483, 32.862278], [129.012585, 32.868489], [129.006836, 32.860119], [128.999269, 32.868321], [128.986487, 32.866675], [128.982173, 32.85921], [128.976443, 32.859514], [128.981983, 32.870363], [128.965958, 32.872188], [128.974967, 32.878299], [128.96929, 32.882477], [128.964815, 32.896447], [128.960897, 32.899836], [128.961649, 32.90363], [128.971526, 32.903415], [128.975019, 32.898426], [128.983281, 32.894841], [128.985865, 32.889552], [128.991234, 32.894542], [128.999295, 32.884056], [128.998875, 32.878289], [129.004411, 32.881543], [128.998587, 32.887433]], [[128.909639, 32.885903], [128.904583, 32.88972], [128.910494, 32.890086], [128.916905, 32.89692], [128.918688, 32.895161], [128.91595, 32.886089], [128.909639, 32.885903]], [[128.969117, 32.925679], [128.957085, 32.914592], [128.956904, 32.907882], [128.965088, 32.914048], [128.969336, 32.909284], [128.957148, 32.906984], [128.954276, 32.909763], [128.947972, 32.905619], [128.937802, 32.909675], [128.930181, 32.919521], [128.934698, 32.920446], [128.936649, 32.925604], [128.94681, 32.925008], [128.948292, 32.91933], [128.956433, 32.916066], [128.957379, 32.927499], [128.963675, 32.932517], [128.969017, 32.92998], [128.969117, 32.925679]], [[128.984751, 32.959499], [128.989858, 32.965769], [128.995213, 32.963452], [128.994765, 32.952413], [128.988415, 32.953817], [128.983161, 32.948889], [128.978991, 32.954414], [128.977712, 32.958636], [128.984751, 32.959499]], [[129.032164, 33.014594], [129.026132, 33.007929], [129.015943, 33.008734], [129.007838, 33.001393], [129.004827, 33.002854], [129.008696, 33.008612], [129.015125, 33.010861], [129.016144, 33.014321], [129.032164, 33.014594]], [[128.893839, 33.167684], [128.90243, 33.174106], [128.904226, 33.166501], [128.893839, 33.167684]], [[129.023219, 33.17894], [129.015598, 33.179357], [129.017313, 33.184927], [129.025257, 33.182401], [129.023219, 33.17894]], [[128.980538, 33.184893], [128.978541, 33.188129], [128.983955, 33.193349], [128.994174, 33.190858], [128.98299, 33.187227], [128.980538, 33.184893]], [[129.027207, 33.203605], [129.022327, 33.199743], [129.011736, 33.203047], [129.013703, 33.210519], [129.01439, 33.213127], [129.025537, 33.212665], [129.027207, 33.203605]], [[129.031004, 32.875223], [129.030169, 32.882106], [129.034857, 32.882749], [129.036574, 32.868266], [129.030624, 32.870645], [129.031004, 32.875223]], [[129.191262, 32.924527], [129.196536, 32.920936], [129.191055, 32.917479], [129.184677, 32.917947], [129.185887, 32.922526], [129.191262, 32.924527]], [[129.025353, 32.993496], [129.024063, 32.984109], [129.021034, 32.986031], [129.025353, 32.993496]], [[129.052027, 32.884818], [129.056708, 32.888934], [129.048728, 32.895169], [129.043205, 32.892756], [129.03859, 32.899352], [129.041608, 32.907532], [129.059039, 32.906574], [129.061456, 32.903677], [129.06026, 32.895251], [129.065155, 32.898095], [129.062698, 32.909711], [129.052377, 32.910492], [129.048193, 32.916339], [129.050696, 32.921453], [129.040036, 32.922213], [129.036811, 32.925689], [129.033654, 32.918475], [129.026214, 32.919529], [129.032328, 32.932659], [129.037978, 32.927208], [129.040978, 32.929999], [129.035526, 32.945821], [129.031833, 32.936352], [129.027969, 32.93965], [129.022829, 32.932039], [129.018777, 32.938742], [129.014748, 32.949116], [129.006738, 32.940185], [128.999445, 32.941267], [128.991691, 32.943849], [129.004828, 32.94537], [129.007493, 32.952591], [128.997829, 32.953285], [129.000868, 32.958922], [128.997058, 32.965092], [129.009751, 32.971046], [129.01161, 32.97612], [129.016844, 32.974429], [129.019611, 32.976628], [129.023769, 32.973408], [129.022728, 32.968441], [129.03002, 32.960588], [129.03264, 32.97218], [129.036456, 32.971324], [129.0402, 32.976588], [129.04768, 32.97625], [129.049927, 32.959394], [129.052825, 32.964677], [129.052357, 32.978908], [129.056812, 32.980949], [129.049785, 32.98666], [129.048655, 32.981388], [129.043776, 32.986449], [129.046082, 32.991996], [129.049862, 32.995585], [129.041208, 33.003399], [129.041838, 33.011026], [129.04537, 33.014592], [129.041728, 33.018446], [129.044827, 33.025349], [129.042299, 33.027718], [129.047048, 33.030654], [129.046226, 33.034835], [129.053281, 33.036325], [129.050181, 33.041167], [129.062167, 33.041539], [129.065882, 33.039551], [129.069679, 33.01971], [129.074323, 33.018855], [129.084157, 33.025346], [129.080784, 33.02975], [129.081681, 33.032442], [129.077394, 33.036694], [129.078685, 33.041073], [129.084692, 33.043424], [129.081013, 33.046652], [129.074228, 33.056518], [129.08243, 33.058933], [129.085478, 33.076144], [129.101596, 33.080047], [129.107646, 33.087872], [129.105308, 33.093182], [129.109714, 33.100714], [129.098068, 33.104457], [129.104477, 33.113398], [129.094284, 33.121415], [129.099213, 33.124944], [129.095154, 33.129499], [129.100726, 33.133096], [129.100853, 33.139709], [129.108019, 33.153137], [129.107349, 33.158967], [129.110437, 33.163482], [129.115018, 33.164058], [129.117703, 33.156537], [129.110717, 33.147896], [129.114127, 33.141772], [129.110558, 33.131743], [129.102983, 33.12416], [129.111141, 33.11549], [129.117389, 33.114616], [129.120798, 33.107073], [129.120196, 33.098876], [129.11743, 33.095308], [129.117819, 33.086677], [129.112549, 33.084022], [129.114476, 33.079917], [129.11016, 33.076051], [129.111477, 33.071472], [129.108643, 33.068017], [129.108589, 33.063918], [129.104348, 33.060713], [129.098357, 33.052601], [129.105043, 33.048927], [129.101378, 33.04656], [129.098313, 33.041717], [129.091254, 33.03848], [129.093028, 33.032234], [129.097637, 33.032508], [129.098245, 33.025702], [129.089439, 33.016419], [129.096552, 33.000607], [129.092433, 32.994619], [129.087075, 32.984204], [129.094735, 32.986216], [129.097692, 32.980264], [129.108679, 32.980967], [129.113844, 32.985467], [129.109413, 32.989843], [129.118708, 32.990119], [129.125487, 32.987064], [129.126616, 32.991519], [129.132622, 32.99159], [129.133284, 33.002044], [129.137971, 32.998842], [129.146889, 33.00355], [129.149609, 33.00002], [129.15754, 32.999923], [129.161107, 33.00691], [129.169359, 32.998708], [129.171759, 33.006188], [129.174924, 33.007209], [129.183299, 33.002163], [129.17758, 32.999818], [129.179025, 32.997278], [129.177255, 32.989564], [129.183607, 32.978821], [129.183053, 32.972856], [129.172544, 32.970809], [129.16973, 32.964844], [129.149976, 32.957545], [129.140419, 32.936834], [129.13098, 32.944987], [129.128239, 32.939445], [129.117804, 32.938519], [129.114422, 32.94874], [129.103734, 32.955157], [129.105103, 32.958473], [129.101594, 32.961521], [129.101288, 32.950804], [129.106946, 32.950403], [129.111441, 32.941207], [129.109368, 32.931595], [129.109395, 32.926425], [129.102971, 32.92788], [129.089529, 32.92258], [129.095862, 32.919062], [129.09661, 32.914716], [129.089248, 32.909825], [129.094246, 32.907736], [129.095468, 32.903328], [129.085044, 32.904466], [129.085404, 32.900058], [129.081174, 32.895848], [129.088053, 32.893797], [129.09245, 32.890829], [129.088637, 32.881945], [129.094961, 32.881566], [129.093779, 32.877406], [129.097513, 32.87413], [129.100178, 32.859923], [129.091002, 32.854894], [129.077679, 32.861576], [129.072189, 32.859387], [129.066076, 32.862518], [129.063161, 32.848839], [129.062912, 32.843919], [129.068659, 32.835703], [129.068719, 32.828385], [129.062902, 32.816618], [129.043247, 32.82238], [129.045281, 32.829303], [129.050365, 32.835776], [129.050099, 32.839514], [129.045094, 32.840657], [129.045183, 32.850654], [129.048803, 32.853316], [129.041289, 32.859646], [129.047193, 32.860452], [129.047437, 32.868113], [129.039819, 32.881746], [129.049857, 32.8744], [129.052308, 32.87904], [129.042945, 32.885602], [129.052027, 32.884818]], [[129.233943, 32.988723], [129.240286, 32.995748], [129.239498, 32.999551], [129.222492, 32.998189], [129.221749, 33.000935], [129.247197, 33.023295], [129.246515, 33.016749], [129.250067, 33.013153], [129.254969, 33.013553], [129.255276, 33.019134], [129.260619, 33.021006], [129.252963, 33.007295], [129.252194, 33.00159], [129.249679, 32.996679], [129.245661, 32.993234], [129.233943, 32.988723]], [[129.344558, 32.998014], [129.345639, 33.003295], [129.340405, 33.00761], [129.34421, 33.010552], [129.34221, 33.015672], [129.352749, 33.021202], [129.35505, 33.020238], [129.354769, 33.011212], [129.36244, 33.004278], [129.35159, 33.003086], [129.350362, 32.997738], [129.344558, 32.998014]], [[129.177265, 33.015886], [129.189122, 33.014292], [129.18882, 33.020002], [129.196026, 33.018034], [129.194501, 33.015114], [129.197445, 33.010192], [129.191443, 33.006482], [129.185944, 33.009115], [129.179614, 33.006539], [129.174549, 33.011776], [129.177265, 33.015886]], [[129.431478, 33.019003], [129.433619, 33.021839], [129.438864, 33.017734], [129.436964, 33.015716], [129.431478, 33.019003]], [[129.025194, 33.175433], [129.026841, 33.169406], [129.018202, 33.165212], [129.017609, 33.170348], [129.025194, 33.175433]], [[129.122764, 33.213716], [129.130581, 33.204312], [129.135501, 33.203692], [129.134898, 33.196735], [129.143538, 33.192411], [129.131358, 33.185301], [129.135143, 33.166454], [129.132317, 33.158516], [129.124642, 33.162457], [129.119668, 33.178502], [129.124655, 33.188825], [129.114921, 33.207971], [129.122764, 33.213716]], [[129.339609, 33.189989], [129.341841, 33.187661], [129.33747, 33.183134], [129.334233, 33.183111], [129.334769, 33.188935], [129.339609, 33.189989]], [[129.082455, 33.210364], [129.088818, 33.215203], [129.097271, 33.215632], [129.09953, 33.211551], [129.096038, 33.206883], [129.09174, 33.210789], [129.079747, 33.207944], [129.083992, 33.198895], [129.08215, 33.195903], [129.094409, 33.192551], [129.088939, 33.186062], [129.080714, 33.190814], [129.072321, 33.187894], [129.0684, 33.193752], [129.063805, 33.194911], [129.060062, 33.192488], [129.057724, 33.188121], [129.049658, 33.182803], [129.04351, 33.19118], [129.046694, 33.195972], [129.032919, 33.195109], [129.028365, 33.20139], [129.032677, 33.204919], [129.039219, 33.20665], [129.048107, 33.213866], [129.04918, 33.216121], [129.057124, 33.219972], [129.057184, 33.214774], [129.055216, 33.210576], [129.065061, 33.209734], [129.069404, 33.211561], [129.082455, 33.210364]], [[129.063928, 33.224973], [129.061541, 33.2257], [129.075062, 33.223107], [129.067642, 33.217109], [129.063928, 33.224973]], [[129.136151, 33.219821], [129.130388, 33.221197], [129.130037, 33.225978], [129.133348, 33.227804], [129.140843, 33.223035], [129.136151, 33.219821]], [[129.070911, 33.244518], [129.067797, 33.248517], [129.061302, 33.247643], [129.063647, 33.251427], [129.072655, 33.255029], [129.07533, 33.247884], [129.070911, 33.244518]], [[129.124256, 33.301996], [129.12811, 33.303249], [129.13302, 33.298595], [129.136872, 33.299856], [129.137399, 33.29302], [129.14229, 33.283457], [129.14026, 33.27796], [129.156595, 33.271218], [129.134076, 33.25975], [129.128319, 33.259341], [129.132909, 33.252561], [129.127336, 33.248899], [129.128144, 33.246681], [129.118788, 33.244949], [129.103315, 33.250746], [129.097733, 33.249061], [129.09207, 33.255247], [129.092638, 33.259466], [129.086958, 33.259565], [129.087193, 33.26282], [129.075986, 33.265098], [129.07029, 33.271326], [129.080529, 33.278819], [129.085474, 33.283601], [129.091831, 33.287401], [129.097288, 33.285372], [129.101718, 33.28919], [129.107572, 33.286435], [129.108697, 33.290693], [129.114271, 33.287513], [129.115362, 33.291218], [129.124613, 33.293067], [129.124256, 33.301996]], [[129.426827, 33.247227], [129.410479, 33.248953], [129.412193, 33.26069], [129.403684, 33.265374], [129.407911, 33.267866], [129.404295, 33.271524], [129.423404, 33.281243], [129.421124, 33.283822], [129.424034, 33.290686], [129.441277, 33.292639], [129.446914, 33.296988], [129.438493, 33.299526], [129.440902, 33.303974], [129.432527, 33.314386], [129.437681, 33.317554], [129.436922, 33.324352], [129.442934, 33.325023], [129.443531, 33.331252], [129.439244, 33.338501], [129.442434, 33.342278], [129.436893, 33.344685], [129.43737, 33.34787], [129.441628, 33.352149], [129.454294, 33.348693], [129.467141, 33.353998], [129.476034, 33.350656], [129.481613, 33.35587], [129.498624, 33.35543], [129.506447, 33.366504], [129.503238, 33.374059], [129.51221, 33.381737], [129.519591, 33.380125], [129.517301, 33.373507], [129.519359, 33.36733], [129.513718, 33.356795], [129.516536, 33.353951], [129.524063, 33.35453], [129.525185, 33.362555], [129.531814, 33.369021], [129.530793, 33.375711], [129.541256, 33.377188], [129.546672, 33.376425], [129.552435, 33.381274], [129.549991, 33.388003], [129.545606, 33.385461], [129.542237, 33.390469], [129.521941, 33.386883], [129.51781, 33.391257], [129.527542, 33.394127], [129.52636, 33.396697], [129.517844, 33.400084], [129.524123, 33.406725], [129.529334, 33.404696], [129.533357, 33.401021], [129.542779, 33.408704], [129.555002, 33.40933], [129.559153, 33.400971], [129.555957, 33.396499], [129.563413, 33.390352], [129.559627, 33.387829], [129.559177, 33.383171], [129.562932, 33.381958], [129.553113, 33.369061], [129.558498, 33.370716], [129.558431, 33.365909], [129.570147, 33.3571], [129.545793, 33.348698], [129.546172, 33.339901], [129.541381, 33.336163], [129.544372, 33.330669], [129.535962, 33.332992], [129.520425, 33.326078], [129.520305, 33.329832], [129.513846, 33.330446], [129.51592, 33.323665], [129.532104, 33.311382], [129.527368, 33.302948], [129.518193, 33.304342], [129.500464, 33.300581], [129.505475, 33.298553], [129.510011, 33.287655], [129.49299, 33.2816], [129.492782, 33.29067], [129.485455, 33.28402], [129.490402, 33.280245], [129.497358, 33.278099], [129.504436, 33.271521], [129.501236, 33.259226], [129.493819, 33.252281], [129.48782, 33.251165], [129.485166, 33.241778], [129.472465, 33.230074], [129.463535, 33.213809], [129.452523, 33.213744], [129.452633, 33.206409], [129.44739, 33.206967], [129.442735, 33.197753], [129.433994, 33.190926], [129.405017, 33.180807], [129.393796, 33.173387], [129.374449, 33.169193], [129.34851, 33.182294], [129.358464, 33.188935], [129.356241, 33.198049], [129.356507, 33.202572], [129.362817, 33.203129], [129.370038, 33.192267], [129.37319, 33.184476], [129.384814, 33.187267], [129.393112, 33.183682], [129.397824, 33.183112], [129.404125, 33.186557], [129.402476, 33.191664], [129.407388, 33.195958], [129.400329, 33.199355], [129.393092, 33.196958], [129.392515, 33.200121], [129.380416, 33.20799], [129.379397, 33.22055], [129.383805, 33.229562], [129.390244, 33.230358], [129.393037, 33.234458], [129.396329, 33.23929], [129.406913, 33.237542], [129.408314, 33.240119], [129.424998, 33.226147], [129.427841, 33.232282], [129.435812, 33.23778], [129.431808, 33.23893], [129.42782, 33.236449], [129.423221, 33.240931], [129.426827, 33.247227]], [[129.420569, 33.4322], [129.434591, 33.442671], [129.432916, 33.434873], [129.437254, 33.431301], [129.427934, 33.422117], [129.4337, 33.42028], [129.428365, 33.409318], [129.434963, 33.405017], [129.437372, 33.39384], [129.431319, 33.387016], [129.430003, 33.378579], [129.437273, 33.365812], [129.437136, 33.357796], [129.435074, 33.354821], [129.415093, 33.350998], [129.397404, 33.361122], [129.403804, 33.363653], [129.413185, 33.390001], [129.412573, 33.398457], [129.421639, 33.408491], [129.423501, 33.420943], [129.420569, 33.4322]], [[129.513458, 33.425761], [129.506104, 33.424831], [129.506856, 33.435231], [129.524078, 33.442412], [129.528353, 33.453715], [129.5451, 33.441844], [129.537163, 33.44233], [129.537234, 33.436951], [129.520645, 33.434242], [129.513404, 33.431065], [129.513458, 33.425761]], [[129.198464, 34.274062], [129.19367, 34.274458], [129.19793, 34.282542], [129.195014, 34.286088], [129.198818, 34.301572], [129.195789, 34.312486], [129.200718, 34.314], [129.198052, 34.318759], [129.203433, 34.323613], [129.205189, 34.331508], [129.215057, 34.326471], [129.221238, 34.331448], [129.227817, 34.3242], [129.229089, 34.315961], [129.222896, 34.309473], [129.222362, 34.290527], [129.227733, 34.297743], [129.231733, 34.292053], [129.235473, 34.293741], [129.237881, 34.300605], [129.244342, 34.297937], [129.255928, 34.311554], [129.256761, 34.302449], [129.252258, 34.303502], [129.251529, 34.298971], [129.260085, 34.300512], [129.256694, 34.292226], [129.263037, 34.291381], [129.262137, 34.299778], [129.266351, 34.30518], [129.279921, 34.306077], [129.282433, 34.303121], [129.27852, 34.297611], [129.282333, 34.293044], [129.281975, 34.284599], [129.290945, 34.277786], [129.291395, 34.281605], [129.284332, 34.289924], [129.293342, 34.290834], [129.283343, 34.298285], [129.282262, 34.305636], [129.276734, 34.309338], [129.26751, 34.321435], [129.270693, 34.323961], [129.276003, 34.320886], [129.280505, 34.316016], [129.288185, 34.320528], [129.286742, 34.313492], [129.294655, 34.320215], [129.29268, 34.308759], [129.29881, 34.309634], [129.296409, 34.300466], [129.302018, 34.30156], [129.305598, 34.295802], [129.298237, 34.282095], [129.309483, 34.283904], [129.314497, 34.286015], [129.313147, 34.290668], [129.321186, 34.29443], [129.322837, 34.293196], [129.329956, 34.298252], [129.339198, 34.299556], [129.345657, 34.295121], [129.350511, 34.289648], [129.346003, 34.286199], [129.353367, 34.276831], [129.341619, 34.278036], [129.334861, 34.271581], [129.329612, 34.275908], [129.324073, 34.267623], [129.326827, 34.262714], [129.317149, 34.261961], [129.323771, 34.256114], [129.318506, 34.254567], [129.315306, 34.242698], [129.320628, 34.240082], [129.323356, 34.235103], [129.325853, 34.226132], [129.318452, 34.227198], [129.318714, 34.223785], [129.305011, 34.215026], [129.304708, 34.221613], [129.297968, 34.222031], [129.29596, 34.215075], [129.304486, 34.210744], [129.30064, 34.208167], [129.298376, 34.202213], [129.299294, 34.194611], [129.29208, 34.195106], [129.292031, 34.191694], [129.296368, 34.179588], [129.28847, 34.176148], [129.297126, 34.172844], [129.294548, 34.170327], [129.296049, 34.161785], [129.284627, 34.164378], [129.284584, 34.157589], [129.280512, 34.153916], [129.285258, 34.144962], [129.275343, 34.146989], [129.273719, 34.14489], [129.282577, 34.130953], [129.276367, 34.133145], [129.275634, 34.127979], [129.26424, 34.126106], [129.257851, 34.128646], [129.254004, 34.125361], [129.262156, 34.122695], [129.262429, 34.116689], [129.254342, 34.109622], [129.249355, 34.112795], [129.2399, 34.101619], [129.237249, 34.102901], [129.23578, 34.112777], [129.231246, 34.113458], [129.229635, 34.094865], [129.219539, 34.096388], [129.22024, 34.088202], [129.214176, 34.083928], [129.212706, 34.088411], [129.217625, 34.100379], [129.211643, 34.104782], [129.215559, 34.110149], [129.21417, 34.113077], [129.205761, 34.107575], [129.202753, 34.103455], [129.196785, 34.105813], [129.196513, 34.112883], [129.183855, 34.118664], [129.1823, 34.115047], [129.177094, 34.113246], [129.173669, 34.105991], [129.166685, 34.103755], [129.172131, 34.117765], [129.16762, 34.129701], [129.16759, 34.141896], [129.169828, 34.14709], [129.176324, 34.149408], [129.172935, 34.152394], [129.17492, 34.158143], [129.172765, 34.165536], [129.178538, 34.168334], [129.176299, 34.17611], [129.181915, 34.187283], [129.179865, 34.187981], [129.178178, 34.188749], [129.179619, 34.219518], [129.182085, 34.227565], [129.190951, 34.233779], [129.191292, 34.235773], [129.185458, 34.249267], [129.194344, 34.267233], [129.199192, 34.27017], [129.198464, 34.274062]], [[129.347387, 34.286359], [129.354484, 34.28621], [129.351605, 34.294356], [129.357753, 34.298889], [129.365352, 34.29752], [129.369382, 34.302671], [129.382882, 34.304176], [129.387255, 34.30378], [129.388073, 34.300268], [129.393535, 34.299687], [129.384164, 34.286393], [129.374534, 34.281383], [129.359803, 34.270495], [129.347387, 34.286359]], [[129.405521, 34.315077], [129.395562, 34.311798], [129.391257, 34.318073], [129.387903, 34.321269], [129.395152, 34.323563], [129.394163, 34.316354], [129.405521, 34.315077]], [[129.320196, 34.312493], [129.310951, 34.326201], [129.307598, 34.325717], [129.303599, 34.321102], [129.30081, 34.322578], [129.300109, 34.330913], [129.294977, 34.322723], [129.29054, 34.323647], [129.297241, 34.337133], [129.30306, 34.330904], [129.3201, 34.325808], [129.318478, 34.331514], [129.326561, 34.336374], [129.331239, 34.327069], [129.324058, 34.324733], [129.328433, 34.321429], [129.329766, 34.315215], [129.332853, 34.31333], [129.33362, 34.304472], [129.327453, 34.308495], [129.325415, 34.312555], [129.320196, 34.312493]], [[129.40439, 34.345053], [129.407639, 34.338171], [129.396338, 34.33397], [129.38989, 34.346641], [129.395046, 34.358953], [129.397056, 34.359879], [129.402916, 34.353663], [129.407108, 34.349325], [129.40439, 34.345053]], [[129.412648, 34.363239], [129.411378, 34.353304], [129.406722, 34.350427], [129.405104, 34.355454], [129.412648, 34.363239]], [[129.273778, 34.440877], [129.278263, 34.44425], [129.285733, 34.443604], [129.2906, 34.440255], [129.289633, 34.43403], [129.294909, 34.432857], [129.292208, 34.444925], [129.302857, 34.45571], [129.311976, 34.449941], [129.310662, 34.460465], [129.308917, 34.463712], [129.302554, 34.461364], [129.294825, 34.452109], [129.288168, 34.449177], [129.284304, 34.452138], [129.275183, 34.454424], [129.273845, 34.457092], [129.278419, 34.463809], [129.273257, 34.46605], [129.279892, 34.475529], [129.280096, 34.480787], [129.293006, 34.486221], [129.290369, 34.487536], [129.296888, 34.499513], [129.29643, 34.506045], [129.303379, 34.511337], [129.301456, 34.515256], [129.306332, 34.525985], [129.311774, 34.523305], [129.317429, 34.525796], [129.314805, 34.528665], [129.317759, 34.532987], [129.325572, 34.535102], [129.324967, 34.529924], [129.328553, 34.52794], [129.334583, 34.528679], [129.337966, 34.53507], [129.333342, 34.537406], [129.332031, 34.531921], [129.328285, 34.533462], [129.326953, 34.544232], [129.328303, 34.550646], [129.314201, 34.549249], [129.316122, 34.558488], [129.309913, 34.556872], [129.304648, 34.564664], [129.295199, 34.556101], [129.288753, 34.556154], [129.285733, 34.562765], [129.286799, 34.569221], [129.296819, 34.57526], [129.298815, 34.584643], [129.306176, 34.588949], [129.304967, 34.602609], [129.317733, 34.625897], [129.31974, 34.6472], [129.329795, 34.651213], [129.33381, 34.649698], [129.3355, 34.638133], [129.342193, 34.645432], [129.353265, 34.650046], [129.362054, 34.646462], [129.364516, 34.638532], [129.374163, 34.646953], [129.378725, 34.642658], [129.383608, 34.643778], [129.383517, 34.648561], [129.388534, 34.65072], [129.388268, 34.654626], [129.396383, 34.657398], [129.395662, 34.663142], [129.40115, 34.666474], [129.407747, 34.673426], [129.408328, 34.678335], [129.419235, 34.675647], [129.425177, 34.679412], [129.429391, 34.676959], [129.428341, 34.672355], [129.434797, 34.673194], [129.429492, 34.681693], [129.423216, 34.682762], [129.417782, 34.679123], [129.414892, 34.682278], [129.418915, 34.688841], [129.414101, 34.69028], [129.428117, 34.695125], [129.431848, 34.691082], [129.438957, 34.695724], [129.441186, 34.700966], [129.449686, 34.706617], [129.451476, 34.701424], [129.457453, 34.696776], [129.47372, 34.693373], [129.479055, 34.691509], [129.479882, 34.688275], [129.471269, 34.686771], [129.471414, 34.677909], [129.474306, 34.675763], [129.478774, 34.678605], [129.486267, 34.675458], [129.48714, 34.683438], [129.494021, 34.683507], [129.487597, 34.677856], [129.489632, 34.674529], [129.485351, 34.674529], [129.484106, 34.66757], [129.490702, 34.664725], [129.478947, 34.656731], [129.472047, 34.656717], [129.475015, 34.64899], [129.472009, 34.644023], [129.477258, 34.643991], [129.484506, 34.646126], [129.491257, 34.645142], [129.481557, 34.63219], [129.471001, 34.627459], [129.473065, 34.623086], [129.480422, 34.620223], [129.476536, 34.615478], [129.467925, 34.618858], [129.46748, 34.615439], [129.460437, 34.613757], [129.453835, 34.62631], [129.446604, 34.631799], [129.446792, 34.625476], [129.45258, 34.622846], [129.45138, 34.617424], [129.457893, 34.612663], [129.453723, 34.611056], [129.44627, 34.618803], [129.438162, 34.618207], [129.439315, 34.611955], [129.449206, 34.614763], [129.453685, 34.60272], [129.460183, 34.609441], [129.461985, 34.606456], [129.470768, 34.607989], [129.470601, 34.600804], [129.474083, 34.601167], [129.475712, 34.596195], [129.47941, 34.595122], [129.471308, 34.587761], [129.47606, 34.584785], [129.471244, 34.575264], [129.475775, 34.570034], [129.468936, 34.568233], [129.471804, 34.561404], [129.468532, 34.550172], [129.464487, 34.552389], [129.460016, 34.551158], [129.458257, 34.54392], [129.463712, 34.543649], [129.455947, 34.53189], [129.452228, 34.53494], [129.450018, 34.529213], [129.451281, 34.523029], [129.443534, 34.519336], [129.441637, 34.514301], [129.436741, 34.516069], [129.43527, 34.511637], [129.437071, 34.50738], [129.420008, 34.496916], [129.4172, 34.491813], [129.411294, 34.488346], [129.397789, 34.473359], [129.389385, 34.466649], [129.391021, 34.464008], [129.383377, 34.461118], [129.386319, 34.457306], [129.37809, 34.451344], [129.374748, 34.451022], [129.374068, 34.456674], [129.368295, 34.45271], [129.373789, 34.450669], [129.375702, 34.440121], [129.380553, 34.437911], [129.382481, 34.427958], [129.371214, 34.432812], [129.366366, 34.430808], [129.36739, 34.42428], [129.371803, 34.423235], [129.375435, 34.426032], [129.379483, 34.411818], [129.374765, 34.410108], [129.371918, 34.403612], [129.366635, 34.398983], [129.357529, 34.395129], [129.359956, 34.392617], [129.366513, 34.391078], [129.37656, 34.398535], [129.38206, 34.398791], [129.384759, 34.395628], [129.389899, 34.400869], [129.391558, 34.407606], [129.399486, 34.413109], [129.391906, 34.396892], [129.393917, 34.39251], [129.387446, 34.3898], [129.391167, 34.382941], [129.386021, 34.382934], [129.383069, 34.385407], [129.384605, 34.390557], [129.378003, 34.388243], [129.373685, 34.389071], [129.376752, 34.378446], [129.382987, 34.372561], [129.373441, 34.370783], [129.380949, 34.367549], [129.384534, 34.371895], [129.388716, 34.370562], [129.385572, 34.365599], [129.393379, 34.362407], [129.393497, 34.359818], [129.388709, 34.356231], [129.387767, 34.350543], [129.384043, 34.34821], [129.364741, 34.346367], [129.371431, 34.342446], [129.382816, 34.344207], [129.394675, 34.334806], [129.388917, 34.334848], [129.386674, 34.330212], [129.37496, 34.335407], [129.372914, 34.338384], [129.364328, 34.338583], [129.373391, 34.33138], [129.378129, 34.324852], [129.376807, 34.317005], [129.366772, 34.320847], [129.361246, 34.31936], [129.371272, 34.311761], [129.352916, 34.295533], [129.348531, 34.300987], [129.345225, 34.299741], [129.341193, 34.311334], [129.336533, 34.304434], [129.334278, 34.305314], [129.340375, 34.313391], [129.337749, 34.31718], [129.333138, 34.318644], [129.337994, 34.323569], [129.346843, 34.323887], [129.348549, 34.32976], [129.347142, 34.333112], [129.351823, 34.338105], [129.357522, 34.336454], [129.359703, 34.340358], [129.355719, 34.342505], [129.353752, 34.346927], [129.350386, 34.348866], [129.350327, 34.352923], [129.344035, 34.358996], [129.350207, 34.360911], [129.346091, 34.367841], [129.355593, 34.374753], [129.347199, 34.377166], [129.3436, 34.368562], [129.332456, 34.371201], [129.33882, 34.376834], [129.337946, 34.380696], [129.328458, 34.371064], [129.322931, 34.363718], [129.325884, 34.356196], [129.325842, 34.350701], [129.322947, 34.349977], [129.317678, 34.353933], [129.314323, 34.339978], [129.307577, 34.33685], [129.306609, 34.345613], [129.302489, 34.341062], [129.299766, 34.349634], [129.305272, 34.35456], [129.301896, 34.36717], [129.29841, 34.370483], [129.30697, 34.374965], [129.308234, 34.383261], [129.300117, 34.379742], [129.289654, 34.371944], [129.288637, 34.365757], [129.283441, 34.364735], [129.283964, 34.359036], [129.287771, 34.35669], [129.287286, 34.352494], [129.292078, 34.349104], [129.288053, 34.339222], [129.278512, 34.346982], [129.276519, 34.354561], [129.266443, 34.353197], [129.26235, 34.355071], [129.253879, 34.349743], [129.248871, 34.352097], [129.243869, 34.350387], [129.23382, 34.353143], [129.227324, 34.362397], [129.23278, 34.366321], [129.241384, 34.365859], [129.244925, 34.3601], [129.249935, 34.359124], [129.255858, 34.361166], [129.255481, 34.365127], [129.263417, 34.366565], [129.270811, 34.374802], [129.276526, 34.373139], [129.27415, 34.382273], [129.269924, 34.384339], [129.27203, 34.390468], [129.27455, 34.404408], [129.2717, 34.413928], [129.277428, 34.416093], [129.273461, 34.419656], [129.27633, 34.421656], [129.271066, 34.427688], [129.273917, 34.430399], [129.272764, 34.434059], [129.273778, 34.440877]], [[129.608254, 32.88739], [129.600079, 32.880353], [129.591006, 32.880541], [129.59059, 32.882973], [129.601897, 32.891171], [129.608254, 32.88739]], [[129.594757, 32.945169], [129.597711, 32.947525], [129.602182, 32.939826], [129.61766, 32.940235], [129.624503, 32.935707], [129.625471, 32.9263], [129.616514, 32.917229], [129.611806, 32.916383], [129.599109, 32.922725], [129.593372, 32.936801], [129.594757, 32.945169]], [[129.659407, 32.91039], [129.662592, 32.916313], [129.655123, 32.920765], [129.651718, 32.931343], [129.642269, 32.932722], [129.640218, 32.925441], [129.633927, 32.925274], [129.634316, 32.932471], [129.640183, 32.935297], [129.636044, 32.945051], [129.638348, 32.947533], [129.635216, 32.951054], [129.626573, 32.957539], [129.631341, 32.958578], [129.630546, 32.963683], [129.627609, 32.96783], [129.626464, 32.978077], [129.630075, 32.979123], [129.633, 32.987653], [129.640334, 32.9896], [129.642672, 32.995188], [129.646171, 32.986904], [129.651829, 32.986892], [129.651245, 32.998986], [129.654371, 33.002639], [129.655888, 33.008439], [129.649939, 33.017997], [129.647998, 33.016748], [129.64694, 33.037422], [129.649985, 33.041843], [129.659176, 33.039682], [129.65953, 33.050073], [129.663604, 33.054831], [129.662133, 33.060975], [129.667318, 33.064194], [129.672716, 33.071619], [129.67087, 33.073835], [129.67317, 33.080508], [129.678885, 33.086502], [129.673869, 33.088701], [129.673099, 33.093205], [129.679053, 33.099758], [129.692866, 33.092589], [129.696028, 33.087852], [129.700445, 33.090974], [129.706286, 33.078387], [129.708884, 33.081298], [129.707259, 33.087589], [129.717886, 33.082728], [129.721686, 33.077983], [129.717835, 33.076372], [129.718624, 33.07252], [129.723626, 33.071836], [129.726045, 33.076192], [129.729759, 33.075351], [129.733792, 33.066738], [129.73728, 33.064032], [129.729445, 33.057718], [129.728401, 33.05301], [129.731118, 33.05027], [129.727079, 33.046628], [129.736089, 33.046246], [129.737392, 33.05432], [129.739603, 33.0576], [129.74967, 33.060267], [129.750045, 33.053862], [129.762222, 33.048969], [129.752013, 33.038602], [129.746861, 33.041127], [129.737476, 33.016416], [129.736585, 33.012383], [129.731477, 33.00558], [129.732383, 32.999442], [129.737305, 32.998803], [129.738509, 32.988487], [129.745043, 32.987356], [129.743447, 32.99335], [129.750967, 32.996018], [129.755733, 32.99966], [129.76373, 32.999568], [129.762655, 33.005525], [129.758234, 33.002111], [129.75198, 33.003803], [129.761923, 33.016303], [129.75978, 33.020038], [129.764129, 33.021893], [129.770421, 33.01306], [129.779309, 33.013392], [129.78129, 33.007941], [129.786491, 33.005313], [129.790684, 33.009616], [129.800612, 33.008376], [129.807186, 32.999982], [129.810676, 32.992252], [129.815362, 32.987123], [129.82166, 32.983919], [129.821547, 32.977548], [129.825119, 32.974429], [129.823354, 32.970373], [129.818418, 32.968623], [129.811499, 32.969755], [129.808261, 32.962252], [129.793903, 32.967673], [129.808074, 32.961494], [129.808448, 32.961331], [129.809335, 32.960945], [129.80986, 32.960715], [129.816869, 32.953918], [129.815014, 32.945491], [129.817801, 32.944427], [129.817451, 32.933318], [129.813128, 32.932707], [129.816496, 32.926037], [129.809932, 32.916798], [129.801895, 32.917855], [129.798064, 32.922546], [129.801374, 32.928057], [129.798115, 32.930259], [129.802905, 32.934861], [129.8024, 32.938477], [129.795438, 32.939794], [129.799804, 32.949456], [129.7985, 32.954508], [129.786272, 32.94853], [129.783322, 32.941124], [129.783483, 32.933701], [129.787101, 32.931312], [129.789099, 32.92076], [129.784901, 32.918307], [129.793815, 32.914814], [129.790142, 32.912153], [129.785217, 32.914252], [129.783321, 32.908681], [129.787545, 32.90122], [129.790216, 32.899583], [129.792569, 32.908413], [129.796871, 32.909855], [129.80662, 32.908836], [129.803219, 32.902686], [129.804666, 32.894352], [129.810993, 32.894811], [129.808424, 32.886457], [129.802336, 32.882761], [129.794469, 32.882994], [129.790563, 32.885152], [129.791336, 32.872463], [129.797099, 32.87097], [129.799955, 32.863674], [129.817251, 32.863338], [129.816465, 32.860361], [129.825299, 32.855898], [129.841017, 32.842632], [129.846819, 32.835809], [129.84904, 32.841697], [129.854637, 32.844816], [129.848046, 32.853719], [129.851358, 32.854213], [129.852499, 32.860797], [129.857448, 32.847111], [129.865135, 32.847608], [129.86736, 32.850743], [129.87217, 32.851869], [129.873025, 32.858536], [129.87011, 32.860839], [129.881212, 32.864833], [129.878683, 32.874896], [129.889479, 32.874292], [129.889275, 32.87058], [129.894253, 32.868407], [129.898012, 32.879992], [129.903946, 32.877937], [129.90546, 32.872205], [129.908511, 32.86811], [129.912697, 32.866], [129.918765, 32.868703], [129.9241, 32.864287], [129.930431, 32.866518], [129.927282, 32.8599], [129.933301, 32.857257], [129.941015, 32.861987], [129.949979, 32.861197], [129.958307, 32.854585], [129.957464, 32.846872], [129.975125, 32.849197], [129.975532, 32.845093], [129.979742, 32.843954], [129.980879, 32.840473], [129.986422, 32.841622], [130.004954, 32.840474], [130.003532, 32.843915], [129.993954, 32.848852], [129.99108, 32.858452], [129.983021, 32.861648], [129.9788, 32.868246], [129.965141, 32.873246], [129.963354, 32.882081], [129.972461, 32.885891], [129.97122, 32.890376], [129.955806, 32.889701], [129.957553, 32.895607], [129.94857, 32.896054], [129.949575, 32.900817], [129.956463, 32.905378], [129.947678, 32.906847], [129.946009, 32.912228], [129.936863, 32.920228], [129.930702, 32.923718], [129.930178, 32.933835], [129.92712, 32.936287], [129.929978, 32.943745], [129.927411, 32.947781], [129.931117, 32.949127], [129.932019, 32.955671], [129.929291, 32.960123], [129.932125, 32.966075], [129.928327, 32.968693], [129.93579, 32.975642], [129.942101, 32.974289], [129.945939, 32.980758], [129.944079, 32.983376], [129.950799, 32.98635], [129.949184, 32.990723], [129.958014, 32.992239], [129.948231, 32.991076], [129.948207, 32.995995], [129.944285, 32.999522], [129.946966, 33.007208], [129.945179, 33.015844], [129.923962, 33.033221], [129.91757, 33.032463], [129.911096, 33.038128], [129.904287, 33.039367], [129.901042, 33.049413], [129.876837, 33.064371], [129.870939, 33.064904], [129.86314, 33.062711], [129.85458, 33.06241], [129.844877, 33.053148], [129.839066, 33.056173], [129.836644, 33.048435], [129.832906, 33.049428], [129.832656, 33.040076], [129.826528, 33.036224], [129.821223, 33.037384], [129.819824, 33.041866], [129.826877, 33.054082], [129.83762, 33.059283], [129.830894, 33.063808], [129.827711, 33.062013], [129.823981, 33.06764], [129.819547, 33.060968], [129.812576, 33.067861], [129.816475, 33.07167], [129.805656, 33.070447], [129.801295, 33.068425], [129.798339, 33.081894], [129.786153, 33.083237], [129.787042, 33.079078], [129.777093, 33.078482], [129.77549, 33.076131], [129.768329, 33.079843], [129.765017, 33.088711], [129.770122, 33.089817], [129.76684, 33.095513], [129.76317, 33.090094], [129.758793, 33.089437], [129.758064, 33.082712], [129.765603, 33.072687], [129.771825, 33.073342], [129.770931, 33.06595], [129.778146, 33.066416], [129.781326, 33.061997], [129.764739, 33.058606], [129.767591, 33.05009], [129.754613, 33.055808], [129.755058, 33.058716], [129.759436, 33.06202], [129.742034, 33.061752], [129.741891, 33.066063], [129.74518, 33.067878], [129.739465, 33.071602], [129.745899, 33.072919], [129.749306, 33.077538], [129.73948, 33.078696], [129.729513, 33.102039], [129.741047, 33.102208], [129.754198, 33.100042], [129.751522, 33.108443], [129.742949, 33.114755], [129.743642, 33.121499], [129.74714, 33.125447], [129.750874, 33.124742], [129.754694, 33.114004], [129.760672, 33.113744], [129.757316, 33.12011], [129.761837, 33.122389], [129.757608, 33.127616], [129.762123, 33.128158], [129.767319, 33.124778], [129.773743, 33.126098], [129.765415, 33.131583], [129.75785, 33.13132], [129.757764, 33.134927], [129.765402, 33.138706], [129.765678, 33.143295], [129.787366, 33.139352], [129.783537, 33.144693], [129.771232, 33.143248], [129.76785, 33.147185], [129.760913, 33.144225], [129.761184, 33.140466], [129.75486, 33.141261], [129.753736, 33.145235], [129.74839, 33.143759], [129.746829, 33.136542], [129.74191, 33.131973], [129.735948, 33.135554], [129.73064, 33.136444], [129.735334, 33.126436], [129.731418, 33.124107], [129.727988, 33.12862], [129.726658, 33.136222], [129.719686, 33.136482], [129.720491, 33.142488], [129.728738, 33.145932], [129.727498, 33.15041], [129.722255, 33.146091], [129.721001, 33.154083], [129.725994, 33.160448], [129.716143, 33.161803], [129.710428, 33.160601], [129.70993, 33.165386], [129.701619, 33.163242], [129.698934, 33.160394], [129.705987, 33.154385], [129.706481, 33.144377], [129.701985, 33.142731], [129.709564, 33.138974], [129.707784, 33.135324], [129.71073, 33.126725], [129.708119, 33.123063], [129.71172, 33.116051], [129.703772, 33.117613], [129.697688, 33.113018], [129.692366, 33.117351], [129.678234, 33.113703], [129.674425, 33.120087], [129.670671, 33.118409], [129.674749, 33.11247], [129.672656, 33.106608], [129.667459, 33.101218], [129.664816, 33.10212], [129.665584, 33.108655], [129.660188, 33.113064], [129.657934, 33.121588], [129.661215, 33.125199], [129.657279, 33.133207], [129.663672, 33.130231], [129.665452, 33.126251], [129.675156, 33.127706], [129.681181, 33.126073], [129.678743, 33.132657], [129.682537, 33.133145], [129.683419, 33.13952], [129.689174, 33.134288], [129.69069, 33.137054], [129.698553, 33.13685], [129.698111, 33.142476], [129.691092, 33.143589], [129.684482, 33.147119], [129.677078, 33.155075], [129.678264, 33.162487], [129.670718, 33.168887], [129.663467, 33.163755], [129.65893, 33.167143], [129.662438, 33.171422], [129.651904, 33.172068], [129.644355, 33.173711], [129.643154, 33.181213], [129.647332, 33.181781], [129.65486, 33.185835], [129.650797, 33.191576], [129.643861, 33.19764], [129.64718, 33.20661], [129.65303, 33.209802], [129.644623, 33.207355], [129.637121, 33.224695], [129.639174, 33.23079], [129.635451, 33.22366], [129.640103, 33.206784], [129.635756, 33.200206], [129.636709, 33.196], [129.624794, 33.190641], [129.617721, 33.196035], [129.619101, 33.200196], [129.62182, 33.21663], [129.615855, 33.203566], [129.611775, 33.207626], [129.604894, 33.20637], [129.595785, 33.208711], [129.591148, 33.21198], [129.581694, 33.212935], [129.585981, 33.218083], [129.57581, 33.216024], [129.568389, 33.216127], [129.564516, 33.217952], [129.558701, 33.214142], [129.553353, 33.216186], [129.552281, 33.221242], [129.554401, 33.224043], [129.56847, 33.229278], [129.565364, 33.236472], [129.561995, 33.239492], [129.55598, 33.241302], [129.556181, 33.2452], [129.5616, 33.249105], [129.56669, 33.247131], [129.567879, 33.263241], [129.573528, 33.259914], [129.581547, 33.27121], [129.589077, 33.271706], [129.586486, 33.283866], [129.589586, 33.284227], [129.588186, 33.294849], [129.595229, 33.297591], [129.6009, 33.306012], [129.606838, 33.311913], [129.615409, 33.307735], [129.622589, 33.309906], [129.609719, 33.313384], [129.607211, 33.316009], [129.597409, 33.311548], [129.591308, 33.304057], [129.58437, 33.306513], [129.582929, 33.311409], [129.576793, 33.307612], [129.576721, 33.313385], [129.562189, 33.324534], [129.563251, 33.333114], [129.574629, 33.32991], [129.57606, 33.332333], [129.572041, 33.336668], [129.571603, 33.345974], [129.577325, 33.362823], [129.568438, 33.370705], [129.56944, 33.377751], [129.57418, 33.375657], [129.577599, 33.38049], [129.582306, 33.377267], [129.598018, 33.381573], [129.594281, 33.375226], [129.590977, 33.375219], [129.592161, 33.368823], [129.596816, 33.374463], [129.603413, 33.373001], [129.606167, 33.3685], [129.616932, 33.372308], [129.625384, 33.364953], [129.632929, 33.362215], [129.6299, 33.370143], [129.647542, 33.364969], [129.646491, 33.371879], [129.655642, 33.371264], [129.657477, 33.377538], [129.666685, 33.38301], [129.667801, 33.386498], [129.664049, 33.391721], [129.672325, 33.399494], [129.677277, 33.390554], [129.685678, 33.387407], [129.680566, 33.382819], [129.676974, 33.383639], [129.674045, 33.368604], [129.67006, 33.37024], [129.668241, 33.365858], [129.674382, 33.361736], [129.673336, 33.3586], [129.677741, 33.353058], [129.686884, 33.354564], [129.686822, 33.361489], [129.696988, 33.361308], [129.696815, 33.353958], [129.702143, 33.351301], [129.703121, 33.347168], [129.714779, 33.3479], [129.725829, 33.350855], [129.723128, 33.353689], [129.727365, 33.356762], [129.730658, 33.361706], [129.735608, 33.359062], [129.739053, 33.364526], [129.745371, 33.367046], [129.755114, 33.365797], [129.76535, 33.355751], [129.771112, 33.354461], [129.771314, 33.359589], [129.776015, 33.362425], [129.77603, 33.371769], [129.78889, 33.37148], [129.791517, 33.368947], [129.788547, 33.359417], [129.793096, 33.352835], [129.792702, 33.341064], [129.776617, 33.332994], [129.758968, 33.290851], [129.76825, 33.285789], [129.776553, 33.26872], [129.777799, 33.270097], [129.808439, 33.243748], [129.814452, 33.242265], [129.813624, 33.233167], [129.809893, 33.230196], [129.81308, 33.220943], [129.806897, 33.211169], [129.810058, 33.201796], [129.816741, 33.197736], [129.817148, 33.184536], [129.837801, 33.173255], [129.842868, 33.176847], [129.851565, 33.177296], [129.857772, 33.170928], [129.869366, 33.169079], [129.872678, 33.165208], [129.885393, 33.161935], [129.887983, 33.156167], [129.895387, 33.159825], [129.905277, 33.15794], [129.91209, 33.162336], [129.917445, 33.160015], [129.927648, 33.163986], [129.943316, 33.164489], [129.941488, 33.157826], [129.948913, 33.133876], [129.95646, 33.127873], [129.956665, 33.118043], [129.951489, 33.110063], [129.938381, 33.112666], [129.925237, 33.105724], [129.923278, 33.106199], [129.926314, 33.104144], [129.924295, 33.090105], [129.933074, 33.088344], [129.939593, 33.072886], [129.982873, 33.057116], [129.996386, 33.044847], [129.993474, 33.039062], [130.000834, 33.025872], [130.014952, 33.017479], [130.027969, 33.020023], [130.028014, 33.012446], [130.042633, 33.003916], [130.026576, 32.999134], [130.043928, 33.004121], [130.051283, 32.992607], [130.059865, 32.986586], [130.076048, 32.987569], [130.085805, 32.979217], [130.086499, 32.974658], [130.095046, 32.975379], [130.13092, 32.968321], [130.144056, 32.971684], [130.150092, 32.962591], [130.202863, 32.958371], [130.203893, 32.955206], [130.200702, 32.952174], [130.20307, 32.946723], [130.199503, 32.942524], [130.19972, 32.938328], [130.203396, 32.932554], [130.201834, 32.929062], [130.193877, 32.9272], [130.18599, 32.922423], [130.188805, 32.918611], [130.17988, 32.914126], [130.167017, 32.915081], [130.164484, 32.906933], [130.158565, 32.90801], [130.155768, 32.898622], [130.152967, 32.899126], [130.174241, 32.870027], [130.195237, 32.848121], [130.224661, 32.860338], [130.235345, 32.871072], [130.245278, 32.874187], [130.261122, 32.871522], [130.279077, 32.878045], [130.296028, 32.878179], [130.297191, 32.881371], [130.307122, 32.878464], [130.310854, 32.872476], [130.319896, 32.868033], [130.305302, 32.854623], [130.320686, 32.86779], [130.326836, 32.862907], [130.334015, 32.859892], [130.341097, 32.855135], [130.340489, 32.850937], [130.35737, 32.816301], [130.365064, 32.812167], [130.365927, 32.803595], [130.380016, 32.784511], [130.378243, 32.77987], [130.373999, 32.774539], [130.373167, 32.767046], [130.370589, 32.764235], [130.377273, 32.747175], [130.374934, 32.737762], [130.357357, 32.7465], [130.372887, 32.737508], [130.352732, 32.715652], [130.350416, 32.709624], [130.345622, 32.708592], [130.350191, 32.7], [130.356738, 32.696994], [130.357562, 32.690502], [130.35409, 32.687702], [130.354123, 32.680774], [130.351158, 32.680665], [130.347325, 32.673191], [130.340204, 32.671535], [130.343273, 32.668489], [130.334825, 32.665207], [130.321781, 32.665092], [130.321627, 32.660099], [130.300497, 32.651345], [130.293458, 32.652876], [130.292374, 32.650284], [130.285383, 32.653246], [130.283338, 32.650742], [130.276507, 32.653979], [130.259588, 32.653096], [130.259395, 32.650527], [130.265997, 32.647957], [130.258905, 32.641589], [130.259491, 32.634316], [130.255282, 32.628678], [130.246871, 32.625162], [130.242238, 32.628476], [130.232019, 32.61722], [130.232297, 32.611385], [130.219216, 32.605626], [130.20376, 32.604247], [130.200601, 32.609183], [130.187083, 32.611686], [130.187825, 32.605926], [130.196118, 32.60524], [130.1979, 32.60159], [130.192468, 32.598741], [130.189274, 32.600726], [130.18115, 32.592752], [130.167372, 32.590727], [130.165408, 32.597709], [130.173966, 32.602811], [130.17513, 32.607275], [130.1696, 32.619565], [130.161623, 32.627087], [130.15366, 32.627671], [130.14566, 32.635587], [130.137391, 32.635721], [130.130241, 32.639946], [130.127282, 32.651139], [130.131302, 32.655848], [130.159117, 32.662106], [130.128902, 32.655531], [130.133127, 32.67868], [130.126955, 32.684239], [130.142815, 32.681434], [130.158422, 32.685428], [130.159869, 32.693985], [130.171326, 32.692215], [130.167074, 32.696789], [130.172446, 32.702677], [130.186449, 32.707741], [130.190133, 32.715346], [130.202019, 32.720448], [130.209994, 32.738759], [130.205792, 32.755522], [130.199929, 32.757659], [130.196867, 32.753575], [130.1931, 32.760526], [130.184023, 32.763413], [130.189654, 32.766984], [130.185761, 32.775039], [130.19329, 32.780227], [130.188657, 32.787519], [130.179061, 32.794558], [130.15474, 32.793667], [130.139941, 32.797332], [130.142413, 32.794184], [130.126699, 32.787649], [130.1034, 32.793614], [130.083567, 32.794598], [130.085633, 32.790884], [130.067781, 32.787754], [130.03944, 32.766118], [130.031753, 32.763962], [130.025306, 32.758732], [130.004965, 32.757831], [129.999891, 32.761324], [129.995619, 32.759545], [129.99483, 32.754372], [129.987361, 32.75605], [129.990899, 32.762895], [129.987721, 32.759106], [129.980523, 32.763534], [129.977013, 32.761204], [129.958338, 32.765164], [129.947275, 32.758892], [129.947379, 32.754423], [129.956449, 32.742126], [129.952969, 32.736419], [129.94576, 32.735974], [129.940589, 32.731814], [129.939417, 32.728763], [129.943078, 32.726017], [129.934134, 32.717471], [129.929243, 32.722945], [129.925756, 32.707834], [129.916063, 32.705524], [129.914412, 32.693344], [129.901518, 32.679406], [129.902079, 32.674252], [129.89571, 32.667715], [129.895789, 32.661895], [129.883691, 32.652427], [129.872471, 32.651004], [129.865873, 32.643612], [129.862876, 32.645283], [129.846463, 32.637603], [129.840449, 32.637823], [129.834914, 32.632435], [129.837662, 32.620751], [129.80451, 32.590699], [129.784908, 32.583004], [129.779886, 32.582971], [129.779662, 32.577647], [129.784489, 32.576994], [129.781355, 32.571561], [129.773514, 32.58096], [129.764241, 32.583123], [129.75504, 32.580575], [129.752601, 32.574612], [129.747733, 32.574611], [129.745345, 32.574611], [129.738256, 32.569944], [129.73579, 32.581069], [129.742335, 32.583456], [129.750371, 32.592527], [129.767122, 32.594858], [129.780256, 32.603864], [129.782471, 32.60838], [129.790618, 32.614762], [129.790111, 32.62629], [129.79173, 32.630212], [129.797226, 32.634624], [129.795628, 32.63647], [129.802326, 32.641318], [129.804523, 32.646515], [129.802516, 32.648325], [129.809779, 32.655879], [129.817257, 32.6547], [129.816279, 32.675062], [129.817875, 32.684808], [129.813083, 32.683529], [129.803303, 32.678026], [129.795314, 32.684609], [129.794222, 32.693297], [129.805356, 32.690881], [129.806327, 32.693628], [129.813169, 32.694313], [129.812023, 32.697205], [129.815908, 32.700515], [129.817712, 32.706291], [129.830089, 32.708329], [129.8259, 32.695661], [129.819962, 32.695016], [129.828943, 32.685993], [129.829353, 32.689663], [129.837227, 32.688804], [129.833312, 32.697443], [129.835809, 32.699778], [129.841989, 32.695655], [129.8476, 32.699092], [129.841636, 32.702142], [129.842894, 32.705669], [129.847607, 32.70574], [129.851824, 32.72079], [129.861016, 32.721807], [129.857612, 32.726609], [129.869961, 32.737407], [129.867868, 32.742348], [129.870377, 32.745405], [129.865323, 32.749225], [129.859394, 32.745198], [129.856713, 32.741036], [129.859066, 32.736978], [129.856608, 32.731419], [129.847569, 32.726515], [129.845582, 32.720135], [129.839962, 32.727313], [129.829656, 32.723106], [129.827702, 32.716298], [129.820501, 32.720343], [129.815459, 32.718161], [129.825735, 32.731828], [129.831952, 32.733523], [129.831431, 32.737605], [129.825957, 32.739967], [129.829603, 32.744272], [129.824084, 32.747222], [129.816172, 32.741174], [129.804558, 32.744064], [129.814232, 32.754911], [129.81449, 32.759014], [129.809667, 32.758688], [129.807459, 32.753569], [129.802999, 32.761729], [129.797035, 32.760073], [129.796565, 32.765043], [129.80057, 32.768786], [129.802513, 32.776065], [129.790494, 32.779151], [129.788118, 32.786111], [129.782338, 32.788363], [129.782266, 32.793331], [129.775966, 32.794934], [129.776629, 32.798143], [129.768302, 32.796943], [129.765736, 32.800123], [129.773494, 32.813863], [129.777108, 32.818976], [129.769817, 32.820743], [129.766775, 32.815918], [129.748529, 32.820454], [129.737507, 32.805688], [129.732656, 32.809117], [129.729845, 32.817543], [129.719279, 32.822132], [129.71795, 32.833881], [129.704266, 32.833638], [129.701712, 32.840152], [129.692935, 32.843334], [129.683681, 32.85308], [129.684177, 32.858359], [129.677264, 32.866977], [129.679964, 32.879626], [129.668542, 32.895477], [129.665471, 32.905758], [129.659407, 32.91039]], [[129.651592, 33.004538], [129.649147, 32.999498], [129.651533, 32.987194], [129.64626, 32.988587], [129.649659, 33.009866], [129.651592, 33.004538]], [[129.554753, 33.000773], [129.556922, 33.008692], [129.565201, 33.00779], [129.571291, 33.021927], [129.564061, 33.017763], [129.56172, 33.030487], [129.580073, 33.028023], [129.584339, 33.029248], [129.590367, 33.022493], [129.583597, 33.012876], [129.570618, 33.009206], [129.561979, 33.003331], [129.562229, 33.000664], [129.554753, 33.000773]], [[129.627798, 33.028598], [129.626835, 33.032398], [129.629434, 33.038257], [129.637551, 33.045119], [129.638436, 33.035443], [129.632404, 33.02999], [129.627798, 33.028598]], [[129.638469, 33.060214], [129.627369, 33.058138], [129.634487, 33.050867], [129.627411, 33.036749], [129.624353, 33.032818], [129.617854, 33.030153], [129.617769, 33.034023], [129.612879, 33.034151], [129.609288, 33.022237], [129.604838, 33.022936], [129.598983, 33.0234], [129.586202, 33.029921], [129.59179, 33.046744], [129.597802, 33.052446], [129.601835, 33.0512], [129.603285, 33.057101], [129.608477, 33.065394], [129.615533, 33.060402], [129.62527, 33.06002], [129.629497, 33.063951], [129.638469, 33.060214]], [[129.680468, 33.142402], [129.680532, 33.134773], [129.67035, 33.140271], [129.674458, 33.141963], [129.680468, 33.142402]], [[129.51803, 33.135463], [129.508073, 33.138315], [129.515031, 33.140482], [129.543717, 33.151762], [129.550869, 33.143886], [129.549952, 33.136332], [129.539757, 33.137682], [129.535633, 33.130841], [129.52292, 33.136778], [129.51803, 33.135463]], [[129.669387, 33.150256], [129.668441, 33.157473], [129.675913, 33.153482], [129.673389, 33.149939], [129.669387, 33.150256]], [[129.590589, 33.170795], [129.582801, 33.175752], [129.580786, 33.184195], [129.577865, 33.185595], [129.581648, 33.192703], [129.593778, 33.19256], [129.594879, 33.184618], [129.590682, 33.183595], [129.592562, 33.179067], [129.593257, 33.165827], [129.581487, 33.160792], [129.583581, 33.167978], [129.590589, 33.170795]], [[129.555711, 33.229553], [129.554317, 33.232805], [129.561907, 33.232921], [129.562176, 33.227581], [129.555711, 33.229553]], [[129.685963, 33.416532], [129.681894, 33.419006], [129.682257, 33.422687], [129.688004, 33.422727], [129.685963, 33.418511], [129.691054, 33.411853], [129.689282, 33.408025], [129.682444, 33.40692], [129.679644, 33.4113], [129.685963, 33.416532]], [[129.725452, 33.460638], [129.728656, 33.455], [129.727279, 33.450691], [129.719523, 33.454353], [129.716444, 33.457678], [129.713957, 33.461044], [129.718548, 33.463761], [129.725452, 33.460638]], [[129.571456, 33.497149], [129.583524, 33.495723], [129.575174, 33.487965], [129.575692, 33.481461], [129.565196, 33.477605], [129.562194, 33.473129], [129.556601, 33.473901], [129.553428, 33.469257], [129.542685, 33.472357], [129.543045, 33.476041], [129.534752, 33.474696], [129.528504, 33.486453], [129.524247, 33.482335], [129.519723, 33.484271], [129.518275, 33.48023], [129.513206, 33.480692], [129.521337, 33.471539], [129.50849, 33.474462], [129.499701, 33.471549], [129.50042, 33.476844], [129.503204, 33.480128], [129.508165, 33.480056], [129.529542, 33.501042], [129.547403, 33.508811], [129.556694, 33.510576], [129.554513, 33.489], [129.561354, 33.487717], [129.567186, 33.491644], [129.56478, 33.494341], [129.571456, 33.497149]], [[129.558246, 33.606442], [129.550655, 33.605061], [129.555026, 33.610602], [129.558246, 33.606442]], [[129.653828, 33.72504], [129.650465, 33.719128], [129.643931, 33.724032], [129.648658, 33.726696], [129.653828, 33.72504]], [[129.628898, 33.730665], [129.635507, 33.730577], [129.637036, 33.727896], [129.630702, 33.7225], [129.625372, 33.728005], [129.628898, 33.730665]], [[129.643595, 33.737274], [129.631595, 33.732666], [129.628872, 33.733619], [129.629165, 33.744106], [129.635472, 33.743783], [129.637795, 33.741367], [129.645131, 33.74214], [129.643595, 33.737274]], [[129.673576, 33.768062], [129.681753, 33.757806], [129.686064, 33.759714], [129.679298, 33.764737], [129.682172, 33.768089], [129.677357, 33.773918], [129.677915, 33.777814], [129.659188, 33.776179], [129.655712, 33.78088], [129.655398, 33.789148], [129.661236, 33.788144], [129.656876, 33.796248], [129.656871, 33.798868], [129.667101, 33.800607], [129.649637, 33.806878], [129.656987, 33.81446], [129.666558, 33.810693], [129.666776, 33.803415], [129.67141, 33.805366], [129.673072, 33.799811], [129.677571, 33.805711], [129.688697, 33.80547], [129.683864, 33.81152], [129.681301, 33.809472], [129.676556, 33.822082], [129.673802, 33.825779], [129.670096, 33.825248], [129.673355, 33.833687], [129.671318, 33.83779], [129.676852, 33.847827], [129.678336, 33.841089], [129.683406, 33.844212], [129.678596, 33.847101], [129.689112, 33.857242], [129.693547, 33.857322], [129.699276, 33.861723], [129.70405, 33.863512], [129.709634, 33.855896], [129.719532, 33.856638], [129.725235, 33.850069], [129.76255, 33.844621], [129.768696, 33.846439], [129.773023, 33.841971], [129.769685, 33.837212], [129.767212, 33.829672], [129.763748, 33.825445], [129.764769, 33.820004], [129.760126, 33.816042], [129.765028, 33.812449], [129.75938, 33.808149], [129.766243, 33.797963], [129.775781, 33.794529], [129.77833, 33.796672], [129.786468, 33.78756], [129.799443, 33.788409], [129.796052, 33.779363], [129.786071, 33.785647], [129.780675, 33.783517], [129.763709, 33.78434], [129.757934, 33.77569], [129.76574, 33.767302], [129.772018, 33.768407], [129.772663, 33.773586], [129.776894, 33.77414], [129.787073, 33.769106], [129.790076, 33.763081], [129.798449, 33.763427], [129.797614, 33.753773], [129.787896, 33.754985], [129.786938, 33.74833], [129.789718, 33.746713], [129.779865, 33.740336], [129.764221, 33.737948], [129.76135, 33.742308], [129.753705, 33.743849], [129.749353, 33.740808], [129.738313, 33.737697], [129.734451, 33.739304], [129.732245, 33.733605], [129.734391, 33.727997], [129.725121, 33.724695], [129.727648, 33.722458], [129.718247, 33.716292], [129.722984, 33.710995], [129.718188, 33.707605], [129.716359, 33.703889], [129.709041, 33.710593], [129.69772, 33.70955], [129.696412, 33.713239], [129.691575, 33.712101], [129.694017, 33.718462], [129.692727, 33.72047], [129.697411, 33.724817], [129.695549, 33.726917], [129.689647, 33.72108], [129.683696, 33.723715], [129.684186, 33.726759], [129.676851, 33.727449], [129.685815, 33.738559], [129.682892, 33.740699], [129.682254, 33.747541], [129.675459, 33.753422], [129.673993, 33.759045], [129.667559, 33.757545], [129.669074, 33.754836], [129.663931, 33.750519], [129.664575, 33.74678], [129.657013, 33.746748], [129.657254, 33.737832], [129.653373, 33.738204], [129.653645, 33.746996], [129.651589, 33.74828], [129.64623, 33.751549], [129.65045, 33.756179], [129.649823, 33.759981], [129.642375, 33.767051], [129.646605, 33.773447], [129.656131, 33.771789], [129.654432, 33.768688], [129.664031, 33.76542], [129.673576, 33.768062]], [[129.683253, 33.865947], [129.683162, 33.870719], [129.69091, 33.870382], [129.690564, 33.861777], [129.68379, 33.862264], [129.683253, 33.865947]], [[129.682063, 33.87089], [129.680632, 33.864611], [129.674601, 33.866181], [129.673541, 33.868717], [129.682063, 33.87089]], [[129.774144, 32.550049], [129.775332, 32.565459], [129.779074, 32.569735], [129.786106, 32.565272], [129.791319, 32.557003], [129.783657, 32.555923], [129.775807, 32.549174], [129.774144, 32.550049]], [[129.757721, 32.654508], [129.754559, 32.650538], [129.746168, 32.661348], [129.750116, 32.666244], [129.7575, 32.66687], [129.759697, 32.663804], [129.755409, 32.658696], [129.757721, 32.654508]], [[129.785759, 32.69631], [129.785226, 32.691823], [129.777042, 32.691359], [129.774851, 32.697596], [129.77173, 32.700677], [129.78084, 32.70252], [129.78047, 32.698846], [129.785759, 32.69631]], [[129.764176, 32.706897], [129.760105, 32.715236], [129.768619, 32.712967], [129.772542, 32.707974], [129.774983, 32.709786], [129.782054, 32.703454], [129.7742, 32.701321], [129.764176, 32.706897]], [[129.98069, 32.760017], [129.977923, 32.752632], [129.981801, 32.75003], [129.970289, 32.749152], [129.964239, 32.762263], [129.970188, 32.758919], [129.98069, 32.760017]], [[129.805031, 32.87063], [129.813214, 32.868596], [129.808023, 32.865593], [129.805031, 32.87063]], [[129.916356, 32.904353], [129.900131, 32.928213], [129.903994, 32.929086], [129.925897, 32.912979], [129.926762, 32.907436], [129.916356, 32.904353]], [[129.786092, 33.070201], [129.783119, 33.066671], [129.777722, 33.071695], [129.780472, 33.077157], [129.786092, 33.070201]], [[129.836195, 33.362405], [129.82837, 33.365794], [129.823194, 33.361271], [129.819918, 33.355631], [129.812431, 33.348285], [129.806524, 33.353331], [129.81005, 33.35621], [129.803556, 33.362402], [129.804214, 33.366164], [129.809197, 33.368509], [129.811178, 33.37728], [129.807915, 33.382037], [129.813824, 33.383328], [129.807499, 33.392956], [129.813544, 33.399771], [129.795907, 33.412633], [129.819728, 33.410752], [129.831736, 33.405831], [129.833649, 33.399884], [129.828694, 33.390619], [129.833905, 33.383828], [129.8397, 33.379197], [129.84017, 33.387151], [129.843071, 33.384203], [129.855817, 33.38466], [129.859867, 33.378623], [129.858692, 33.375548], [129.847189, 33.367366], [129.844688, 33.371282], [129.836822, 33.37128], [129.835988, 33.36917], [129.842508, 33.366278], [129.836195, 33.362405]], [[129.785128, 33.39698], [129.778943, 33.393265], [129.773779, 33.399725], [129.777284, 33.401675], [129.785128, 33.39698]], [[129.751123, 33.460056], [129.750498, 33.467361], [129.755411, 33.470438], [129.758093, 33.464824], [129.762153, 33.466121], [129.77108, 33.461364], [129.76794, 33.456301], [129.771574, 33.443985], [129.778273, 33.438772], [129.778804, 33.434251], [129.78683, 33.434099], [129.790266, 33.42481], [129.769904, 33.428958], [129.764056, 33.429381], [129.761535, 33.425187], [129.756897, 33.42829], [129.755412, 33.4203], [129.747762, 33.421596], [129.750455, 33.411162], [129.744841, 33.406883], [129.736834, 33.408047], [129.734392, 33.405588], [129.726434, 33.410141], [129.7264, 33.414351], [129.718603, 33.415039], [129.718891, 33.419087], [129.723886, 33.422729], [129.745275, 33.42993], [129.744276, 33.434666], [129.739198, 33.437741], [129.744213, 33.443925], [129.749966, 33.443794], [129.749712, 33.451707], [129.751868, 33.453509], [129.759596, 33.454868], [129.751123, 33.460056]], [[129.754814, 33.733037], [129.758141, 33.737487], [129.762414, 33.733825], [129.75784, 33.72961], [129.754814, 33.733037]]]}}], "name": "長崎県"}