{"type": "FeatureCollection", "features": [{"type": "Feature", "properties": {}, "geometry": {"type": "MultiLineString", "coordinates": [[[137.882146, 35.242802], [137.884892, 35.23625], [137.880356, 35.22635], [137.872546, 35.21888], [137.865112, 35.222477], [137.859194, 35.223317], [137.84493, 35.221007], [137.841202, 35.216322], [137.834332, 35.21397], [137.826748, 35.215949], [137.821519, 35.215649], [137.806776, 35.209806], [137.800425, 35.205651], [137.794202, 35.204957], [137.783492, 35.205976], [137.779095, 35.202752], [137.76772, 35.206895], [137.766093, 35.209997], [137.769288, 35.215988], [137.768021, 35.218462], [137.76038, 35.220765], [137.747004, 35.220485], [137.743313, 35.218872], [137.735519, 35.222697], [137.729421, 35.220984], [137.72242, 35.2221], [137.720844, 35.224752], [137.721895, 35.230758], [137.711774, 35.228874], [137.707714, 35.232017], [137.70369, 35.23375], [137.69982, 35.231614], [137.694062, 35.233709], [137.687224, 35.230726], [137.681261, 35.235089], [137.678584, 35.230892], [137.673635, 35.231169], [137.667878, 35.227297], [137.663789, 35.227835], [137.653915, 35.226713], [137.653795, 35.21799], [137.645386, 35.214022], [137.644617, 35.209007], [137.632985, 35.212199], [137.626804, 35.211885], [137.603084, 35.206074], [137.602229, 35.204353], [137.591484, 35.199339], [137.577891, 35.199035], [137.576601, 35.206665], [137.578726, 35.219435], [137.575591, 35.220424], [137.572398, 35.226608], [137.568521, 35.227835], [137.562631, 35.235365], [137.557146, 35.237263], [137.550417, 35.242905], [137.547916, 35.250921], [137.545997, 35.251786], [137.548422, 35.259735], [137.552109, 35.259908], [137.557482, 35.264554], [137.5559, 35.272423], [137.557214, 35.274852], [137.564071, 35.277657], [137.570746, 35.283097], [137.566821, 35.290009], [137.562331, 35.289979], [137.557591, 35.294715], [137.560115, 35.309599], [137.571466, 35.318349], [137.57501, 35.316975], [137.587579, 35.323705], [137.590548, 35.330487], [137.601548, 35.331038], [137.603933, 35.337214], [137.600436, 35.342119], [137.599845, 35.351766], [137.60257, 35.354495], [137.601269, 35.361574], [137.598037, 35.365666], [137.598387, 35.379182], [137.587745, 35.386609], [137.586491, 35.389434], [137.57795, 35.390129], [137.575394, 35.40014], [137.590674, 35.393611], [137.605224, 35.393991], [137.618431, 35.391738], [137.633689, 35.399035], [137.634822, 35.402961], [137.631019, 35.406902], [137.632046, 35.410704], [137.621974, 35.411896], [137.620524, 35.417252], [137.615685, 35.423339], [137.617633, 35.426445], [137.615305, 35.430839], [137.606422, 35.43869], [137.601601, 35.439284], [137.593149, 35.446918], [137.607206, 35.457924], [137.610431, 35.458883], [137.618305, 35.46779], [137.628422, 35.467312], [137.63238, 35.474157], [137.629591, 35.477383], [137.629777, 35.483592], [137.627113, 35.484492], [137.62443, 35.493827], [137.624546, 35.500606], [137.631755, 35.509176], [137.626166, 35.512164], [137.625601, 35.515], [137.619427, 35.521413], [137.618842, 35.525326], [137.610426, 35.530301], [137.607256, 35.533543], [137.602498, 35.530702], [137.597047, 35.534547], [137.590284, 35.535268], [137.587929, 35.538048], [137.580932, 35.538931], [137.579167, 35.542451], [137.574508, 35.544529], [137.574795, 35.549318], [137.570807, 35.554075], [137.572611, 35.557971], [137.571116, 35.562629], [137.5646, 35.566428], [137.569293, 35.574918], [137.570433, 35.579897], [137.565441, 35.585044], [137.546152, 35.587241], [137.538304, 35.584797], [137.531657, 35.588086], [137.532591, 35.591449], [137.520088, 35.600108], [137.519947, 35.602611], [137.513809, 35.608023], [137.517024, 35.618479], [137.522652, 35.619403], [137.52815, 35.635978], [137.538183, 35.63833], [137.540935, 35.642533], [137.539564, 35.646438], [137.545447, 35.651082], [137.535957, 35.661151], [137.535374, 35.665805], [137.524471, 35.671498], [137.519245, 35.677434], [137.514703, 35.677335], [137.509425, 35.682379], [137.501993, 35.684825], [137.497196, 35.688482], [137.498676, 35.696222], [137.491833, 35.700425], [137.490833, 35.703709], [137.486042, 35.705499], [137.487627, 35.716484], [137.485212, 35.724704], [137.478866, 35.726757], [137.478263, 35.730229], [137.470838, 35.735788], [137.46554, 35.743766], [137.464752, 35.756372], [137.459573, 35.761404], [137.453357, 35.762204], [137.449942, 35.759292], [137.440179, 35.758553], [137.433675, 35.767776], [137.434452, 35.770907], [137.427759, 35.771185], [137.423973, 35.774359], [137.411092, 35.77727], [137.399948, 35.775396], [137.393262, 35.777727], [137.391095, 35.780428], [137.396421, 35.785155], [137.396376, 35.790842], [137.391793, 35.798583], [137.385822, 35.798771], [137.381221, 35.801291], [137.362647, 35.79798], [137.360286, 35.795968], [137.353717, 35.801341], [137.343867, 35.798566], [137.336279, 35.798825], [137.332321, 35.809335], [137.326029, 35.812128], [137.324993, 35.81667], [137.328799, 35.82176], [137.327308, 35.825613], [137.330328, 35.829156], [137.332144, 35.84068], [137.336046, 35.844218], [137.348324, 35.84243], [137.356777, 35.842732], [137.361127, 35.846208], [137.367585, 35.860667], [137.366316, 35.865273], [137.368062, 35.870436], [137.367165, 35.876798], [137.36437, 35.878873], [137.373506, 35.884081], [137.380816, 35.892422], [137.397806, 35.895676], [137.41444, 35.90139], [137.419402, 35.904472], [137.424352, 35.903189], [137.437614, 35.905051], [137.441424, 35.89944], [137.44868, 35.892885], [137.458648, 35.889315], [137.465147, 35.892645], [137.476169, 35.894017], [137.481932, 35.900528], [137.481098, 35.905755], [137.484456, 35.908631], [137.484215, 35.916103], [137.489328, 35.919822], [137.492423, 35.92533], [137.49775, 35.928819], [137.501877, 35.937612], [137.505572, 35.940621], [137.513593, 35.940961], [137.518884, 35.939734], [137.524519, 35.942464], [137.524258, 35.944961], [137.532557, 35.961617], [137.539859, 35.965611], [137.544266, 35.972376], [137.544953, 35.978222], [137.543458, 35.982871], [137.550161, 35.986891], [137.562233, 35.990085], [137.569114, 35.995694], [137.574705, 35.995689], [137.580817, 36.001365], [137.590296, 36.006541], [137.593964, 36.011853], [137.595837, 36.019211], [137.599494, 36.025936], [137.600224, 36.028571], [137.598259, 36.037517], [137.598325, 36.043189], [137.605423, 36.048686], [137.606971, 36.055831], [137.613723, 36.059617], [137.6146, 36.063129], [137.610909, 36.067571], [137.611656, 36.073437], [137.608225, 36.077932], [137.596814, 36.075841], [137.59279, 36.080945], [137.582567, 36.085429], [137.577719, 36.085319], [137.572349, 36.088592], [137.567544, 36.097023], [137.562963, 36.098417], [137.550858, 36.109875], [137.552039, 36.116713], [137.556892, 36.117833], [137.556916, 36.121467], [137.560467, 36.130471], [137.554712, 36.13766], [137.559749, 36.144494], [137.568044, 36.148172], [137.567893, 36.153376], [137.577743, 36.159524], [137.583144, 36.160175], [137.591222, 36.164117], [137.59203, 36.169527], [137.595064, 36.172048], [137.591157, 36.178353], [137.591122, 36.186267], [137.595175, 36.19035], [137.581043, 36.19531], [137.575118, 36.203885], [137.573521, 36.21104], [137.576054, 36.214328], [137.57298, 36.218411], [137.583025, 36.220396], [137.583669, 36.22721], [137.589679, 36.228603], [137.591343, 36.234355], [137.595612, 36.237431], [137.59635, 36.242976], [137.605923, 36.248787], [137.606999, 36.253116], [137.612621, 36.257412], [137.614719, 36.262927], [137.620924, 36.266675], [137.626353, 36.272199], [137.628798, 36.278366], [137.647821, 36.289052], [137.646859, 36.296452], [137.653057, 36.304675], [137.648901, 36.308913], [137.651439, 36.317086], [137.650674, 36.327398], [137.646366, 36.330232], [137.645607, 36.341261], [137.63547, 36.34255], [137.62445, 36.354752], [137.619173, 36.364209], [137.612961, 36.366835], [137.608902, 36.366624], [137.599943, 36.370215], [137.593731, 36.36884], [137.587086, 36.371964], [137.586115, 36.376283], [137.587504, 36.382438], [137.587157, 36.389592], [137.592407, 36.389675], [137.600721, 36.399479], [137.605361, 36.402538], [137.603804, 36.408706], [137.609199, 36.417906], [137.617403, 36.418601], [137.62262, 36.423561], [137.633304, 36.425022], [137.637786, 36.431367], [137.639912, 36.44583], [137.643206, 36.448665], [137.645293, 36.45453], [137.649466, 36.454836], [137.655068, 36.458726], [137.654699, 36.463585], [137.656637, 36.470414], [137.65078, 36.48012], [137.652001, 36.4882], [137.657649, 36.493109], [137.666237, 36.493218], [137.668745, 36.509462], [137.674248, 36.510871], [137.677257, 36.514355], [137.683071, 36.512701], [137.690106, 36.513736], [137.694296, 36.510683], [137.696906, 36.514503], [137.705469, 36.517888], [137.702752, 36.524696], [137.708515, 36.533401], [137.707524, 36.535972], [137.6987, 36.537483], [137.687311, 36.536224], [137.684597, 36.537808], [137.689499, 36.553574], [137.687737, 36.562075], [137.693887, 36.56906], [137.698525, 36.569611], [137.713206, 36.57708], [137.71812, 36.582236], [137.725107, 36.586696], [137.730677, 36.587965], [137.747863, 36.586854], [137.750902, 36.588341], [137.753097, 36.593723], [137.750767, 36.600638], [137.747808, 36.603651], [137.74394, 36.612745], [137.746678, 36.624473], [137.75133, 36.626746], [137.752556, 36.635046], [137.756255, 36.646889], [137.756684, 36.658598], [137.7606, 36.664585], [137.76174, 36.666971], [137.758466, 36.676155], [137.759738, 36.685933], [137.754222, 36.68746], [137.753601, 36.69147], [137.756609, 36.694135], [137.755276, 36.698458], [137.75114, 36.70054], [137.750064, 36.70498], [137.752698, 36.719332], [137.75097, 36.726888], [137.755431, 36.730768], [137.754147, 36.733281], [137.759285, 36.740611], [137.751772, 36.751109], [137.759042, 36.760176], [137.759979, 36.764263], [137.764846, 36.767693], [137.767418, 36.770525], [137.775733, 36.773641], [137.781935, 36.772982], [137.791496, 36.779197], [137.793275, 36.786657], [137.799429, 36.788385], [137.819982, 36.798222], [137.822781, 36.805984], [137.830975, 36.808013], [137.832572, 36.811507], [137.831048, 36.817813], [137.840179, 36.827689], [137.843742, 36.829681], [137.845222, 36.834619], [137.851366, 36.837838], [137.856864, 36.843827], [137.855922, 36.849503], [137.868177, 36.862731], [137.873397, 36.863577], [137.87785, 36.87319], [137.868296, 36.877786], [137.866261, 36.887221], [137.861665, 36.890779], [137.865015, 36.896243], [137.868604, 36.897424], [137.871433, 36.902696], [137.862615, 36.906953], [137.86347, 36.912895], [137.868135, 36.915898], [137.87465, 36.915853], [137.878608, 36.912707], [137.893259, 36.90996], [137.900719, 36.911588], [137.902757, 36.914267], [137.910979, 36.917864], [137.919741, 36.91987], [137.925117, 36.918594], [137.93212, 36.914272], [137.947372, 36.91303], [137.953213, 36.905006], [137.962353, 36.902112], [137.965972, 36.904568], [137.969574, 36.910813], [137.976445, 36.908292], [137.99157, 36.910688], [137.994617, 36.908072], [138.002855, 36.90501], [138.013637, 36.90407], [138.015698, 36.9014], [138.015577, 36.893214], [138.021742, 36.890523], [138.025707, 36.892254], [138.031062, 36.891362], [138.032849, 36.886192], [138.031623, 36.878139], [138.026412, 36.873534], [138.020959, 36.863488], [138.016591, 36.860404], [138.015833, 36.852395], [138.018875, 36.850438], [138.020065, 36.842221], [138.014203, 36.83871], [138.003461, 36.826414], [138.01104, 36.82343], [138.01704, 36.818827], [138.021901, 36.81945], [138.028878, 36.817114], [138.033797, 36.808834], [138.038756, 36.807707], [138.044957, 36.809785], [138.051845, 36.80746], [138.052224, 36.79996], [138.064816, 36.804428], [138.068168, 36.803838], [138.075234, 36.810499], [138.073016, 36.816847], [138.077523, 36.822321], [138.081447, 36.829922], [138.089164, 36.835734], [138.093339, 36.8402], [138.099287, 36.843509], [138.106346, 36.843784], [138.115052, 36.850393], [138.125326, 36.848062], [138.131838, 36.850671], [138.141507, 36.847172], [138.147744, 36.849222], [138.150269, 36.846468], [138.162818, 36.844298], [138.169017, 36.845073], [138.176646, 36.848423], [138.177825, 36.851806], [138.195594, 36.853673], [138.205739, 36.859118], [138.206407, 36.862989], [138.213034, 36.868296], [138.2169, 36.866517], [138.22937, 36.864176], [138.242373, 36.864027], [138.249314, 36.865335], [138.254877, 36.869943], [138.258024, 36.863981], [138.268356, 36.860457], [138.271724, 36.855045], [138.270531, 36.844244], [138.274901, 36.840855], [138.287612, 36.845707], [138.288749, 36.851023], [138.29561, 36.85509], [138.296235, 36.858253], [138.288567, 36.868443], [138.293332, 36.873307], [138.292997, 36.878125], [138.299368, 36.886722], [138.295284, 36.888488], [138.294555, 36.89304], [138.290289, 36.896812], [138.294038, 36.900925], [138.296325, 36.91082], [138.309031, 36.920324], [138.315393, 36.922511], [138.317569, 36.925185], [138.329321, 36.926882], [138.337597, 36.924886], [138.343204, 36.920797], [138.348967, 36.929008], [138.357711, 36.933848], [138.359713, 36.93998], [138.364521, 36.944277], [138.363784, 36.953373], [138.368197, 36.957279], [138.369516, 36.964011], [138.374445, 36.968426], [138.376046, 36.972296], [138.382274, 36.976421], [138.378726, 36.980347], [138.384195, 36.983082], [138.390662, 36.988454], [138.393829, 36.995119], [138.400429, 36.997856], [138.411041, 36.998655], [138.411895, 37.002032], [138.422557, 37.005303], [138.431379, 37.006078], [138.44265, 37.013024], [138.450943, 37.014996], [138.455132, 37.019615], [138.468005, 37.017829], [138.481412, 37.021554], [138.482673, 37.019824], [138.491723, 37.02046], [138.497438, 37.026446], [138.501434, 37.025067], [138.512794, 37.027799], [138.519859, 37.027826], [138.525907, 37.029836], [138.528756, 37.024772], [138.536511, 37.020927], [138.548506, 37.02119], [138.552537, 37.023624], [138.565889, 37.021261], [138.5698, 37.015461], [138.570987, 37.005404], [138.573237, 37.004539], [138.575664, 36.996625], [138.581236, 36.992899], [138.586302, 36.986888], [138.588165, 36.976938], [138.585513, 36.95741], [138.586557, 36.954034], [138.584517, 36.931891], [138.587158, 36.926126], [138.592006, 36.925412], [138.589291, 36.915452], [138.596188, 36.907114], [138.612867, 36.908549], [138.621015, 36.904082], [138.617737, 36.897209], [138.617812, 36.891884], [138.623421, 36.884664], [138.640911, 36.878579], [138.641806, 36.875645], [138.650972, 36.874421], [138.657356, 36.868046], [138.666705, 36.866615], [138.676498, 36.867251], [138.681658, 36.865348], [138.68845, 36.860628], [138.693203, 36.854817], [138.690137, 36.846135], [138.691649, 36.841473], [138.690012, 36.832351], [138.680672, 36.824161], [138.68028, 36.820147], [138.68718, 36.818052], [138.689977, 36.812893], [138.695788, 36.809056], [138.68915, 36.798439], [138.689452, 36.793572], [138.684211, 36.787924], [138.671714, 36.78359], [138.669002, 36.779075], [138.669544, 36.773661], [138.680011, 36.766436], [138.688, 36.765848], [138.691529, 36.758575], [138.691948, 36.746119], [138.694859, 36.743838], [138.695932, 36.738513], [138.682157, 36.735003], [138.675303, 36.730938], [138.648925, 36.72712], [138.642078, 36.723783], [138.630088, 36.719545], [138.621771, 36.720213], [138.617289, 36.711659], [138.611141, 36.706577], [138.605932, 36.70759], [138.602684, 36.712236], [138.594335, 36.713796], [138.583268, 36.701306], [138.574898, 36.707122], [138.57132, 36.705548], [138.560421, 36.706941], [138.552998, 36.704575], [138.543639, 36.703835], [138.537439, 36.698869], [138.530832, 36.697655], [138.520016, 36.692317], [138.517917, 36.676996], [138.527247, 36.668803], [138.534338, 36.666269], [138.529444, 36.655288], [138.524906, 36.650908], [138.508103, 36.648267], [138.501619, 36.644435], [138.490082, 36.641196], [138.4811, 36.645248], [138.473097, 36.644048], [138.466088, 36.636822], [138.459056, 36.634838], [138.45841, 36.628915], [138.460575, 36.626472], [138.456222, 36.619], [138.454973, 36.613851], [138.450336, 36.610677], [138.441583, 36.61067], [138.438943, 36.605576], [138.441428, 36.599992], [138.435172, 36.60023], [138.428835, 36.597892], [138.426318, 36.593524], [138.427119, 36.588259], [138.424159, 36.581514], [138.420295, 36.577237], [138.428429, 36.568696], [138.428828, 36.564077], [138.426162, 36.560394], [138.428841, 36.556225], [138.426108, 36.5515], [138.417723, 36.543193], [138.412388, 36.541486], [138.413978, 36.532607], [138.411715, 36.527272], [138.404246, 36.522065], [138.402801, 36.516057], [138.406032, 36.507364], [138.401954, 36.501721], [138.397132, 36.490582], [138.397291, 36.484063], [138.40076, 36.481454], [138.399562, 36.47333], [138.403349, 36.46687], [138.400071, 36.461405], [138.403126, 36.452319], [138.401287, 36.447064], [138.400785, 36.4345], [138.415284, 36.431596], [138.420567, 36.42856], [138.441601, 36.422593], [138.447193, 36.419261], [138.451625, 36.421174], [138.456965, 36.42024], [138.457715, 36.411574], [138.461173, 36.407741], [138.45965, 36.40475], [138.477868, 36.40445], [138.488957, 36.400934], [138.488825, 36.408917], [138.492057, 36.413258], [138.496432, 36.414185], [138.506224, 36.413205], [138.519883, 36.40674], [138.529347, 36.403043], [138.540612, 36.402849], [138.545898, 36.407413], [138.549631, 36.413344], [138.555008, 36.417774], [138.564507, 36.420217], [138.57313, 36.419195], [138.590196, 36.42389], [138.607866, 36.423188], [138.618334, 36.420671], [138.621239, 36.416469], [138.626634, 36.415504], [138.632321, 36.41785], [138.637151, 36.417216], [138.64663, 36.410773], [138.648387, 36.407468], [138.648464, 36.399799], [138.65217, 36.395069], [138.652158, 36.385372], [138.649639, 36.378944], [138.651655, 36.372817], [138.657163, 36.368902], [138.65239, 36.362634], [138.653983, 36.357093], [138.650081, 36.352483], [138.651278, 36.349648], [138.649739, 36.341593], [138.65054, 36.33213], [138.653179, 36.329622], [138.653306, 36.32437], [138.647892, 36.314476], [138.653531, 36.303115], [138.651222, 36.299097], [138.644886, 36.294537], [138.637435, 36.293427], [138.630583, 36.288456], [138.612509, 36.285655], [138.607179, 36.279596], [138.600336, 36.2784], [138.60356, 36.274947], [138.605952, 36.266795], [138.603733, 36.26283], [138.604754, 36.254129], [138.602178, 36.2495], [138.612497, 36.240918], [138.61187, 36.229391], [138.614735, 36.224224], [138.622245, 36.214586], [138.63321, 36.216089], [138.636047, 36.206676], [138.627083, 36.201133], [138.622797, 36.196928], [138.627265, 36.191422], [138.629419, 36.183466], [138.637105, 36.174885], [138.635901, 36.170933], [138.630908, 36.172782], [138.627757, 36.171216], [138.612787, 36.168564], [138.604839, 36.164198], [138.594566, 36.165606], [138.589033, 36.170543], [138.589627, 36.176787], [138.580583, 36.175742], [138.577275, 36.168073], [138.583937, 36.160349], [138.587076, 36.160996], [138.593301, 36.15307], [138.595723, 36.141246], [138.600662, 36.135626], [138.606264, 36.136262], [138.612217, 36.133423], [138.620172, 36.13403], [138.622161, 36.131955], [138.634092, 36.13397], [138.636512, 36.131107], [138.637336, 36.124344], [138.640932, 36.121534], [138.642236, 36.112242], [138.646408, 36.109572], [138.645183, 36.098807], [138.634892, 36.094329], [138.630739, 36.091377], [138.630465, 36.086058], [138.633212, 36.080874], [138.639186, 36.075285], [138.642815, 36.068742], [138.642373, 36.053763], [138.644171, 36.04957], [138.631488, 36.028279], [138.636134, 36.027699], [138.644863, 36.024134], [138.646011, 36.020027], [138.661425, 36.016367], [138.661696, 36.012015], [138.679749, 36.011615], [138.681054, 36.004302], [138.687167, 35.999818], [138.686426, 35.994903], [138.688695, 35.991775], [138.697323, 35.991032], [138.701167, 35.988011], [138.71255, 35.985333], [138.711447, 35.971282], [138.714184, 35.965515], [138.719478, 35.962887], [138.721041, 35.95909], [138.7256, 35.957611], [138.730469, 35.950301], [138.731135, 35.945145], [138.739254, 35.939108], [138.73746, 35.935793], [138.738507, 35.929019], [138.729107, 35.917228], [138.728889, 35.909727], [138.724106, 35.907985], [138.70797, 35.909636], [138.705684, 35.905951], [138.700162, 35.903063], [138.691932, 35.89585], [138.685846, 35.893866], [138.682678, 35.881461], [138.675988, 35.869838], [138.655931, 35.875868], [138.651957, 35.873954], [138.642523, 35.874772], [138.634234, 35.870053], [138.62834, 35.873327], [138.622027, 35.870448], [138.610756, 35.873689], [138.606761, 35.878456], [138.606045, 35.891854], [138.60723, 35.899683], [138.612317, 35.908669], [138.602538, 35.909844], [138.600517, 35.913802], [138.59243, 35.918277], [138.580982, 35.91705], [138.576667, 35.911444], [138.572353, 35.912116], [138.564415, 35.917334], [138.558034, 35.916004], [138.553844, 35.918993], [138.545358, 35.914777], [138.529372, 35.914549], [138.521371, 35.918694], [138.51306, 35.920031], [138.510649, 35.922344], [138.505671, 35.918867], [138.502758, 35.912195], [138.497672, 35.911406], [138.494712, 35.902083], [138.489783, 35.896451], [138.482143, 35.898773], [138.471654, 35.89619], [138.460487, 35.903524], [138.454222, 35.903206], [138.44901, 35.912787], [138.444419, 35.917733], [138.447282, 35.923585], [138.447506, 35.929249], [138.454333, 35.938306], [138.450563, 35.945411], [138.443161, 35.951138], [138.424193, 35.958975], [138.416832, 35.958983], [138.408416, 35.962486], [138.390687, 35.966338], [138.381772, 35.97125], [138.37046, 35.971381], [138.369444, 35.967225], [138.361903, 35.962596], [138.360346, 35.957211], [138.360079, 35.951014], [138.352164, 35.947973], [138.345047, 35.941333], [138.345729, 35.935246], [138.342032, 35.925669], [138.339371, 35.924598], [138.331528, 35.914377], [138.33091, 35.910892], [138.324318, 35.90233], [138.312783, 35.890974], [138.307679, 35.887449], [138.303248, 35.879426], [138.293056, 35.867062], [138.283641, 35.859316], [138.27895, 35.860391], [138.272841, 35.864929], [138.264441, 35.875911], [138.248604, 35.885925], [138.238235, 35.882379], [138.232599, 35.876132], [138.22986, 35.869425], [138.226789, 35.857404], [138.224174, 35.856211], [138.218922, 35.846817], [138.216146, 35.845491], [138.212658, 35.837015], [138.20678, 35.831535], [138.203493, 35.822632], [138.205693, 35.815734], [138.193317, 35.803838], [138.187785, 35.799953], [138.185174, 35.79108], [138.191492, 35.784289], [138.198321, 35.781557], [138.205327, 35.782585], [138.217292, 35.771375], [138.221281, 35.770671], [138.224679, 35.765689], [138.232161, 35.763552], [138.236702, 35.757715], [138.222083, 35.75048], [138.219248, 35.745509], [138.212915, 35.741574], [138.207164, 35.735597], [138.20055, 35.733119], [138.197474, 35.727032], [138.186644, 35.722154], [138.181848, 35.718338], [138.180856, 35.711238], [138.186667, 35.704433], [138.191159, 35.701899], [138.193983, 35.695494], [138.193475, 35.687965], [138.191298, 35.685378], [138.193117, 35.6811], [138.193302, 35.672265], [138.205489, 35.664264], [138.208085, 35.655789], [138.216264, 35.648457], [138.218671, 35.644549], [138.211221, 35.635215], [138.203442, 35.632181], [138.202405, 35.618216], [138.206055, 35.608397], [138.20043, 35.599563], [138.195958, 35.59549], [138.19463, 35.588622], [138.188923, 35.580559], [138.189491, 35.576781], [138.184399, 35.573092], [138.1784, 35.574849], [138.172842, 35.581602], [138.167383, 35.582907], [138.16205, 35.581295], [138.160099, 35.576128], [138.15181, 35.57096], [138.150959, 35.566294], [138.146131, 35.557015], [138.148176, 35.554277], [138.156026, 35.551751], [138.159425, 35.544932], [138.151488, 35.536202], [138.147941, 35.534753], [138.146961, 35.529602], [138.138332, 35.522212], [138.14633, 35.518643], [138.146283, 35.513779], [138.140181, 35.499733], [138.14856, 35.49998], [138.157989, 35.494294], [138.164624, 35.493872], [138.158323, 35.486301], [138.156401, 35.476905], [138.156784, 35.472794], [138.160404, 35.470835], [138.156913, 35.459981], [138.148329, 35.460231], [138.141019, 35.458995], [138.131575, 35.45334], [138.121928, 35.456393], [138.120473, 35.454609], [138.119343, 35.445979], [138.123963, 35.435661], [138.120209, 35.431444], [138.121521, 35.428557], [138.128998, 35.427261], [138.139826, 35.422604], [138.139033, 35.41648], [138.135112, 35.414041], [138.13488, 35.407746], [138.144376, 35.406075], [138.152548, 35.397984], [138.151177, 35.389967], [138.145704, 35.383639], [138.141144, 35.369493], [138.129297, 35.365288], [138.124018, 35.368047], [138.115143, 35.364874], [138.100061, 35.354027], [138.096991, 35.35427], [138.096334, 35.339942], [138.086709, 35.337724], [138.082346, 35.338756], [138.078788, 35.343651], [138.071217, 35.347063], [138.061336, 35.347199], [138.055495, 35.343821], [138.055255, 35.339973], [138.050637, 35.335467], [138.043317, 35.335237], [138.037425, 35.332528], [138.038983, 35.326002], [138.026064, 35.320212], [138.027737, 35.311645], [138.023791, 35.305345], [138.018876, 35.301092], [138.01558, 35.30301], [138.005677, 35.304395], [137.992093, 35.301704], [137.984354, 35.295621], [137.982358, 35.292393], [137.973415, 35.293048], [137.967341, 35.284204], [137.960319, 35.282939], [137.95189, 35.283082], [137.944243, 35.276284], [137.929253, 35.27547], [137.926245, 35.268905], [137.924763, 35.260306], [137.918613, 35.254374], [137.906853, 35.254244], [137.895426, 35.257989], [137.882465, 35.248096], [137.882146, 35.242802]]]}}]}