{"type": "FeatureCollection", "features": [{"type": "Feature", "properties": {}, "geometry": {"type": "MultiLineString", "coordinates": [[[138.21482, 34.625335], [138.218762, 34.626639], [138.221838, 34.622471], [138.21908, 34.618269], [138.209106, 34.621745], [138.208044, 34.628446], [138.21482, 34.625335]], [[138.223629, 34.722405], [138.214635, 34.709898], [138.213963, 34.699101], [138.207327, 34.688663], [138.2087, 34.687286], [138.199131, 34.673075], [138.195396, 34.664648], [138.193095, 34.644557], [138.194186, 34.639095], [138.197515, 34.632673], [138.206881, 34.620348], [138.209112, 34.62097], [138.221881, 34.606952], [138.231384, 34.607402], [138.233877, 34.605283], [138.2331, 34.599438], [138.227213, 34.595132], [138.219636, 34.596231], [138.206565, 34.600288], [138.191866, 34.600773], [138.179444, 34.607539], [138.158098, 34.614538], [138.145823, 34.617702], [138.137553, 34.621936], [138.114944, 34.630425], [138.085897, 34.640361], [138.078253, 34.642328], [138.05747, 34.648591], [138.018327, 34.657831], [137.997917, 34.661751], [137.97017, 34.665356], [137.951914, 34.66705], [137.933503, 34.667942], [137.9214, 34.667903], [137.911932, 34.666481], [137.90247, 34.666515], [137.89487, 34.663787], [137.873254, 34.66144], [137.853457, 34.658485], [137.827808, 34.653125], [137.814247, 34.648013], [137.798635, 34.64634], [137.788998, 34.648257], [137.777489, 34.647558], [137.769056, 34.649598], [137.763988, 34.652534], [137.750759, 34.655857], [137.748575, 34.657679], [137.736404, 34.659006], [137.72323, 34.663042], [137.695526, 34.666648], [137.687295, 34.668388], [137.659737, 34.67225], [137.622917, 34.675679], [137.599528, 34.676014], [137.597772, 34.677967], [137.590184, 34.678038], [137.582083, 34.679896], [137.571424, 34.680207], [137.544196, 34.678978], [137.521725, 34.677458], [137.489431, 34.674342], [137.485175, 34.673551], [137.484639, 34.683809], [137.488066, 34.687327], [137.49179, 34.70246], [137.487314, 34.717102], [137.482625, 34.719926], [137.481436, 34.730952], [137.478607, 34.734101], [137.48056, 34.740565], [137.474107, 34.749941], [137.477442, 34.756665], [137.476755, 34.767806], [137.479044, 34.771335], [137.476717, 34.774786], [137.482029, 34.782284], [137.488584, 34.783985], [137.492942, 34.786866], [137.491652, 34.795847], [137.494361, 34.801766], [137.487429, 34.809242], [137.487014, 34.811749], [137.493574, 34.815295], [137.494999, 34.819386], [137.501658, 34.823351], [137.498876, 34.826865], [137.499968, 34.831288], [137.507949, 34.834987], [137.517797, 34.835847], [137.523881, 34.84098], [137.534379, 34.844182], [137.538838, 34.841792], [137.550999, 34.849427], [137.551589, 34.851864], [137.565195, 34.852137], [137.574135, 34.850457], [137.577201, 34.851371], [137.587017, 34.85004], [137.595213, 34.859075], [137.597532, 34.872501], [137.609179, 34.875149], [137.616253, 34.875341], [137.620786, 34.879108], [137.633593, 34.885486], [137.635793, 34.889555], [137.641252, 34.893083], [137.642013, 34.896137], [137.640441, 34.90464], [137.647864, 34.912132], [137.646963, 34.918791], [137.652841, 34.925486], [137.650998, 34.933356], [137.656662, 34.938209], [137.659506, 34.944576], [137.663406, 34.94715], [137.670621, 34.948274], [137.675498, 34.945351], [137.682896, 34.95495], [137.689531, 34.956806], [137.689971, 34.963642], [137.696131, 34.971429], [137.704261, 34.969998], [137.707251, 34.972284], [137.699909, 34.984838], [137.708132, 34.994457], [137.702005, 34.998474], [137.701046, 35.003539], [137.706748, 35.017546], [137.71652, 35.027469], [137.717348, 35.035149], [137.723299, 35.039084], [137.728753, 35.040337], [137.735844, 35.051436], [137.740276, 35.056513], [137.754744, 35.065426], [137.761597, 35.068563], [137.76381, 35.072191], [137.768467, 35.072336], [137.775675, 35.077982], [137.774058, 35.084128], [137.774559, 35.0927], [137.776834, 35.097459], [137.786117, 35.095607], [137.792968, 35.095552], [137.79519, 35.103079], [137.801324, 35.106593], [137.798315, 35.118314], [137.799215, 35.123593], [137.797311, 35.127102], [137.792003, 35.129053], [137.793137, 35.135218], [137.798734, 35.135459], [137.800987, 35.13086], [137.805862, 35.131124], [137.809858, 35.137026], [137.814858, 35.140473], [137.812396, 35.143754], [137.81357, 35.151012], [137.821861, 35.148008], [137.828963, 35.151913], [137.827295, 35.155482], [137.821291, 35.15844], [137.825737, 35.165923], [137.825472, 35.1682], [137.818144, 35.17468], [137.810442, 35.174814], [137.804984, 35.179244], [137.8032, 35.183118], [137.8074, 35.187825], [137.813814, 35.186281], [137.820345, 35.197305], [137.821658, 35.203189], [137.828914, 35.204331], [137.828632, 35.211581], [137.835512, 35.211201], [137.836809, 35.215629], [137.841202, 35.216322], [137.84493, 35.221007], [137.859194, 35.223317], [137.865112, 35.222477], [137.872546, 35.21888], [137.880356, 35.22635], [137.884892, 35.23625], [137.882146, 35.242802], [137.882465, 35.248096], [137.895426, 35.257989], [137.906853, 35.254244], [137.918613, 35.254374], [137.924763, 35.260306], [137.926245, 35.268905], [137.929253, 35.27547], [137.944243, 35.276284], [137.95189, 35.283082], [137.960319, 35.282939], [137.967341, 35.284204], [137.973415, 35.293048], [137.982358, 35.292393], [137.984354, 35.295621], [137.992093, 35.301704], [138.005677, 35.304395], [138.01558, 35.30301], [138.018775, 35.301072], [138.023791, 35.305345], [138.027737, 35.311645], [138.026064, 35.320212], [138.038983, 35.326002], [138.037425, 35.332528], [138.043317, 35.335237], [138.050637, 35.335467], [138.055255, 35.339973], [138.055495, 35.343821], [138.061336, 35.347199], [138.071217, 35.347063], [138.078788, 35.343651], [138.08087, 35.340236], [138.087484, 35.338], [138.096334, 35.339942], [138.096991, 35.35427], [138.100061, 35.354027], [138.115143, 35.364874], [138.124018, 35.368047], [138.129297, 35.365288], [138.141144, 35.369493], [138.145704, 35.383639], [138.151177, 35.389967], [138.152548, 35.397984], [138.144376, 35.406075], [138.13488, 35.407746], [138.135112, 35.414041], [138.139033, 35.41648], [138.139826, 35.422604], [138.128998, 35.427261], [138.121521, 35.428557], [138.120209, 35.431444], [138.123963, 35.435661], [138.119343, 35.445979], [138.121928, 35.456393], [138.131575, 35.45334], [138.141019, 35.458995], [138.148329, 35.460231], [138.156913, 35.459981], [138.160404, 35.470835], [138.156784, 35.472794], [138.156401, 35.476905], [138.158323, 35.486301], [138.164624, 35.493872], [138.157989, 35.494294], [138.14856, 35.49998], [138.140181, 35.499733], [138.146283, 35.513779], [138.14633, 35.518643], [138.138332, 35.522212], [138.146961, 35.529602], [138.147941, 35.534753], [138.151488, 35.536202], [138.159425, 35.544932], [138.156026, 35.551751], [138.148176, 35.554277], [138.146131, 35.557015], [138.150959, 35.566294], [138.15181, 35.57096], [138.160099, 35.576128], [138.16205, 35.581295], [138.167383, 35.582907], [138.172842, 35.581602], [138.1784, 35.574849], [138.184399, 35.573092], [138.189491, 35.576781], [138.188923, 35.580559], [138.19463, 35.588622], [138.195958, 35.59549], [138.20043, 35.599563], [138.206055, 35.608397], [138.202405, 35.618216], [138.203442, 35.632181], [138.211221, 35.635215], [138.218671, 35.644549], [138.228099, 35.64594], [138.232315, 35.640097], [138.228325, 35.62721], [138.23608, 35.622271], [138.234088, 35.61497], [138.236254, 35.612729], [138.235676, 35.606186], [138.240636, 35.605108], [138.243578, 35.591524], [138.239433, 35.586606], [138.240461, 35.576317], [138.245154, 35.569316], [138.244449, 35.563462], [138.252047, 35.555694], [138.259482, 35.552979], [138.260075, 35.542896], [138.257348, 35.530849], [138.262592, 35.527134], [138.264681, 35.519954], [138.268976, 35.514125], [138.260249, 35.5059], [138.25891, 35.493224], [138.259793, 35.489169], [138.257881, 35.476018], [138.253483, 35.465962], [138.246285, 35.463478], [138.244068, 35.458976], [138.244339, 35.454123], [138.248305, 35.447185], [138.255334, 35.444577], [138.255233, 35.441211], [138.259444, 35.431083], [138.259268, 35.421888], [138.257616, 35.414785], [138.258098, 35.407394], [138.246446, 35.399799], [138.245937, 35.39107], [138.240118, 35.388136], [138.232855, 35.376656], [138.232017, 35.371225], [138.237293, 35.370015], [138.242729, 35.365851], [138.24676, 35.367148], [138.251256, 35.363529], [138.251002, 35.358353], [138.255141, 35.34847], [138.253921, 35.345421], [138.256979, 35.338591], [138.248737, 35.331602], [138.255023, 35.324184], [138.254804, 35.319817], [138.257917, 35.316471], [138.26979, 35.314397], [138.276407, 35.307419], [138.285267, 35.304275], [138.294071, 35.311972], [138.296452, 35.316508], [138.302932, 35.316633], [138.31128, 35.319588], [138.313462, 35.322611], [138.324462, 35.327208], [138.335285, 35.326534], [138.343373, 35.317995], [138.349995, 35.31525], [138.357615, 35.317757], [138.359466, 35.313378], [138.364671, 35.312026], [138.370595, 35.304765], [138.372479, 35.299411], [138.366765, 35.29032], [138.366704, 35.280512], [138.369266, 35.276678], [138.367032, 35.270188], [138.373556, 35.263323], [138.378214, 35.253937], [138.386152, 35.246244], [138.386712, 35.239519], [138.391797, 35.224825], [138.390673, 35.219901], [138.394293, 35.207813], [138.398697, 35.20027], [138.407574, 35.20293], [138.419035, 35.197636], [138.424725, 35.18996], [138.42748, 35.182667], [138.430942, 35.180387], [138.456833, 35.178212], [138.46113, 35.179491], [138.472216, 35.17611], [138.484257, 35.174193], [138.487829, 35.169652], [138.491492, 35.168384], [138.49629, 35.174391], [138.501134, 35.176523], [138.506231, 35.186069], [138.512309, 35.188975], [138.517333, 35.198609], [138.522421, 35.199158], [138.528483, 35.197539], [138.533193, 35.200862], [138.531216, 35.211113], [138.52738, 35.216804], [138.532275, 35.223391], [138.529516, 35.231079], [138.526903, 35.232572], [138.523084, 35.248603], [138.520666, 35.255435], [138.514243, 35.262231], [138.515422, 35.267308], [138.520321, 35.270884], [138.521656, 35.283476], [138.516102, 35.296084], [138.512093, 35.313555], [138.5254, 35.321866], [138.526777, 35.325926], [138.535086, 35.330565], [138.534846, 35.341056], [138.530628, 35.345579], [138.531021, 35.353532], [138.529868, 35.359625], [138.530702, 35.376131], [138.528171, 35.379047], [138.535848, 35.38988], [138.531247, 35.402122], [138.531827, 35.409409], [138.538295, 35.414177], [138.545746, 35.416785], [138.5469, 35.41912], [138.555607, 35.426129], [138.559057, 35.434213], [138.563321, 35.434553], [138.57048, 35.439482], [138.577422, 35.440893], [138.582083, 35.445555], [138.588507, 35.436796], [138.592421, 35.436101], [138.597718, 35.431802], [138.609136, 35.393176], [138.638955, 35.398283], [138.663386, 35.398282], [138.671183, 35.39283], [138.680536, 35.357678], [138.698653, 35.359653], [138.700445, 35.362674], [138.713141, 35.363613], [138.718753, 35.365494], [138.724805, 35.365245], [138.730781, 35.362799], [138.746871, 35.366331], [138.799452, 35.376669], [138.808374, 35.375657], [138.815572, 35.376435], [138.821941, 35.374182], [138.828933, 35.377968], [138.833981, 35.383855], [138.843739, 35.386596], [138.850826, 35.39046], [138.856341, 35.387999], [138.862833, 35.390149], [138.873464, 35.381709], [138.879292, 35.385954], [138.887942, 35.386353], [138.892649, 35.390371], [138.89833, 35.391831], [138.902867, 35.396332], [138.910937, 35.397737], [138.913551, 35.399914], [138.923229, 35.401221], [138.931321, 35.401108], [138.937734, 35.399149], [138.948037, 35.40127], [138.966409, 35.401901], [138.96946, 35.404903], [138.980062, 35.404646], [138.984071, 35.401772], [138.993595, 35.40347], [138.998177, 35.402571], [139.001797, 35.398935], [138.998617, 35.38404], [139.005916, 35.375385], [139.006839, 35.361386], [139.012292, 35.358091], [139.008115, 35.350304], [139.010917, 35.343884], [139.010821, 35.338163], [139.019011, 35.329307], [139.016796, 35.323177], [139.009633, 35.313649], [139.010696, 35.310598], [139.006041, 35.297991], [139.006658, 35.295571], [139.00304, 35.289412], [138.997208, 35.288702], [138.993186, 35.284885], [138.985952, 35.278279], [138.981528, 35.26962], [138.975471, 35.263753], [138.974456, 35.247828], [138.976011, 35.241878], [138.97874, 35.239393], [138.976074, 35.235553], [138.979514, 35.233217], [138.983646, 35.221676], [138.982282, 35.217585], [138.987808, 35.212663], [138.986434, 35.205559], [138.987745, 35.200824], [138.993054, 35.198813], [139.001594, 35.189805], [139.009012, 35.183439], [139.013829, 35.182368], [139.021628, 35.181911], [139.029124, 35.170299], [139.029448, 35.164777], [139.026373, 35.160555], [139.030526, 35.158749], [139.028411, 35.154874], [139.030428, 35.149753], [139.039616, 35.150668], [139.048601, 35.149627], [139.051414, 35.147164], [139.060338, 35.146124], [139.066132, 35.144126], [139.072825, 35.145184], [139.083586, 35.141112], [139.090099, 35.140185], [139.101244, 35.140369], [139.108512, 35.141872], [139.110084, 35.134768], [139.096435, 35.116906], [139.089487, 35.114261], [139.086595, 35.110944], [139.086916, 35.10711], [139.082196, 35.101029], [139.07707, 35.098142], [139.075397, 35.09075], [139.080283, 35.09238], [139.08196, 35.08635], [139.074659, 35.080917], [139.075652, 35.075188], [139.078226, 35.072614], [139.074242, 35.060278], [139.070963, 35.059045], [139.069381, 35.05404], [139.074161, 35.046714], [139.079904, 35.047253], [139.085041, 35.04486], [139.090666, 35.049485], [139.094028, 35.049737], [139.100246, 35.045012], [139.098569, 35.031432], [139.099164, 35.026037], [139.097583, 35.013733], [139.100084, 35.010132], [139.095922, 35.007061], [139.089547, 35.0086], [139.084392, 35.006051], [139.082968, 35.000442], [139.087719, 34.993861], [139.094159, 34.988666], [139.093747, 34.98024], [139.095837, 34.976097], [139.105754, 34.969875], [139.111718, 34.973028], [139.119551, 34.973082], [139.128194, 34.96907], [139.12838, 34.960032], [139.130102, 34.955008], [139.134712, 34.951366], [139.144458, 34.956059], [139.146665, 34.945307], [139.143258, 34.940743], [139.147851, 34.935895], [139.145915, 34.929646], [139.140389, 34.921187], [139.139406, 34.908647], [139.134562, 34.90388], [139.131985, 34.898947], [139.13266, 34.895468], [139.138866, 34.89484], [139.14045, 34.891991], [139.13491, 34.887697], [139.132061, 34.879727], [139.119448, 34.873681], [139.117731, 34.871737], [139.103829, 34.870177], [139.098724, 34.863307], [139.098329, 34.857947], [139.092058, 34.856114], [139.086999, 34.858311], [139.08265, 34.852694], [139.081647, 34.847709], [139.076886, 34.841583], [139.077847, 34.837492], [139.075791, 34.828872], [139.079345, 34.823992], [139.070802, 34.811898], [139.065319, 34.806295], [139.062087, 34.800945], [139.061399, 34.790334], [139.058089, 34.785482], [139.041713, 34.773819], [139.048513, 34.76867], [139.04596, 34.766714], [139.037125, 34.765714], [139.030362, 34.76801], [139.025755, 34.764225], [139.023059, 34.762181], [139.023043, 34.757273], [139.020084, 34.753996], [139.013814, 34.751827], [139.009346, 34.753328], [139.004573, 34.75141], [138.997586, 34.742047], [139.000951, 34.736405], [138.993719, 34.728993], [138.990546, 34.720427], [138.992827, 34.717824], [138.9798, 34.709485], [138.975089, 34.6992], [138.973335, 34.687612], [138.977159, 34.684761], [138.977274, 34.673182], [138.979151, 34.667937], [138.986502, 34.667156], [138.98488, 34.66231], [138.97714, 34.653465], [138.972813, 34.655009], [138.961129, 34.653822], [138.957274, 34.657222], [138.959239, 34.66972], [138.964157, 34.672763], [138.956647, 34.676481], [138.949067, 34.673313], [138.94887, 34.666663], [138.944384, 34.665232], [138.939864, 34.668293], [138.936175, 34.665817], [138.937826, 34.661935], [138.930401, 34.660364], [138.918506, 34.652788], [138.91633, 34.65015], [138.917748, 34.645682], [138.913146, 34.639854], [138.912364, 34.634813], [138.904778, 34.629246], [138.900165, 34.632434], [138.892502, 34.635138], [138.887944, 34.630169], [138.89141, 34.627561], [138.885447, 34.623281], [138.878682, 34.624597], [138.874133, 34.622305], [138.872226, 34.618034], [138.865048, 34.619417], [138.849704, 34.609383], [138.842148, 34.601384], [138.835731, 34.606206], [138.832736, 34.605046], [138.825986, 34.607902], [138.823625, 34.616076], [138.819687, 34.613238], [138.814923, 34.618233], [138.813635, 34.622899], [138.809364, 34.625816], [138.802333, 34.625844], [138.798003, 34.622575], [138.793016, 34.62356], [138.793909, 34.634352], [138.787552, 34.6401], [138.782201, 34.638591], [138.775993, 34.641175], [138.77147, 34.648878], [138.774995, 34.654407], [138.77892, 34.654721], [138.783843, 34.661075], [138.791543, 34.662183], [138.78967, 34.669522], [138.785549, 34.669403], [138.780818, 34.666298], [138.776897, 34.669087], [138.777352, 34.67561], [138.769696, 34.681638], [138.766168, 34.685869], [138.755977, 34.691742], [138.741528, 34.688482], [138.743475, 34.693455], [138.7407, 34.700314], [138.739881, 34.70501], [138.742543, 34.713282], [138.743128, 34.721706], [138.746872, 34.732865], [138.751945, 34.734532], [138.756602, 34.733422], [138.757616, 34.737832], [138.76176, 34.739083], [138.759608, 34.746526], [138.760666, 34.74938], [138.768772, 34.751687], [138.776296, 34.755716], [138.775659, 34.762569], [138.774772, 34.767967], [138.771636, 34.769706], [138.768722, 34.778852], [138.765001, 34.78526], [138.753367, 34.799962], [138.758573, 34.802091], [138.765515, 34.807427], [138.762343, 34.813136], [138.756107, 34.811647], [138.751162, 34.820701], [138.756158, 34.826343], [138.764325, 34.831458], [138.75983, 34.842891], [138.766032, 34.843605], [138.771844, 34.846827], [138.775883, 34.853177], [138.774001, 34.857288], [138.767147, 34.858595], [138.766446, 34.861793], [138.758624, 34.861513], [138.754283, 34.866505], [138.758028, 34.870206], [138.756605, 34.885414], [138.763837, 34.891541], [138.766079, 34.895548], [138.773278, 34.895043], [138.782089, 34.902569], [138.78927, 34.90639], [138.789866, 34.909896], [138.786778, 34.913982], [138.785499, 34.919887], [138.777823, 34.927511], [138.776025, 34.939183], [138.77424, 34.944369], [138.767993, 34.949111], [138.765885, 34.953025], [138.765279, 34.959559], [138.762601, 34.965537], [138.762382, 34.971691], [138.766805, 34.972321], [138.775099, 34.969559], [138.776727, 34.97407], [138.773515, 34.978725], [138.768837, 34.981949], [138.771401, 34.986299], [138.774697, 34.996893], [138.780002, 35.001706], [138.777962, 35.010657], [138.780155, 35.018061], [138.783201, 35.019991], [138.783533, 35.024928], [138.797799, 35.023898], [138.799776, 35.021184], [138.812421, 35.020028], [138.813714, 35.022789], [138.826837, 35.022407], [138.839463, 35.017299], [138.844341, 35.014365], [138.851265, 35.01624], [138.857509, 35.020551], [138.871142, 35.021498], [138.877098, 35.025], [138.881736, 35.021451], [138.891649, 35.017081], [138.895269, 35.018946], [138.89859, 35.024852], [138.892834, 35.028097], [138.892445, 35.03127], [138.899261, 35.039137], [138.898697, 35.041477], [138.903679, 35.047504], [138.900563, 35.050524], [138.891751, 35.051682], [138.891546, 35.047843], [138.887045, 35.046775], [138.883224, 35.054674], [138.879042, 35.059162], [138.876112, 35.065967], [138.867197, 35.073759], [138.863578, 35.072142], [138.855549, 35.078877], [138.845233, 35.094543], [138.833762, 35.10356], [138.818332, 35.111875], [138.808115, 35.116178], [138.784366, 35.124074], [138.752521, 35.13151], [138.738463, 35.134176], [138.708945, 35.136668], [138.698907, 35.136354], [138.69559, 35.139961], [138.695668, 35.144617], [138.6893, 35.143507], [138.697666, 35.134394], [138.68005, 35.131889], [138.674347, 35.128052], [138.661618, 35.124337], [138.645351, 35.117694], [138.638537, 35.116491], [138.632245, 35.115174], [138.624223, 35.115861], [138.61794, 35.114782], [138.601006, 35.115155], [138.592337, 35.113092], [138.578668, 35.111774], [138.558795, 35.101649], [138.551532, 35.092558], [138.546856, 35.077004], [138.543112, 35.071806], [138.539492, 35.063211], [138.534462, 35.056087], [138.528812, 35.053563], [138.519821, 35.046849], [138.523691, 35.042669], [138.514894, 35.038254], [138.513077, 35.043221], [138.506094, 35.041676], [138.508454, 35.033471], [138.500285, 35.02973], [138.494814, 35.021832], [138.497549, 35.010205], [138.497709, 34.996218], [138.502243, 34.992026], [138.500685, 34.987399], [138.505618, 34.985684], [138.511136, 34.990589], [138.510859, 34.996423], [138.501117, 35.002221], [138.50252, 35.011517], [138.518566, 35.013341], [138.515781, 35.0209], [138.52212, 35.020587], [138.53189, 35.015734], [138.533457, 35.012965], [138.529146, 35.005357], [138.526652, 34.994941], [138.521772, 34.991556], [138.507509, 34.977593], [138.478272, 34.963263], [138.474573, 34.961834], [138.469741, 34.95973], [138.427562, 34.945841], [138.41622, 34.943284], [138.411052, 34.940789], [138.402142, 34.931753], [138.395281, 34.928642], [138.388233, 34.928103], [138.370978, 34.921894], [138.357448, 34.915045], [138.348393, 34.898549], [138.347956, 34.896144], [138.339525, 34.888789], [138.3384, 34.881137], [138.331288, 34.87394], [138.324396, 34.872591], [138.327544, 34.867264], [138.326136, 34.861252], [138.328018, 34.859251], [138.325359, 34.852494], [138.331923, 34.848023], [138.337021, 34.841446], [138.337864, 34.830599], [138.33447, 34.82439], [138.326074, 34.813336], [138.321524, 34.808675], [138.316534, 34.800462], [138.302983, 34.784488], [138.301056, 34.779178], [138.295335, 34.779251], [138.29228, 34.784594], [138.288696, 34.781237], [138.29485, 34.776255], [138.304215, 34.777268], [138.294263, 34.767374], [138.289094, 34.762439], [138.278323, 34.758089], [138.268808, 34.752018], [138.267114, 34.752838], [138.24587, 34.740553], [138.23311, 34.7316], [138.223629, 34.722405]], [[139.172329, 35.042729], [139.176546, 35.039671], [139.172353, 35.036672], [139.167963, 35.036555], [139.166321, 35.040212], [139.172329, 35.042729]]]}}]}