{
  "type": "FeatureCollection",
  "features": [
    {
      "type": "Feature",
      "geometry": {
        "type": "MultiPolygon",
        "coordinates": [
          [
            [
              [
                133.927607,
                34.389654
              ],
              [
                133.928781,
                34.377456
              ],
              [
                133.935587,
                34.370378
              ],
              [
                133.937226,
                34.348539
              ],
              [
                133.94351,
                34.346339
              ],
              [
                133.951248,
                34.32689
              ],
              [
                133.930657,
                34.320814
              ],
              [
                133.925255,
                34.315686
              ],
              [
                133.93944,
                34.300299
              ],
              [
                133.943084,
                34.277418
              ],
              [
                133.943949,
                34.271983
              ],
              [
                133.965782,
                34.265742
              ],
              [
                133.989245,
                34.266838
              ],
              [
                133.995282,
                34.263043
              ],
              [
                133.984499,
                34.242193
              ],
              [
                134.012943,
                34.211586
              ],
              [
                134.017092,
                34.18986
              ],
              [
                134.028634,
                34.17029
              ],
              [
                134.023294,
                34.155344
              ],
              [
                134.024584,
                34.139663
              ],
              [
                134.035985,
                34.127204
              ],
              [
                134.049885,
                34.117416
              ],
              [
                134.061352,
                34.111031
              ],
              [
                134.070918,
                34.112713
              ],
              [
                134.079556,
                34.121137
              ],
              [
                134.094484,
                34.114591
              ],
              [
                134.122311,
                34.118773
              ],
              [
                134.139314,
                34.134082
              ],
              [
                134.132412,
                34.151449
              ],
              [
                134.122166,
                34.167784
              ],
              [
                134.112686,
                34.177114
              ],
              [
                134.110418,
                34.193032
              ],
              [
                134.105183,
                34.202884
              ],
              [
                134.1059,
                34.214797
              ],
              [
                134.114383,
                34.226393
              ],
              [
                134.110693,
                34.234377
              ],
              [
                134.109432,
                34.25197
              ],
              [
                134.119143,
                34.290321
              ],
              [
                134.126525,
                34.303731
              ],
              [
                134.124294,
                34.311162
              ],
              [
                134.137111,
                34.313113
              ],
              [
                134.155435,
                34.310622
              ],
              [
                134.16517,
                34.32523
              ],
              [
                134.156739,
                34.342819
              ],
              [
                134.160037,
                34.354866
              ],
              [
                134.157157,
                34.365533
              ],
              [
                134.164145,
                34.375387
              ],
              [
                134.15955,
                34.389079
              ],
              [
                134.136322,
                34.400401
              ],
              [
                134.127037,
                34.396011
              ],
              [
                134.124033,
                34.379579
              ],
              [
                134.116389,
                34.376196
              ],
              [
                134.119184,
                34.362873
              ],
              [
                134.09164,
                34.384818
              ],
              [
                134.091689,
                34.365524
              ],
              [
                134.085661,
                34.351738
              ],
              [
                134.063973,
                34.353593
              ],
              [
                134.037786,
                34.349419
              ],
              [
                134.033245,
                34.353407
              ],
              [
                134.003408,
                34.359243
              ],
              [
                133.992684,
                34.356662
              ],
              [
                133.976731,
                34.373193
              ],
              [
                133.965506,
                34.362426
              ],
              [
                133.959206,
                34.377629
              ],
              [
                133.945315,
                34.375431
              ],
              [
                133.927607,
                34.389654
              ]
            ]
          ],
          [
            [
              [
                134.035931,
                34.384318
              ],
              [
                134.056046,
                34.392638
              ],
              [
                134.054003,
                34.409251
              ],
              [
                134.035931,
                34.384318
              ]
            ]
          ]
        ]
      },
      "properties": {
        "N03_001": "香川県",
        "N03_002": null,
        "N03_003": null,
        "N03_004": "高松市",
        "N03_005": null,
        "N03_007": "37201"
      }
    },
    {
      "type": "Feature",
      "geometry": {
        "type": "MultiPolygon",
        "coordinates": [
          [
            [
              [
                133.836479,
                34.28783
              ],
              [
                133.825628,
                34.292192
              ],
              [
                133.821916,
                34.301264
              ],
              [
                133.8063,
                34.310632
              ],
              [
                133.789881,
                34.298917
              ],
              [
                133.782734,
                34.310766
              ],
              [
                133.761877,
                34.299918
              ],
              [
                133.772649,
                34.288418
              ],
              [
                133.764293,
                34.284296
              ],
              [
                133.77639,
                34.262752
              ],
              [
                133.773872,
                34.255724
              ],
              [
                133.786203,
                34.254445
              ],
              [
                133.795489,
                34.258853
              ],
              [
                133.808421,
                34.237629
              ],
              [
                133.816595,
                34.241262
              ],
              [
                133.81974,
                34.225295
              ],
              [
                133.82536,
                34.220684
              ],
              [
                133.844487,
                34.216252
              ],
              [
                133.855348,
                34.204682
              ],
              [
                133.878156,
                34.204218
              ],
              [
                133.901414,
                34.209429
              ],
              [
                133.897539,
                34.237216
              ],
              [
                133.893381,
                34.245572
              ],
              [
                133.903888,
                34.262581
              ],
              [
                133.903231,
                34.271986
              ],
              [
                133.894472,
                34.27428
              ],
              [
                133.889969,
                34.289731
              ],
              [
                133.870451,
                34.282741
              ],
              [
                133.853411,
                34.281392
              ],
              [
                133.845153,
                34.27541
              ],
              [
                133.836479,
                34.28783
              ]
            ]
          ],
          [
            [
              [
                133.772775,
                34.377842
              ],
              [
                133.788799,
                34.383801
              ],
              [
                133.790395,
                34.395462
              ],
              [
                133.777783,
                34.400983
              ],
              [
                133.761462,
                34.389993
              ],
              [
                133.752734,
                34.388222
              ],
              [
                133.764501,
                34.369035
              ],
              [
                133.772775,
                34.377842
              ]
            ]
          ],
          [
            [
              [
                133.70915,
                34.387249
              ],
              [
                133.699583,
                34.386816
              ],
              [
                133.691143,
                34.379424
              ],
              [
                133.684416,
                34.361527
              ],
              [
                133.699527,
                34.351631
              ],
              [
                133.708859,
                34.353247
              ],
              [
                133.711925,
                34.363347
              ],
              [
                133.722602,
                34.362461
              ],
              [
                133.730408,
                34.374196
              ],
              [
                133.714614,
                34.399942
              ],
              [
                133.70915,
                34.387249
              ]
            ]
          ],
          [
            [
              [
                133.657934,
                34.406559
              ],
              [
                133.661196,
                34.391265
              ],
              [
                133.666803,
                34.382741
              ],
              [
                133.677979,
                34.394776
              ],
              [
                133.671202,
                34.398782
              ],
              [
                133.67603,
                34.409615
              ],
              [
                133.657934,
                34.406559
              ]
            ]
          ]
        ]
      },
      "properties": {
        "N03_001": "香川県",
        "N03_002": null,
        "N03_003": null,
        "N03_004": "丸亀市",
        "N03_005": null,
        "N03_007": "37202"
      }
    },
    {
      "type": "Feature",
      "geometry": {
        "type": "Polygon",
        "coordinates": [
          [
            [
              133.927607,
              34.389654
            ],
            [
              133.920904,
              34.377725
            ],
            [
              133.888049,
              34.375159
            ],
            [
              133.894945,
              34.354587
            ],
            [
              133.873815,
              34.338664
            ],
            [
              133.85485,
              34.328244
            ],
            [
              133.836577,
              34.323722
            ],
            [
              133.838458,
              34.338656
            ],
            [
              133.848692,
              34.339204
            ],
            [
              133.857618,
              34.345804
            ],
            [
              133.853725,
              34.360508
            ],
            [
              133.820937,
              34.337945
            ],
            [
              133.825849,
              34.337509
            ],
            [
              133.828792,
              34.323047
            ],
            [
              133.843705,
              34.306448
            ],
            [
              133.836479,
              34.28783
            ],
            [
              133.845153,
              34.27541
            ],
            [
              133.853411,
              34.281392
            ],
            [
              133.870451,
              34.282741
            ],
            [
              133.889969,
              34.289731
            ],
            [
              133.894472,
              34.27428
            ],
            [
              133.903231,
              34.271986
            ],
            [
              133.903888,
              34.262581
            ],
            [
              133.92234,
              34.265292
            ],
            [
              133.92252,
              34.265379
            ],
            [
              133.924127,
              34.266161
            ],
            [
              133.9249,
              34.266537
            ],
            [
              133.925426,
              34.266869
            ],
            [
              133.928544,
              34.268837
            ],
            [
              133.943084,
              34.277418
            ],
            [
              133.93944,
              34.300299
            ],
            [
              133.925255,
              34.315686
            ],
            [
              133.930657,
              34.320814
            ],
            [
              133.951248,
              34.32689
            ],
            [
              133.94351,
              34.346339
            ],
            [
              133.937226,
              34.348539
            ],
            [
              133.935587,
              34.370378
            ],
            [
              133.928781,
              34.377456
            ],
            [
              133.927607,
              34.389654
            ]
          ]
        ]
      },
      "properties": {
        "N03_001": "香川県",
        "N03_002": null,
        "N03_003": null,
        "N03_004": "坂出市",
        "N03_005": null,
        "N03_007": "37203"
      }
    },
    {
      "type": "Feature",
      "geometry": {
        "type": "Polygon",
        "coordinates": [
          [
            [
              133.773872,
              34.255724
            ],
            [
              133.743061,
              34.244664
            ],
            [
              133.728615,
              34.232809
            ],
            [
              133.726549,
              34.227709
            ],
            [
              133.735283,
              34.2166
            ],
            [
              133.750022,
              34.211476
            ],
            [
              133.755868,
              34.203398
            ],
            [
              133.777885,
              34.196204
            ],
            [
              133.785482,
              34.198538
            ],
            [
              133.800324,
              34.188068
            ],
            [
              133.814993,
              34.195971
            ],
            [
              133.803988,
              34.217007
            ],
            [
              133.814449,
              34.223452
            ],
            [
              133.81974,
              34.225295
            ],
            [
              133.816595,
              34.241262
            ],
            [
              133.808421,
              34.237629
            ],
            [
              133.795489,
              34.258853
            ],
            [
              133.786203,
              34.254445
            ],
            [
              133.773872,
              34.255724
            ]
          ]
        ]
      },
      "properties": {
        "N03_001": "香川県",
        "N03_002": null,
        "N03_003": null,
        "N03_004": "善通寺市",
        "N03_005": null,
        "N03_007": "37204"
      }
    },
    {
      "type": "Feature",
      "geometry": {
        "type": "Polygon",
        "coordinates": [
          [
            [
              133.740451,
              34.050192
            ],
            [
              133.733807,
              34.063178
            ],
            [
              133.732244,
              34.084012
            ],
            [
              133.714767,
              34.095459
            ],
            [
              133.716665,
              34.102332
            ],
            [
              133.710201,
              34.12516
            ],
            [
              133.698833,
              34.135729
            ],
            [
              133.688968,
              34.135504
            ],
            [
              133.669086,
              34.143437
            ],
            [
              133.661836,
              34.165509
            ],
            [
              133.646007,
              34.164352
            ],
            [
              133.63988,
              34.131292
            ],
            [
              133.631519,
              34.125474
            ],
            [
              133.637116,
              34.113449
            ],
            [
              133.630509,
              34.081428
            ],
            [
              133.633827,
              34.071368
            ],
            [
              133.631196,
              34.060148
            ],
            [
              133.622754,
              34.049395
            ],
            [
              133.599398,
              34.042067
            ],
            [
              133.613745,
              34.032243
            ],
            [
              133.626878,
              34.037767
            ],
            [
              133.63946,
              34.025932
            ],
            [
              133.656779,
              34.030031
            ],
            [
              133.691652,
              34.012766
            ],
            [
              133.700633,
              34.017919
            ],
            [
              133.709168,
              34.015376
            ],
            [
              133.721792,
              34.02263
            ],
            [
              133.723131,
              34.036567
            ],
            [
              133.740451,
              34.050192
            ]
          ]
        ]
      },
      "properties": {
        "N03_001": "香川県",
        "N03_002": null,
        "N03_003": null,
        "N03_004": "観音寺市",
        "N03_005": null,
        "N03_007": "37205"
      }
    },
    {
      "type": "Feature",
      "geometry": {
        "type": "Polygon",
        "coordinates": [
          [
            [
              134.155435,
              34.310622
            ],
            [
              134.161536,
              34.302764
            ],
            [
              134.154738,
              34.294436
            ],
            [
              134.155401,
              34.281372
            ],
            [
              134.168923,
              34.278825
            ],
            [
              134.162066,
              34.264582
            ],
            [
              134.167028,
              34.255326
            ],
            [
              134.162726,
              34.248043
            ],
            [
              134.169592,
              34.2377
            ],
            [
              134.163556,
              34.21511
            ],
            [
              134.166057,
              34.197984
            ],
            [
              134.155439,
              34.166748
            ],
            [
              134.173806,
              34.177008
            ],
            [
              134.186417,
              34.172386
            ],
            [
              134.208726,
              34.174726
            ],
            [
              134.216089,
              34.191029
            ],
            [
              134.207971,
              34.201927
            ],
            [
              134.217102,
              34.209247
            ],
            [
              134.228876,
              34.208088
            ],
            [
              134.253096,
              34.221344
            ],
            [
              134.276041,
              34.215071
            ],
            [
              134.272723,
              34.235149
            ],
            [
              134.281922,
              34.244263
            ],
            [
              134.275207,
              34.254946
            ],
            [
              134.288105,
              34.275301
            ],
            [
              134.276829,
              34.281958
            ],
            [
              134.257662,
              34.285419
            ],
            [
              134.246348,
              34.305605
            ],
            [
              134.265608,
              34.319166
            ],
            [
              134.25715,
              34.346431
            ],
            [
              134.250229,
              34.351593
            ],
            [
              134.233683,
              34.337212
            ],
            [
              134.218757,
              34.349055
            ],
            [
              134.216729,
              34.361819
            ],
            [
              134.20434,
              34.366484
            ],
            [
              134.211796,
              34.347839
            ],
            [
              134.187402,
              34.344854
            ],
            [
              134.179836,
              34.325168
            ],
            [
              134.16517,
              34.32523
            ],
            [
              134.155435,
              34.310622
            ]
          ]
        ]
      },
      "properties": {
        "N03_001": "香川県",
        "N03_002": null,
        "N03_003": null,
        "N03_004": "さぬき市",
        "N03_005": null,
        "N03_007": "37206"
      }
    },
    {
      "type": "Feature",
      "geometry": {
        "type": "Polygon",
        "coordinates": [
          [
            [
              134.208726,
              34.174726
            ],
            [
              134.22088,
              34.179921
            ],
            [
              134.247428,
              34.17873
            ],
            [
              134.266077,
              34.183213
            ],
            [
              134.277248,
              34.176464
            ],
            [
              134.292233,
              34.179143
            ],
            [
              134.297906,
              34.168639
            ],
            [
              134.314563,
              34.177256
            ],
            [
              134.344193,
              34.17238
            ],
            [
              134.348064,
              34.183874
            ],
            [
              134.35553,
              34.18529
            ],
            [
              134.385487,
              34.165097
            ],
            [
              134.402499,
              34.167886
            ],
            [
              134.414328,
              34.156917
            ],
            [
              134.433336,
              34.1684
            ],
            [
              134.429196,
              34.183193
            ],
            [
              134.438757,
              34.19049
            ],
            [
              134.440207,
              34.207854
            ],
            [
              134.430318,
              34.210035
            ],
            [
              134.408037,
              34.224619
            ],
            [
              134.412244,
              34.232593
            ],
            [
              134.398778,
              34.242315
            ],
            [
              134.390201,
              34.254971
            ],
            [
              134.368749,
              34.24988
            ],
            [
              134.347687,
              34.252245
            ],
            [
              134.333531,
              34.258715
            ],
            [
              134.305828,
              34.278648
            ],
            [
              134.288105,
              34.275301
            ],
            [
              134.275207,
              34.254946
            ],
            [
              134.281922,
              34.244263
            ],
            [
              134.272723,
              34.235149
            ],
            [
              134.276041,
              34.215071
            ],
            [
              134.253096,
              34.221344
            ],
            [
              134.228876,
              34.208088
            ],
            [
              134.217102,
              34.209247
            ],
            [
              134.207971,
              34.201927
            ],
            [
              134.216089,
              34.191029
            ],
            [
              134.208726,
              34.174726
            ]
          ]
        ]
      },
      "properties": {
        "N03_001": "香川県",
        "N03_002": null,
        "N03_003": null,
        "N03_004": "東かがわ市",
        "N03_005": null,
        "N03_007": "37207"
      }
    },
    {
      "type": "Feature",
      "geometry": {
        "type": "MultiPolygon",
        "coordinates": [
          [
            [
              [
                133.728615,
                34.232809
              ],
              [
                133.7196,
                34.230218
              ],
              [
                133.708886,
                34.240865
              ],
              [
                133.698385,
                34.234301
              ],
              [
                133.681604,
                34.233963
              ],
              [
                133.670293,
                34.240565
              ],
              [
                133.646483,
                34.233233
              ],
              [
                133.634251,
                34.239507
              ],
              [
                133.622312,
                34.235562
              ],
              [
                133.613481,
                34.250139
              ],
              [
                133.591367,
                34.255338
              ],
              [
                133.571841,
                34.265529
              ],
              [
                133.583284,
                34.243676
              ],
              [
                133.593173,
                34.236767
              ],
              [
                133.605718,
                34.233475
              ],
              [
                133.609816,
                34.222631
              ],
              [
                133.6346,
                34.210315
              ],
              [
                133.638035,
                34.199845
              ],
              [
                133.64933,
                34.186186
              ],
              [
                133.645091,
                34.181648
              ],
              [
                133.646007,
                34.164352
              ],
              [
                133.661836,
                34.165509
              ],
              [
                133.669086,
                34.143437
              ],
              [
                133.688968,
                34.135504
              ],
              [
                133.698833,
                34.135729
              ],
              [
                133.710201,
                34.12516
              ],
              [
                133.716665,
                34.102332
              ],
              [
                133.714767,
                34.095459
              ],
              [
                133.732244,
                34.084012
              ],
              [
                133.733807,
                34.063178
              ],
              [
                133.740451,
                34.050192
              ],
              [
                133.756992,
                34.059586
              ],
              [
                133.764281,
                34.070723
              ],
              [
                133.778469,
                34.07946
              ],
              [
                133.797828,
                34.06976
              ],
              [
                133.820015,
                34.073663
              ],
              [
                133.823577,
                34.086093
              ],
              [
                133.815707,
                34.120687
              ],
              [
                133.818411,
                34.128676
              ],
              [
                133.817236,
                34.146673
              ],
              [
                133.800769,
                34.156366
              ],
              [
                133.806966,
                34.181929
              ],
              [
                133.800324,
                34.188068
              ],
              [
                133.785482,
                34.198538
              ],
              [
                133.777885,
                34.196204
              ],
              [
                133.755868,
                34.203398
              ],
              [
                133.750022,
                34.211476
              ],
              [
                133.735283,
                34.2166
              ],
              [
                133.726549,
                34.227709
              ],
              [
                133.728615,
                34.232809
              ]
            ]
          ],
          [
            [
              [
                133.630917,
                34.285659
              ],
              [
                133.62067,
                34.281343
              ],
              [
                133.62742,
                34.272822
              ],
              [
                133.617712,
                34.26593
              ],
              [
                133.624913,
                34.260823
              ],
              [
                133.6398,
                34.271845
              ],
              [
                133.628483,
                34.278437
              ],
              [
                133.630917,
                34.285659
              ]
            ]
          ]
        ]
      },
      "properties": {
        "N03_001": "香川県",
        "N03_002": null,
        "N03_003": null,
        "N03_004": "三豊市",
        "N03_005": null,
        "N03_007": "37208"
      }
    },
    {
      "type": "Feature",
      "geometry": {
        "type": "MultiPolygon",
        "coordinates": [
          [
            [
              [
                134.201778,
                34.488532
              ],
              [
                134.223509,
                34.494941
              ],
              [
                134.237061,
                34.510729
              ],
              [
                134.25753,
                34.506857
              ],
              [
                134.279259,
                34.519449
              ],
              [
                134.300335,
                34.518081
              ],
              [
                134.311883,
                34.522844
              ],
              [
                134.319325,
                34.547787
              ],
              [
                134.332459,
                34.563196
              ],
              [
                134.313453,
                34.558698
              ],
              [
                134.305057,
                34.54935
              ],
              [
                134.295221,
                34.546716
              ],
              [
                134.271645,
                34.547628
              ],
              [
                134.264373,
                34.553275
              ],
              [
                134.256313,
                34.543084
              ],
              [
                134.241166,
                34.535026
              ],
              [
                134.238939,
                34.529601
              ],
              [
                134.222284,
                34.529312
              ],
              [
                134.209973,
                34.521471
              ],
              [
                134.193244,
                34.521569
              ],
              [
                134.186839,
                34.515822
              ],
              [
                134.165193,
                34.518998
              ],
              [
                134.166733,
                34.493752
              ],
              [
                134.157168,
                34.492995
              ],
              [
                134.144993,
                34.479574
              ],
              [
                134.140909,
                34.469572
              ],
              [
                134.151496,
                34.459762
              ],
              [
                134.168159,
                34.464657
              ],
              [
                134.172683,
                34.475247
              ],
              [
                134.182154,
                34.475033
              ],
              [
                134.186273,
                34.48621
              ],
              [
                134.201778,
                34.488532
              ]
            ]
          ],
          [
            [
              [
                134.065136,
                34.470693
              ],
              [
                134.078107,
                34.460374
              ],
              [
                134.08501,
                34.459922
              ],
              [
                134.091434,
                34.471125
              ],
              [
                134.102701,
                34.47909
              ],
              [
                134.103841,
                34.492065
              ],
              [
                134.093525,
                34.490452
              ],
              [
                134.084391,
                34.499907
              ],
              [
                134.069069,
                34.498025
              ],
              [
                134.058665,
                34.488928
              ],
              [
                134.043192,
                34.489431
              ],
              [
                134.043915,
                34.4751
              ],
              [
                134.065136,
                34.470693
              ]
            ]
          ]
        ]
      },
      "properties": {
        "N03_001": "香川県",
        "N03_002": null,
        "N03_003": "小豆郡",
        "N03_004": "土庄町",
        "N03_005": null,
        "N03_007": "37322"
      }
    },
    {
      "type": "Feature",
      "geometry": {
        "type": "Polygon",
        "coordinates": [
          [
            [
              134.201778,
              34.488532
            ],
            [
              134.21241,
              34.48146
            ],
            [
              134.216307,
              34.473204
            ],
            [
              134.228386,
              34.48065
            ],
            [
              134.24296,
              34.458605
            ],
            [
              134.235151,
              34.444604
            ],
            [
              134.237769,
              34.430308
            ],
            [
              134.224559,
              34.425049
            ],
            [
              134.231955,
              34.414952
            ],
            [
              134.241481,
              34.416618
            ],
            [
              134.251268,
              34.42441
            ],
            [
              134.246635,
              34.430026
            ],
            [
              134.25168,
              34.439669
            ],
            [
              134.262606,
              34.449209
            ],
            [
              134.259596,
              34.454767
            ],
            [
              134.267698,
              34.468041
            ],
            [
              134.282822,
              34.470949
            ],
            [
              134.296344,
              34.479749
            ],
            [
              134.314226,
              34.475177
            ],
            [
              134.318182,
              34.466367
            ],
            [
              134.301311,
              34.459643
            ],
            [
              134.284249,
              34.460798
            ],
            [
              134.287046,
              34.446079
            ],
            [
              134.298218,
              34.450242
            ],
            [
              134.303066,
              34.457815
            ],
            [
              134.319632,
              34.458011
            ],
            [
              134.329987,
              34.445793
            ],
            [
              134.3488,
              34.459838
            ],
            [
              134.353848,
              34.476306
            ],
            [
              134.343946,
              34.482572
            ],
            [
              134.351955,
              34.491722
            ],
            [
              134.347336,
              34.501041
            ],
            [
              134.356385,
              34.511061
            ],
            [
              134.354618,
              34.523409
            ],
            [
              134.360146,
              34.533666
            ],
            [
              134.344898,
              34.540701
            ],
            [
              134.351362,
              34.56403
            ],
            [
              134.332459,
              34.563196
            ],
            [
              134.319325,
              34.547787
            ],
            [
              134.311883,
              34.522844
            ],
            [
              134.300335,
              34.518081
            ],
            [
              134.279259,
              34.519449
            ],
            [
              134.25753,
              34.506857
            ],
            [
              134.237061,
              34.510729
            ],
            [
              134.223509,
              34.494941
            ],
            [
              134.201778,
              34.488532
            ]
          ]
        ]
      },
      "properties": {
        "N03_001": "香川県",
        "N03_002": null,
        "N03_003": "小豆郡",
        "N03_004": "小豆島町",
        "N03_005": null,
        "N03_007": "37324"
      }
    },
    {
      "type": "Feature",
      "geometry": {
        "type": "Polygon",
        "coordinates": [
          [
            [
              134.132412,
              34.151449
            ],
            [
              134.140697,
              34.155163
            ],
            [
              134.146316,
              34.165285
            ],
            [
              134.155439,
              34.166748
            ],
            [
              134.166057,
              34.197984
            ],
            [
              134.163556,
              34.21511
            ],
            [
              134.169592,
              34.2377
            ],
            [
              134.162726,
              34.248043
            ],
            [
              134.167028,
              34.255326
            ],
            [
              134.162066,
              34.264582
            ],
            [
              134.168923,
              34.278825
            ],
            [
              134.155401,
              34.281372
            ],
            [
              134.154738,
              34.294436
            ],
            [
              134.161536,
              34.302764
            ],
            [
              134.155435,
              34.310622
            ],
            [
              134.137111,
              34.313113
            ],
            [
              134.124294,
              34.311162
            ],
            [
              134.126525,
              34.303731
            ],
            [
              134.119143,
              34.290321
            ],
            [
              134.109432,
              34.25197
            ],
            [
              134.110693,
              34.234377
            ],
            [
              134.114383,
              34.226393
            ],
            [
              134.1059,
              34.214797
            ],
            [
              134.105183,
              34.202884
            ],
            [
              134.110418,
              34.193032
            ],
            [
              134.112686,
              34.177114
            ],
            [
              134.122166,
              34.167784
            ],
            [
              134.132412,
              34.151449
            ]
          ]
        ]
      },
      "properties": {
        "N03_001": "香川県",
        "N03_002": null,
        "N03_003": "木田郡",
        "N03_004": "三木町",
        "N03_005": null,
        "N03_007": "37341"
      }
    },
    {
      "type": "Feature",
      "geometry": {
        "type": "MultiPolygon",
        "coordinates": [
          [
            [
              [
                134.023883,
                34.506839
              ],
              [
                134.010944,
                34.487288
              ],
              [
                134.020648,
                34.478361
              ],
              [
                134.023883,
                34.506839
              ]
            ]
          ],
          [
            [
              [
                133.975312,
                34.45626
              ],
              [
                133.981749,
                34.444965
              ],
              [
                134.001794,
                34.451025
              ],
              [
                133.99985,
                34.46073
              ],
              [
                133.983126,
                34.471974
              ],
              [
                133.965474,
                34.470183
              ],
              [
                133.975312,
                34.45626
              ]
            ]
          ]
        ]
      },
      "properties": {
        "N03_001": "香川県",
        "N03_002": null,
        "N03_003": "香川郡",
        "N03_004": "直島町",
        "N03_005": null,
        "N03_007": "37364"
      }
    },
    {
      "type": "Feature",
      "geometry": {
        "type": "Polygon",
        "coordinates": [
          [
            [
              133.836479,
              34.28783
            ],
            [
              133.843705,
              34.306448
            ],
            [
              133.828792,
              34.323047
            ],
            [
              133.823347,
              34.323776
            ],
            [
              133.8063,
              34.310632
            ],
            [
              133.821916,
              34.301264
            ],
            [
              133.825628,
              34.292192
            ],
            [
              133.836479,
              34.28783
            ]
          ]
        ]
      },
      "properties": {
        "N03_001": "香川県",
        "N03_002": null,
        "N03_003": "綾歌郡",
        "N03_004": "宇多津町",
        "N03_005": null,
        "N03_007": "37386"
      }
    },
    {
      "type": "Feature",
      "geometry": {
        "type": "Polygon",
        "coordinates": [
          [
            [
              133.943084,
              34.277418
            ],
            [
              133.928544,
              34.268837
            ],
            [
              133.925426,
              34.266869
            ],
            [
              133.9249,
              34.266537
            ],
            [
              133.924127,
              34.266161
            ],
            [
              133.92252,
              34.265379
            ],
            [
              133.92234,
              34.265292
            ],
            [
              133.903888,
              34.262581
            ],
            [
              133.893381,
              34.245572
            ],
            [
              133.897539,
              34.237216
            ],
            [
              133.901414,
              34.209429
            ],
            [
              133.902463,
              34.204358
            ],
            [
              133.928582,
              34.192742
            ],
            [
              133.934002,
              34.181228
            ],
            [
              133.947184,
              34.170246
            ],
            [
              133.950216,
              34.157339
            ],
            [
              133.972445,
              34.157875
            ],
            [
              133.982508,
              34.154752
            ],
            [
              133.990126,
              34.144379
            ],
            [
              134.008717,
              34.144401
            ],
            [
              134.024584,
              34.139663
            ],
            [
              134.023294,
              34.155344
            ],
            [
              134.028634,
              34.17029
            ],
            [
              134.017092,
              34.18986
            ],
            [
              134.012943,
              34.211586
            ],
            [
              133.984499,
              34.242193
            ],
            [
              133.995282,
              34.263043
            ],
            [
              133.989245,
              34.266838
            ],
            [
              133.965782,
              34.265742
            ],
            [
              133.943949,
              34.271983
            ],
            [
              133.943084,
              34.277418
            ]
          ]
        ]
      },
      "properties": {
        "N03_001": "香川県",
        "N03_002": null,
        "N03_003": "綾歌郡",
        "N03_004": "綾川町",
        "N03_005": null,
        "N03_007": "37387"
      }
    },
    {
      "type": "Feature",
      "geometry": {
        "type": "Polygon",
        "coordinates": [
          [
            [
              133.800324,
              34.188068
            ],
            [
              133.806966,
              34.181929
            ],
            [
              133.815318,
              34.17534
            ],
            [
              133.836018,
              34.185305
            ],
            [
              133.82863,
              34.200319
            ],
            [
              133.81811,
              34.206955
            ],
            [
              133.814449,
              34.223452
            ],
            [
              133.803988,
              34.217007
            ],
            [
              133.814993,
              34.195971
            ],
            [
              133.800324,
              34.188068
            ]
          ]
        ]
      },
      "properties": {
        "N03_001": "香川県",
        "N03_002": null,
        "N03_003": "仲多度郡",
        "N03_004": "琴平町",
        "N03_005": null,
        "N03_007": "37403"
      }
    },
    {
      "type": "Feature",
      "geometry": {
        "type": "MultiPolygon",
        "coordinates": [
          [
            [
              [
                133.764293,
                34.284296
              ],
              [
                133.747893,
                34.276213
              ],
              [
                133.730337,
                34.27211
              ],
              [
                133.730907,
                34.261392
              ],
              [
                133.708885,
                34.243348
              ],
              [
                133.7196,
                34.230218
              ],
              [
                133.728615,
                34.232809
              ],
              [
                133.743061,
                34.244664
              ],
              [
                133.773872,
                34.255724
              ],
              [
                133.77639,
                34.262752
              ],
              [
                133.764293,
                34.284296
              ]
            ]
          ],
          [
            [
              [
                133.662417,
                34.320988
              ],
              [
                133.675164,
                34.305769
              ],
              [
                133.680126,
                34.317111
              ],
              [
                133.662417,
                34.320988
              ]
            ]
          ],
          [
            [
              [
                133.631722,
                34.338978
              ],
              [
                133.621699,
                34.354003
              ],
              [
                133.619956,
                34.333543
              ],
              [
                133.631722,
                34.338978
              ]
            ]
          ]
        ]
      },
      "properties": {
        "N03_001": "香川県",
        "N03_002": null,
        "N03_003": "仲多度郡",
        "N03_004": "多度津町",
        "N03_005": null,
        "N03_007": "37404"
      }
    },
    {
      "type": "Feature",
      "geometry": {
        "type": "Polygon",
        "coordinates": [
          [
            [
              134.024584,
              34.139663
            ],
            [
              134.008717,
              34.144401
            ],
            [
              133.990126,
              34.144379
            ],
            [
              133.982508,
              34.154752
            ],
            [
              133.972445,
              34.157875
            ],
            [
              133.950216,
              34.157339
            ],
            [
              133.947184,
              34.170246
            ],
            [
              133.934002,
              34.181228
            ],
            [
              133.928582,
              34.192742
            ],
            [
              133.902463,
              34.204358
            ],
            [
              133.901414,
              34.209429
            ],
            [
              133.878156,
              34.204218
            ],
            [
              133.855348,
              34.204682
            ],
            [
              133.844487,
              34.216252
            ],
            [
              133.82536,
              34.220684
            ],
            [
              133.81974,
              34.225295
            ],
            [
              133.814449,
              34.223452
            ],
            [
              133.81811,
              34.206955
            ],
            [
              133.82863,
              34.200319
            ],
            [
              133.836018,
              34.185305
            ],
            [
              133.815318,
              34.17534
            ],
            [
              133.806966,
              34.181929
            ],
            [
              133.800769,
              34.156366
            ],
            [
              133.817236,
              34.146673
            ],
            [
              133.818411,
              34.128676
            ],
            [
              133.815707,
              34.120687
            ],
            [
              133.822225,
              34.092188
            ],
            [
              133.834133,
              34.097741
            ],
            [
              133.842153,
              34.094966
            ],
            [
              133.858539,
              34.105274
            ],
            [
              133.867084,
              34.100153
            ],
            [
              133.892855,
              34.108197
            ],
            [
              133.903094,
              34.100071
            ],
            [
              133.922296,
              34.114412
            ],
            [
              133.939116,
              34.115396
            ],
            [
              133.945604,
              34.092173
            ],
            [
              133.97789,
              34.075837
            ],
            [
              133.993934,
              34.072618
            ],
            [
              134.010021,
              34.086687
            ],
            [
              134.026258,
              34.085088
            ],
            [
              134.025632,
              34.09196
            ],
            [
              134.04004,
              34.100865
            ],
            [
              134.042169,
              34.110261
            ],
            [
              134.049885,
              34.117416
            ],
            [
              134.035985,
              34.127204
            ],
            [
              134.024584,
              34.139663
            ]
          ]
        ]
      },
      "properties": {
        "N03_001": "香川県",
        "N03_002": null,
        "N03_003": "仲多度郡",
        "N03_004": "まんのう町",
        "N03_005": null,
        "N03_007": "37406"
      }
    }
  ]
}