{"type": "FeatureCollection", "features": [{"type": "Feature", "properties": {"name": "香川県"}, "geometry": {"type": "MultiLineString", "coordinates": [[[133.700633, 34.017919], [133.691652, 34.012766], [133.679549, 34.01252], [133.678232, 34.018188], [133.665203, 34.027239], [133.656779, 34.030031], [133.63946, 34.025932], [133.626878, 34.037767], [133.613745, 34.032243], [133.604171, 34.035903], [133.599398, 34.042067], [133.622754, 34.049395], [133.631196, 34.060148], [133.633827, 34.071368], [133.630509, 34.081428], [133.638222, 34.090678], [133.634671, 34.094809], [133.637116, 34.113449], [133.631519, 34.125474], [133.63988, 34.131292], [133.642672, 34.148916], [133.640043, 34.151673], [133.645687, 34.158974], [133.646007, 34.164352], [133.647546, 34.1743], [133.645091, 34.181648], [133.64933, 34.186186], [133.638035, 34.199845], [133.6346, 34.210315], [133.625981, 34.213905], [133.619075, 34.219773], [133.609816, 34.222631], [133.605718, 34.233475], [133.593173, 34.236767], [133.583284, 34.243676], [133.579388, 34.250067], [133.573547, 34.252028], [133.574452, 34.258062], [133.556947, 34.261738], [133.571841, 34.265529], [133.591367, 34.255338], [133.613481, 34.250139], [133.618369, 34.244617], [133.616474, 34.239779], [133.622312, 34.235562], [133.634251, 34.239507], [133.646483, 34.233233], [133.654719, 34.233658], [133.657794, 34.238815], [133.670293, 34.240565], [133.681604, 34.233963], [133.688117, 34.237119], [133.698385, 34.234301], [133.708886, 34.240865], [133.7196, 34.230218], [133.708885, 34.243348], [133.730907, 34.261392], [133.737871, 34.263739], [133.730337, 34.27211], [133.747893, 34.276213], [133.740396, 34.28193], [133.746768, 34.285369], [133.752973, 34.280511], [133.760758, 34.287051], [133.764293, 34.284296], [133.772649, 34.288418], [133.761877, 34.299918], [133.768492, 34.304904], [133.775338, 34.296498], [133.783312, 34.300009], [133.772142, 34.305976], [133.782734, 34.310766], [133.789881, 34.298917], [133.796971, 34.305995], [133.8063, 34.310632], [133.823347, 34.323776], [133.828792, 34.323047], [133.825849, 34.337509], [133.827551, 34.326318], [133.821918, 34.324759], [133.820937, 34.337945], [133.824306, 34.352586], [133.840677, 34.360589], [133.840616, 34.355944], [133.829392, 34.347648], [133.828919, 34.342146], [133.853725, 34.360508], [133.859414, 34.354233], [133.857618, 34.345804], [133.848692, 34.339204], [133.838458, 34.338656], [133.834069, 34.331836], [133.836577, 34.323722], [133.850536, 34.33021], [133.85485, 34.328244], [133.867897, 34.337438], [133.873815, 34.338664], [133.894945, 34.354587], [133.888049, 34.375159], [133.895976, 34.38285], [133.900458, 34.377697], [133.920904, 34.377725], [133.927607, 34.389654], [133.938331, 34.381491], [133.939228, 34.375205], [133.945315, 34.375431], [133.948519, 34.381085], [133.959206, 34.377629], [133.964204, 34.370942], [133.965506, 34.362426], [133.976731, 34.373193], [133.992684, 34.356662], [134.000424, 34.355444], [134.003408, 34.359243], [134.033245, 34.353407], [134.037786, 34.349419], [134.047293, 34.35551], [134.050453, 34.352134], [134.063973, 34.353593], [134.064489, 34.364922], [134.070731, 34.364506], [134.069483, 34.351336], [134.074659, 34.351264], [134.074999, 34.361782], [134.079865, 34.361476], [134.078672, 34.35], [134.085661, 34.351738], [134.091689, 34.365524], [134.09164, 34.384818], [134.094169, 34.384724], [134.108083, 34.372263], [134.115288, 34.358901], [134.119184, 34.362873], [134.116389, 34.376196], [134.124033, 34.379579], [134.121128, 34.398354], [134.127037, 34.396011], [134.136322, 34.400401], [134.15955, 34.389079], [134.164145, 34.375387], [134.157157, 34.365533], [134.160037, 34.354866], [134.156739, 34.342819], [134.160054, 34.330657], [134.16517, 34.32523], [134.179836, 34.325168], [134.17926, 34.333093], [134.184881, 34.333523], [134.187402, 34.344854], [134.198902, 34.346781], [134.20435, 34.343155], [134.211796, 34.347839], [134.20434, 34.366484], [134.210906, 34.369398], [134.216729, 34.361819], [134.218757, 34.349055], [134.233683, 34.337212], [134.241331, 34.340783], [134.250229, 34.351593], [134.25715, 34.346431], [134.258198, 34.336825], [134.266294, 34.336218], [134.261828, 34.329382], [134.265608, 34.319166], [134.251433, 34.311486], [134.246348, 34.305605], [134.257662, 34.285419], [134.276829, 34.281958], [134.288105, 34.275301], [134.29607, 34.274022], [134.305828, 34.278648], [134.333531, 34.258715], [134.347687, 34.252245], [134.356025, 34.253922], [134.368749, 34.24988], [134.377079, 34.253936], [134.378119, 34.261824], [134.390201, 34.254971], [134.398778, 34.242315], [134.412244, 34.232593], [134.404512, 34.230561], [134.408037, 34.224619], [134.430318, 34.210035], [134.440207, 34.207854], [134.438757, 34.19049], [134.429196, 34.183193], [134.433888, 34.178054], [134.433336, 34.1684], [134.414328, 34.156917], [134.402499, 34.167886], [134.393652, 34.163549], [134.385487, 34.165097], [134.382973, 34.172234], [134.375658, 34.171786], [134.35553, 34.18529], [134.348064, 34.183874], [134.344193, 34.17238], [134.314563, 34.177256], [134.308495, 34.170881], [134.297906, 34.168639], [134.292233, 34.179143], [134.277248, 34.176464], [134.273551, 34.181081], [134.266077, 34.183213], [134.247428, 34.17873], [134.22088, 34.179921], [134.208726, 34.174726], [134.186417, 34.172386], [134.173806, 34.177008], [134.155439, 34.166748], [134.146316, 34.165285], [134.140697, 34.155163], [134.132412, 34.151449], [134.136373, 34.150281], [134.139314, 34.134082], [134.122311, 34.118773], [134.094484, 34.114591], [134.079556, 34.121137], [134.070918, 34.112713], [134.061352, 34.111031], [134.057447, 34.115985], [134.049885, 34.117416], [134.042169, 34.110261], [134.04004, 34.100865], [134.025632, 34.09196], [134.026258, 34.085088], [134.010021, 34.086687], [134.002344, 34.081132], [134.001504, 34.075225], [133.993934, 34.072618], [133.97789, 34.075837], [133.973048, 34.073021], [133.968813, 34.081493], [133.959125, 34.082495], [133.956478, 34.088099], [133.945604, 34.092173], [133.944431, 34.101754], [133.937668, 34.107822], [133.939116, 34.115396], [133.922296, 34.114412], [133.903094, 34.100071], [133.892855, 34.108197], [133.867084, 34.100153], [133.858539, 34.105274], [133.842153, 34.094966], [133.834133, 34.097741], [133.822225, 34.092188], [133.815707, 34.120687], [133.823577, 34.086093], [133.818466, 34.079492], [133.820015, 34.073663], [133.797828, 34.06976], [133.790132, 34.075586], [133.778469, 34.07946], [133.772575, 34.072625], [133.764281, 34.070723], [133.756992, 34.059586], [133.740451, 34.050192], [133.728994, 34.04416], [133.723131, 34.036567], [133.721792, 34.02263], [133.709168, 34.015376], [133.700633, 34.017919]], [[133.538951, 34.126057], [133.531211, 34.124621], [133.526656, 34.136516], [133.531015, 34.136333], [133.538951, 34.126057]], [[133.654971, 34.270494], [133.651351, 34.267712], [133.6398, 34.271845], [133.624913, 34.260823], [133.617135, 34.259053], [133.617712, 34.26593], [133.62742, 34.272822], [133.627639, 34.277946], [133.62067, 34.281343], [133.62366, 34.286733], [133.630917, 34.285659], [133.628483, 34.278437], [133.635336, 34.272837], [133.64452, 34.27496], [133.647512, 34.2812], [133.654971, 34.270494]], [[133.662417, 34.320988], [133.663252, 34.325542], [133.680126, 34.317111], [133.683525, 34.311273], [133.675164, 34.305769], [133.662417, 34.320988]], [[133.631722, 34.338978], [133.625375, 34.330598], [133.619956, 34.333543], [133.618683, 34.354602], [133.621699, 34.354003], [133.631722, 34.338978]], [[133.785475, 34.364042], [133.786453, 34.357539], [133.774635, 34.356685], [133.776443, 34.364655], [133.785475, 34.364042]], [[133.722602, 34.362461], [133.711925, 34.363347], [133.708859, 34.353247], [133.699527, 34.351631], [133.694582, 34.356979], [133.684416, 34.361527], [133.688767, 34.36575], [133.691143, 34.379424], [133.697338, 34.37866], [133.699583, 34.386816], [133.70915, 34.387249], [133.708738, 34.400381], [133.714614, 34.399942], [133.730408, 34.374196], [133.729967, 34.36842], [133.722602, 34.362461]], [[133.752838, 34.398718], [133.761462, 34.389993], [133.777783, 34.400983], [133.790395, 34.395462], [133.788799, 34.383801], [133.772775, 34.377842], [133.764501, 34.369035], [133.756567, 34.370447], [133.760256, 34.378782], [133.752734, 34.388222], [133.752838, 34.398718]], [[133.824351, 34.382354], [133.815228, 34.384311], [133.812314, 34.391884], [133.820861, 34.395372], [133.824561, 34.390193], [133.824351, 34.382354]], [[133.661779, 34.398354], [133.657934, 34.406559], [133.67603, 34.409615], [133.671202, 34.398782], [133.677979, 34.394776], [133.666803, 34.382741], [133.661196, 34.391265], [133.661779, 34.398354]], [[133.810251, 34.414574], [133.806156, 34.412755], [133.795771, 34.425679], [133.806475, 34.426913], [133.810251, 34.414574]], [[134.040902, 34.38001], [134.035931, 34.384318], [134.054003, 34.409251], [134.05666, 34.407361], [134.056046, 34.392638], [134.048409, 34.389301], [134.040902, 34.38001]], [[134.064964, 34.422121], [134.055573, 34.416636], [134.052982, 34.422835], [134.057656, 34.431767], [134.063093, 34.433345], [134.064964, 34.422121]], [[133.99985, 34.46073], [134.001794, 34.451025], [133.993952, 34.446475], [133.981749, 34.444965], [133.975312, 34.45626], [133.969109, 34.461297], [133.965474, 34.470183], [133.982533, 34.476861], [133.983126, 34.471974], [133.99985, 34.46073]], [[134.004596, 34.462213], [133.998389, 34.469515], [134.009956, 34.471278], [134.004596, 34.462213]], [[134.108132, 34.475056], [134.11035, 34.479531], [134.127809, 34.481954], [134.123626, 34.475455], [134.116869, 34.472167], [134.108132, 34.475056]], [[134.069069, 34.498025], [134.076555, 34.496774], [134.084391, 34.499907], [134.093525, 34.490452], [134.103841, 34.492065], [134.102701, 34.47909], [134.091434, 34.471125], [134.08501, 34.459922], [134.078107, 34.460374], [134.065136, 34.470693], [134.043915, 34.4751], [134.041303, 34.483273], [134.043192, 34.489431], [134.058665, 34.488928], [134.069069, 34.498025]], [[134.355314, 34.539115], [134.360146, 34.533666], [134.354618, 34.523409], [134.356385, 34.511061], [134.347336, 34.501041], [134.351955, 34.491722], [134.342757, 34.488339], [134.343946, 34.482572], [134.353848, 34.476306], [134.3488, 34.459838], [134.335489, 34.448108], [134.340407, 34.437836], [134.332855, 34.435529], [134.329987, 34.445793], [134.319632, 34.458011], [134.314008, 34.45448], [134.303066, 34.457815], [134.298218, 34.450242], [134.287046, 34.446079], [134.283278, 34.455992], [134.284249, 34.460798], [134.301311, 34.459643], [134.318182, 34.466367], [134.314226, 34.475177], [134.296344, 34.479749], [134.282822, 34.470949], [134.267698, 34.468041], [134.259596, 34.454767], [134.262606, 34.449209], [134.25168, 34.439669], [134.246635, 34.430026], [134.251268, 34.42441], [134.241481, 34.416618], [134.231955, 34.414952], [134.224559, 34.425049], [134.237769, 34.430308], [134.235151, 34.444604], [134.239158, 34.450194], [134.237716, 34.455576], [134.24296, 34.458605], [134.233456, 34.476451], [134.228386, 34.48065], [134.216307, 34.473204], [134.21241, 34.48146], [134.201778, 34.488532], [134.199798, 34.482709], [134.186273, 34.48621], [134.187238, 34.479398], [134.182154, 34.475033], [134.172683, 34.475247], [134.168159, 34.464657], [134.151496, 34.459762], [134.148742, 34.467249], [134.140909, 34.469572], [134.144993, 34.479574], [134.157168, 34.492995], [134.166733, 34.493752], [134.177593, 34.48659], [134.180446, 34.487718], [134.165812, 34.499942], [134.164199, 34.507622], [134.167161, 34.513926], [134.165193, 34.518998], [134.171394, 34.525302], [134.177998, 34.518135], [134.186839, 34.515822], [134.193244, 34.521569], [134.209973, 34.521471], [134.222284, 34.529312], [134.228602, 34.526844], [134.238939, 34.529601], [134.241166, 34.535026], [134.256313, 34.543084], [134.264373, 34.553275], [134.271645, 34.547628], [134.295221, 34.546716], [134.305057, 34.54935], [134.313453, 34.558698], [134.332459, 34.563196], [134.351362, 34.56403], [134.347395, 34.555806], [134.347605, 34.546539], [134.344898, 34.540701], [134.355314, 34.539115]], [[134.020648, 34.478361], [134.010944, 34.487288], [134.010379, 34.498383], [134.016577, 34.495896], [134.023883, 34.506839], [134.020648, 34.478361]]]}}], "name": "香川県"}