{"type": "FeatureCollection", "features": [{"type": "Feature", "properties": {"name": "高知県"}, "geometry": {"type": "MultiLineString", "coordinates": [[[132.542131, 32.730942], [132.543054, 32.73652], [132.547951, 32.738651], [132.544063, 32.742641], [132.547241, 32.746497], [132.543705, 32.750904], [132.5448, 32.754945], [132.550925, 32.749655], [132.552703, 32.747142], [132.558298, 32.748507], [132.557762, 32.743061], [132.567243, 32.740729], [132.571551, 32.735694], [132.566611, 32.727128], [132.573031, 32.716523], [132.572117, 32.714238], [132.571764, 32.713357], [132.549811, 32.707213], [132.543094, 32.702508], [132.540434, 32.706709], [132.549045, 32.71184], [132.550546, 32.716603], [132.534571, 32.729658], [132.542131, 32.730942]], [[132.494655, 32.739752], [132.490326, 32.735743], [132.48338, 32.734794], [132.489568, 32.743586], [132.494655, 32.739752]], [[132.5993, 32.747905], [132.603353, 32.747969], [132.604151, 32.744991], [132.599506, 32.744992], [132.5993, 32.747905]], [[132.627209, 32.755751], [132.626893, 32.754842], [132.624298, 32.756214], [132.625594, 32.756564], [132.627209, 32.755751]], [[132.556405, 32.767142], [132.558379, 32.767871], [132.558071, 32.766375], [132.556405, 32.767142]], [[132.61788, 32.767002], [132.620521, 32.771463], [132.629111, 32.773327], [132.626318, 32.769457], [132.62999, 32.767202], [132.61788, 32.767002]], [[132.858027, 32.783753], [132.856792, 32.783995], [132.857611, 32.785456], [132.858027, 32.783753]], [[132.494207, 32.801352], [132.495955, 32.796749], [132.480116, 32.796972], [132.483789, 32.802608], [132.487053, 32.807616], [132.499659, 32.804128], [132.494207, 32.801352]], [[132.757579, 32.752877], [132.757418, 32.752716], [132.749855, 32.760276], [132.743344, 32.772996], [132.739183, 32.772142], [132.72786, 32.780077], [132.727147, 32.785548], [132.721528, 32.786001], [132.722697, 32.791186], [132.718503, 32.797827], [132.716235, 32.79706], [132.716667, 32.793583], [132.710643, 32.799032], [132.707228, 32.794799], [132.698943, 32.796335], [132.687508, 32.791562], [132.683241, 32.795743], [132.686363, 32.788695], [132.695011, 32.790338], [132.698958, 32.786328], [132.69622, 32.784608], [132.690562, 32.788197], [132.683374, 32.781134], [132.668679, 32.784395], [132.662967, 32.780502], [132.654563, 32.781159], [132.647747, 32.773878], [132.65103, 32.766302], [132.639963, 32.764456], [132.637306, 32.767022], [132.632014, 32.762064], [132.628962, 32.762978], [132.631001, 32.767808], [132.640394, 32.769482], [132.63367, 32.78424], [132.64229, 32.783198], [132.644348, 32.786703], [132.635638, 32.789177], [132.631188, 32.796049], [132.629611, 32.796821], [132.630712, 32.801507], [132.637737, 32.798936], [132.639894, 32.801998], [132.648322, 32.800511], [132.648967, 32.804639], [132.656184, 32.801276], [132.655395, 32.805926], [132.640233, 32.808931], [132.646986, 32.809895], [132.644048, 32.819539], [132.649907, 32.818886], [132.651255, 32.827681], [132.654493, 32.829489], [132.657191, 32.823911], [132.660483, 32.832051], [132.663979, 32.831442], [132.659636, 32.839419], [132.674008, 32.840433], [132.661216, 32.84888], [132.661071, 32.85356], [132.65682, 32.854216], [132.669763, 32.862146], [132.667929, 32.864683], [132.67458, 32.865069], [132.678609, 32.870488], [132.6901, 32.874523], [132.691164, 32.87843], [132.688026, 32.880176], [132.696275, 32.886828], [132.704189, 32.886632], [132.705113, 32.888276], [132.709491, 32.881908], [132.706666, 32.875776], [132.713592, 32.882233], [132.715953, 32.879894], [132.71365, 32.877487], [132.713581, 32.875309], [132.71808, 32.876317], [132.722498, 32.881023], [132.712751, 32.886016], [132.71607, 32.888394], [132.711347, 32.88843], [132.704114, 32.896136], [132.716479, 32.893349], [132.721931, 32.898686], [132.719748, 32.90281], [132.71999, 32.900424], [132.711296, 32.899983], [132.714057, 32.903011], [132.713028, 32.909284], [132.716997, 32.908609], [132.713726, 32.915538], [132.711153, 32.914566], [132.710886, 32.923959], [132.703948, 32.924317], [132.699824, 32.917726], [132.699152, 32.920795], [132.694149, 32.920576], [132.696063, 32.928558], [132.688213, 32.925552], [132.691369, 32.920832], [132.685947, 32.919694], [132.683702, 32.92304], [132.682859, 32.91997], [132.679306, 32.921546], [132.677358, 32.926015], [132.678814, 32.920046], [132.674012, 32.919872], [132.671149, 32.923348], [132.671796, 32.918726], [132.666817, 32.91899], [132.665578, 32.924645], [132.664702, 32.921963], [132.655528, 32.924274], [132.656398, 32.931819], [132.652489, 32.939451], [132.678075, 32.942863], [132.683392, 32.946832], [132.683499, 32.962909], [132.681132, 32.964124], [132.686471, 32.963091], [132.686248, 32.967957], [132.691516, 32.973571], [132.68726, 32.975973], [132.681381, 32.993816], [132.686916, 32.998048], [132.676884, 33.010635], [132.678733, 33.012935], [132.675351, 33.02213], [132.67823, 33.03771], [132.657674, 33.057058], [132.669502, 33.071183], [132.666654, 33.080726], [132.670051, 33.085507], [132.669311, 33.092392], [132.663543, 33.108387], [132.653891, 33.110411], [132.646636, 33.115566], [132.637476, 33.132392], [132.628417, 33.133795], [132.632295, 33.149244], [132.615, 33.168559], [132.619485, 33.173466], [132.619444, 33.180879], [132.635659, 33.1864], [132.634498, 33.178415], [132.639597, 33.172972], [132.646964, 33.171708], [132.66238, 33.154419], [132.673348, 33.150828], [132.686416, 33.135046], [132.695835, 33.137587], [132.698602, 33.146412], [132.710406, 33.152972], [132.719417, 33.166665], [132.728106, 33.169927], [132.737773, 33.181783], [132.737216, 33.186331], [132.741911, 33.189743], [132.738406, 33.195906], [132.740787, 33.201477], [132.748427, 33.203487], [132.758692, 33.201486], [132.775591, 33.205972], [132.770859, 33.221042], [132.77509, 33.232531], [132.771964, 33.241276], [132.777606, 33.24614], [132.779534, 33.256066], [132.786893, 33.26224], [132.787555, 33.2682], [132.793117, 33.274841], [132.814387, 33.280598], [132.816943, 33.283748], [132.827866, 33.283227], [132.836939, 33.28948], [132.849563, 33.289574], [132.872462, 33.304926], [132.895522, 33.312004], [132.900491, 33.31904], [132.899014, 33.324569], [132.904355, 33.327051], [132.901747, 33.327306], [132.902951, 33.33791], [132.890134, 33.357509], [132.883797, 33.362349], [132.859873, 33.36864], [132.853022, 33.388304], [132.856207, 33.391933], [132.854437, 33.398398], [132.84083, 33.397897], [132.835484, 33.40055], [132.831619, 33.408852], [132.834013, 33.420153], [132.824915, 33.422934], [132.823403, 33.429468], [132.82779, 33.438387], [132.826562, 33.445604], [132.808167, 33.453539], [132.806456, 33.457041], [132.809392, 33.464746], [132.818866, 33.46645], [132.820567, 33.472619], [132.827157, 33.472406], [132.832472, 33.476072], [132.839396, 33.474256], [132.847272, 33.479204], [132.865849, 33.472006], [132.881056, 33.470953], [132.888939, 33.473455], [132.915213, 33.467654], [132.944013, 33.471968], [132.951666, 33.466578], [132.959638, 33.466312], [132.989258, 33.473866], [132.991565, 33.475573], [133.019803, 33.480764], [133.015364, 33.481006], [133.01329, 33.490437], [133.034395, 33.511992], [133.037942, 33.526406], [133.06414, 33.54251], [133.060252, 33.55409], [133.062327, 33.561623], [133.046593, 33.576328], [133.056611, 33.595755], [133.07962, 33.6087], [133.067234, 33.621665], [133.07502, 33.650619], [133.090599, 33.657829], [133.106662, 33.656651], [133.116611, 33.660218], [133.121512, 33.674127], [133.120284, 33.690608], [133.125322, 33.698326], [133.144393, 33.704447], [133.139817, 33.715691], [133.161533, 33.73148], [133.167216, 33.72844], [133.159297, 33.733937], [133.157807, 33.750245], [133.182622, 33.766565], [133.192744, 33.793782], [133.205713, 33.794514], [133.219844, 33.780431], [133.236921, 33.782725], [133.25718, 33.793863], [133.262443, 33.804737], [133.260703, 33.810967], [133.269213, 33.825618], [133.282219, 33.831971], [133.293549, 33.828806], [133.310275, 33.81588], [133.326331, 33.814764], [133.333568, 33.821491], [133.345614, 33.824819], [133.355622, 33.834311], [133.375707, 33.828676], [133.391479, 33.824326], [133.400833, 33.836237], [133.415306, 33.839915], [133.438889, 33.833829], [133.470499, 33.83679], [133.473341, 33.833725], [133.483214, 33.832991], [133.486621, 33.829707], [133.483716, 33.827178], [133.49161, 33.832358], [133.499281, 33.829131], [133.508431, 33.835505], [133.5069, 33.837634], [133.509405, 33.848218], [133.518105, 33.847335], [133.526354, 33.853661], [133.525415, 33.861021], [133.536086, 33.865824], [133.540052, 33.878613], [133.556868, 33.882329], [133.571321, 33.869634], [133.582639, 33.868197], [133.581433, 33.862447], [133.583034, 33.86765], [133.596227, 33.879821], [133.610895, 33.880809], [133.627308, 33.872031], [133.635252, 33.880199], [133.643419, 33.883363], [133.660748, 33.881809], [133.66291, 33.870345], [133.677293, 33.858579], [133.694633, 33.856404], [133.701572, 33.849806], [133.738004, 33.849856], [133.740921, 33.842624], [133.748, 33.836778], [133.785659, 33.842414], [133.78858, 33.836244], [133.817773, 33.837321], [133.828488, 33.844749], [133.838422, 33.845268], [133.844535, 33.837505], [133.853658, 33.834572], [133.872496, 33.810158], [133.873514, 33.805923], [133.887287, 33.802958], [133.893375, 33.804936], [133.901366, 33.794013], [133.907999, 33.795225], [133.91339, 33.791181], [133.924878, 33.800609], [133.941261, 33.799158], [133.947474, 33.803744], [133.95273, 33.815493], [133.951086, 33.828925], [133.959783, 33.83466], [133.98515, 33.840785], [133.990121, 33.828104], [133.997705, 33.821086], [134.012647, 33.82183], [134.033444, 33.827833], [134.036978, 33.81498], [134.033311, 33.809278], [134.046793, 33.798764], [134.045988, 33.789521], [134.058133, 33.781141], [134.059048, 33.761235], [134.05606, 33.751655], [134.061781, 33.735215], [134.066193, 33.734067], [134.068359, 33.729333], [134.065037, 33.719452], [134.070284, 33.71225], [134.064715, 33.706554], [134.064867, 33.698371], [134.056635, 33.694049], [134.058057, 33.691033], [134.057098, 33.689976], [134.06704, 33.688652], [134.126012, 33.695906], [134.147707, 33.684947], [134.163845, 33.688124], [134.174654, 33.684285], [134.175806, 33.676287], [134.168965, 33.670768], [134.17535, 33.661594], [134.171312, 33.657504], [134.184173, 33.649023], [134.163985, 33.635447], [134.150225, 33.630552], [134.149251, 33.627141], [134.154884, 33.623179], [134.152105, 33.617201], [134.155507, 33.608054], [134.156139, 33.611701], [134.172525, 33.609603], [134.175955, 33.607101], [134.17024, 33.602115], [134.170577, 33.596973], [134.184719, 33.588686], [134.188598, 33.581473], [134.187768, 33.575768], [134.195443, 33.56846], [134.19317, 33.561627], [134.198488, 33.551486], [134.195788, 33.560818], [134.218164, 33.567633], [134.237756, 33.552049], [134.241506, 33.556055], [134.249517, 33.552882], [134.258206, 33.553273], [134.262277, 33.556734], [134.270404, 33.554896], [134.273585, 33.560572], [134.281715, 33.561022], [134.295676, 33.557728], [134.296356, 33.553111], [134.306746, 33.553618], [134.30444, 33.545382], [134.301833, 33.549637], [134.297055, 33.547937], [134.304529, 33.54181], [134.297297, 33.540925], [134.300998, 33.538427], [134.296955, 33.537781], [134.295881, 33.541624], [134.291849, 33.541641], [134.290638, 33.538724], [134.294368, 33.537888], [134.285579, 33.530976], [134.283264, 33.52493], [134.283648, 33.521408], [134.28994, 33.520248], [134.274157, 33.50691], [134.267992, 33.494391], [134.256559, 33.485202], [134.242085, 33.463917], [134.241605, 33.45074], [134.235311, 33.442109], [134.227583, 33.450087], [134.235395, 33.439631], [134.213936, 33.404842], [134.211526, 33.392613], [134.210087, 33.392552], [134.213755, 33.389533], [134.213349, 33.38222], [134.199971, 33.349889], [134.197031, 33.327007], [134.198999, 33.324888], [134.196488, 33.325515], [134.193845, 33.320063], [134.192464, 33.306994], [134.186379, 33.293954], [134.186135, 33.263053], [134.186603, 33.26216], [134.176794, 33.24318], [134.176893, 33.24413], [134.172918, 33.245872], [134.164198, 33.263087], [134.165191, 33.263545], [134.167594, 33.260391], [134.165414, 33.266605], [134.162899, 33.266806], [134.163208, 33.263592], [134.158544, 33.26878], [134.160575, 33.269707], [134.151924, 33.281747], [134.142976, 33.285517], [134.14582, 33.285691], [134.147591, 33.285068], [134.152307, 33.281693], [134.153387, 33.282704], [134.148249, 33.287007], [134.144471, 33.28611], [134.138396, 33.296019], [134.124113, 33.299448], [134.113931, 33.293634], [134.110762, 33.293643], [134.107165, 33.296608], [134.107283, 33.29738], [134.109824, 33.305612], [134.105536, 33.322892], [134.100587, 33.329076], [134.089709, 33.333908], [134.077618, 33.339769], [134.061953, 33.362377], [134.049566, 33.370522], [134.041073, 33.372085], [134.038398, 33.369672], [134.033666, 33.378276], [134.035214, 33.379376], [134.036323, 33.399874], [134.030588, 33.412832], [134.0139, 33.419031], [134.016674, 33.421715], [134.019641, 33.419714], [134.019584, 33.422061], [134.015281, 33.42395], [134.012442, 33.419665], [134.011209, 33.422451], [134.011163, 33.422407], [133.993062, 33.428437], [133.993629, 33.435506], [133.992035, 33.427971], [133.982358, 33.434984], [133.957768, 33.441831], [133.954423, 33.445181], [133.956849, 33.445368], [133.955867, 33.446205], [133.957267, 33.450097], [133.955386, 33.446859], [133.94931, 33.450661], [133.94153, 33.463243], [133.94437, 33.475057], [133.934481, 33.487281], [133.900047, 33.497735], [133.886099, 33.498657], [133.889253, 33.50058], [133.889578, 33.501217], [133.881985, 33.502185], [133.884845, 33.49925], [133.880202, 33.500552], [133.880644, 33.502622], [133.843031, 33.506297], [133.834819, 33.512998], [133.820061, 33.515299], [133.770043, 33.515825], [133.769999, 33.515772], [133.753863, 33.520572], [133.754622, 33.525117], [133.753855, 33.526204], [133.752535, 33.526396], [133.757546, 33.528173], [133.755327, 33.530214], [133.756041, 33.53127], [133.747827, 33.536503], [133.731029, 33.538748], [133.723059, 33.536555], [133.721943, 33.536912], [133.723941, 33.538617], [133.720663, 33.53963], [133.721458, 33.537032], [133.702967, 33.537253], [133.693204, 33.53354], [133.694187, 33.537494], [133.69026, 33.536651], [133.693308, 33.534232], [133.681881, 33.534], [133.601431, 33.519565], [133.590803, 33.515952], [133.592696, 33.5135], [133.584148, 33.50624], [133.586146, 33.508713], [133.581388, 33.51274], [133.57126, 33.502153], [133.563466, 33.501731], [133.567074, 33.508998], [133.563322, 33.507031], [133.564805, 33.512005], [133.569286, 33.51099], [133.573342, 33.515098], [133.569403, 33.516955], [133.564785, 33.514627], [133.565382, 33.531181], [133.56685, 33.535594], [133.573271, 33.536627], [133.573091, 33.536932], [133.569516, 33.53637], [133.57144, 33.539059], [133.566037, 33.54342], [133.559008, 33.538755], [133.552619, 33.540804], [133.551819, 33.536728], [133.559996, 33.536097], [133.56154, 33.531676], [133.548396, 33.525576], [133.546436, 33.522122], [133.551147, 33.520895], [133.54589, 33.517424], [133.553821, 33.50978], [133.559666, 33.508476], [133.556639, 33.504381], [133.557855, 33.498972], [133.565248, 33.498483], [133.563862, 33.496459], [133.567848, 33.49913], [133.577235, 33.500842], [133.574883, 33.495499], [133.51403, 33.475488], [133.504132, 33.468904], [133.504742, 33.467966], [133.499828, 33.467023], [133.479513, 33.457934], [133.463732, 33.451822], [133.457021, 33.443218], [133.454157, 33.448077], [133.450722, 33.44874], [133.45089, 33.451848], [133.442169, 33.450131], [133.43789, 33.443874], [133.438145, 33.440127], [133.432422, 33.437213], [133.429055, 33.442263], [133.432235, 33.437211], [133.422923, 33.440532], [133.425039, 33.449326], [133.418632, 33.449312], [133.417844, 33.443781], [133.413149, 33.442826], [133.40569, 33.447595], [133.40543, 33.442877], [133.398141, 33.445341], [133.395645, 33.442492], [133.400652, 33.442139], [133.401002, 33.437925], [133.407917, 33.439214], [133.405391, 33.432054], [133.400802, 33.433596], [133.398116, 33.429163], [133.389951, 33.42648], [133.386496, 33.428036], [133.387405, 33.431871], [133.376669, 33.428504], [133.368485, 33.430147], [133.363883, 33.428158], [133.3606, 33.421022], [133.350408, 33.418271], [133.350429, 33.415861], [133.364534, 33.415822], [133.364769, 33.411398], [133.358656, 33.408827], [133.367044, 33.406708], [133.370516, 33.411807], [133.368492, 33.420579], [133.370971, 33.424851], [133.373472, 33.421543], [133.37825, 33.422236], [133.377388, 33.418656], [133.380374, 33.417844], [133.378176, 33.415131], [133.381271, 33.415413], [133.384099, 33.410754], [133.385785, 33.413965], [133.383951, 33.42079], [133.388926, 33.422084], [133.39296, 33.417097], [133.39234, 33.421281], [133.396641, 33.42479], [133.404165, 33.414596], [133.402323, 33.423364], [133.405015, 33.428317], [133.406082, 33.42359], [133.410701, 33.424467], [133.406842, 33.427267], [133.411896, 33.429287], [133.410937, 33.434316], [133.417342, 33.439527], [133.423856, 33.429266], [133.428982, 33.430364], [133.433113, 33.426756], [133.433517, 33.431602], [133.436684, 33.427557], [133.433984, 33.4324], [133.443451, 33.434895], [133.440198, 33.436586], [133.441908, 33.440206], [133.453912, 33.431883], [133.457715, 33.433368], [133.462824, 33.430581], [133.458027, 33.42745], [133.457399, 33.419957], [133.441313, 33.421645], [133.442886, 33.419635], [133.440031, 33.412458], [133.436108, 33.415614], [133.428662, 33.415145], [133.428724, 33.407548], [133.425436, 33.412896], [133.420134, 33.41251], [133.420286, 33.407102], [133.417883, 33.410652], [133.412211, 33.41116], [133.412128, 33.406102], [133.407185, 33.403991], [133.409773, 33.398124], [133.40572, 33.397189], [133.401831, 33.404467], [133.394727, 33.401169], [133.390494, 33.406103], [133.376357, 33.401776], [133.378602, 33.392764], [133.375573, 33.392887], [133.371477, 33.40215], [133.345681, 33.400901], [133.340313, 33.396157], [133.342433, 33.392481], [133.332375, 33.390823], [133.329415, 33.387133], [133.333267, 33.376168], [133.326788, 33.368138], [133.331397, 33.362288], [133.327149, 33.364301], [133.321732, 33.361882], [133.31897, 33.354869], [133.312126, 33.356716], [133.313339, 33.357859], [133.316921, 33.357825], [133.317646, 33.359365], [133.311392, 33.366566], [133.315302, 33.366694], [133.319608, 33.362718], [133.323759, 33.364929], [133.319199, 33.370061], [133.323743, 33.369366], [133.320797, 33.376063], [133.324466, 33.379174], [133.317876, 33.382954], [133.314021, 33.37585], [133.309604, 33.37584], [133.310491, 33.37852], [133.306389, 33.380375], [133.30214, 33.378425], [133.303756, 33.374987], [133.299403, 33.373962], [133.298836, 33.379534], [133.289786, 33.38259], [133.304722, 33.391452], [133.294069, 33.402768], [133.294973, 33.40599], [133.29032, 33.404826], [133.288862, 33.400439], [133.295635, 33.389602], [133.280572, 33.385089], [133.280565, 33.383993], [133.279179, 33.38322], [133.28138, 33.376709], [133.27389, 33.375219], [133.27257, 33.370161], [133.268023, 33.371897], [133.267904, 33.367562], [133.264304, 33.36992], [133.258963, 33.365849], [133.260051, 33.361369], [133.264666, 33.359417], [133.261883, 33.353343], [133.264546, 33.350057], [133.260225, 33.34764], [133.263827, 33.340569], [133.25853, 33.340788], [133.256076, 33.332835], [133.25424, 33.332662], [133.251965, 33.334319], [133.249486, 33.333724], [133.249508, 33.327834], [133.243445, 33.334673], [133.231572, 33.326409], [133.232349, 33.323213], [133.236729, 33.322243], [133.237182, 33.324471], [133.246017, 33.315558], [133.261057, 33.309871], [133.249069, 33.306109], [133.251499, 33.299707], [133.244574, 33.301307], [133.238515, 33.29708], [133.2459, 33.292042], [133.242693, 33.289456], [133.243617, 33.279215], [133.241939, 33.279842], [133.240649, 33.281467], [133.243005, 33.275103], [133.24967, 33.275273], [133.249712, 33.278508], [133.250978, 33.278136], [133.251964, 33.279319], [133.248007, 33.279567], [133.256923, 33.280855], [133.260675, 33.278221], [133.255307, 33.267508], [133.264217, 33.257314], [133.255996, 33.253394], [133.255479, 33.249742], [133.247666, 33.249564], [133.247307, 33.242296], [133.256094, 33.237868], [133.254551, 33.237691], [133.256094, 33.23781], [133.249492, 33.232928], [133.250335, 33.229831], [133.253896, 33.230936], [133.256139, 33.225252], [133.238477, 33.215653], [133.238902, 33.209377], [133.234666, 33.203582], [133.241222, 33.196737], [133.233347, 33.198248], [133.218643, 33.193943], [133.211011, 33.184959], [133.211083, 33.180625], [133.224421, 33.170556], [133.219386, 33.168007], [133.218945, 33.161367], [133.21428, 33.16502], [133.223005, 33.153297], [133.211994, 33.148077], [133.208135, 33.149261], [133.210727, 33.152789], [133.205346, 33.159354], [133.206995, 33.165016], [133.191366, 33.16727], [133.170574, 33.150423], [133.163031, 33.135712], [133.163988, 33.135239], [133.159071, 33.130118], [133.158911, 33.125454], [133.15448, 33.12498], [133.153798, 33.117924], [133.147581, 33.111186], [133.147907, 33.105363], [133.144404, 33.10379], [133.143517, 33.098202], [133.133983, 33.091299], [133.117837, 33.08622], [133.112342, 33.078675], [133.11417, 33.077551], [133.113886, 33.074316], [133.112784, 33.074128], [133.110947, 33.075625], [133.109342, 33.074636], [133.108022, 33.075766], [133.105154, 33.073066], [133.108872, 33.062661], [133.099397, 33.058229], [133.096199, 33.049136], [133.093052, 33.034158], [133.097306, 33.029135], [133.096539, 33.024847], [133.083692, 33.025912], [133.071478, 33.037811], [133.059663, 33.036002], [133.056215, 33.039098], [133.055002, 33.035693], [133.05383, 33.036376], [133.05428, 33.038966], [133.037648, 33.037625], [133.016259, 33.020709], [133.011892, 33.014638], [133.015236, 33.012811], [133.01536, 33.011168], [133.013162, 33.013894], [133.011337, 33.011392], [133.011323, 33.014768], [133.009705, 33.011543], [133.014032, 33.010143], [133.01339, 33.009661], [133.008571, 33.011896], [133.005621, 32.996628], [133.008262, 32.998557], [133.006983, 32.994523], [133.002883, 32.992669], [132.999892, 32.982733], [132.991251, 32.976775], [132.999296, 32.980301], [133.005242, 32.975353], [132.999795, 32.971804], [133.000103, 32.965549], [132.995274, 32.962419], [132.992989, 32.952492], [133.000432, 32.943468], [132.995245, 32.936649], [133.000802, 32.93718], [132.999324, 32.935779], [132.995225, 32.936529], [132.994699, 32.931725], [133.000677, 32.930563], [132.996972, 32.928496], [132.99734, 32.923642], [133.009129, 32.912497], [132.993261, 32.9119], [133.008836, 32.911954], [133.005731, 32.900443], [133.009618, 32.881987], [132.999401, 32.876315], [132.993751, 32.868346], [132.996468, 32.864063], [132.992825, 32.862595], [132.987179, 32.86804], [132.981801, 32.864564], [132.966058, 32.865854], [132.960748, 32.86463], [132.956912, 32.85857], [132.953946, 32.861024], [132.949247, 32.857812], [132.956361, 32.85055], [132.952686, 32.845207], [132.956604, 32.840233], [132.953845, 32.834765], [132.960368, 32.829562], [132.951642, 32.825355], [132.950361, 32.820603], [132.951865, 32.812959], [132.95794, 32.805041], [132.96571, 32.802379], [132.963071, 32.802329], [132.965497, 32.799035], [132.966148, 32.800957], [132.979469, 32.793552], [132.996828, 32.790456], [132.997565, 32.786298], [132.999232, 32.787544], [132.99882, 32.789087], [133.002177, 32.787061], [133.001496, 32.782455], [133.010354, 32.76735], [133.017825, 32.761545], [133.013899, 32.754707], [133.021932, 32.73135], [133.020373, 32.723587], [133.002802, 32.721528], [132.993782, 32.731284], [132.98908, 32.729027], [132.987018, 32.733662], [132.983859, 32.730245], [132.973091, 32.733419], [132.969087, 32.72892], [132.965611, 32.729381], [132.96535, 32.737971], [132.97158, 32.747437], [132.968397, 32.751856], [132.961347, 32.750737], [132.963919, 32.757937], [132.954481, 32.756627], [132.952876, 32.762414], [132.957529, 32.77187], [132.96627, 32.773904], [132.969695, 32.777873], [132.965192, 32.774776], [132.958672, 32.776621], [132.961026, 32.779125], [132.955637, 32.778937], [132.955022, 32.76967], [132.951784, 32.771051], [132.94538, 32.764914], [132.939425, 32.775915], [132.940982, 32.779435], [132.94752, 32.780054], [132.942257, 32.78031], [132.943448, 32.783404], [132.938432, 32.786672], [132.932644, 32.784325], [132.934807, 32.778474], [132.930047, 32.781207], [132.930135, 32.783224], [132.923465, 32.782552], [132.920055, 32.778285], [132.920512, 32.78469], [132.912762, 32.788027], [132.879456, 32.789667], [132.87504, 32.787534], [132.880398, 32.783203], [132.875771, 32.775096], [132.878766, 32.769656], [132.868346, 32.765626], [132.869031, 32.770975], [132.86517, 32.771488], [132.87154, 32.776854], [132.871621, 32.785795], [132.866862, 32.787954], [132.865732, 32.784979], [132.861636, 32.790727], [132.859771, 32.785696], [132.851942, 32.786713], [132.845929, 32.778085], [132.844259, 32.781364], [132.839573, 32.781217], [132.833374, 32.775253], [132.836279, 32.772899], [132.832832, 32.766226], [132.827317, 32.765628], [132.826573, 32.762005], [132.821983, 32.760208], [132.814857, 32.76164], [132.81517, 32.752937], [132.803903, 32.752819], [132.802517, 32.748959], [132.802384, 32.746833], [132.789654, 32.748974], [132.786413, 32.763891], [132.786385, 32.756974], [132.779266, 32.754167], [132.769014, 32.762064], [132.764691, 32.759469], [132.765718, 32.755951], [132.757579, 32.752877]], [[132.687888, 32.918484], [132.695146, 32.918723], [132.705121, 32.915911], [132.696044, 32.91018], [132.687465, 32.915539], [132.687888, 32.918484]], [[132.660589, 32.9166], [132.656535, 32.913752], [132.653003, 32.914719], [132.6571, 32.918582], [132.660589, 32.9166]], [[132.662927, 32.917721], [132.662434, 32.920245], [132.66388, 32.921095], [132.664576, 32.920429], [132.666174, 32.917213], [132.662927, 32.917721]], [[132.703719, 32.919674], [132.703642, 32.922273], [132.705161, 32.919603], [132.703719, 32.919674]], [[132.693115, 32.926608], [132.693903, 32.926076], [132.694008, 32.923999], [132.692177, 32.923414], [132.693115, 32.926608]], [[133.112677, 33.071739], [133.113406, 33.073053], [133.115326, 33.072372], [133.112677, 33.071739]], [[133.319813, 33.352635], [133.324596, 33.349702], [133.322438, 33.347567], [133.319813, 33.352635]], [[133.309324, 33.359211], [133.311097, 33.356149], [133.304325, 33.357455], [133.309324, 33.359211]], [[133.29833, 33.358669], [133.29929, 33.362853], [133.305054, 33.362361], [133.301794, 33.360801], [133.30261, 33.35758], [133.29833, 33.358669]], [[133.450259, 33.447924], [133.441325, 33.443943], [133.451179, 33.438107], [133.441079, 33.442792], [133.441163, 33.444277], [133.441729, 33.445643], [133.443637, 33.44761], [133.450259, 33.447924]], [[133.593208, 33.498942], [133.582585, 33.49949], [133.585287, 33.499727], [133.593208, 33.498942]], [[133.59093, 33.504312], [133.597107, 33.511087], [133.5911, 33.503618], [133.59093, 33.504312]], [[134.308345, 33.539211], [134.310226, 33.540042], [134.312561, 33.538316], [134.30922, 33.537806], [134.308345, 33.539211]]]}}], "name": "高知県"}