{"type": "FeatureCollection", "features": [{"type": "Feature", "properties": {"name": "鳥取県"}, "geometry": {"type": "MultiLineString", "coordinates": [[[133.403363, 35.114321], [133.372952, 35.112979], [133.354874, 35.100771], [133.346959, 35.105741], [133.338223, 35.106563], [133.325517, 35.093469], [133.313066, 35.098143], [133.310436, 35.096211], [133.29872, 35.103879], [133.29094, 35.100359], [133.287811, 35.094378], [133.290718, 35.082886], [133.288768, 35.068611], [133.284265, 35.065413], [133.276912, 35.066109], [133.269139, 35.057678], [133.255129, 35.071066], [133.250929, 35.078389], [133.239196, 35.079549], [133.232345, 35.077416], [133.230073, 35.068023], [133.21092, 35.074214], [133.178253, 35.067218], [133.167839, 35.067574], [133.16104, 35.074175], [133.142139, 35.064725], [133.136283, 35.069572], [133.142257, 35.081176], [133.136673, 35.090725], [133.139819, 35.100005], [133.145586, 35.105338], [133.140223, 35.11806], [133.146625, 35.123622], [133.145142, 35.131275], [133.148451, 35.139983], [133.157455, 35.148906], [133.165892, 35.1491], [133.170608, 35.153449], [133.183912, 35.156728], [133.191863, 35.16273], [133.1949, 35.169833], [133.189356, 35.184582], [133.182084, 35.188146], [133.184658, 35.195372], [133.180954, 35.202533], [133.168819, 35.209354], [133.152742, 35.203812], [133.151629, 35.216663], [133.181686, 35.234465], [133.212022, 35.241697], [133.222788, 35.249106], [133.23223, 35.246576], [133.243357, 35.250413], [133.253283, 35.260028], [133.275661, 35.257856], [133.282131, 35.262406], [133.302537, 35.263121], [133.311053, 35.268361], [133.307413, 35.281701], [133.299546, 35.291661], [133.306951, 35.30337], [133.292565, 35.318943], [133.295752, 35.327688], [133.295141, 35.346784], [133.307665, 35.365822], [133.315974, 35.36549], [133.318503, 35.373339], [133.328843, 35.374672], [133.324434, 35.374279], [133.313654, 35.386923], [133.32123, 35.395748], [133.321614, 35.407681], [133.317634, 35.41698], [133.321728, 35.423451], [133.316692, 35.431425], [133.293815, 35.438745], [133.293628, 35.442448], [133.274815, 35.450811], [133.266122, 35.461126], [133.253792, 35.472966], [133.247475, 35.476052], [133.236106, 35.485994], [133.230168, 35.495251], [133.223181, 35.500232], [133.218326, 35.507238], [133.206638, 35.513922], [133.198811, 35.526707], [133.206539, 35.535736], [133.224011, 35.546899], [133.245613, 35.547965], [133.247159, 35.546198], [133.265443, 35.550609], [133.260773, 35.543232], [133.250369, 35.537208], [133.247919, 35.530393], [133.255777, 35.528284], [133.260567, 35.519764], [133.251039, 35.515316], [133.262828, 35.500983], [133.285101, 35.483024], [133.307565, 35.471613], [133.374054, 35.456292], [133.39102, 35.454457], [133.390591, 35.446791], [133.391613, 35.453926], [133.402042, 35.452786], [133.423486, 35.458704], [133.429315, 35.469895], [133.434596, 35.468754], [133.429336, 35.470675], [133.4354, 35.484074], [133.442757, 35.487376], [133.447354, 35.494898], [133.47223, 35.498867], [133.490477, 35.508296], [133.497559, 35.5157], [133.515245, 35.517534], [133.519864, 35.520919], [133.530521, 35.519477], [133.536111, 35.524035], [133.546512, 35.521462], [133.566025, 35.529763], [133.590568, 35.531982], [133.594387, 35.526729], [133.608165, 35.522167], [133.650537, 35.515684], [133.657071, 35.50913], [133.668787, 35.5066], [133.70486, 35.50834], [133.717433, 35.504014], [133.780826, 35.50059], [133.855595, 35.504514], [133.875218, 35.506554], [133.925274, 35.509987], [133.93882, 35.514965], [133.939538, 35.518442], [133.957423, 35.518376], [133.960181, 35.525501], [133.968499, 35.520038], [133.983915, 35.522406], [133.99935, 35.530047], [134.007127, 35.537747], [134.019711, 35.523897], [134.02175, 35.519703], [134.033756, 35.518485], [134.072259, 35.520368], [134.088194, 35.526173], [134.09579, 35.524023], [134.100395, 35.52698], [134.109143, 35.5252], [134.161593, 35.532177], [134.186707, 35.538981], [134.187296, 35.543395], [134.205088, 35.541304], [134.23096, 35.546398], [134.27134, 35.559879], [134.278161, 35.57225], [134.289774, 35.574407], [134.289471, 35.581187], [134.29386, 35.589388], [134.302824, 35.590322], [134.312854, 35.593247], [134.32394, 35.590528], [134.335107, 35.592382], [134.340722, 35.598127], [134.339741, 35.608254], [134.349476, 35.600761], [134.366258, 35.60201], [134.371523, 35.60857], [134.39309, 35.60137], [134.393132, 35.598141], [134.408304, 35.589065], [134.405024, 35.570614], [134.407871, 35.565097], [134.421799, 35.562549], [134.425077, 35.551861], [134.420933, 35.544737], [134.425601, 35.541806], [134.412702, 35.514904], [134.427793, 35.508423], [134.430876, 35.502469], [134.427654, 35.495726], [134.437867, 35.473962], [134.434352, 35.470905], [134.434429, 35.463906], [134.438182, 35.461229], [134.440417, 35.442759], [134.446218, 35.441925], [134.452258, 35.436451], [134.462735, 35.436799], [134.480111, 35.426948], [134.476666, 35.414343], [134.481434, 35.410498], [134.48048, 35.403139], [134.47383, 35.391316], [134.472302, 35.37825], [134.489053, 35.367867], [134.502868, 35.365961], [134.504165, 35.359761], [134.513882, 35.35359], [134.510279, 35.350849], [134.50978, 35.343132], [134.504481, 35.337156], [134.501921, 35.326543], [134.503428, 35.318508], [134.514802, 35.307672], [134.511629, 35.305291], [134.509274, 35.294028], [134.515371, 35.277308], [134.490013, 35.261401], [134.486393, 35.262738], [134.477459, 35.249479], [134.461767, 35.244029], [134.463472, 35.236823], [134.447766, 35.23792], [134.435319, 35.229173], [134.427317, 35.231661], [134.422847, 35.237166], [134.402814, 35.241024], [134.401585, 35.246061], [134.393467, 35.25262], [134.382502, 35.250256], [134.372622, 35.245344], [134.374482, 35.237008], [134.350399, 35.222818], [134.336655, 35.219603], [134.335015, 35.213171], [134.321349, 35.201877], [134.298996, 35.20186], [134.278461, 35.196871], [134.270464, 35.201354], [134.267973, 35.208419], [134.260472, 35.210976], [134.254099, 35.208293], [134.249759, 35.200681], [134.227825, 35.197227], [134.221796, 35.190451], [134.193474, 35.189123], [134.190119, 35.176074], [134.177598, 35.169171], [134.167534, 35.171826], [134.168894, 35.180167], [134.165554, 35.187272], [134.153012, 35.19587], [134.154936, 35.207049], [134.163496, 35.219608], [134.164184, 35.227976], [134.158246, 35.234563], [134.143969, 35.231492], [134.137305, 35.238776], [134.14552, 35.242961], [134.143043, 35.250723], [134.150579, 35.257956], [134.137699, 35.269346], [134.141292, 35.274731], [134.139885, 35.281513], [134.1343, 35.283191], [134.127125, 35.280149], [134.115708, 35.283546], [134.097759, 35.305698], [134.086423, 35.307412], [134.08404, 35.302782], [134.075159, 35.302613], [134.070216, 35.297274], [134.062019, 35.303063], [134.054746, 35.298197], [134.04821, 35.298463], [134.042405, 35.303635], [134.033612, 35.30401], [134.028241, 35.30782], [134.021695, 35.305569], [134.008291, 35.30809], [134.000182, 35.316251], [134.004181, 35.325324], [134.015509, 35.334078], [134.010822, 35.340396], [134.01984, 35.355959], [134.012819, 35.349354], [133.997668, 35.3529], [133.979689, 35.343376], [133.969633, 35.347834], [133.955703, 35.342021], [133.945321, 35.332616], [133.932645, 35.334251], [133.927823, 35.322097], [133.93199, 35.316484], [133.925222, 35.306899], [133.908168, 35.307202], [133.898041, 35.304266], [133.88605, 35.294248], [133.862139, 35.292504], [133.860961, 35.28688], [133.866343, 35.284887], [133.863463, 35.277095], [133.865943, 35.272259], [133.853367, 35.265859], [133.843766, 35.253694], [133.834982, 35.249814], [133.818023, 35.252712], [133.818154, 35.259236], [133.807498, 35.270417], [133.809279, 35.276917], [133.801478, 35.284654], [133.800007, 35.292649], [133.783573, 35.294765], [133.762382, 35.311641], [133.763873, 35.316623], [133.758331, 35.308329], [133.742309, 35.316523], [133.728902, 35.316724], [133.697269, 35.327144], [133.69124, 35.32014], [133.678351, 35.318942], [133.674096, 35.323325], [133.663521, 35.325164], [133.649628, 35.336215], [133.632836, 35.339824], [133.622191, 35.336709], [133.616158, 35.340868], [133.596414, 35.344896], [133.588366, 35.336964], [133.592396, 35.33063], [133.576786, 35.314414], [133.577553, 35.297261], [133.570464, 35.286913], [133.572268, 35.281214], [133.568691, 35.27712], [133.571916, 35.272569], [133.56687, 35.266266], [133.568131, 35.256845], [133.562414, 35.254403], [133.560769, 35.246746], [133.55491, 35.24181], [133.543911, 35.243199], [133.534831, 35.236717], [133.517012, 35.240745], [133.514492, 35.235489], [133.508087, 35.233031], [133.505571, 35.227658], [133.518815, 35.216164], [133.523032, 35.196451], [133.529106, 35.187234], [133.520822, 35.182088], [133.516174, 35.190718], [133.501136, 35.192768], [133.496039, 35.186667], [133.489743, 35.187681], [133.482562, 35.182413], [133.474587, 35.181929], [133.466972, 35.175157], [133.46001, 35.177849], [133.456515, 35.173109], [133.447556, 35.171296], [133.428335, 35.177393], [133.42218, 35.176113], [133.415893, 35.184607], [133.407439, 35.185882], [133.39452, 35.177286], [133.404877, 35.143286], [133.411224, 35.138753], [133.411826, 35.121146], [133.403363, 35.114321]], [[133.266675, 35.457886], [133.274581, 35.450656], [133.292209, 35.442313], [133.29158, 35.439335], [133.271975, 35.446195], [133.260734, 35.45387], [133.266675, 35.457886]], [[133.265714, 35.461079], [133.263698, 35.459573], [133.24962, 35.473925], [133.253616, 35.472801], [133.265714, 35.461079]], [[133.225524, 35.496732], [133.216369, 35.49532], [133.208379, 35.510213], [133.218476, 35.506558], [133.225524, 35.496732]]]}}], "name": "鳥取県"}