{"type": "FeatureCollection", "features": [{"type": "Feature", "properties": {}, "geometry": {"type": "MultiLineString", "coordinates": [[[128.415209, 27.059892], [128.421274, 27.065912], [128.428076, 27.067962], [128.433892, 27.067942], [128.440463, 27.065819], [128.44667, 27.059924], [128.449365, 27.054786], [128.453566, 27.051682], [128.455107, 27.047698], [128.453465, 27.040432], [128.455002, 27.032143], [128.457668, 27.027365], [128.457401, 27.023622], [128.445289, 27.019015], [128.442095, 27.021331], [128.434044, 27.021383], [128.422983, 27.023291], [128.417988, 27.029439], [128.412482, 27.028316], [128.409416, 27.034556], [128.403739, 27.039116], [128.397879, 27.038147], [128.395531, 27.04802], [128.399106, 27.051268], [128.407385, 27.047298], [128.411489, 27.047547], [128.415707, 27.057602], [128.415209, 27.059892]], [[128.596097, 27.339737], [128.592503, 27.336819], [128.582647, 27.333569], [128.568149, 27.329865], [128.559752, 27.329055], [128.550213, 27.332416], [128.543321, 27.337224], [128.531479, 27.348602], [128.529647, 27.3541], [128.524696, 27.362444], [128.523327, 27.367907], [128.520049, 27.373173], [128.5231, 27.385232], [128.523613, 27.390967], [128.529546, 27.401994], [128.533124, 27.405242], [128.536975, 27.405142], [128.541107, 27.40006], [128.548477, 27.397432], [128.558863, 27.395753], [128.577653, 27.40114], [128.591051, 27.399502], [128.597484, 27.400697], [128.603654, 27.404424], [128.609041, 27.404734], [128.613121, 27.409098], [128.621226, 27.404887], [128.626549, 27.408257], [128.634935, 27.409317], [128.654949, 27.423514], [128.660985, 27.423238], [128.666675, 27.426342], [128.67872, 27.430108], [128.683507, 27.433618], [128.684251, 27.436939], [128.688863, 27.437842], [128.691459, 27.440791], [128.70387, 27.440598], [128.711237, 27.438874], [128.713739, 27.434793], [128.701236, 27.423863], [128.690593, 27.418821], [128.687119, 27.415951], [128.677246, 27.41412], [128.674269, 27.411927], [128.667917, 27.403626], [128.664941, 27.402936], [128.662884, 27.395614], [128.659323, 27.395493], [128.656567, 27.38965], [128.648333, 27.380653], [128.636087, 27.365243], [128.631609, 27.365248], [128.623981, 27.362201], [128.616978, 27.35618], [128.612652, 27.349393], [128.608947, 27.349085], [128.606933, 27.34467], [128.596097, 27.339737]], [[128.960429, 27.666317], [128.952609, 27.66356], [128.936214, 27.660996], [128.925796, 27.665966], [128.920524, 27.67423], [128.921229, 27.679942], [128.919799, 27.688305], [128.916564, 27.696253], [128.910759, 27.701111], [128.905163, 27.702884], [128.898285, 27.708361], [128.893491, 27.707987], [128.881015, 27.722259], [128.885357, 27.724523], [128.891691, 27.731009], [128.899739, 27.736018], [128.899783, 27.744891], [128.903158, 27.753161], [128.906361, 27.760304], [128.906176, 27.76549], [128.896897, 27.771904], [128.895029, 27.777599], [128.895437, 27.783438], [128.889894, 27.786759], [128.888166, 27.794699], [128.890115, 27.796365], [128.887336, 27.807047], [128.890626, 27.811221], [128.891572, 27.819423], [128.887524, 27.81968], [128.879119, 27.826509], [128.881528, 27.846482], [128.883989, 27.839535], [128.891935, 27.852577], [128.890941, 27.856382], [128.893191, 27.861356], [128.8883, 27.865102], [128.890193, 27.873382], [128.888795, 27.876964], [128.896945, 27.890852], [128.901182, 27.893304], [128.908061, 27.892577], [128.912536, 27.892514], [128.927606, 27.888627], [128.936543, 27.891781], [128.949323, 27.889807], [128.956159, 27.890314], [128.969543, 27.892879], [128.968813, 27.886337], [128.975909, 27.872596], [128.965227, 27.871109], [128.955998, 27.862809], [128.956722, 27.859386], [128.961394, 27.85802], [128.968471, 27.858545], [128.971648, 27.855154], [128.969905, 27.845155], [128.965564, 27.841012], [128.969883, 27.837633], [128.971184, 27.831396], [128.968197, 27.830352], [128.966421, 27.823727], [128.970798, 27.815992], [128.981153, 27.812208], [128.986017, 27.80433], [128.997049, 27.805746], [128.997888, 27.802181], [129.009545, 27.793102], [129.014783, 27.786438], [129.01487, 27.780905], [129.022761, 27.776317], [129.032743, 27.775208], [129.037691, 27.768236], [129.036694, 27.757037], [129.034096, 27.754576], [129.032238, 27.746573], [129.026002, 27.741502], [129.020954, 27.742019], [129.023117, 27.736447], [129.019155, 27.724423], [129.021662, 27.718301], [129.007909, 27.711025], [129.00324, 27.704573], [129.005249, 27.70055], [128.998191, 27.69578], [129.000102, 27.690607], [128.9976, 27.684492], [128.987883, 27.671147], [128.982156, 27.668439], [128.974764, 27.668467], [128.965751, 27.670969], [128.960429, 27.666317]], [[129.210349, 28.029894], [129.205556, 28.0343], [129.205907, 28.041422], [129.211842, 28.045461], [129.212691, 28.053086], [129.216685, 28.054654], [129.218507, 28.050836], [129.225952, 28.044539], [129.23169, 28.037099], [129.230557, 28.034075], [129.23577, 28.031029], [129.243029, 28.033127], [129.247769, 28.039449], [129.252876, 28.036831], [129.254314, 28.030408], [129.259449, 28.031467], [129.262201, 28.035556], [129.265698, 28.036479], [129.269344, 28.032429], [129.269748, 28.025992], [129.266163, 28.020347], [129.269402, 28.017318], [129.264763, 28.010686], [129.257268, 28.005134], [129.253322, 28.014101], [129.249653, 28.016788], [129.242884, 28.019349], [129.239781, 28.018566], [129.23502, 28.023237], [129.225741, 28.025226], [129.211536, 28.022832], [129.210349, 28.029894]], [[129.158789, 28.059758], [129.164129, 28.061682], [129.166149, 28.067896], [129.171708, 28.068707], [129.173097, 28.065617], [129.169784, 28.062217], [129.177, 28.047696], [129.172053, 28.048679], [129.166111, 28.046216], [129.165361, 28.042666], [129.170071, 28.037388], [129.164833, 28.030479], [129.163829, 28.024318], [129.165515, 28.021424], [129.159374, 28.017438], [129.153762, 28.01835], [129.149821, 28.01375], [129.145664, 28.016418], [129.14395, 28.023322], [129.146156, 28.032797], [129.149208, 28.036087], [129.150521, 28.047424], [129.156626, 28.051959], [129.158789, 28.059758]], [[129.171045, 28.114852], [129.16513, 28.115874], [129.159393, 28.120952], [129.163772, 28.122972], [129.171094, 28.119689], [129.175416, 28.115399], [129.176873, 28.110932], [129.173787, 28.109254], [129.171045, 28.114852]], [[129.301267, 28.089286], [129.291507, 28.090544], [129.290594, 28.085156], [129.284762, 28.083494], [129.288124, 28.075617], [129.284653, 28.073968], [129.286077, 28.066837], [129.283549, 28.062782], [129.268786, 28.070021], [129.267702, 28.07292], [129.261315, 28.078261], [129.265195, 28.083128], [129.264742, 28.089669], [129.261479, 28.090713], [129.261718, 28.099994], [129.258819, 28.10682], [129.250224, 28.11126], [129.244785, 28.108398], [129.249423, 28.101889], [129.248742, 28.099858], [129.240688, 28.100067], [129.228945, 28.089166], [129.229221, 28.085475], [129.221996, 28.077815], [129.215584, 28.076836], [129.215219, 28.086114], [129.220146, 28.088077], [129.221834, 28.094886], [129.224396, 28.09874], [129.221125, 28.110634], [129.215694, 28.112565], [129.214559, 28.115285], [129.216894, 28.119965], [129.214324, 28.126211], [129.215518, 28.134567], [129.219889, 28.138877], [129.214183, 28.141767], [129.209863, 28.146471], [129.203113, 28.143379], [129.199099, 28.145151], [129.198578, 28.15112], [129.195409, 28.154787], [129.188266, 28.156777], [129.186977, 28.167125], [129.185104, 28.173733], [129.17819, 28.178201], [129.175663, 28.187662], [129.181519, 28.190704], [129.182723, 28.187466], [129.189981, 28.187601], [129.192394, 28.19418], [129.195927, 28.196674], [129.204337, 28.199551], [129.209061, 28.197187], [129.212232, 28.192499], [129.221024, 28.191128], [129.229053, 28.196641], [129.23747, 28.193634], [129.242875, 28.187907], [129.239266, 28.184951], [129.233109, 28.188544], [129.230135, 28.192014], [129.223794, 28.190987], [129.213817, 28.187241], [129.210698, 28.183901], [129.205172, 28.183426], [129.203516, 28.179517], [129.209227, 28.178095], [129.213264, 28.17295], [129.210104, 28.1672], [129.219882, 28.161395], [129.226989, 28.155341], [129.236449, 28.153603], [129.240438, 28.150523], [129.245381, 28.151725], [129.255477, 28.159026], [129.256635, 28.162637], [129.253617, 28.172319], [129.25752, 28.172212], [129.257163, 28.163348], [129.261527, 28.165549], [129.26262, 28.170609], [129.271369, 28.163941], [129.274461, 28.158011], [129.274875, 28.151117], [129.268118, 28.152696], [129.256769, 28.151624], [129.25063, 28.153136], [129.247849, 28.147708], [129.250464, 28.142359], [129.24217, 28.137594], [129.243275, 28.133871], [129.248976, 28.134076], [129.249784, 28.130657], [129.245904, 28.127972], [129.245322, 28.122098], [129.25336, 28.123791], [129.256108, 28.130009], [129.267184, 28.135612], [129.275022, 28.142044], [129.275416, 28.134202], [129.270937, 28.13028], [129.272102, 28.12092], [129.271224, 28.11512], [129.274938, 28.113091], [129.278693, 28.115267], [129.282351, 28.122455], [129.289102, 28.122738], [129.286067, 28.116785], [129.290639, 28.108472], [129.294751, 28.107549], [129.298219, 28.110546], [129.302462, 28.122151], [129.306903, 28.115285], [129.306668, 28.111756], [129.311515, 28.111103], [129.317547, 28.106174], [129.318861, 28.101728], [129.330361, 28.110417], [129.337267, 28.110288], [129.341145, 28.113831], [129.348156, 28.108076], [129.353544, 28.108912], [129.351865, 28.100493], [129.347845, 28.098343], [129.348634, 28.095156], [129.341586, 28.084873], [129.340232, 28.076389], [129.327533, 28.072407], [129.323353, 28.068432], [129.315593, 28.070919], [129.319209, 28.083626], [129.325393, 28.089703], [129.323878, 28.094438], [129.320576, 28.096746], [129.314634, 28.096339], [129.313864, 28.09248], [129.303846, 28.086699], [129.301267, 28.089286]], [[129.402594, 28.186497], [129.407687, 28.184212], [129.407376, 28.170779], [129.405605, 28.166959], [129.404429, 28.157136], [129.401725, 28.156137], [129.386763, 28.162377], [129.383479, 28.164845], [129.376177, 28.163556], [129.368155, 28.165452], [129.363072, 28.162974], [129.363321, 28.168494], [129.35886, 28.169293], [129.350769, 28.174049], [129.337013, 28.167069], [129.348504, 28.159052], [129.3547, 28.156429], [129.357353, 28.149789], [129.363416, 28.148818], [129.369295, 28.140508], [129.371751, 28.129726], [129.378329, 28.125805], [129.377274, 28.11855], [129.380315, 28.112975], [129.376841, 28.111271], [129.361967, 28.120123], [129.363857, 28.123079], [129.360338, 28.126764], [129.360351, 28.134917], [129.356043, 28.136468], [129.348358, 28.131102], [129.344938, 28.138599], [129.337936, 28.13668], [129.337874, 28.132269], [129.333089, 28.129143], [129.330893, 28.134499], [129.326127, 28.135451], [129.321928, 28.132467], [129.315926, 28.143087], [129.308439, 28.14491], [129.302113, 28.15005], [129.295864, 28.150999], [129.291461, 28.153436], [129.297143, 28.15794], [129.296755, 28.161111], [129.287224, 28.163044], [129.296792, 28.167908], [129.297412, 28.171578], [129.292296, 28.175029], [129.294469, 28.178123], [129.292234, 28.182258], [129.284745, 28.179152], [129.283184, 28.182171], [129.287419, 28.185156], [129.289435, 28.189612], [129.281968, 28.190555], [129.279823, 28.187389], [129.274462, 28.186334], [129.273876, 28.181708], [129.263141, 28.183061], [129.265739, 28.189437], [129.264459, 28.193273], [129.272797, 28.19943], [129.272844, 28.207266], [129.280136, 28.208229], [129.284552, 28.212993], [129.295259, 28.219542], [129.28993, 28.222513], [129.280299, 28.221269], [129.273595, 28.216011], [129.267011, 28.214561], [129.269424, 28.222126], [129.276249, 28.224908], [129.27637, 28.232465], [129.268596, 28.228186], [129.266329, 28.232061], [129.253094, 28.232239], [129.251834, 28.227935], [129.254118, 28.224241], [129.254194, 28.219356], [129.249317, 28.212134], [129.256875, 28.210109], [129.257086, 28.205076], [129.251133, 28.203552], [129.24567, 28.204354], [129.242251, 28.209036], [129.241887, 28.216766], [129.239054, 28.219265], [129.23163, 28.220889], [129.229816, 28.218971], [129.221832, 28.222175], [129.219056, 28.228657], [129.213971, 28.227233], [129.212651, 28.221221], [129.205317, 28.218581], [129.200033, 28.225373], [129.194617, 28.227741], [129.189916, 28.223184], [129.185753, 28.221785], [129.177514, 28.223991], [129.173325, 28.239291], [129.169811, 28.242783], [129.163062, 28.243054], [129.158313, 28.238128], [129.152258, 28.236814], [129.15031, 28.245886], [129.143313, 28.247674], [129.143669, 28.251657], [129.138169, 28.251984], [129.134887, 28.255194], [129.141717, 28.257429], [129.165962, 28.256086], [129.167916, 28.262736], [129.178605, 28.269236], [129.182356, 28.269681], [129.183044, 28.26486], [129.185893, 28.262648], [129.199375, 28.262156], [129.202075, 28.255978], [129.21198, 28.252697], [129.215623, 28.258767], [129.214928, 28.266169], [129.227268, 28.273572], [129.231481, 28.273041], [129.236201, 28.269378], [129.23533, 28.265252], [129.243405, 28.26709], [129.247418, 28.263258], [129.245192, 28.256959], [129.249525, 28.252771], [129.251873, 28.254419], [129.251918, 28.260523], [129.255142, 28.265353], [129.262922, 28.26141], [129.264668, 28.267374], [129.273801, 28.261308], [129.278412, 28.276271], [129.288676, 28.277598], [129.294991, 28.273148], [129.29661, 28.278054], [129.293442, 28.280221], [129.293476, 28.284628], [129.285146, 28.282969], [129.278354, 28.283967], [129.273009, 28.282788], [129.267529, 28.28856], [129.264101, 28.28662], [129.263198, 28.282143], [129.266102, 28.278771], [129.265407, 28.275272], [129.260119, 28.272682], [129.251119, 28.274923], [129.239583, 28.284953], [129.235592, 28.282224], [129.226641, 28.2902], [129.227162, 28.296137], [129.221817, 28.293816], [129.2126, 28.302599], [129.222907, 28.306278], [129.228328, 28.310134], [129.234979, 28.308289], [129.239348, 28.312577], [129.245553, 28.313017], [129.259405, 28.320504], [129.259041, 28.323416], [129.264062, 28.323924], [129.267624, 28.326462], [129.275486, 28.325802], [129.28842, 28.328122], [129.293537, 28.327338], [129.305063, 28.330086], [129.313539, 28.335829], [129.311263, 28.342348], [129.316609, 28.347886], [129.326456, 28.350055], [129.329182, 28.357906], [129.335884, 28.362347], [129.339138, 28.368513], [129.345515, 28.369317], [129.351857, 28.364528], [129.352533, 28.360694], [129.366561, 28.354624], [129.370017, 28.355606], [129.376268, 28.363846], [129.385181, 28.369768], [129.387724, 28.373744], [129.395907, 28.368194], [129.399841, 28.355637], [129.405618, 28.359823], [129.406471, 28.373366], [129.404417, 28.377805], [129.399477, 28.380329], [129.394844, 28.385073], [129.397661, 28.385763], [129.404958, 28.382569], [129.410051, 28.383832], [129.412561, 28.38741], [129.416813, 28.385495], [129.423646, 28.388961], [129.428755, 28.388347], [129.431064, 28.383194], [129.436204, 28.381496], [129.442739, 28.381951], [129.445987, 28.380011], [129.449987, 28.382291], [129.447396, 28.38846], [129.45266, 28.393457], [129.456433, 28.41132], [129.462981, 28.412603], [129.468133, 28.411666], [129.471079, 28.407555], [129.467909, 28.402091], [129.47849, 28.400184], [129.485937, 28.406541], [129.487904, 28.41113], [129.493911, 28.407851], [129.496831, 28.403016], [129.495903, 28.383851], [129.499807, 28.382889], [129.503254, 28.392061], [129.507675, 28.399121], [129.514825, 28.398498], [129.517913, 28.403733], [129.513043, 28.406116], [129.510974, 28.410995], [129.513362, 28.416727], [129.514551, 28.424149], [129.518976, 28.426177], [129.516424, 28.435215], [129.521415, 28.444873], [129.529244, 28.445816], [129.53567, 28.450007], [129.534813, 28.454191], [129.54006, 28.455558], [129.541301, 28.459542], [129.544323, 28.462485], [129.553863, 28.455475], [129.558385, 28.447925], [129.562809, 28.450815], [129.561217, 28.453417], [129.569987, 28.45749], [129.572904, 28.463627], [129.581556, 28.468073], [129.58836, 28.466933], [129.595176, 28.474909], [129.600427, 28.474386], [129.613031, 28.476117], [129.61557, 28.477517], [129.622176, 28.47547], [129.618991, 28.472553], [129.621558, 28.467778], [129.615034, 28.465603], [129.609419, 28.455804], [129.604971, 28.451347], [129.604997, 28.44583], [129.607413, 28.439591], [129.606458, 28.435654], [129.596476, 28.435736], [129.596984, 28.428816], [129.59253, 28.426173], [129.59441, 28.421776], [129.589624, 28.413719], [129.593735, 28.412604], [129.601971, 28.415268], [129.603683, 28.427852], [129.603044, 28.431738], [129.611021, 28.435213], [129.612073, 28.43193], [129.617968, 28.432532], [129.619629, 28.439196], [129.615188, 28.446474], [129.620889, 28.44998], [129.624979, 28.449441], [129.629129, 28.435582], [129.620436, 28.429625], [129.618388, 28.424325], [129.620274, 28.418246], [129.629069, 28.414496], [129.639696, 28.416725], [129.64305, 28.423523], [129.643423, 28.43243], [129.646334, 28.428077], [129.655729, 28.424588], [129.658909, 28.432066], [129.656408, 28.437166], [129.652233, 28.441158], [129.651539, 28.447065], [129.648293, 28.448676], [129.652005, 28.456902], [129.649363, 28.459409], [129.649211, 28.468518], [129.653451, 28.46825], [129.654548, 28.461077], [129.658065, 28.459486], [129.661492, 28.449594], [129.66066, 28.446345], [129.667338, 28.438809], [129.672716, 28.442443], [129.665981, 28.447408], [129.667563, 28.454502], [129.673446, 28.457844], [129.671094, 28.463414], [129.671711, 28.46797], [129.666206, 28.47502], [129.65659, 28.481459], [129.655592, 28.488767], [129.650339, 28.494872], [129.646174, 28.497234], [129.648051, 28.503566], [129.65732, 28.50003], [129.659922, 28.505881], [129.665166, 28.507022], [129.664509, 28.510304], [129.676924, 28.526564], [129.689963, 28.530766], [129.690353, 28.524646], [129.692569, 28.518147], [129.693674, 28.510147], [129.690263, 28.502786], [129.695867, 28.492211], [129.698263, 28.484085], [129.702324, 28.481243], [129.704017, 28.477264], [129.71027, 28.477004], [129.717241, 28.470782], [129.717284, 28.463419], [129.721024, 28.461606], [129.720573, 28.454174], [129.713691, 28.446844], [129.714255, 28.442772], [129.718966, 28.439116], [129.708957, 28.421182], [129.703809, 28.423969], [129.702092, 28.420525], [129.694139, 28.413452], [129.6863, 28.413401], [129.682439, 28.410476], [129.673184, 28.410664], [129.666616, 28.405187], [129.665855, 28.398992], [129.654245, 28.398432], [129.651841, 28.402332], [129.642211, 28.403505], [129.633815, 28.406182], [129.628508, 28.406913], [129.613681, 28.400958], [129.608048, 28.388453], [129.603521, 28.386608], [129.5977, 28.380914], [129.594576, 28.375456], [129.593134, 28.366712], [129.5897, 28.364209], [129.585425, 28.365458], [129.583617, 28.359635], [129.576523, 28.354386], [129.574784, 28.348006], [129.570854, 28.345354], [129.562423, 28.332812], [129.536767, 28.330511], [129.532741, 28.324062], [129.544869, 28.312244], [129.537704, 28.306449], [129.530262, 28.304385], [129.525937, 28.305202], [129.518872, 28.300734], [129.515284, 28.301496], [129.507104, 28.298313], [129.499994, 28.298302], [129.491992, 28.294922], [129.486287, 28.289524], [129.48031, 28.289225], [129.473869, 28.29498], [129.461823, 28.297359], [129.455107, 28.29179], [129.45751, 28.287936], [129.454522, 28.277258], [129.457096, 28.274886], [129.45997, 28.268083], [129.458407, 28.26451], [129.453242, 28.264343], [129.448893, 28.26129], [129.443172, 28.250883], [129.442784, 28.24567], [129.436137, 28.245534], [129.433673, 28.248378], [129.418902, 28.248925], [129.407761, 28.250436], [129.417656, 28.242508], [129.426409, 28.241506], [129.428917, 28.237077], [129.43289, 28.238279], [129.444032, 28.229608], [129.448891, 28.228962], [129.452774, 28.232378], [129.471638, 28.22127], [129.475045, 28.217247], [129.476802, 28.210629], [129.470652, 28.208158], [129.469461, 28.212254], [129.462178, 28.211357], [129.455856, 28.208299], [129.453526, 28.199526], [129.449573, 28.197359], [129.444364, 28.198984], [129.441092, 28.196794], [129.433255, 28.19882], [129.430102, 28.193451], [129.421019, 28.189922], [129.414938, 28.190295], [129.406273, 28.193623], [129.403357, 28.1914], [129.402594, 28.186497]], [[129.172829, 28.196582], [129.170085, 28.191725], [129.166285, 28.191978], [129.169366, 28.198579], [129.172829, 28.196582]], [[129.220708, 28.285138], [129.212763, 28.286232], [129.20744, 28.282249], [129.199407, 28.286469], [129.189416, 28.286256], [129.189027, 28.290988], [129.178877, 28.296889], [129.183184, 28.301482], [129.183547, 28.305019], [129.20193, 28.300134], [129.204542, 28.301378], [129.212498, 28.298352], [129.217357, 28.292947], [129.220708, 28.285138]], [[128.986807, 28.801659], [128.994867, 28.807125], [129.001326, 28.803752], [129.003542, 28.799346], [129.001807, 28.793733], [128.994899, 28.792199], [128.986871, 28.796661], [128.978203, 28.793479], [128.973703, 28.800333], [128.986807, 28.801659]], [[129.004136, 28.828589], [128.998923, 28.829514], [128.997668, 28.833361], [129.002587, 28.836791], [129.004136, 28.828589]], [[129.218592, 29.158574], [129.221527, 29.156623], [129.22261, 29.151812], [129.218586, 29.145398], [129.218743, 29.135703], [129.222049, 29.129459], [129.220121, 29.126739], [129.21131, 29.133693], [129.200365, 29.138723], [129.190044, 29.149559], [129.186699, 29.153414], [129.195272, 29.158528], [129.200178, 29.159234], [129.203995, 29.156112], [129.211386, 29.159076], [129.218592, 29.158574]], [[129.319085, 29.224688], [129.326768, 29.228965], [129.331574, 29.224485], [129.326943, 29.218033], [129.320795, 29.220866], [129.319085, 29.224688]], [[129.613276, 29.461054], [129.618714, 29.45571], [129.620166, 29.45015], [129.612777, 29.445201], [129.596246, 29.445288], [129.593741, 29.447809], [129.595775, 29.4555], [129.590175, 29.457829], [129.585658, 29.463469], [129.588953, 29.470115], [129.593709, 29.47384], [129.594295, 29.47686], [129.609477, 29.472169], [129.613276, 29.461054]], [[129.537401, 29.678155], [129.529456, 29.681555], [129.525307, 29.687345], [129.527923, 29.693372], [129.534383, 29.696951], [129.539187, 29.6945], [129.538187, 29.68795], [129.53988, 29.686424], [129.537401, 29.678155]], [[129.624313, 29.882371], [129.621948, 29.876893], [129.618033, 29.881416], [129.624313, 29.882371]], [[129.552332, 29.89384], [129.547843, 29.892987], [129.532162, 29.895834], [129.532039, 29.899935], [129.530195, 29.91166], [129.535914, 29.914722], [129.543153, 29.912563], [129.550055, 29.907588], [129.554461, 29.897786], [129.552332, 29.89384]], [[129.451343, 31.191921], [129.447698, 31.190426], [129.447405, 31.178041], [129.441455, 31.180342], [129.435116, 31.175763], [129.433259, 31.178305], [129.436399, 31.179318], [129.439783, 31.186934], [129.442819, 31.185947], [129.446456, 31.19979], [129.453833, 31.197496], [129.451343, 31.191921]], [[129.47356, 31.200244], [129.469181, 31.203655], [129.475187, 31.208509], [129.47356, 31.200244]], [[129.994102, 28.363806], [130.00268, 28.368181], [130.008684, 28.375705], [130.019067, 28.378571], [130.027454, 28.374575], [130.0338, 28.368207], [130.035182, 28.361629], [130.030119, 28.351976], [130.022975, 28.348606], [130.021976, 28.343118], [130.017699, 28.337835], [130.009051, 28.335927], [130.0029, 28.331768], [129.999561, 28.31919], [129.992699, 28.313216], [129.986835, 28.304674], [129.987428, 28.302574], [129.977806, 28.288013], [129.972993, 28.283841], [129.964576, 28.280271], [129.959392, 28.279746], [129.954008, 28.275773], [129.943764, 28.274398], [129.937755, 28.27808], [129.930117, 28.292218], [129.919736, 28.29052], [129.915252, 28.296489], [129.91318, 28.311855], [129.923114, 28.323842], [129.938144, 28.327433], [129.949401, 28.328271], [129.956718, 28.333524], [129.961547, 28.335777], [129.967567, 28.34092], [129.974343, 28.342661], [129.979023, 28.348822], [129.983433, 28.350741], [129.988662, 28.355874], [129.994102, 28.363806]], [[129.739431, 29.659015], [129.738113, 29.649442], [129.740296, 29.646181], [129.739276, 29.640244], [129.734134, 29.632052], [129.733526, 29.627598], [129.723617, 29.622891], [129.717487, 29.616287], [129.711666, 29.61264], [129.712543, 29.606128], [129.706531, 29.60226], [129.69799, 29.603254], [129.696974, 29.611187], [129.692843, 29.614883], [129.689739, 29.621903], [129.690321, 29.633104], [129.688586, 29.638149], [129.684043, 29.642056], [129.688702, 29.648549], [129.683621, 29.651951], [129.693139, 29.660129], [129.699644, 29.658646], [129.703857, 29.664268], [129.70881, 29.666837], [129.721445, 29.670177], [129.729435, 29.667739], [129.731254, 29.670421], [129.738944, 29.67239], [129.743002, 29.669351], [129.742419, 29.663938], [129.739431, 29.659015]], [[129.836014, 29.866964], [129.839518, 29.868718], [129.840576, 29.876369], [129.850099, 29.881538], [129.859123, 29.882916], [129.86809, 29.881406], [129.868088, 29.877171], [129.88628, 29.872446], [129.892402, 29.867251], [129.897087, 29.860348], [129.893381, 29.853637], [129.895303, 29.843971], [129.905223, 29.834728], [129.912965, 29.830046], [129.91839, 29.823702], [129.915512, 29.820871], [129.903063, 29.820792], [129.89745, 29.822196], [129.888319, 29.82232], [129.879094, 29.816816], [129.86777, 29.817809], [129.860593, 29.821962], [129.852759, 29.833767], [129.85209, 29.838638], [129.845045, 29.841541], [129.839769, 29.845494], [129.838411, 29.852458], [129.834094, 29.860034], [129.836014, 29.866964]], [[129.936592, 29.971048], [129.941724, 29.969739], [129.945213, 29.965568], [129.947151, 29.959902], [129.944242, 29.952596], [129.934457, 29.948956], [129.928549, 29.950308], [129.924218, 29.954365], [129.913684, 29.957526], [129.904906, 29.965326], [129.906447, 29.972627], [129.90081, 29.974095], [129.907374, 29.985995], [129.914634, 29.991446], [129.913881, 29.995674], [129.90939, 30.001101], [129.915164, 30.007156], [129.919944, 29.998584], [129.922592, 29.989011], [129.930628, 29.980072], [129.933335, 29.974071], [129.936592, 29.971048]], [[130.436444, 30.240637], [130.431214, 30.24978], [130.430879, 30.255199], [130.426934, 30.256748], [130.42093, 30.267683], [130.414201, 30.271082], [130.412008, 30.281409], [130.413757, 30.28809], [130.410746, 30.293859], [130.405274, 30.312622], [130.403066, 30.315951], [130.396397, 30.317289], [130.392032, 30.321672], [130.388233, 30.333912], [130.387679, 30.340069], [130.384309, 30.343401], [130.380897, 30.351221], [130.382774, 30.358669], [130.379651, 30.36077], [130.380023, 30.365527], [130.376643, 30.375691], [130.377385, 30.38253], [130.380807, 30.389069], [130.381347, 30.393558], [130.387637, 30.392179], [130.390565, 30.396657], [130.405947, 30.397561], [130.412961, 30.395883], [130.419171, 30.396112], [130.43069, 30.405449], [130.438944, 30.414911], [130.439127, 30.420498], [130.444169, 30.423177], [130.447193, 30.428593], [130.452412, 30.432698], [130.460043, 30.432209], [130.464303, 30.43724], [130.466464, 30.446459], [130.463117, 30.454121], [130.468851, 30.457357], [130.471503, 30.461451], [130.488953, 30.458375], [130.492319, 30.454072], [130.496559, 30.455927], [130.494438, 30.467883], [130.498116, 30.467097], [130.49897, 30.460524], [130.503844, 30.453023], [130.510747, 30.455946], [130.518494, 30.453182], [130.521749, 30.447034], [130.533067, 30.447197], [130.538733, 30.448335], [130.543411, 30.44713], [130.547141, 30.441912], [130.552367, 30.44255], [130.557351, 30.437882], [130.57086, 30.432272], [130.573254, 30.426043], [130.579998, 30.424786], [130.592473, 30.418082], [130.597803, 30.417399], [130.596885, 30.41311], [130.599337, 30.409777], [130.608365, 30.406761], [130.611163, 30.407587], [130.629758, 30.40118], [130.638697, 30.401197], [130.663149, 30.385953], [130.668251, 30.380613], [130.671549, 30.371797], [130.666141, 30.357256], [130.667189, 30.348872], [130.663557, 30.339335], [130.662124, 30.322734], [130.660276, 30.316772], [130.65546, 30.313205], [130.658876, 30.309901], [130.653662, 30.299411], [130.645027, 30.294615], [130.639182, 30.289779], [130.634056, 30.282282], [130.628428, 30.280528], [130.622735, 30.272489], [130.618645, 30.270801], [130.615501, 30.266555], [130.611599, 30.26546], [130.604563, 30.257934], [130.604717, 30.253181], [130.597353, 30.248798], [130.591551, 30.248829], [130.586921, 30.244174], [130.585561, 30.240345], [130.580862, 30.240274], [130.576699, 30.237417], [130.569495, 30.237766], [130.553484, 30.234679], [130.545426, 30.23012], [130.537975, 30.229844], [130.532369, 30.23407], [130.529063, 30.229832], [130.521638, 30.226589], [130.518589, 30.230481], [130.512028, 30.231799], [130.49953, 30.230728], [130.49618, 30.227604], [130.48884, 30.227447], [130.476737, 30.234243], [130.470775, 30.233181], [130.442826, 30.236817], [130.436444, 30.240637]], [[130.234529, 30.435015], [130.233632, 30.430669], [130.22613, 30.424014], [130.209981, 30.425356], [130.203197, 30.428123], [130.200968, 30.433226], [130.19262, 30.439064], [130.192387, 30.444096], [130.189339, 30.449619], [130.189829, 30.453566], [130.195991, 30.456352], [130.195673, 30.461353], [130.191527, 30.463479], [130.182483, 30.456804], [130.177717, 30.455579], [130.168793, 30.457857], [130.170517, 30.46144], [130.166196, 30.4704], [130.154805, 30.477429], [130.149989, 30.478917], [130.148929, 30.488419], [130.155676, 30.485052], [130.165246, 30.489948], [130.16597, 30.48459], [130.181398, 30.483836], [130.186027, 30.476213], [130.191013, 30.471869], [130.196221, 30.472579], [130.196347, 30.475888], [130.200264, 30.481268], [130.207381, 30.478319], [130.213317, 30.472998], [130.221467, 30.473598], [130.228566, 30.468351], [130.235354, 30.469977], [130.239026, 30.463582], [130.243026, 30.459764], [130.247008, 30.4596], [130.250784, 30.453715], [130.253323, 30.453631], [130.262878, 30.447795], [130.265879, 30.43985], [130.26372, 30.433883], [130.260874, 30.433054], [130.253517, 30.43867], [130.234529, 30.435015]], [[130.302633, 30.808387], [130.3058, 30.804685], [130.313299, 30.802794], [130.318643, 30.798334], [130.321566, 30.791426], [130.319553, 30.785128], [130.313579, 30.78093], [130.305488, 30.782146], [130.297249, 30.78124], [130.288306, 30.778843], [130.281266, 30.778264], [130.266407, 30.779576], [130.261608, 30.783087], [130.265345, 30.785566], [130.265109, 30.791596], [130.268909, 30.793284], [130.276097, 30.791706], [130.282098, 30.797335], [130.302633, 30.808387]], [[130.426004, 30.819559], [130.437994, 30.811029], [130.446007, 30.809864], [130.444206, 30.803179], [130.441785, 30.800219], [130.433738, 30.804313], [130.425645, 30.804982], [130.411672, 30.810256], [130.406377, 30.80769], [130.398793, 30.807352], [130.399893, 30.809872], [130.407341, 30.811172], [130.407641, 30.816644], [130.409931, 30.818493], [130.421167, 30.815023], [130.426004, 30.819559]], [[129.951851, 30.842211], [129.956094, 30.836464], [129.963728, 30.835489], [129.964557, 30.830066], [129.953046, 30.81836], [129.94065, 30.814219], [129.937347, 30.812159], [129.929627, 30.812006], [129.917237, 30.817428], [129.911145, 30.823785], [129.911958, 30.827697], [129.905158, 30.83334], [129.905236, 30.839058], [129.915541, 30.839275], [129.924927, 30.849238], [129.931877, 30.848916], [129.938875, 30.851444], [129.942602, 30.844892], [129.951851, 30.842211]], [[130.316063, 31.257273], [130.310161, 31.265222], [130.306939, 31.266701], [130.298471, 31.26356], [130.292687, 31.266175], [130.284163, 31.26742], [130.281605, 31.261175], [130.282374, 31.254313], [130.278303, 31.249522], [130.275204, 31.249044], [130.262178, 31.256151], [130.253288, 31.256731], [130.248924, 31.253377], [130.243991, 31.253127], [130.239355, 31.259376], [130.231683, 31.256061], [130.226157, 31.250298], [130.223184, 31.253974], [130.216916, 31.249729], [130.212964, 31.254624], [130.214106, 31.261162], [130.220348, 31.263181], [130.219156, 31.267083], [130.228236, 31.271052], [130.220474, 31.273455], [130.229089, 31.2789], [130.226253, 31.283115], [130.216707, 31.283027], [130.213843, 31.290028], [130.206657, 31.282449], [130.201981, 31.286127], [130.198873, 31.291543], [130.203018, 31.296056], [130.213047, 31.299093], [130.217748, 31.30245], [130.2218, 31.300757], [130.226321, 31.305661], [130.224915, 31.309527], [130.219539, 31.312768], [130.214758, 31.320923], [130.207266, 31.321943], [130.203878, 31.317703], [130.189619, 31.316591], [130.18851, 31.321715], [130.179822, 31.324306], [130.173659, 31.32458], [130.177931, 31.329571], [130.191247, 31.332121], [130.195865, 31.329527], [130.200222, 31.334269], [130.206403, 31.336919], [130.205767, 31.341737], [130.209234, 31.343039], [130.209227, 31.348171], [130.204149, 31.352332], [130.200352, 31.353253], [130.195044, 31.35787], [130.190064, 31.355168], [130.190511, 31.366656], [130.184754, 31.365447], [130.174705, 31.366382], [130.171842, 31.373508], [130.164958, 31.374275], [130.160037, 31.381437], [130.149765, 31.389549], [130.144612, 31.398002], [130.143489, 31.40228], [130.137958, 31.407688], [130.124058, 31.416086], [130.117266, 31.416292], [130.106604, 31.412956], [130.109656, 31.42161], [130.115834, 31.423988], [130.122337, 31.423409], [130.130076, 31.420117], [130.134615, 31.416711], [130.142112, 31.420811], [130.145491, 31.427385], [130.150505, 31.430879], [130.154, 31.430931], [130.158054, 31.439321], [130.159966, 31.440026], [130.167031, 31.434928], [130.169119, 31.430513], [130.170855, 31.420525], [130.177679, 31.421864], [130.183525, 31.418125], [130.186681, 31.41032], [130.191702, 31.414573], [130.192614, 31.40911], [130.20186, 31.408016], [130.204475, 31.405874], [130.225233, 31.402387], [130.227794, 31.400127], [130.230999, 31.407632], [130.233912, 31.409793], [130.252785, 31.418418], [130.255916, 31.418049], [130.271443, 31.426763], [130.276889, 31.43465], [130.285029, 31.443754], [130.289233, 31.446208], [130.291863, 31.453115], [130.307251, 31.478357], [130.312988, 31.490817], [130.319608, 31.504856], [130.326473, 31.525687], [130.330321, 31.541658], [130.333696, 31.562789], [130.334855, 31.57958], [130.33432, 31.599474], [130.3321, 31.615299], [130.32807, 31.633126], [130.324111, 31.643906], [130.315606, 31.658594], [130.308287, 31.662077], [130.29955, 31.661674], [130.297603, 31.665333], [130.299183, 31.669896], [130.294952, 31.678603], [130.288347, 31.689157], [130.275591, 31.705075], [130.2689, 31.707666], [130.262205, 31.706866], [130.26351, 31.714955], [130.260112, 31.721743], [130.252346, 31.722176], [130.248238, 31.731624], [130.239474, 31.733484], [130.230438, 31.739985], [130.226144, 31.746327], [130.213803, 31.7551], [130.20846, 31.756094], [130.198769, 31.754446], [130.19548, 31.748502], [130.191697, 31.74652], [130.186058, 31.749192], [130.188886, 31.757045], [130.186178, 31.761221], [130.185456, 31.77047], [130.180509, 31.774661], [130.180505, 31.778976], [130.172002, 31.784789], [130.167106, 31.791744], [130.166679, 31.794912], [130.173186, 31.80097], [130.174385, 31.808015], [130.173161, 31.81482], [130.176959, 31.818608], [130.1801, 31.818216], [130.184342, 31.826027], [130.187543, 31.836217], [130.195197, 31.843848], [130.198802, 31.853567], [130.196001, 31.857418], [130.198585, 31.863861], [130.203035, 31.868814], [130.206627, 31.869169], [130.210518, 31.872903], [130.217386, 31.887656], [130.216176, 31.893148], [130.221252, 31.895626], [130.22424, 31.91072], [130.21934, 31.917034], [130.220032, 31.928555], [130.219715, 31.93276], [130.215831, 31.940561], [130.216538, 31.948849], [130.212793, 31.962791], [130.208682, 31.972453], [130.203916, 31.976859], [130.200183, 31.977773], [130.201633, 31.984427], [130.195633, 31.989294], [130.188671, 31.989509], [130.186499, 31.993628], [130.178936, 32.001014], [130.18081, 32.007838], [130.179382, 32.01556], [130.186308, 32.015208], [130.191728, 32.017867], [130.19401, 32.02432], [130.190992, 32.029624], [130.198516, 32.036591], [130.203198, 32.038284], [130.20542, 32.046991], [130.203742, 32.053355], [130.207558, 32.058259], [130.204502, 32.069395], [130.199199, 32.077026], [130.195336, 32.074523], [130.191709, 32.077774], [130.192093, 32.082977], [130.185539, 32.08146], [130.18256, 32.078871], [130.183787, 32.070866], [130.171548, 32.078177], [130.171269, 32.088049], [130.175024, 32.090946], [130.175918, 32.105903], [130.181215, 32.11056], [130.189781, 32.110842], [130.191486, 32.115854], [130.21133, 32.125153], [130.216326, 32.124555], [130.226774, 32.128796], [130.233309, 32.128189], [130.250843, 32.128192], [130.25776, 32.125901], [130.263626, 32.119118], [130.266272, 32.123722], [130.261971, 32.127524], [130.268087, 32.128715], [130.273374, 32.126197], [130.271542, 32.116717], [130.283524, 32.110017], [130.28674, 32.109283], [130.309387, 32.108173], [130.315709, 32.116919], [130.336991, 32.12492], [130.340921, 32.128971], [130.345855, 32.13023], [130.352407, 32.135886], [130.354357, 32.144984], [130.362936, 32.151541], [130.363008, 32.154172], [130.358475, 32.162168], [130.359598, 32.167787], [130.365914, 32.162512], [130.372011, 32.159471], [130.38, 32.150572], [130.386659, 32.14739], [130.38751, 32.142993], [130.392026, 32.134156], [130.40333, 32.124365], [130.402671, 32.120203], [130.411416, 32.118359], [130.424877, 32.116983], [130.430416, 32.11491], [130.44116, 32.113982], [130.449456, 32.116646], [130.454621, 32.113901], [130.457212, 32.116728], [130.46331, 32.118815], [130.467046, 32.115661], [130.473502, 32.118613], [130.475793, 32.122377], [130.47555, 32.128773], [130.476902, 32.138988], [130.482336, 32.139601], [130.486989, 32.135283], [130.492365, 32.133697], [130.499081, 32.135472], [130.504917, 32.139505], [130.509212, 32.140521], [130.517242, 32.13588], [130.527251, 32.137136], [130.540235, 32.137414], [130.542702, 32.144322], [130.54227, 32.149563], [130.546102, 32.149346], [130.557503, 32.154149], [130.562778, 32.155174], [130.569532, 32.154114], [130.582678, 32.154914], [130.588991, 32.167828], [130.596735, 32.175921], [130.595173, 32.183496], [130.591721, 32.185958], [130.610467, 32.186663], [130.615318, 32.176186], [130.617558, 32.163024], [130.622696, 32.156058], [130.636825, 32.154928], [130.641248, 32.151916], [130.651644, 32.151265], [130.655403, 32.140761], [130.655009, 32.135681], [130.662638, 32.132783], [130.667164, 32.128024], [130.670439, 32.128931], [130.683888, 32.118645], [130.690107, 32.115027], [130.699073, 32.106999], [130.714058, 32.103971], [130.720602, 32.100799], [130.717935, 32.094746], [130.715985, 32.085693], [130.712311, 32.081684], [130.705731, 32.079914], [130.70356, 32.077183], [130.703377, 32.058545], [130.703911, 32.057711], [130.735555, 32.048201], [130.743053, 32.041771], [130.746276, 32.041862], [130.747468, 32.036268], [130.752538, 32.033316], [130.758467, 32.033304], [130.761452, 32.02524], [130.768743, 32.020174], [130.776873, 32.016477], [130.778264, 32.013642], [130.778687, 31.997962], [130.78117, 31.992211], [130.781961, 31.983091], [130.784195, 31.979071], [130.794506, 31.973298], [130.795898, 31.966441], [130.801053, 31.960844], [130.799539, 31.950198], [130.805291, 31.949827], [130.816448, 31.941245], [130.837172, 31.941717], [130.840512, 31.942726], [130.846834, 31.940237], [130.857487, 31.938066], [130.858483, 31.935321], [130.865626, 31.933946], [130.878204, 31.92218], [130.882285, 31.921218], [130.882879, 31.915037], [130.890643, 31.903569], [130.897743, 31.888531], [130.902448, 31.884445], [130.89457, 31.877966], [130.89349, 31.872091], [130.887752, 31.860862], [130.889219, 31.851734], [130.884408, 31.845508], [130.87622, 31.844188], [130.881744, 31.833514], [130.878259, 31.82885], [130.87664, 31.821342], [130.876902, 31.815728], [130.880198, 31.814898], [130.884542, 31.805427], [130.890511, 31.806477], [130.900951, 31.801049], [130.909387, 31.800719], [130.915066, 31.804893], [130.917933, 31.803481], [130.925758, 31.794266], [130.925283, 31.791232], [130.929544, 31.786358], [130.966688, 31.781564], [130.971405, 31.78459], [130.976753, 31.782392], [130.980253, 31.778539], [130.986985, 31.780148], [130.990625, 31.776769], [130.991689, 31.771179], [130.988437, 31.765459], [130.982776, 31.767391], [130.982436, 31.763215], [130.978098, 31.758857], [130.978517, 31.751568], [130.990715, 31.751157], [130.997883, 31.745917], [131.006746, 31.749226], [131.008994, 31.747315], [131.015202, 31.748804], [131.01784, 31.745226], [131.015967, 31.741604], [131.017641, 31.724432], [131.016086, 31.717181], [131.013057, 31.713127], [131.018479, 31.705215], [131.028606, 31.697477], [131.023669, 31.691771], [131.02376, 31.685242], [131.026573, 31.682411], [131.024236, 31.674095], [131.030874, 31.662896], [131.03684, 31.661815], [131.046067, 31.652457], [131.048239, 31.645692], [131.047535, 31.642068], [131.052166, 31.640224], [131.054259, 31.633493], [131.06518, 31.647401], [131.069001, 31.649872], [131.072549, 31.658122], [131.079269, 31.660214], [131.083249, 31.656127], [131.089387, 31.653645], [131.095607, 31.646359], [131.101046, 31.644711], [131.108053, 31.637629], [131.113444, 31.635075], [131.114989, 31.630712], [131.122297, 31.630493], [131.12781, 31.62648], [131.138849, 31.627685], [131.142249, 31.630287], [131.148067, 31.630659], [131.155706, 31.634131], [131.15889, 31.637135], [131.168537, 31.63731], [131.169916, 31.633497], [131.178665, 31.629911], [131.180186, 31.626287], [131.188351, 31.624633], [131.189188, 31.618527], [131.185246, 31.610138], [131.187209, 31.603577], [131.197435, 31.595257], [131.205447, 31.579949], [131.201779, 31.567207], [131.189337, 31.557188], [131.19542, 31.552305], [131.195874, 31.546655], [131.198891, 31.54136], [131.197297, 31.538873], [131.201493, 31.531122], [131.200043, 31.523037], [131.200757, 31.517739], [131.196849, 31.511582], [131.184384, 31.507003], [131.179036, 31.506233], [131.172084, 31.502045], [131.168988, 31.496684], [131.171043, 31.494066], [131.165696, 31.488954], [131.163187, 31.484082], [131.16434, 31.473619], [131.16226, 31.467002], [131.159114, 31.46295], [131.147716, 31.468128], [131.144076, 31.468218], [131.138132, 31.460862], [131.136853, 31.467217], [131.130257, 31.470531], [131.125144, 31.471136], [131.121556, 31.474498], [131.107707, 31.474008], [131.105422, 31.468289], [131.09914, 31.460195], [131.094866, 31.457005], [131.087636, 31.461561], [131.083869, 31.456231], [131.08963, 31.451031], [131.084986, 31.447998], [131.07816, 31.458217], [131.067458, 31.451698], [131.060421, 31.446157], [131.047704, 31.434012], [131.040963, 31.4265], [131.032482, 31.415068], [131.020433, 31.394987], [131.016023, 31.379933], [131.017357, 31.373672], [131.015528, 31.370537], [131.016427, 31.358915], [131.023291, 31.354359], [131.033114, 31.351702], [131.036939, 31.351778], [131.047889, 31.348646], [131.052108, 31.345315], [131.062194, 31.341392], [131.070541, 31.34008], [131.075804, 31.340674], [131.082677, 31.336472], [131.094277, 31.334428], [131.099113, 31.332202], [131.10561, 31.333491], [131.108746, 31.33053], [131.104414, 31.328043], [131.105236, 31.322849], [131.102662, 31.319145], [131.107344, 31.315704], [131.096881, 31.307087], [131.090913, 31.305235], [131.086437, 31.297228], [131.07349, 31.291487], [131.073908, 31.284667], [131.076169, 31.279812], [131.083573, 31.274733], [131.089855, 31.276364], [131.091525, 31.27894], [131.10333, 31.277404], [131.107196, 31.275645], [131.120415, 31.282119], [131.121545, 31.286651], [131.130175, 31.284756], [131.131665, 31.280051], [131.129694, 31.276895], [131.122037, 31.271025], [131.110998, 31.265746], [131.108089, 31.259459], [131.099582, 31.257424], [131.09597, 31.253891], [131.086349, 31.249707], [131.080034, 31.244694], [131.077064, 31.238442], [131.066452, 31.227921], [131.052357, 31.226146], [131.049982, 31.224691], [131.042072, 31.228337], [131.035843, 31.22604], [131.028254, 31.227913], [131.017074, 31.228298], [131.009232, 31.220303], [131.006483, 31.214793], [131.009904, 31.210787], [131.009893, 31.204974], [131.004338, 31.198436], [131.002359, 31.19357], [131.003283, 31.189799], [130.996567, 31.185529], [130.992387, 31.184844], [130.985058, 31.1786], [130.987466, 31.173131], [130.993359, 31.168711], [130.977734, 31.16887], [130.972584, 31.166506], [130.971673, 31.160148], [130.978668, 31.157161], [130.979199, 31.151907], [130.974582, 31.14661], [130.962712, 31.138371], [130.950554, 31.133026], [130.94751, 31.132759], [130.939761, 31.127448], [130.928725, 31.123424], [130.921661, 31.125184], [130.918485, 31.11668], [130.915906, 31.113453], [130.910746, 31.11247], [130.901133, 31.113153], [130.898768, 31.109698], [130.894371, 31.108682], [130.877289, 31.098825], [130.873846, 31.095009], [130.865903, 31.095255], [130.855634, 31.09167], [130.844788, 31.089743], [130.830462, 31.09378], [130.828428, 31.089957], [130.821792, 31.087363], [130.819449, 31.089242], [130.812887, 31.089199], [130.808247, 31.087262], [130.806768, 31.080906], [130.802153, 31.084028], [130.797988, 31.083762], [130.792494, 31.078877], [130.792295, 31.074204], [130.783375, 31.07147], [130.777931, 31.066063], [130.773061, 31.067061], [130.767309, 31.065922], [130.758538, 31.057082], [130.752531, 31.061355], [130.745443, 31.059797], [130.742571, 31.054971], [130.737413, 31.051252], [130.726604, 31.045789], [130.717263, 31.045405], [130.715818, 31.042301], [130.718765, 31.033486], [130.714597, 31.029079], [130.707235, 31.031344], [130.703905, 31.027761], [130.699711, 31.028298], [130.697206, 31.023218], [130.692173, 31.022501], [130.689049, 31.025428], [130.683847, 31.025113], [130.688529, 31.014596], [130.684306, 31.009006], [130.682862, 31.003871], [130.67324, 31.009424], [130.668384, 31.008465], [130.666585, 30.997219], [130.661934, 30.997753], [130.656325, 31.00321], [130.656694, 31.006937], [130.664927, 31.011751], [130.663426, 31.015226], [130.667723, 31.019351], [130.668372, 31.022733], [130.675511, 31.030874], [130.676877, 31.034051], [130.676876, 31.042749], [130.674729, 31.044516], [130.677143, 31.052395], [130.673523, 31.056515], [130.678127, 31.061577], [130.669337, 31.068456], [130.658037, 31.071354], [130.658498, 31.075954], [130.667883, 31.085242], [130.672363, 31.087129], [130.682786, 31.088924], [130.685664, 31.090796], [130.685312, 31.095086], [130.701943, 31.102077], [130.714083, 31.114883], [130.722648, 31.114758], [130.730995, 31.116811], [130.734984, 31.120407], [130.741343, 31.130253], [130.744124, 31.131449], [130.753726, 31.15104], [130.758705, 31.167554], [130.766762, 31.180615], [130.765555, 31.187311], [130.762195, 31.193246], [130.757278, 31.196534], [130.753207, 31.203214], [130.754669, 31.206629], [130.753674, 31.211952], [130.761087, 31.216914], [130.76768, 31.225311], [130.768831, 31.230395], [130.772883, 31.238681], [130.788117, 31.248692], [130.790263, 31.253898], [130.787937, 31.256623], [130.789275, 31.266586], [130.793068, 31.278024], [130.79233, 31.283013], [130.794935, 31.285104], [130.795776, 31.291667], [130.793031, 31.295713], [130.790363, 31.305445], [130.795262, 31.311042], [130.794624, 31.315385], [130.800005, 31.322153], [130.803509, 31.332549], [130.802926, 31.336916], [130.793719, 31.349208], [130.78987, 31.36065], [130.784918, 31.362918], [130.779125, 31.37321], [130.781092, 31.374858], [130.776595, 31.384932], [130.770597, 31.388784], [130.771086, 31.393013], [130.765679, 31.407648], [130.76026, 31.414047], [130.756185, 31.425122], [130.751964, 31.428095], [130.745422, 31.436494], [130.736887, 31.443737], [130.731746, 31.450779], [130.72047, 31.455484], [130.702566, 31.459629], [130.697614, 31.4649], [130.695775, 31.4776], [130.691549, 31.478431], [130.691279, 31.489204], [130.696321, 31.494127], [130.698014, 31.500774], [130.695281, 31.510327], [130.697261, 31.515385], [130.698969, 31.525586], [130.706591, 31.532051], [130.707012, 31.541203], [130.704195, 31.548181], [130.698313, 31.555699], [130.69439, 31.552549], [130.68845, 31.551567], [130.681861, 31.544555], [130.676806, 31.544935], [130.674637, 31.550999], [130.665378, 31.55343], [130.655041, 31.551306], [130.63914, 31.545138], [130.635852, 31.546441], [130.632962, 31.552291], [130.627672, 31.557126], [130.624109, 31.552239], [130.620374, 31.555322], [130.62049, 31.561288], [130.61245, 31.56232], [130.612715, 31.567128], [130.607106, 31.574541], [130.602256, 31.573398], [130.596673, 31.579134], [130.592047, 31.580977], [130.591086, 31.588908], [130.593118, 31.591595], [130.599758, 31.592753], [130.598576, 31.596892], [130.606281, 31.597394], [130.611196, 31.608474], [130.618649, 31.613584], [130.626114, 31.620392], [130.632717, 31.621837], [130.642503, 31.620701], [130.650524, 31.622827], [130.653343, 31.62505], [130.669183, 31.627412], [130.675174, 31.6251], [130.679755, 31.628907], [130.684313, 31.621606], [130.692138, 31.624582], [130.699566, 31.62106], [130.700203, 31.616607], [130.713523, 31.60052], [130.711412, 31.595943], [130.717708, 31.592311], [130.717983, 31.587553], [130.710183, 31.580164], [130.716071, 31.574747], [130.714631, 31.570204], [130.710962, 31.566959], [130.7211, 31.563744], [130.715926, 31.559743], [130.706877, 31.557279], [130.719132, 31.558262], [130.7327, 31.557712], [130.735893, 31.559011], [130.750405, 31.558118], [130.766955, 31.563559], [130.768415, 31.567683], [130.777293, 31.572738], [130.782797, 31.582313], [130.787313, 31.58595], [130.788153, 31.5945], [130.786654, 31.603571], [130.79145, 31.606731], [130.795967, 31.612693], [130.795769, 31.618303], [130.801057, 31.631934], [130.809764, 31.641296], [130.818413, 31.645058], [130.82168, 31.650183], [130.823159, 31.659721], [130.819936, 31.665016], [130.817484, 31.674418], [130.813426, 31.677668], [130.811287, 31.683609], [130.802843, 31.688652], [130.796239, 31.689271], [130.800095, 31.695255], [130.797548, 31.699683], [130.792436, 31.703016], [130.781744, 31.70238], [130.766243, 31.707148], [130.753655, 31.706497], [130.749506, 31.708791], [130.738927, 31.710224], [130.737662, 31.706821], [130.730426, 31.709918], [130.728175, 31.717927], [130.71984, 31.720514], [130.716485, 31.725294], [130.717247, 31.727884], [130.705918, 31.725299], [130.697076, 31.72905], [130.693749, 31.732488], [130.686013, 31.734977], [130.672215, 31.728032], [130.665717, 31.730058], [130.660263, 31.728566], [130.646481, 31.720517], [130.639755, 31.713821], [130.63354, 31.711114], [130.627634, 31.713661], [130.619671, 31.705576], [130.614174, 31.696572], [130.615266, 31.692121], [130.611161, 31.68716], [130.609319, 31.679889], [130.611272, 31.672886], [130.613179, 31.665473], [130.618116, 31.656106], [130.61135, 31.655359], [130.603325, 31.645135], [130.60231, 31.631978], [130.593387, 31.625245], [130.586175, 31.622148], [130.575967, 31.615356], [130.572535, 31.603357], [130.562808, 31.597169], [130.563563, 31.591061], [130.566523, 31.584718], [130.564828, 31.581659], [130.5695, 31.579262], [130.56882, 31.570251], [130.562104, 31.55653], [130.558841, 31.546473], [130.553696, 31.546427], [130.547548, 31.549327], [130.544758, 31.544972], [130.548891, 31.543767], [130.545942, 31.537493], [130.540622, 31.535144], [130.53582, 31.529215], [130.539079, 31.528207], [130.538532, 31.52217], [130.533129, 31.507189], [130.521406, 31.509274], [130.520193, 31.504401], [130.533963, 31.50121], [130.531438, 31.484256], [130.525703, 31.484878], [130.524265, 31.490533], [130.520745, 31.492367], [130.513651, 31.490781], [130.514803, 31.482568], [130.513308, 31.477817], [130.517433, 31.477231], [130.519238, 31.471496], [130.532814, 31.470005], [130.532205, 31.462337], [130.51549, 31.464161], [130.513585, 31.458571], [130.51868, 31.448873], [130.518386, 31.437975], [130.521163, 31.434566], [130.522475, 31.427582], [130.524814, 31.424817], [130.523867, 31.418438], [130.527581, 31.407314], [130.530488, 31.405849], [130.533121, 31.398066], [130.536933, 31.396978], [130.539028, 31.390798], [130.550079, 31.396462], [130.558227, 31.386086], [130.548081, 31.379685], [130.546109, 31.374562], [130.547317, 31.369718], [130.554345, 31.351574], [130.557155, 31.347193], [130.558915, 31.339433], [130.564673, 31.322495], [130.575377, 31.30961], [130.58417, 31.304364], [130.590148, 31.30158], [130.594318, 31.295256], [130.599264, 31.292504], [130.607098, 31.293421], [130.614854, 31.285143], [130.621178, 31.276626], [130.627909, 31.273486], [130.635378, 31.27176], [130.658862, 31.271041], [130.659801, 31.266727], [130.66655, 31.266844], [130.657073, 31.256397], [130.653003, 31.24705], [130.650003, 31.244663], [130.650259, 31.233566], [130.657814, 31.220395], [130.654654, 31.217163], [130.645818, 31.21608], [130.640959, 31.21692], [130.629599, 31.210691], [130.628443, 31.206749], [130.629865, 31.201761], [130.637261, 31.20779], [130.643933, 31.206273], [130.645809, 31.202504], [130.644104, 31.197097], [130.640203, 31.194551], [130.640399, 31.190399], [130.634769, 31.185044], [130.630362, 31.184782], [130.626095, 31.180956], [130.613553, 31.183129], [130.601366, 31.182301], [130.59593, 31.179748], [130.589366, 31.173736], [130.587858, 31.16872], [130.592734, 31.162869], [130.585776, 31.160659], [130.573077, 31.170548], [130.563773, 31.17609], [130.55376, 31.178335], [130.54987, 31.174335], [130.540114, 31.167103], [130.530202, 31.163433], [130.518115, 31.165857], [130.508614, 31.175105], [130.509676, 31.182768], [130.508249, 31.193622], [130.515613, 31.198415], [130.512144, 31.207441], [130.508573, 31.213391], [130.502762, 31.221158], [130.486258, 31.237129], [130.474464, 31.245253], [130.459538, 31.251274], [130.454419, 31.250279], [130.444202, 31.252616], [130.43805, 31.251135], [130.43108, 31.246582], [130.425716, 31.249458], [130.422527, 31.246826], [130.417959, 31.250326], [130.413377, 31.248522], [130.402986, 31.253551], [130.39895, 31.250864], [130.394644, 31.253135], [130.387557, 31.250868], [130.382288, 31.252578], [130.368582, 31.251883], [130.357377, 31.250646], [130.3507, 31.25093], [130.341061, 31.255743], [130.323029, 31.255188], [130.316063, 31.257273]], [[130.162574, 31.359657], [130.166916, 31.354784], [130.160827, 31.352816], [130.162574, 31.359657]], [[129.733295, 31.448573], [129.732637, 31.449297], [129.733908, 31.449348], [129.733295, 31.448573]], [[129.701823, 31.706408], [129.700879, 31.712854], [129.697111, 31.716013], [129.705461, 31.718572], [129.705715, 31.72254], [129.716975, 31.727524], [129.724386, 31.727465], [129.739596, 31.732295], [129.742073, 31.735774], [129.74918, 31.737801], [129.750017, 31.735036], [129.757321, 31.738491], [129.763362, 31.73758], [129.765984, 31.743519], [129.773899, 31.74029], [129.775798, 31.745848], [129.778919, 31.74713], [129.779805, 31.754303], [129.789127, 31.768772], [129.788493, 31.771169], [129.781867, 31.773841], [129.786057, 31.78593], [129.788221, 31.786397], [129.796678, 31.78237], [129.793171, 31.776817], [129.797105, 31.772626], [129.796474, 31.767615], [129.801848, 31.764074], [129.800348, 31.761653], [129.793293, 31.761605], [129.789253, 31.757739], [129.789375, 31.750959], [129.781951, 31.747312], [129.778039, 31.74364], [129.779922, 31.736093], [129.77362, 31.725204], [129.771318, 31.715549], [129.76749, 31.712215], [129.758032, 31.71022], [129.756742, 31.717002], [129.748204, 31.717294], [129.74761, 31.715154], [129.739495, 31.705965], [129.739178, 31.698006], [129.744117, 31.696541], [129.742992, 31.689489], [129.738149, 31.686846], [129.735178, 31.680638], [129.728453, 31.676011], [129.725478, 31.671125], [129.726808, 31.660787], [129.730808, 31.660089], [129.737812, 31.654779], [129.726283, 31.648204], [129.728426, 31.643416], [129.720359, 31.640224], [129.717987, 31.634654], [129.711694, 31.63342], [129.716594, 31.628025], [129.714481, 31.622846], [129.710397, 31.62637], [129.710535, 31.634819], [129.706229, 31.637488], [129.701229, 31.636717], [129.697071, 31.632643], [129.699535, 31.625528], [129.69658, 31.622795], [129.684952, 31.622946], [129.684665, 31.629563], [129.679778, 31.633664], [129.672866, 31.636966], [129.66684, 31.635274], [129.666183, 31.641051], [129.66042, 31.652054], [129.658771, 31.659975], [129.666624, 31.662727], [129.670777, 31.660152], [129.67808, 31.66086], [129.682046, 31.66458], [129.676684, 31.666755], [129.681707, 31.671059], [129.685118, 31.677873], [129.683877, 31.680568], [129.693364, 31.692468], [129.691018, 31.703022], [129.695138, 31.705424], [129.701823, 31.706408]], [[129.827532, 31.815972], [129.839618, 31.819085], [129.842934, 31.814666], [129.836082, 31.805425], [129.843761, 31.800693], [129.841878, 31.796623], [129.835632, 31.79753], [129.828268, 31.790647], [129.826113, 31.785373], [129.830222, 31.781074], [129.829658, 31.775496], [129.822928, 31.775229], [129.82129, 31.779373], [129.816582, 31.780891], [129.816153, 31.789213], [129.813556, 31.797545], [129.818641, 31.801637], [129.82069, 31.807192], [129.820544, 31.81265], [129.827532, 31.815972]], [[129.8439, 31.851702], [129.852746, 31.852029], [129.842455, 31.859895], [129.834007, 31.85366], [129.833468, 31.846213], [129.835197, 31.837496], [129.831692, 31.83858], [129.826785, 31.843756], [129.82143, 31.84295], [129.821572, 31.84831], [129.817138, 31.861656], [129.823235, 31.863505], [129.827832, 31.867993], [129.834886, 31.881611], [129.85265, 31.882956], [129.8628, 31.877296], [129.873618, 31.868037], [129.881537, 31.85732], [129.886314, 31.854636], [129.892346, 31.854635], [129.896554, 31.852295], [129.898445, 31.847275], [129.910725, 31.842945], [129.918492, 31.849476], [129.914333, 31.854042], [129.909281, 31.85594], [129.907962, 31.859805], [129.90984, 31.865337], [129.915432, 31.867211], [129.92588, 31.866655], [129.923821, 31.86156], [129.929633, 31.859062], [129.928002, 31.856171], [129.931124, 31.850444], [129.92237, 31.847643], [129.91954, 31.84345], [129.920662, 31.839393], [129.929241, 31.838627], [129.931293, 31.836543], [129.929634, 31.831164], [129.929987, 31.824367], [129.92505, 31.819522], [129.918996, 31.816913], [129.916359, 31.821183], [129.907672, 31.822081], [129.903536, 31.820117], [129.898614, 31.813317], [129.883374, 31.810717], [129.872056, 31.804787], [129.873993, 31.80938], [129.871189, 31.812823], [129.873519, 31.820318], [129.869663, 31.82234], [129.864917, 31.819409], [129.857151, 31.822295], [129.860609, 31.826074], [129.862486, 31.833207], [129.857361, 31.837283], [129.85187, 31.833071], [129.847717, 31.832681], [129.848807, 31.842662], [129.843229, 31.849159], [129.8439, 31.851702]], [[130.113895, 32.141095], [130.116921, 32.150342], [130.109974, 32.160834], [130.108736, 32.170545], [130.10517, 32.173908], [130.099549, 32.174629], [130.096433, 32.185042], [130.101477, 32.192794], [130.114177, 32.193862], [130.108433, 32.196776], [130.118412, 32.20089], [130.105387, 32.20381], [130.111472, 32.207041], [130.105798, 32.209566], [130.105738, 32.213518], [130.112061, 32.216382], [130.120652, 32.212338], [130.125822, 32.216005], [130.131429, 32.216422], [130.14116, 32.21198], [130.147881, 32.204417], [130.149247, 32.207983], [130.148312, 32.216699], [130.152223, 32.218875], [130.156222, 32.226014], [130.159454, 32.219575], [130.16426, 32.214822], [130.167378, 32.218676], [130.164505, 32.222032], [130.176038, 32.228696], [130.175806, 32.221198], [130.182256, 32.218211], [130.186671, 32.212782], [130.185232, 32.209405], [130.188096, 32.205882], [130.191663, 32.197539], [130.193869, 32.199089], [130.19959, 32.195334], [130.188607, 32.186849], [130.184338, 32.1793], [130.187245, 32.166413], [130.192801, 32.163845], [130.197047, 32.168003], [130.206462, 32.162602], [130.209464, 32.153683], [130.205252, 32.148806], [130.193016, 32.147491], [130.186578, 32.142768], [130.185207, 32.139814], [130.179374, 32.137079], [130.177387, 32.12798], [130.17793, 32.122478], [130.176433, 32.115475], [130.166852, 32.097275], [130.167501, 32.092663], [130.163316, 32.090266], [130.157184, 32.08952], [130.148562, 32.093877], [130.150754, 32.099786], [130.145851, 32.106357], [130.141827, 32.108507], [130.138053, 32.105164], [130.131663, 32.10991], [130.128524, 32.115114], [130.124477, 32.117453], [130.119187, 32.118002], [130.117405, 32.123296], [130.113047, 32.125444], [130.113074, 32.130107], [130.116524, 32.138598], [130.113895, 32.141095]], [[130.203559, 32.226144], [130.207901, 32.225823], [130.211289, 32.219988], [130.210188, 32.210122], [130.202499, 32.215044], [130.198058, 32.209851], [130.193173, 32.217941], [130.192397, 32.222298], [130.196441, 32.226747], [130.192914, 32.241213], [130.19524, 32.244381], [130.201564, 32.239601], [130.201132, 32.230067], [130.203559, 32.226144]], [[130.179013, 32.251258], [130.175527, 32.247537], [130.176608, 32.23841], [130.170981, 32.229869], [130.166354, 32.229914], [130.162158, 32.232812], [130.15891, 32.239323], [130.16463, 32.240508], [130.169183, 32.251072], [130.174244, 32.25696], [130.176868, 32.253987], [130.188193, 32.264417], [130.189699, 32.261305], [130.184252, 32.257398], [130.183918, 32.252708], [130.179013, 32.251258]], [[130.257797, 32.275281], [130.253114, 32.274604], [130.247526, 32.271216], [130.247092, 32.267902], [130.238879, 32.265016], [130.235396, 32.261464], [130.240319, 32.259406], [130.235443, 32.255922], [130.226376, 32.26198], [130.213448, 32.252432], [130.209509, 32.254964], [130.214246, 32.263426], [130.215029, 32.272998], [130.217606, 32.278071], [130.213668, 32.28004], [130.218923, 32.288756], [130.223049, 32.292855], [130.229385, 32.288644], [130.23237, 32.292032], [130.233338, 32.299807], [130.247732, 32.301422], [130.250565, 32.304274], [130.253597, 32.301421], [130.266764, 32.296347], [130.265066, 32.292745], [130.269167, 32.282519], [130.267602, 32.279537], [130.259807, 32.281273], [130.257797, 32.275281]], [[130.967697, 30.421869], [130.968264, 30.41513], [130.974519, 30.405322], [130.978931, 30.402579], [130.965394, 30.392584], [130.962799, 30.383861], [130.965957, 30.374911], [130.95952, 30.37125], [130.95637, 30.373704], [130.941209, 30.376024], [130.9119, 30.367292], [130.893229, 30.357919], [130.887054, 30.352289], [130.884093, 30.343945], [130.870058, 30.346846], [130.867822, 30.353856], [130.862865, 30.357928], [130.857476, 30.371348], [130.859106, 30.379216], [130.863745, 30.385671], [130.866145, 30.39876], [130.866418, 30.408941], [130.865134, 30.418087], [130.860479, 30.427122], [130.859366, 30.432165], [130.853834, 30.441579], [130.851291, 30.44839], [130.853198, 30.451501], [130.85251, 30.457733], [130.848719, 30.464986], [130.851006, 30.468181], [130.869537, 30.463938], [130.874438, 30.468017], [130.878345, 30.478994], [130.881379, 30.481634], [130.883266, 30.487354], [130.895787, 30.493799], [130.905168, 30.505454], [130.911041, 30.514716], [130.915469, 30.519865], [130.934609, 30.551311], [130.94509, 30.571105], [130.952004, 30.587599], [130.953406, 30.593371], [130.949351, 30.606006], [130.950716, 30.612576], [130.949773, 30.623253], [130.950487, 30.632463], [130.949203, 30.635647], [130.94689, 30.63724], [130.946163, 30.643215], [130.941816, 30.648026], [130.94768, 30.665434], [130.940106, 30.668726], [130.941582, 30.672508], [130.946967, 30.678697], [130.955105, 30.684344], [130.95798, 30.690997], [130.960724, 30.691198], [130.965811, 30.69878], [130.974165, 30.709159], [130.974074, 30.713199], [130.97894, 30.725483], [130.982113, 30.726445], [130.990818, 30.723346], [130.99374, 30.727244], [130.989516, 30.736779], [130.990087, 30.740223], [130.998686, 30.744776], [131.003587, 30.751841], [131.002714, 30.75509], [131.008804, 30.766144], [131.007573, 30.776407], [131.002911, 30.782382], [131.004397, 30.785741], [131.010619, 30.788874], [131.013096, 30.794764], [131.022721, 30.803462], [131.031793, 30.814836], [131.032554, 30.824242], [131.040604, 30.82197], [131.046457, 30.829673], [131.055261, 30.83892], [131.062021, 30.834843], [131.061644, 30.825364], [131.064165, 30.823837], [131.063736, 30.815898], [131.071705, 30.812163], [131.072774, 30.809131], [131.070819, 30.800386], [131.071545, 30.79736], [131.079566, 30.794884], [131.082585, 30.788956], [131.083381, 30.782711], [131.08131, 30.777389], [131.073946, 30.772989], [131.071581, 30.767854], [131.072709, 30.756967], [131.071897, 30.740374], [131.073768, 30.733878], [131.072868, 30.728257], [131.073925, 30.721893], [131.072804, 30.717734], [131.074852, 30.713703], [131.075067, 30.706369], [131.077231, 30.704201], [131.077756, 30.695564], [131.073971, 30.692011], [131.067049, 30.692058], [131.065827, 30.686409], [131.061875, 30.683179], [131.063476, 30.675425], [131.056169, 30.67085], [131.05394, 30.666764], [131.051074, 30.656555], [131.04977, 30.646806], [131.055958, 30.645669], [131.058745, 30.640361], [131.05287, 30.629117], [131.053037, 30.619739], [131.051331, 30.61225], [131.055119, 30.604884], [131.047717, 30.594947], [131.040905, 30.593231], [131.032924, 30.587518], [131.032147, 30.58397], [131.03482, 30.579618], [131.03323, 30.568615], [131.027127, 30.561538], [131.027159, 30.556663], [131.018323, 30.553102], [131.012539, 30.549096], [131.005399, 30.551106], [130.99935, 30.54811], [130.99579, 30.540212], [130.995161, 30.530928], [130.989453, 30.528489], [130.985024, 30.52449], [130.979002, 30.515057], [130.979292, 30.509049], [130.97747, 30.506713], [130.978915, 30.501826], [130.973864, 30.492634], [130.963966, 30.482605], [130.96262, 30.478602], [130.969087, 30.470151], [130.96856, 30.464643], [130.960592, 30.462829], [130.958866, 30.459439], [130.963261, 30.452615], [130.974759, 30.445525], [130.972303, 30.441342], [130.978666, 30.438158], [130.97768, 30.432935], [130.972998, 30.429402], [130.967697, 30.421869]], [[130.864542, 30.748771], [130.867975, 30.741039], [130.864409, 30.730791], [130.856704, 30.725374], [130.844628, 30.727277], [130.838332, 30.726979], [130.839643, 30.739582], [130.843063, 30.746481], [130.841241, 30.750197], [130.849748, 30.756916], [130.852869, 30.762988], [130.857563, 30.765822], [130.860649, 30.762351], [130.859666, 30.757055], [130.861209, 30.750983], [130.864542, 30.748771]], [[130.677359, 31.280551], [130.681821, 31.277547], [130.677359, 31.272569], [130.673513, 31.273989], [130.672634, 31.278081], [130.677359, 31.280551]], [[131.032431, 31.377692], [131.034641, 31.374999], [131.035388, 31.367889], [131.035585, 31.364451], [131.02536, 31.363215], [131.020415, 31.36444], [131.022421, 31.376916], [131.032431, 31.377692]], [[130.550244, 31.536408], [130.55, 31.539868], [130.557666, 31.537249], [130.556223, 31.534167], [130.550244, 31.536408]]]}}]}